{"type":"FeatureCollection","features":[{"type":"Feature","properties":{"name":"Aba North","state":"Abia","scode":"AB","centroid":[5.1115,7.3639]},"geometry":{"type":"Polygon","coordinates":[[[7.3932,5.0764],[7.4002,5.0825],[7.3961,5.0909],[7.3984,5.0946],[7.3967,5.1019],[7.4001,5.1035],[7.3947,5.1193],[7.3923,5.1181],[7.3857,5.1227],[7.3869,5.1265],[7.389,5.1277],[7.3858,5.1302],[7.3803,5.1301],[7.3776,5.1285],[7.3727,5.1364],[7.368,5.1403],[7.3668,5.1413],[7.3615,5.1349],[7.3589,5.1386],[7.357,5.1391],[7.3564,5.138],[7.3546,5.1395],[7.3534,5.1359],[7.3498,5.1352],[7.3523,5.1328],[7.3476,5.1298],[7.3458,5.1269],[7.3469,5.1254],[7.3414,5.1221],[7.3364,5.1212],[7.3358,5.1187],[7.3295,5.1189],[7.3289,5.1203],[7.3231,5.1144],[7.3197,5.1136],[7.3234,5.1064],[7.3278,5.1068],[7.3279,5.1004],[7.3225,5.0989],[7.3215,5.0999],[7.3179,5.0949],[7.3171,5.0882],[7.3212,5.0912],[7.3247,5.0907],[7.3281,5.0907],[7.328,5.0934],[7.3338,5.0914],[7.3349,5.0972],[7.3376,5.0977],[7.3402,5.1007],[7.3402,5.1051],[7.3465,5.1069],[7.3509,5.1029],[7.353,5.1052],[7.3553,5.1042],[7.3555,5.1058],[7.3586,5.1066],[7.3575,5.1082],[7.3593,5.1089],[7.3576,5.1111],[7.3587,5.1121],[7.3615,5.1138],[7.3639,5.1118],[7.3656,5.1136],[7.3652,5.1081],[7.3743,5.1073],[7.3739,5.1036],[7.3769,5.1033],[7.3765,5.0996],[7.378,5.0995],[7.3784,5.1031],[7.3799,5.1029],[7.38,5.1045],[7.3832,5.1036],[7.3846,5.1046],[7.389,5.1],[7.3794,5.0931],[7.383,5.0901],[7.3848,5.0821],[7.3812,5.0823],[7.3811,5.0841],[7.3787,5.083],[7.3789,5.0813],[7.3932,5.0764]]]}},{"type":"Feature","properties":{"name":"Aba South","state":"Abia","scode":"AB","centroid":[5.0766,7.3517]},"geometry":{"type":"Polygon","coordinates":[[[7.3247,5.0907],[7.3247,5.0878],[7.3283,5.0872],[7.3282,5.0848],[7.3183,5.082],[7.3177,5.0783],[7.3215,5.0721],[7.3182,5.0653],[7.3219,5.0581],[7.3257,5.0552],[7.3291,5.0565],[7.3351,5.0559],[7.337,5.0474],[7.3333,5.044],[7.3348,5.0408],[7.346,5.0404],[7.3476,5.0431],[7.3595,5.0405],[7.3688,5.0538],[7.3676,5.0554],[7.3678,5.0629],[7.3704,5.0671],[7.3707,5.0703],[7.3742,5.0695],[7.3774,5.0725],[7.3761,5.0734],[7.3774,5.0768],[7.3796,5.0765],[7.3789,5.0813],[7.3787,5.083],[7.3811,5.0841],[7.3812,5.0823],[7.3848,5.0821],[7.383,5.0901],[7.3794,5.0931],[7.389,5.1],[7.3846,5.1046],[7.3832,5.1036],[7.38,5.1045],[7.3799,5.1029],[7.3784,5.1031],[7.378,5.0995],[7.3765,5.0996],[7.3769,5.1033],[7.3739,5.1036],[7.3743,5.1073],[7.3652,5.1081],[7.3656,5.1136],[7.3639,5.1118],[7.3615,5.1138],[7.3587,5.1121],[7.3576,5.1111],[7.3593,5.1089],[7.3575,5.1082],[7.3586,5.1066],[7.3555,5.1058],[7.3553,5.1042],[7.353,5.1052],[7.3509,5.1029],[7.3465,5.1069],[7.3402,5.1051],[7.3402,5.1007],[7.3376,5.0977],[7.3349,5.0972],[7.3338,5.0914],[7.328,5.0934],[7.3281,5.0907],[7.3247,5.0907]]]}},{"type":"Feature","properties":{"name":"Arochukwu","state":"Abia","scode":"AB","centroid":[5.4965,7.8102]},"geometry":{"type":"Polygon","coordinates":[[[7.8804,5.3668],[7.9122,5.3611],[7.9202,5.3611],[7.9339,5.3577],[7.9578,5.3567],[7.9727,5.3545],[7.983,5.3557],[7.9875,5.3626],[7.984,5.3764],[7.9782,5.389],[7.9737,5.3936],[7.9725,5.3993],[7.9598,5.4257],[7.9563,5.4372],[7.9506,5.4475],[7.9391,5.4612],[7.9345,5.4692],[7.9206,5.5094],[7.9135,5.5238],[7.9129,5.5251],[7.9008,5.5134],[7.8882,5.548],[7.8873,5.5584],[7.8793,5.5542],[7.8746,5.5483],[7.872,5.5403],[7.8727,5.5269],[7.8671,5.5095],[7.8475,5.5101],[7.8366,5.5089],[7.8248,5.5063],[7.8118,5.4995],[7.8075,5.5048],[7.8055,5.5169],[7.7936,5.5262],[7.7852,5.5314],[7.7604,5.5351],[7.7566,5.5538],[7.7943,5.5683],[7.8053,5.5741],[7.7991,5.5769],[7.789,5.5748],[7.7742,5.5806],[7.7676,5.6149],[7.7412,5.6061],[7.7335,5.6207],[7.726,5.6301],[7.7142,5.6395],[7.707,5.6424],[7.6923,5.6254],[7.6871,5.6219],[7.6703,5.6168],[7.6489,5.6142],[7.6378,5.5971],[7.6323,5.5842],[7.6373,5.5809],[7.6146,5.5721],[7.6147,5.5651],[7.6225,5.5475],[7.6312,5.5342],[7.6341,5.5256],[7.6415,5.5134],[7.6454,5.5259],[7.6605,5.5291],[7.6737,5.5295],[7.6845,5.5282],[7.7232,5.5211],[7.7341,5.5178],[7.7485,5.5162],[7.7589,5.5082],[7.7601,5.5053],[7.7602,5.4903],[7.7655,5.4829],[7.7782,5.4731],[7.7888,5.4444],[7.7928,5.4398],[7.809,5.4278],[7.8211,5.4233],[7.8383,5.4217],[7.8561,5.4224],[7.8613,5.4213],[7.8653,5.4184],[7.8683,5.4081],[7.8729,5.3989],[7.884,5.3845],[7.8761,5.3689],[7.8804,5.3668]]]}},{"type":"Feature","properties":{"name":"Bende","state":"Abia","scode":"AB","centroid":[5.6714,7.6157]},"geometry":{"type":"Polygon","coordinates":[[[7.7341,5.5178],[7.7232,5.5211],[7.6845,5.5282],[7.6737,5.5295],[7.6605,5.5291],[7.6454,5.5259],[7.6415,5.5134],[7.6341,5.5256],[7.6312,5.5342],[7.6225,5.5475],[7.6147,5.5651],[7.6146,5.5721],[7.6373,5.5809],[7.6323,5.5842],[7.6378,5.5971],[7.6489,5.6142],[7.6703,5.6168],[7.6871,5.6219],[7.6923,5.6254],[7.707,5.6424],[7.6953,5.6456],[7.6879,5.6406],[7.676,5.6358],[7.669,5.6306],[7.6579,5.6271],[7.6473,5.6296],[7.6407,5.6327],[7.6332,5.6436],[7.6385,5.6532],[7.6752,5.7015],[7.6831,5.7145],[7.6859,5.7213],[7.6883,5.7386],[7.7125,5.7406],[7.7175,5.7496],[7.7289,5.7614],[7.7305,5.7729],[7.7386,5.7869],[7.725,5.8164],[7.7072,5.8213],[7.684,5.8223],[7.6176,5.8273],[7.571,5.8411],[7.5667,5.8439],[7.5519,5.8435],[7.5346,5.8347],[7.5277,5.8341],[7.5287,5.8281],[7.5272,5.8203],[7.5322,5.8133],[7.5354,5.8149],[7.5459,5.7917],[7.5484,5.7748],[7.5532,5.7658],[7.5554,5.749],[7.5557,5.7426],[7.5478,5.7257],[7.5466,5.7164],[7.5439,5.7118],[7.5478,5.6962],[7.5459,5.6928],[7.5466,5.6748],[7.5045,5.67],[7.4908,5.6649],[7.4827,5.664],[7.4902,5.6895],[7.4787,5.6857],[7.478,5.6826],[7.4725,5.6753],[7.4709,5.6485],[7.491,5.6465],[7.4997,5.6435],[7.5154,5.633],[7.5166,5.6279],[7.516,5.6159],[7.5347,5.5938],[7.5464,5.5959],[7.5747,5.585],[7.5856,5.5705],[7.5798,5.551],[7.5781,5.5322],[7.5706,5.5219],[7.5713,5.5032],[7.576,5.4952],[7.5783,5.4936],[7.5871,5.4887],[7.6007,5.4853],[7.6062,5.475],[7.6296,5.4678],[7.6424,5.4729],[7.6573,5.459],[7.6581,5.4462],[7.6678,5.4474],[7.6759,5.4412],[7.6914,5.4372],[7.7,5.4315],[7.6999,5.4448],[7.7027,5.4535],[7.7047,5.4829],[7.7,5.4933],[7.6913,5.5019],[7.6901,5.5059],[7.6918,5.5117],[7.6959,5.5183],[7.7049,5.5176],[7.7106,5.5194],[7.7107,5.5124],[7.7136,5.5119],[7.7341,5.5178]]]}},{"type":"Feature","properties":{"name":"Ikwuano","state":"Abia","scode":"AB","centroid":[5.4015,7.5796]},"geometry":{"type":"Polygon","coordinates":[[[7.6581,5.4462],[7.6573,5.459],[7.6424,5.4729],[7.6296,5.4678],[7.6062,5.475],[7.6007,5.4853],[7.5871,5.4887],[7.5783,5.4936],[7.576,5.4952],[7.5713,5.5032],[7.5607,5.5003],[7.5442,5.4994],[7.5381,5.4961],[7.5345,5.4836],[7.5295,5.48],[7.5295,5.4755],[7.5249,5.4647],[7.5249,5.4588],[7.5227,5.4528],[7.5186,5.4429],[7.5149,5.4398],[7.51,5.4312],[7.5104,5.4237],[7.5052,5.4147],[7.505,5.4107],[7.5106,5.388],[7.5142,5.3815],[7.5121,5.3759],[7.5249,5.3667],[7.5269,5.362],[7.5271,5.3517],[7.5208,5.341],[7.5283,5.3342],[7.53,5.3265],[7.5308,5.3158],[7.5269,5.3035],[7.535,5.2955],[7.5394,5.2949],[7.5345,5.3009],[7.5378,5.3073],[7.5436,5.3097],[7.5493,5.3068],[7.5562,5.3063],[7.5608,5.3092],[7.5664,5.3208],[7.5721,5.3243],[7.579,5.3232],[7.5876,5.3187],[7.5916,5.3187],[7.603,5.3269],[7.6065,5.3263],[7.61,5.3206],[7.618,5.3183],[7.6255,5.3184],[7.6306,5.3213],[7.6489,5.3249],[7.6667,5.3469],[7.6705,5.3519],[7.6609,5.3671],[7.6528,5.3691],[7.6385,5.3652],[7.6248,5.3645],[7.6196,5.3717],[7.622,5.3881],[7.6327,5.4066],[7.6342,5.4189],[7.6364,5.4253],[7.6427,5.434],[7.6581,5.4462]]]}},{"type":"Feature","properties":{"name":"Isiala-Ngwa North","state":"Abia","scode":"AB","centroid":[5.3843,7.418]},"geometry":{"type":"Polygon","coordinates":[[[7.3629,5.4602],[7.3604,5.4529],[7.356,5.4463],[7.3436,5.4395],[7.3363,5.4321],[7.3313,5.4244],[7.3219,5.4049],[7.3226,5.3955],[7.3219,5.3825],[7.3134,5.3634],[7.3057,5.3581],[7.3035,5.3482],[7.3006,5.3424],[7.3057,5.338],[7.3053,5.336],[7.3204,5.3289],[7.328,5.3285],[7.3384,5.3324],[7.3522,5.3338],[7.3623,5.3437],[7.3707,5.3458],[7.3734,5.3448],[7.3696,5.3436],[7.3685,5.3401],[7.3691,5.3354],[7.3741,5.3268],[7.3795,5.3238],[7.3804,5.3301],[7.386,5.3292],[7.3915,5.3313],[7.3954,5.3355],[7.4043,5.3277],[7.4219,5.3257],[7.4405,5.3374],[7.4516,5.3406],[7.4577,5.3376],[7.4693,5.3368],[7.4793,5.3335],[7.4878,5.3398],[7.4909,5.347],[7.4961,5.354],[7.4977,5.354],[7.5119,5.3415],[7.5048,5.332],[7.4997,5.3308],[7.4926,5.3253],[7.4924,5.3186],[7.4992,5.3095],[7.51,5.3043],[7.5269,5.3035],[7.5308,5.3158],[7.53,5.3265],[7.5283,5.3342],[7.5208,5.341],[7.5271,5.3517],[7.5269,5.362],[7.5249,5.3667],[7.5121,5.3759],[7.5142,5.3815],[7.5106,5.388],[7.505,5.4107],[7.5052,5.4147],[7.5104,5.4237],[7.51,5.4312],[7.4901,5.4403],[7.4774,5.4381],[7.4544,5.4466],[7.4505,5.4452],[7.4424,5.4471],[7.4298,5.443],[7.4203,5.4466],[7.4139,5.4464],[7.3858,5.4551],[7.3694,5.4539],[7.3629,5.4602]]]}},{"type":"Feature","properties":{"name":"Isiala-Ngwa South","state":"Abia","scode":"AB","centroid":[5.2834,7.3927]},"geometry":{"type":"Polygon","coordinates":[[[7.271,5.2118],[7.2823,5.2132],[7.3069,5.2292],[7.3047,5.2408],[7.3076,5.2539],[7.3259,5.2496],[7.3308,5.245],[7.333,5.2461],[7.3361,5.2598],[7.3314,5.2631],[7.3288,5.2677],[7.3346,5.2751],[7.3433,5.2775],[7.3536,5.2767],[7.3631,5.2805],[7.3807,5.2817],[7.3868,5.2765],[7.377,5.2642],[7.3767,5.2579],[7.38,5.2565],[7.3883,5.2571],[7.3982,5.2555],[7.3987,5.2534],[7.3869,5.2452],[7.3857,5.2384],[7.3813,5.2364],[7.3818,5.232],[7.3865,5.2288],[7.3866,5.2262],[7.3823,5.2153],[7.3824,5.205],[7.3996,5.206],[7.4049,5.2146],[7.4096,5.216],[7.4212,5.2232],[7.4338,5.2164],[7.4389,5.2268],[7.4487,5.233],[7.4654,5.2318],[7.4692,5.2362],[7.475,5.2373],[7.4835,5.2424],[7.4853,5.244],[7.4817,5.2592],[7.496,5.277],[7.5,5.2777],[7.51,5.3043],[7.4992,5.3095],[7.4924,5.3186],[7.4926,5.3253],[7.4997,5.3308],[7.5048,5.332],[7.5119,5.3415],[7.4977,5.354],[7.4961,5.354],[7.4909,5.347],[7.4878,5.3398],[7.4793,5.3335],[7.4693,5.3368],[7.4577,5.3376],[7.4516,5.3406],[7.4405,5.3374],[7.4219,5.3257],[7.4043,5.3277],[7.3954,5.3355],[7.3915,5.3313],[7.386,5.3292],[7.3804,5.3301],[7.3795,5.3238],[7.3741,5.3268],[7.3691,5.3354],[7.3685,5.3401],[7.3696,5.3436],[7.3734,5.3448],[7.3707,5.3458],[7.3623,5.3437],[7.3522,5.3338],[7.3384,5.3324],[7.328,5.3285],[7.3204,5.3289],[7.3053,5.336],[7.3057,5.338],[7.3006,5.3424],[7.3002,5.3412],[7.2923,5.3276],[7.2911,5.3035],[7.2793,5.2781],[7.2765,5.2557],[7.268,5.2421],[7.2643,5.2156],[7.271,5.2118]]]}},{"type":"Feature","properties":{"name":"Isuikwuato","state":"Abia","scode":"AB","centroid":[5.7868,7.4695]},"geometry":{"type":"Polygon","coordinates":[[[7.5346,5.8347],[7.5266,5.8444],[7.5259,5.8562],[7.5273,5.869],[7.5052,5.8828],[7.5035,5.9002],[7.5061,5.9119],[7.5132,5.9244],[7.4743,5.9095],[7.4616,5.8992],[7.4552,5.8906],[7.4409,5.8866],[7.4281,5.8872],[7.4079,5.8839],[7.3903,5.883],[7.3864,5.8609],[7.3924,5.8338],[7.3924,5.8092],[7.3944,5.7842],[7.3936,5.7724],[7.395,5.7649],[7.3943,5.7558],[7.3963,5.7365],[7.4001,5.7207],[7.4003,5.7127],[7.3997,5.7104],[7.3968,5.7087],[7.3831,5.7076],[7.3816,5.7056],[7.384,5.6988],[7.3929,5.6888],[7.4175,5.6929],[7.4302,5.6982],[7.4495,5.7039],[7.4539,5.7038],[7.4601,5.7035],[7.4724,5.6989],[7.4787,5.6857],[7.4902,5.6895],[7.4827,5.664],[7.4908,5.6649],[7.5045,5.67],[7.5466,5.6748],[7.5459,5.6928],[7.5478,5.6962],[7.5439,5.7118],[7.5466,5.7164],[7.5478,5.7257],[7.5557,5.7426],[7.5554,5.749],[7.5532,5.7658],[7.5484,5.7748],[7.5459,5.7917],[7.5354,5.8149],[7.5322,5.8133],[7.5272,5.8203],[7.5287,5.8281],[7.5277,5.8341],[7.5346,5.8347]]]}},{"type":"Feature","properties":{"name":"Obi Nwga","state":"Abia","scode":"AB","centroid":[5.1546,7.4642]},"geometry":{"type":"Polygon","coordinates":[[[7.5325,5.1725],[7.539,5.1873],[7.5401,5.1936],[7.5424,5.256],[7.552,5.2693],[7.5531,5.2728],[7.5513,5.2809],[7.5394,5.2949],[7.535,5.2955],[7.5269,5.3035],[7.51,5.3043],[7.5,5.2777],[7.496,5.277],[7.4817,5.2592],[7.4853,5.244],[7.4835,5.2424],[7.475,5.2373],[7.4692,5.2362],[7.4654,5.2318],[7.4487,5.233],[7.4389,5.2268],[7.4338,5.2164],[7.4212,5.2232],[7.4096,5.216],[7.4049,5.2146],[7.3996,5.206],[7.3824,5.205],[7.3797,5.2004],[7.3843,5.1818],[7.3779,5.175],[7.3651,5.1697],[7.3645,5.1665],[7.3673,5.1605],[7.3665,5.156],[7.3701,5.1519],[7.3712,5.1429],[7.368,5.1403],[7.3727,5.1364],[7.3776,5.1285],[7.3803,5.1301],[7.3858,5.1302],[7.389,5.1277],[7.3869,5.1265],[7.3857,5.1227],[7.3923,5.1181],[7.3947,5.1193],[7.4001,5.1035],[7.3967,5.1019],[7.3984,5.0946],[7.3961,5.0909],[7.4002,5.0825],[7.3932,5.0764],[7.3894,5.0674],[7.3824,5.0651],[7.3846,5.0527],[7.3838,5.0467],[7.3928,5.0448],[7.4127,5.0464],[7.412,5.045],[7.4191,5.0391],[7.4264,5.0297],[7.4519,5.0277],[7.4668,5.0243],[7.4832,5.0281],[7.4824,5.0351],[7.4837,5.0408],[7.4804,5.0457],[7.4876,5.0471],[7.4871,5.0621],[7.4903,5.0716],[7.504,5.0888],[7.534,5.1009],[7.5386,5.1013],[7.5347,5.1087],[7.5334,5.1157],[7.5338,5.1405],[7.5279,5.156],[7.5325,5.1725]]]}},{"type":"Feature","properties":{"name":"Ohafia","state":"Abia","scode":"AB","centroid":[5.6529,7.7948]},"geometry":{"type":"Polygon","coordinates":[[[7.8901,5.6848],[7.8863,5.6878],[7.8706,5.6936],[7.8699,5.6999],[7.8631,5.7083],[7.8538,5.7179],[7.8408,5.7241],[7.8305,5.7353],[7.8234,5.7402],[7.8039,5.745],[7.7968,5.7616],[7.793,5.7916],[7.7863,5.8049],[7.7804,5.8068],[7.7694,5.8137],[7.725,5.8164],[7.7386,5.7869],[7.7305,5.7729],[7.7289,5.7614],[7.7175,5.7496],[7.7125,5.7406],[7.6883,5.7386],[7.6859,5.7213],[7.6831,5.7145],[7.6752,5.7015],[7.6385,5.6532],[7.6332,5.6436],[7.6407,5.6327],[7.6473,5.6296],[7.6579,5.6271],[7.669,5.6306],[7.676,5.6358],[7.6879,5.6406],[7.6953,5.6456],[7.707,5.6424],[7.7142,5.6395],[7.726,5.6301],[7.7335,5.6207],[7.7412,5.6061],[7.7676,5.6149],[7.7742,5.5806],[7.789,5.5748],[7.7991,5.5769],[7.8053,5.5741],[7.7943,5.5683],[7.7566,5.5538],[7.7604,5.5351],[7.7852,5.5314],[7.7936,5.5262],[7.8055,5.5169],[7.8075,5.5048],[7.8118,5.4995],[7.8248,5.5063],[7.8366,5.5089],[7.8475,5.5101],[7.8671,5.5095],[7.8727,5.5269],[7.872,5.5403],[7.8746,5.5483],[7.8793,5.5542],[7.8873,5.5584],[7.8882,5.548],[7.9008,5.5134],[7.9129,5.5251],[7.9079,5.5358],[7.9067,5.5599],[7.9046,5.5687],[7.9061,5.5706],[7.91,5.5875],[7.9143,5.6358],[7.9177,5.6496],[7.9154,5.6554],[7.8901,5.6848]]]}},{"type":"Feature","properties":{"name":"Osisioma Ngwa","state":"Abia","scode":"AB","centroid":[5.1804,7.3295]},"geometry":{"type":"Polygon","coordinates":[[[7.2561,5.078],[7.272,5.0765],[7.2764,5.0801],[7.283,5.09],[7.2842,5.0899],[7.2958,5.0817],[7.3019,5.0712],[7.3073,5.0651],[7.314,5.0641],[7.3159,5.0626],[7.3182,5.0653],[7.3215,5.0721],[7.3177,5.0783],[7.3183,5.082],[7.3282,5.0848],[7.3283,5.0872],[7.3247,5.0878],[7.3247,5.0907],[7.3212,5.0912],[7.3171,5.0882],[7.3179,5.0949],[7.3215,5.0999],[7.3225,5.0989],[7.3279,5.1004],[7.3278,5.1068],[7.3234,5.1064],[7.3197,5.1136],[7.3231,5.1144],[7.3289,5.1203],[7.3295,5.1189],[7.3358,5.1187],[7.3364,5.1212],[7.3414,5.1221],[7.3469,5.1254],[7.3458,5.1269],[7.3476,5.1298],[7.3523,5.1328],[7.3498,5.1352],[7.3534,5.1359],[7.3546,5.1395],[7.3564,5.138],[7.357,5.1391],[7.3589,5.1386],[7.3615,5.1349],[7.3668,5.1413],[7.368,5.1403],[7.3712,5.1429],[7.3701,5.1519],[7.3665,5.156],[7.3673,5.1605],[7.3645,5.1665],[7.3651,5.1697],[7.3779,5.175],[7.3843,5.1818],[7.3797,5.2004],[7.3824,5.205],[7.3823,5.2153],[7.3866,5.2262],[7.3865,5.2288],[7.3818,5.232],[7.3813,5.2364],[7.3857,5.2384],[7.3869,5.2452],[7.3987,5.2534],[7.3982,5.2555],[7.3883,5.2571],[7.38,5.2565],[7.3767,5.2579],[7.377,5.2642],[7.3868,5.2765],[7.3807,5.2817],[7.3631,5.2805],[7.3536,5.2767],[7.3433,5.2775],[7.3346,5.2751],[7.3288,5.2677],[7.3314,5.2631],[7.3361,5.2598],[7.333,5.2461],[7.3308,5.245],[7.3259,5.2496],[7.3076,5.2539],[7.3047,5.2408],[7.3069,5.2292],[7.2823,5.2132],[7.271,5.2118],[7.275,5.2096],[7.2813,5.2016],[7.2868,5.1918],[7.2908,5.1824],[7.2926,5.1726],[7.2877,5.147],[7.2802,5.1317],[7.2787,5.1168],[7.2714,5.1035],[7.2651,5.0955],[7.2561,5.078]]]}},{"type":"Feature","properties":{"name":"Ugwunagbo","state":"Abia","scode":"AB","centroid":[5.015,7.3494]},"geometry":{"type":"Polygon","coordinates":[[[7.3789,5.0813],[7.3796,5.0765],[7.3774,5.0768],[7.3761,5.0734],[7.3774,5.0725],[7.3742,5.0695],[7.3707,5.0703],[7.3704,5.0671],[7.3678,5.0629],[7.3676,5.0554],[7.3688,5.0538],[7.3595,5.0405],[7.3476,5.0431],[7.346,5.0404],[7.3348,5.0408],[7.3333,5.044],[7.337,5.0474],[7.3351,5.0559],[7.3291,5.0565],[7.3257,5.0552],[7.3219,5.0581],[7.3182,5.0653],[7.3159,5.0626],[7.314,5.0641],[7.3073,5.0651],[7.3033,5.0554],[7.2926,5.0503],[7.2918,5.0432],[7.2904,5.0422],[7.2906,5.0328],[7.2878,5.0308],[7.2856,5.0214],[7.2704,5.0035],[7.2789,5.0007],[7.2828,4.997],[7.2847,4.9891],[7.2898,4.9876],[7.2855,4.9827],[7.295,4.9738],[7.2938,4.9676],[7.2951,4.9604],[7.298,4.9571],[7.3112,4.9689],[7.3199,4.9743],[7.3394,4.9735],[7.344,4.9765],[7.3437,4.9828],[7.352,4.9951],[7.3597,4.9939],[7.3699,4.9791],[7.3791,4.9755],[7.3885,4.9745],[7.3916,4.9724],[7.4004,4.9737],[7.412,4.979],[7.4144,4.9808],[7.4184,5.0016],[7.4159,5.0056],[7.4156,5.0099],[7.4264,5.0297],[7.4191,5.0391],[7.412,5.045],[7.4127,5.0464],[7.3928,5.0448],[7.3838,5.0467],[7.3846,5.0527],[7.3824,5.0651],[7.3894,5.0674],[7.3932,5.0764],[7.3789,5.0813]]]}},{"type":"Feature","properties":{"name":"Ukwa East","state":"Abia","scode":"AB","centroid":[4.945,7.4243]},"geometry":{"type":"Polygon","coordinates":[[[7.5386,5.1013],[7.534,5.1009],[7.504,5.0888],[7.4903,5.0716],[7.4871,5.0621],[7.4876,5.0471],[7.4804,5.0457],[7.4837,5.0408],[7.4824,5.0351],[7.4832,5.0281],[7.4668,5.0243],[7.4519,5.0277],[7.4264,5.0297],[7.4156,5.0099],[7.4159,5.0056],[7.4184,5.0016],[7.4144,4.9808],[7.412,4.979],[7.4004,4.9737],[7.3916,4.9724],[7.3885,4.9745],[7.3791,4.9755],[7.3699,4.9791],[7.3597,4.9939],[7.352,4.9951],[7.3437,4.9828],[7.344,4.9765],[7.3394,4.9735],[7.3199,4.9743],[7.3112,4.9689],[7.298,4.9571],[7.2995,4.95],[7.3077,4.9379],[7.3087,4.9434],[7.3142,4.9442],[7.319,4.9419],[7.3247,4.9362],[7.3304,4.9269],[7.3341,4.9171],[7.3251,4.8956],[7.3174,4.8929],[7.3106,4.8886],[7.3053,4.8755],[7.3198,4.8796],[7.3308,4.8735],[7.3524,4.8719],[7.362,4.8653],[7.3735,4.8629],[7.3842,4.8627],[7.4164,4.8667],[7.4292,4.8624],[7.4365,4.854],[7.4467,4.8454],[7.4662,4.8454],[7.4716,4.8423],[7.4744,4.8367],[7.4868,4.8276],[7.4887,4.8218],[7.4951,4.8283],[7.5007,4.8343],[7.5006,4.8395],[7.4971,4.8458],[7.4993,4.8551],[7.4987,4.8591],[7.4907,4.8651],[7.4807,4.8826],[7.4818,4.893],[7.477,4.908],[7.4808,4.9328],[7.487,4.9381],[7.4916,4.9445],[7.492,4.9543],[7.4914,4.9595],[7.4898,4.9603],[7.4811,4.9611],[7.4736,4.9651],[7.4632,4.9725],[7.4603,4.9777],[7.4711,4.9959],[7.4779,4.9979],[7.4836,4.9963],[7.4919,5.0078],[7.5064,5.0133],[7.512,5.026],[7.5119,5.0301],[7.5097,5.0345],[7.5154,5.0382],[7.5205,5.0366],[7.5279,5.0377],[7.533,5.0423],[7.5341,5.0481],[7.5189,5.0532],[7.5203,5.0549],[7.5294,5.0585],[7.538,5.0661],[7.5402,5.069],[7.5464,5.0864],[7.5463,5.0904],[7.5386,5.1013]]]}},{"type":"Feature","properties":{"name":"Ukwa West","state":"Abia","scode":"AB","centroid":[4.9415,7.2462]},"geometry":{"type":"Polygon","coordinates":[[[7.1837,4.9499],[7.1685,4.9448],[7.1503,4.9243],[7.1438,4.9132],[7.1416,4.9046],[7.1419,4.9013],[7.1461,4.8976],[7.1463,4.8959],[7.1472,4.8903],[7.1559,4.8837],[7.1738,4.8794],[7.1838,4.8752],[7.1989,4.8617],[7.218,4.8573],[7.2246,4.8579],[7.247,4.8673],[7.2574,4.8674],[7.2638,4.8692],[7.2714,4.873],[7.3053,4.8755],[7.3106,4.8886],[7.3174,4.8929],[7.3251,4.8956],[7.3341,4.9171],[7.3304,4.9269],[7.3247,4.9362],[7.319,4.9419],[7.3142,4.9442],[7.3087,4.9434],[7.3077,4.9379],[7.2995,4.95],[7.298,4.9571],[7.2951,4.9604],[7.2938,4.9676],[7.295,4.9738],[7.2855,4.9827],[7.2898,4.9876],[7.2847,4.9891],[7.2828,4.997],[7.2789,5.0007],[7.2704,5.0035],[7.2856,5.0214],[7.2878,5.0308],[7.2906,5.0328],[7.2904,5.0422],[7.2918,5.0432],[7.2926,5.0503],[7.3033,5.0554],[7.3073,5.0651],[7.3019,5.0712],[7.2958,5.0817],[7.2842,5.0899],[7.283,5.09],[7.2764,5.0801],[7.272,5.0765],[7.2561,5.078],[7.2529,5.0643],[7.2514,5.0494],[7.2517,5.0331],[7.2483,5.0173],[7.2412,4.994],[7.2351,4.981],[7.2284,4.971],[7.2179,4.9616],[7.2091,4.9565],[7.1837,4.9499]]]}},{"type":"Feature","properties":{"name":"Umu-Nneochi","state":"Abia","scode":"AB","centroid":[5.9619,7.3972]},"geometry":{"type":"Polygon","coordinates":[[[7.3391,6.0421],[7.3383,6.0362],[7.333,6.0314],[7.3226,6.0038],[7.3183,5.9986],[7.2726,5.9977],[7.264,5.9915],[7.2546,5.9652],[7.2564,5.9505],[7.261,5.9389],[7.2708,5.9248],[7.2845,5.9184],[7.2902,5.9172],[7.3352,5.9114],[7.3457,5.9071],[7.3558,5.9064],[7.3672,5.9035],[7.3767,5.906],[7.3879,5.9128],[7.392,5.9119],[7.3959,5.9076],[7.3964,5.9007],[7.3903,5.883],[7.4079,5.8839],[7.4281,5.8872],[7.4409,5.8866],[7.4552,5.8906],[7.4616,5.8992],[7.4743,5.9095],[7.5132,5.9244],[7.5291,5.952],[7.5305,5.9721],[7.5236,5.9877],[7.5208,6.0003],[7.5302,6.006],[7.5334,6.011],[7.5201,6.02],[7.5128,6.0211],[7.4758,6.0124],[7.4615,6.0148],[7.4515,6.0138],[7.4306,6.0062],[7.4158,6.0062],[7.4044,6.0124],[7.4028,6.0147],[7.3868,6.0367],[7.3763,6.04],[7.3391,6.0421]]]}},{"type":"Feature","properties":{"name":"Umuahia North","state":"Abia","scode":"AB","centroid":[5.5844,7.4904]},"geometry":{"type":"Polygon","coordinates":[[[7.5295,5.48],[7.5345,5.4836],[7.5381,5.4961],[7.5442,5.4994],[7.5607,5.5003],[7.5713,5.5032],[7.5706,5.5219],[7.5781,5.5322],[7.5798,5.551],[7.5856,5.5705],[7.5747,5.585],[7.5464,5.5959],[7.5347,5.5938],[7.516,5.6159],[7.5166,5.6279],[7.5154,5.633],[7.4997,5.6435],[7.491,5.6465],[7.4709,5.6485],[7.4725,5.6753],[7.478,5.6826],[7.4787,5.6857],[7.4724,5.6989],[7.4601,5.7035],[7.4539,5.7038],[7.4495,5.7039],[7.4302,5.6982],[7.4175,5.6929],[7.3929,5.6888],[7.4082,5.677],[7.4102,5.6738],[7.4163,5.6615],[7.4176,5.6485],[7.4198,5.6422],[7.4276,5.6269],[7.4323,5.6094],[7.4291,5.604],[7.4259,5.5856],[7.4228,5.5836],[7.4225,5.581],[7.4152,5.5759],[7.4152,5.571],[7.4287,5.5662],[7.4375,5.5662],[7.4399,5.5617],[7.4491,5.5576],[7.4516,5.5503],[7.4542,5.5498],[7.4561,5.5456],[7.4596,5.5436],[7.4517,5.5372],[7.4524,5.5324],[7.4493,5.5289],[7.4513,5.5224],[7.4551,5.5198],[7.4543,5.5149],[7.4633,5.5035],[7.4772,5.4952],[7.4857,5.4945],[7.4872,5.4919],[7.493,5.492],[7.4965,5.4938],[7.4984,5.503],[7.5032,5.5013],[7.5105,5.5029],[7.5209,5.4862],[7.5295,5.48]]]}},{"type":"Feature","properties":{"name":"Umuahia South","state":"Abia","scode":"AB","centroid":[5.4875,7.4448]},"geometry":{"type":"Polygon","coordinates":[[[7.5295,5.48],[7.5209,5.4862],[7.5105,5.5029],[7.5032,5.5013],[7.4984,5.503],[7.4965,5.4938],[7.493,5.492],[7.4872,5.4919],[7.4857,5.4945],[7.4772,5.4952],[7.4633,5.5035],[7.4543,5.5149],[7.4551,5.5198],[7.4513,5.5224],[7.4493,5.5289],[7.4524,5.5324],[7.4517,5.5372],[7.4596,5.5436],[7.4561,5.5456],[7.4542,5.5498],[7.4516,5.5503],[7.4491,5.5576],[7.4399,5.5617],[7.4375,5.5662],[7.4287,5.5662],[7.4152,5.571],[7.4174,5.5621],[7.4095,5.553],[7.4083,5.5499],[7.4088,5.5427],[7.4067,5.5332],[7.4017,5.5241],[7.3926,5.5124],[7.388,5.5104],[7.3855,5.5034],[7.375,5.4769],[7.3642,5.4658],[7.3629,5.4602],[7.3694,5.4539],[7.3858,5.4551],[7.4139,5.4464],[7.4203,5.4466],[7.4298,5.443],[7.4424,5.4471],[7.4505,5.4452],[7.4544,5.4466],[7.4774,5.4381],[7.4901,5.4403],[7.51,5.4312],[7.5149,5.4398],[7.5186,5.4429],[7.5227,5.4528],[7.5249,5.4588],[7.5249,5.4647],[7.5295,5.4755],[7.5295,5.48]]]}}]}