{"type":"FeatureCollection","features":[{"type":"Feature","properties":{"name":"Demsa","state":"Adamawa","scode":"AD","centroid":[9.3985,12.0092]},"geometry":{"type":"Polygon","coordinates":[[[12.2721,9.5222],[12.2732,9.5331],[12.2709,9.5457],[12.2663,9.5537],[12.2611,9.5554],[12.2495,9.5627],[12.2298,9.5911],[12.2273,9.6559],[12.2143,9.6507],[12.1831,9.6489],[12.1693,9.6521],[12.1601,9.6521],[12.1067,9.6473],[12.1039,9.6309],[12.0932,9.6182],[12.0792,9.6246],[12.0709,9.6261],[12.0655,9.6179],[12.0618,9.6032],[12.0637,9.5978],[12.0564,9.583],[12.0573,9.576],[12.0528,9.5489],[12.0531,9.5412],[12.0448,9.5137],[12.0441,9.49],[12.0385,9.4768],[12.0332,9.4748],[12.0374,9.464],[12.0375,9.4586],[12.0358,9.4567],[12.034,9.4451],[12.0349,9.4416],[12.0334,9.44],[12.034,9.4367],[12.028,9.4275],[12.0163,9.4254],[12.0026,9.4331],[11.9922,9.4295],[11.9887,9.4304],[11.9767,9.424],[11.954,9.4159],[11.9484,9.4079],[11.9399,9.4062],[11.9246,9.4197],[11.913,9.426],[11.9076,9.4336],[11.8986,9.4353],[11.8889,9.4399],[11.8793,9.4358],[11.862,9.4465],[11.833,9.4272],[11.8296,9.4154],[11.8319,9.4054],[11.8278,9.3891],[11.7973,9.3699],[11.7776,9.3552],[11.7729,9.3546],[11.7554,9.3612],[11.7298,9.3336],[11.7157,9.3272],[11.6966,9.3219],[11.6904,9.3243],[11.6785,9.3344],[11.6364,9.3485],[11.6336,9.3473],[11.63,9.345],[11.6238,9.3354],[11.6391,9.3187],[11.64,9.316],[11.6364,9.3163],[11.6354,9.3111],[11.6397,9.3084],[11.6396,9.3067],[11.6477,9.3054],[11.6488,9.298],[11.6633,9.2731],[11.6702,9.2536],[11.6874,9.2295],[11.7204,9.2206],[11.7311,9.2138],[11.7482,9.2143],[11.783,9.1977],[11.792,9.2044],[11.8086,9.2054],[11.8264,9.2086],[11.8419,9.1714],[11.8478,9.167],[11.8602,9.1778],[11.8743,9.1769],[11.8824,9.1793],[11.8875,9.1793],[11.8869,9.1827],[11.9008,9.1887],[11.9025,9.1928],[11.9192,9.2104],[11.9238,9.2256],[11.9489,9.2366],[11.9511,9.2518],[11.9695,9.2588],[12.0184,9.2727],[12.0279,9.2784],[12.0199,9.2923],[12.0285,9.2983],[12.038,9.3025],[12.0456,9.3011],[12.0542,9.3033],[12.0605,9.3081],[12.0599,9.3124],[12.0772,9.3153],[12.0946,9.3458],[12.1012,9.3457],[12.1073,9.3487],[12.0999,9.3595],[12.1014,9.3624],[12.1046,9.3644],[12.1417,9.358],[12.1629,9.3752],[12.1739,9.3707],[12.1793,9.3702],[12.1841,9.3719],[12.1935,9.3623],[12.1986,9.3677],[12.1998,9.3708],[12.2085,9.3759],[12.2214,9.3786],[12.2317,9.3694],[12.2584,9.3987],[12.2579,9.4063],[12.2661,9.4333],[12.3043,9.4311],[12.3131,9.4397],[12.3193,9.4382],[12.3378,9.4108],[12.3551,9.3908],[12.3728,9.3942],[12.3602,9.4238],[12.3435,9.4459],[12.2956,9.4914],[12.2842,9.5079],[12.2706,9.5147],[12.2721,9.5222]]]}},{"type":"Feature","properties":{"name":"Fufore","state":"Adamawa","scode":"AD","centroid":[9.1985,12.6426]},"geometry":{"type":"Polygon","coordinates":[[[12.6011,9.2488],[12.607,9.2207],[12.6058,9.2093],[12.6092,9.1864],[12.5993,9.1687],[12.596,9.1566],[12.5985,9.1479],[12.5952,9.1407],[12.5964,9.1316],[12.5894,9.1168],[12.5836,9.1088],[12.572,9.0996],[12.5272,9.124],[12.5231,9.108],[12.498,9.1069],[12.4849,9.1075],[12.4831,9.1096],[12.4806,9.1092],[12.4816,9.1101],[12.4562,9.1231],[12.4108,9.1199],[12.388,9.0897],[12.3727,9.0746],[12.368,9.0596],[12.3534,9.0437],[12.3283,9.0534],[12.3653,9.108],[12.3455,9.1311],[12.3519,9.1507],[12.3754,9.1673],[12.3419,9.2073],[12.3281,9.2302],[12.3165,9.2416],[12.3038,9.2497],[12.2749,9.2565],[12.2633,9.2611],[12.2506,9.2589],[12.246,9.2554],[12.2379,9.2532],[12.2193,9.2417],[12.2118,9.2342],[12.2087,9.2313],[12.2104,9.2156],[12.2077,9.2087],[12.2109,9.146],[12.2138,9.1241],[12.2214,9.117],[12.2244,9.1116],[12.2158,9.1079],[12.2111,9.1075],[12.2066,9.1033],[12.1943,9.0987],[12.1777,9.1042],[12.1248,9.0984],[12.0901,9.0832],[12.0879,9.0707],[12.0695,9.068],[12.0671,9.0587],[12.0646,9.0582],[12.0642,9.0329],[12.0625,9.0248],[12.0668,9.0214],[12.0779,9.0178],[12.0773,9.0101],[12.0823,9.0026],[12.0976,8.9876],[12.108,8.9907],[12.1327,9.0034],[12.1383,9.0165],[12.1472,9.0206],[12.1549,9.0209],[12.1629,9.0178],[12.1667,9.0132],[12.1691,9.0066],[12.179,9.0053],[12.2004,8.9984],[12.2097,8.982],[12.2044,8.9703],[12.1977,8.967],[12.1862,8.9653],[12.1733,8.9489],[12.1721,8.9402],[12.1796,8.9316],[12.1884,8.9248],[12.1916,8.9184],[12.1969,8.9155],[12.1989,8.9103],[12.2127,8.8932],[12.2266,8.8715],[12.2335,8.8657],[12.2381,8.8577],[12.2519,8.8417],[12.2774,8.8234],[12.2866,8.8188],[12.3016,8.8051],[12.3097,8.8016],[12.327,8.8152],[12.3294,8.8218],[12.3399,8.8279],[12.3515,8.8313],[12.3561,8.8187],[12.3686,8.8143],[12.3817,8.8131],[12.3915,8.8069],[12.3972,8.8004],[12.4109,8.7948],[12.4215,8.7859],[12.4293,8.7832],[12.4326,8.7783],[12.4388,8.7735],[12.4474,8.7714],[12.4529,8.7718],[12.4649,8.7823],[12.4705,8.7818],[12.4722,8.7857],[12.4779,8.7887],[12.4846,8.7763],[12.4949,8.7809],[12.5424,8.7955],[12.5509,8.8031],[12.5537,8.8091],[12.5595,8.8124],[12.5783,8.8071],[12.6211,8.8189],[12.6249,8.8211],[12.627,8.826],[12.6253,8.8304],[12.627,8.8327],[12.6578,8.8442],[12.6895,8.8606],[12.6988,8.8619],[12.7202,8.8704],[12.7269,8.874],[12.7266,8.876],[12.7323,8.879],[12.735,8.8784],[12.7521,8.8903],[12.7567,8.8949],[12.7648,8.9074],[12.7683,8.92],[12.773,8.9291],[12.78,8.9383],[12.7846,8.9485],[12.7904,8.9542],[12.844,8.9693],[12.8493,8.9802],[12.9252,8.9931],[12.9423,9.0635],[12.9214,9.1511],[12.9062,9.3414],[12.8978,9.3481],[12.9682,9.4519],[12.9883,9.4697],[13.0239,9.4961],[13.0495,9.5069],[13.0659,9.5069],[13.0867,9.512],[13.0794,9.5261],[13.0784,9.5358],[13.0835,9.579],[13.0882,9.603],[13.0871,9.611],[13.0766,9.6131],[13.0754,9.6309],[13.0855,9.6306],[13.0848,9.6453],[13.0907,9.6808],[13.0896,9.7093],[13.0447,9.7067],[12.9991,9.718],[12.9545,9.7253],[12.9447,9.6968],[12.8886,9.6766],[12.8648,9.6851],[12.8287,9.694],[12.8262,9.6826],[12.8137,9.6903],[12.8014,9.6935],[12.7949,9.6935],[12.7753,9.6867],[12.765,9.6798],[12.7491,9.675],[12.7583,9.6723],[12.7625,9.6608],[12.7587,9.6521],[12.7542,9.6461],[12.7545,9.6354],[12.7623,9.6371],[12.7678,9.6352],[12.7716,9.6266],[12.7712,9.6216],[12.768,9.6185],[12.7723,9.6164],[12.7725,9.6134],[12.7712,9.6113],[12.7671,9.6142],[12.7614,9.6138],[12.7597,9.6116],[12.759,9.6099],[12.7651,9.6082],[12.7665,9.6061],[12.7636,9.6012],[12.7599,9.5829],[12.7611,9.5784],[12.7434,9.5673],[12.7425,9.5645],[12.7438,9.5629],[12.7365,9.5567],[12.7362,9.5512],[12.7334,9.5496],[12.7303,9.5516],[12.7163,9.5501],[12.714,9.5567],[12.721,9.5658],[12.7186,9.577],[12.6764,9.5952],[12.6484,9.562],[12.6417,9.5499],[12.6433,9.544],[12.6406,9.5402],[12.6332,9.5384],[12.6297,9.535],[12.6181,9.5167],[12.6111,9.4973],[12.6134,9.487],[12.5862,9.4738],[12.584,9.4667],[12.5754,9.4576],[12.5734,9.4509],[12.5692,9.4448],[12.5637,9.4284],[12.5737,9.422],[12.5826,9.4217],[12.5861,9.4169],[12.5938,9.4158],[12.5964,9.4122],[12.5931,9.4098],[12.5902,9.4125],[12.5878,9.4099],[12.6046,9.3957],[12.6171,9.3893],[12.6189,9.3819],[12.6131,9.3659],[12.6073,9.3556],[12.5899,9.3385],[12.5876,9.3293],[12.5876,9.3214],[12.6493,9.2994],[12.6438,9.2904],[12.6272,9.274],[12.6212,9.27],[12.6146,9.26],[12.6011,9.2488]]]}},{"type":"Feature","properties":{"name":"Ganye","state":"Adamawa","scode":"AD","centroid":[8.427,12.0167]},"geometry":{"type":"Polygon","coordinates":[[[11.7927,8.5645],[11.7945,8.5462],[11.7907,8.5314],[11.7802,8.5142],[11.7662,8.504],[11.7302,8.4709],[11.7163,8.4652],[11.7215,8.4416],[11.7131,8.4123],[11.6963,8.3908],[11.7368,8.369],[11.7924,8.3457],[11.82,8.3307],[11.8525,8.2765],[11.9149,8.2547],[11.9265,8.2489],[11.9456,8.2548],[11.9591,8.253],[11.968,8.2407],[11.9722,8.2263],[11.9869,8.2259],[12.001,8.2209],[12.0178,8.21],[12.0317,8.2077],[12.0378,8.2032],[12.0404,8.1989],[12.0393,8.1957],[12.0405,8.194],[12.0438,8.1927],[12.0494,8.1934],[12.0534,8.1895],[12.0571,8.191],[12.0621,8.1863],[12.083,8.1941],[12.0778,8.2118],[12.0871,8.2154],[12.1071,8.2278],[12.1358,8.2521],[12.1516,8.2622],[12.1556,8.248],[12.1684,8.2475],[12.1788,8.2452],[12.1834,8.2315],[12.1981,8.2211],[12.2223,8.2196],[12.2314,8.2167],[12.2399,8.2198],[12.2564,8.2128],[12.255,8.2364],[12.2525,8.2475],[12.2422,8.2711],[12.2372,8.3102],[12.2372,8.3267],[12.2428,8.3775],[12.2472,8.3939],[12.2539,8.4081],[12.2633,8.4194],[12.2508,8.4213],[12.2665,8.4487],[12.2598,8.466],[12.2522,8.4732],[12.2527,8.4805],[12.2498,8.4858],[12.2516,8.5],[12.2857,8.4977],[12.2766,8.5128],[12.3098,8.5491],[12.3122,8.5583],[12.3073,8.5685],[12.3034,8.5836],[12.2977,8.5943],[12.2768,8.5908],[12.2765,8.5947],[12.2639,8.5986],[12.2589,8.6105],[12.2475,8.6298],[12.2399,8.6479],[12.2273,8.6347],[12.1783,8.6635],[12.156,8.6427],[12.1572,8.63],[12.1467,8.6231],[12.146,8.6138],[12.1432,8.6116],[12.1417,8.5806],[12.1649,8.5526],[12.1661,8.5403],[12.1427,8.5333],[12.1456,8.5194],[12.1402,8.5095],[12.1384,8.4957],[12.1296,8.4911],[12.1203,8.4613],[12.1142,8.4603],[12.114,8.4829],[12.0959,8.4888],[12.093,8.4921],[12.0674,8.4764],[12.0624,8.4707],[12.0522,8.4692],[12.0445,8.4664],[12.0353,8.4659],[12.0287,8.484],[12.0145,8.496],[12.0133,8.5107],[11.9987,8.5197],[12.0015,8.5246],[12.0033,8.5338],[11.9956,8.5404],[12.0013,8.5449],[12.0047,8.5506],[12.0164,8.5757],[12.0097,8.5965],[11.9926,8.6172],[11.9878,8.6355],[11.9818,8.6489],[11.9409,8.6346],[11.939,8.6764],[11.9345,8.6702],[11.9286,8.6681],[11.9272,8.6649],[11.9248,8.6642],[11.9106,8.6475],[11.8966,8.6409],[11.886,8.6458],[11.8696,8.6356],[11.8499,8.6275],[11.8436,8.6314],[11.8294,8.6283],[11.8147,8.601],[11.8132,8.5724],[11.807,8.5679],[11.7927,8.5645]]]}},{"type":"Feature","properties":{"name":"Girei","state":"Adamawa","scode":"AD","centroid":[9.4411,12.482]},"geometry":{"type":"Polygon","coordinates":[[[12.6011,9.2488],[12.6146,9.26],[12.6212,9.27],[12.6272,9.274],[12.6438,9.2904],[12.6493,9.2994],[12.5876,9.3214],[12.5876,9.3293],[12.5899,9.3385],[12.6073,9.3556],[12.6131,9.3659],[12.6189,9.3819],[12.6171,9.3893],[12.6046,9.3957],[12.5878,9.4099],[12.5902,9.4125],[12.5931,9.4098],[12.5964,9.4122],[12.5938,9.4158],[12.5861,9.4169],[12.5826,9.4217],[12.5737,9.422],[12.5637,9.4284],[12.5692,9.4448],[12.5734,9.4509],[12.5754,9.4576],[12.584,9.4667],[12.5862,9.4738],[12.6134,9.487],[12.6111,9.4973],[12.6181,9.5167],[12.6297,9.535],[12.6332,9.5384],[12.6406,9.5402],[12.6433,9.544],[12.6417,9.5499],[12.6484,9.562],[12.6445,9.5632],[12.6391,9.5602],[12.6284,9.5666],[12.6245,9.5731],[12.6124,9.58],[12.6079,9.5844],[12.5917,9.5808],[12.575,9.584],[12.5611,9.5931],[12.5394,9.5937],[12.5073,9.6074],[12.4785,9.6121],[12.4574,9.606],[12.4447,9.6049],[12.4319,9.6015],[12.4136,9.6067],[12.3921,9.6076],[12.3816,9.6132],[12.3705,9.6064],[12.3795,9.5918],[12.379,9.5865],[12.3744,9.5789],[12.3606,9.5782],[12.3561,9.5669],[12.3404,9.5468],[12.3311,9.5411],[12.2869,9.5328],[12.2855,9.5229],[12.2721,9.5222],[12.2706,9.5147],[12.2842,9.5079],[12.2956,9.4914],[12.3435,9.4459],[12.3602,9.4238],[12.3728,9.3942],[12.3551,9.3908],[12.3655,9.3753],[12.3701,9.3639],[12.3862,9.3421],[12.4012,9.3261],[12.4185,9.3112],[12.4406,9.2892],[12.4608,9.2861],[12.4647,9.2889],[12.4674,9.2833],[12.4738,9.2785],[12.4774,9.2712],[12.4832,9.2682],[12.4862,9.2642],[12.4922,9.2622],[12.5113,9.2335],[12.5153,9.2406],[12.5494,9.2334],[12.5819,9.2404],[12.6011,9.2488]]]}},{"type":"Feature","properties":{"name":"Gombi","state":"Adamawa","scode":"AD","centroid":[10.1894,12.4726]},"geometry":{"type":"Polygon","coordinates":[[[12.2572,10.3598],[12.2537,10.3475],[12.2423,10.3193],[12.2292,10.2988],[12.215,10.2871],[12.2127,10.2808],[12.266,10.2464],[12.2776,10.2269],[12.2639,10.2138],[12.2351,10.2113],[12.207,10.1941],[12.2141,10.1675],[12.1923,10.1594],[12.1811,10.1466],[12.1828,10.1402],[12.1786,10.1375],[12.1792,10.1343],[12.1767,10.1313],[12.1716,10.1291],[12.2006,10.0899],[12.1972,10.0834],[12.1651,10.0601],[12.1638,10.0198],[12.1794,10.002],[12.1827,9.9822],[12.1902,9.9684],[12.2034,9.9497],[12.2188,9.9448],[12.2256,9.9377],[12.2221,9.9263],[12.2508,9.9386],[12.2696,9.9448],[12.2767,9.9452],[12.2835,9.9723],[12.2926,9.9913],[12.3109,10.0042],[12.3231,9.9692],[12.3383,9.9646],[12.3535,10.0187],[12.3947,10.0119],[12.4077,10.0252],[12.4117,10.0141],[12.4534,10.019],[12.464,10.0253],[12.4654,10.0313],[12.4712,10.0392],[12.4908,10.0357],[12.5036,10.0391],[12.529,10.0425],[12.5376,10.0392],[12.5444,10.0414],[12.5695,10.0448],[12.5681,10.0961],[12.5881,10.1133],[12.5927,10.0885],[12.6158,10.0447],[12.634,10.034],[12.6626,10.0435],[12.6726,10.0435],[12.6825,10.0506],[12.6947,10.0523],[12.7055,10.0495],[12.7164,10.0492],[12.7164,10.0785],[12.721,10.1055],[12.7522,10.1162],[12.7618,10.1395],[12.7674,10.1531],[12.7748,10.2114],[12.7702,10.224],[12.7541,10.2443],[12.7797,10.2537],[12.7906,10.2553],[12.7841,10.2992],[12.7638,10.3073],[12.7515,10.3162],[12.7343,10.3337],[12.7294,10.3406],[12.7115,10.3389],[12.6767,10.3452],[12.6687,10.3578],[12.6513,10.3795],[12.6144,10.4162],[12.5956,10.4436],[12.612,10.4484],[12.6104,10.4504],[12.6067,10.4515],[12.5998,10.4613],[12.6028,10.4777],[12.6026,10.484],[12.5982,10.4854],[12.5949,10.4899],[12.5923,10.4899],[12.5788,10.4921],[12.5705,10.4816],[12.5709,10.4754],[12.5675,10.469],[12.568,10.4656],[12.5655,10.4571],[12.5581,10.4459],[12.5579,10.4435],[12.5625,10.4401],[12.5652,10.4346],[12.5643,10.4325],[12.5568,10.4339],[12.5545,10.4277],[12.5604,10.4093],[12.5574,10.3951],[12.5516,10.3954],[12.5354,10.3929],[12.5042,10.379],[12.4627,10.3748],[12.4391,10.3699],[12.4216,10.3714],[12.3792,10.3505],[12.3851,10.3445],[12.3886,10.3332],[12.3897,10.3226],[12.3869,10.3171],[12.3719,10.3184],[12.3615,10.3173],[12.3441,10.3196],[12.329,10.3196],[12.3198,10.3156],[12.3128,10.3151],[12.3064,10.3361],[12.2993,10.3413],[12.2908,10.3301],[12.2798,10.3287],[12.2572,10.3598]]]}},{"type":"Feature","properties":{"name":"Guyuk","state":"Adamawa","scode":"AD","centroid":[9.8408,11.9071]},"geometry":{"type":"Polygon","coordinates":[[[11.9008,9.6709],[11.9205,9.6649],[11.9476,9.6486],[11.9668,9.65],[11.977,9.6523],[11.9855,9.6472],[12.0012,9.6472],[12.0107,9.642],[12.0075,9.6603],[11.9959,9.6647],[11.9813,9.6816],[11.9856,9.6927],[12.0029,9.721],[12.0109,9.7243],[11.9615,9.7393],[11.9671,9.7593],[11.9907,9.7626],[12.0053,9.7906],[12.0008,9.8306],[11.9986,9.8889],[11.994,9.8991],[11.979,9.9163],[11.9767,9.9266],[11.9767,9.9335],[11.9802,9.9403],[11.9826,9.9689],[11.9814,9.9757],[12.0031,10.0222],[11.9912,10.0353],[11.9892,10.0376],[11.9705,10.0349],[11.9605,10.0358],[11.9542,10.0322],[11.9311,10.0259],[11.9207,10.0247],[11.883,10.0257],[11.8551,10.0322],[11.8358,10.0339],[11.8355,10.0285],[11.8296,10.0164],[11.8253,9.9949],[11.8227,9.9699],[11.8237,9.9558],[11.8332,9.949],[11.8347,9.9297],[11.8293,9.9154],[11.8193,9.9028],[11.8165,9.8914],[11.809,9.8764],[11.8012,9.8407],[11.8034,9.8323],[11.8264,9.8229],[11.8444,9.8193],[11.8518,9.814],[11.8545,9.7935],[11.8509,9.7864],[11.8358,9.7727],[11.8172,9.7409],[11.7962,9.7309],[11.7761,9.7071],[11.8002,9.7028],[11.8245,9.6959],[11.8198,9.6751],[11.823,9.6678],[11.8249,9.6679],[11.8318,9.6629],[11.8341,9.6587],[11.8316,9.6425],[11.8353,9.6363],[11.8527,9.6478],[11.8619,9.6658],[11.8711,9.6764],[11.8824,9.6776],[11.9008,9.6709]]]}},{"type":"Feature","properties":{"name":"Hong","state":"Adamawa","scode":"AD","centroid":[10.3072,12.9285]},"geometry":{"type":"Polygon","coordinates":[[[13.2375,10.2203],[13.2367,10.224],[13.2258,10.2274],[13.2243,10.2312],[13.2257,10.2375],[13.2182,10.2401],[13.1926,10.2371],[13.1798,10.2461],[13.1751,10.2515],[13.1777,10.2703],[13.1642,10.2863],[13.1694,10.2977],[13.1815,10.3079],[13.2121,10.273],[13.2215,10.2744],[13.227,10.2737],[13.23,10.2763],[13.2303,10.2801],[13.2275,10.2847],[13.2277,10.2979],[13.2213,10.3147],[13.1846,10.348],[13.186,10.3515],[13.2183,10.3621],[13.2154,10.3736],[13.2043,10.3838],[13.2074,10.3894],[13.212,10.3875],[13.2134,10.3901],[13.2158,10.4013],[13.2165,10.4186],[13.2245,10.4236],[13.2307,10.4251],[13.2323,10.4292],[13.23,10.4349],[13.2304,10.4391],[13.2341,10.4454],[13.2356,10.4586],[13.2345,10.4632],[13.229,10.4608],[13.2296,10.4588],[13.2281,10.456],[13.2266,10.4562],[13.2257,10.4532],[13.2233,10.4525],[13.2277,10.4519],[13.2281,10.4435],[13.2193,10.4436],[13.2192,10.4486],[13.2181,10.4493],[13.2141,10.4477],[13.2105,10.4425],[13.2191,10.4385],[13.2186,10.4351],[13.2108,10.4208],[13.2068,10.4157],[13.1971,10.4089],[13.191,10.4097],[13.1559,10.4287],[13.1225,10.4437],[13.1098,10.4448],[13.1074,10.4471],[13.0982,10.4506],[13.052,10.4644],[13.045,10.469],[13.0404,10.4747],[13.0314,10.4789],[13.0153,10.4949],[13.0105,10.5137],[13.0025,10.5217],[12.9829,10.5355],[12.9586,10.5481],[12.9182,10.562],[12.8754,10.5735],[12.777,10.5772],[12.7608,10.5829],[12.7446,10.5795],[12.7353,10.5761],[12.7283,10.5681],[12.7132,10.5453],[12.7027,10.5327],[12.6863,10.4996],[12.6737,10.4849],[12.6653,10.4596],[12.6587,10.4515],[12.6572,10.4459],[12.6525,10.439],[12.6397,10.4357],[12.6352,10.4402],[12.6333,10.4378],[12.6225,10.4442],[12.6186,10.4501],[12.614,10.4476],[12.612,10.4484],[12.5956,10.4436],[12.6144,10.4162],[12.6513,10.3795],[12.6687,10.3578],[12.6767,10.3452],[12.7115,10.3389],[12.7294,10.3406],[12.7343,10.3337],[12.7515,10.3162],[12.7638,10.3073],[12.7841,10.2992],[12.7906,10.2553],[12.7797,10.2537],[12.7541,10.2443],[12.7702,10.224],[12.7748,10.2114],[12.7674,10.1531],[12.7618,10.1395],[12.7688,10.1371],[12.77,10.1236],[12.7751,10.1016],[12.782,10.0887],[12.7968,10.0828],[12.8208,10.0833],[12.8242,10.0685],[12.8288,10.0571],[12.8299,10.0091],[12.8319,10.0059],[12.8758,10.0243],[12.8964,10.0254],[12.9352,10.0123],[12.9604,9.9935],[12.9803,10.0043],[13.0019,9.9998],[13.0154,10.0035],[13.0267,10.0214],[13.0445,10.024],[13.0544,10.0202],[13.0591,10.0316],[13.0661,10.0404],[13.0708,10.0418],[13.0742,10.0484],[13.0896,10.0573],[13.0802,10.0757],[13.0963,10.1025],[13.1031,10.1181],[13.1015,10.1306],[13.1194,10.1684],[13.1148,10.1789],[13.1163,10.1944],[13.1119,10.1985],[13.1134,10.203],[13.1175,10.2006],[13.119,10.2036],[13.1219,10.2243],[13.1275,10.2335],[13.1261,10.2383],[13.1308,10.2437],[13.1361,10.244],[13.1498,10.2382],[13.1737,10.2203],[13.1778,10.2216],[13.1868,10.2166],[13.202,10.2193],[13.2349,10.2165],[13.2375,10.2203]]]}},{"type":"Feature","properties":{"name":"Jada","state":"Adamawa","scode":"AD","centroid":[8.6728,12.4376]},"geometry":{"type":"Polygon","coordinates":[[[11.886,8.6458],[11.8966,8.6409],[11.9106,8.6475],[11.9248,8.6642],[11.9272,8.6649],[11.9286,8.6681],[11.9345,8.6702],[11.939,8.6764],[11.9409,8.6346],[11.9818,8.6489],[11.9878,8.6355],[11.9926,8.6172],[12.0097,8.5965],[12.0164,8.5757],[12.0047,8.5506],[12.0013,8.5449],[11.9956,8.5404],[12.0033,8.5338],[12.0015,8.5246],[11.9987,8.5197],[12.0133,8.5107],[12.0145,8.496],[12.0287,8.484],[12.0353,8.4659],[12.0445,8.4664],[12.0522,8.4692],[12.0624,8.4707],[12.0674,8.4764],[12.093,8.4921],[12.0959,8.4888],[12.114,8.4829],[12.1142,8.4603],[12.1203,8.4613],[12.1296,8.4911],[12.1384,8.4957],[12.1402,8.5095],[12.1456,8.5194],[12.1427,8.5333],[12.1661,8.5403],[12.1649,8.5526],[12.1417,8.5806],[12.1432,8.6116],[12.146,8.6138],[12.1467,8.6231],[12.1572,8.63],[12.156,8.6427],[12.1783,8.6635],[12.2273,8.6347],[12.2399,8.6479],[12.2475,8.6298],[12.2589,8.6105],[12.2639,8.5986],[12.2765,8.5947],[12.2768,8.5908],[12.2977,8.5943],[12.3034,8.5836],[12.3073,8.5685],[12.3122,8.5583],[12.3098,8.5491],[12.2766,8.5128],[12.2857,8.4977],[12.2516,8.5],[12.2498,8.4858],[12.2527,8.4805],[12.2522,8.4732],[12.2598,8.466],[12.2665,8.4487],[12.2508,8.4213],[12.2633,8.4194],[12.2753,8.4283],[12.2964,8.4344],[12.3081,8.4322],[12.3203,8.4236],[12.33,8.4192],[12.3361,8.4197],[12.4408,8.4553],[12.5194,8.4553],[12.586,8.4648],[12.6026,8.4934],[12.6812,8.4672],[12.7311,8.5124],[12.7549,8.5719],[12.8263,8.5648],[12.8168,8.6504],[12.8573,8.6861],[12.8787,8.7504],[12.881,8.8455],[12.844,8.9693],[12.7904,8.9542],[12.7846,8.9485],[12.78,8.9383],[12.773,8.9291],[12.7683,8.92],[12.7648,8.9074],[12.7567,8.8949],[12.7521,8.8903],[12.735,8.8784],[12.7323,8.879],[12.7266,8.876],[12.7269,8.874],[12.7202,8.8704],[12.6988,8.8619],[12.6895,8.8606],[12.6578,8.8442],[12.627,8.8327],[12.6253,8.8304],[12.627,8.826],[12.6249,8.8211],[12.6211,8.8189],[12.5783,8.8071],[12.5595,8.8124],[12.5537,8.8091],[12.5509,8.8031],[12.5424,8.7955],[12.4949,8.7809],[12.4846,8.7763],[12.4779,8.7887],[12.4722,8.7857],[12.4705,8.7818],[12.4649,8.7823],[12.4529,8.7718],[12.4474,8.7714],[12.4388,8.7735],[12.4326,8.7783],[12.4293,8.7832],[12.4215,8.7859],[12.4109,8.7948],[12.3972,8.8004],[12.3915,8.8069],[12.3817,8.8131],[12.3686,8.8143],[12.3561,8.8187],[12.3515,8.8313],[12.3399,8.8279],[12.3294,8.8218],[12.327,8.8152],[12.3097,8.8016],[12.3016,8.8051],[12.2866,8.8188],[12.2774,8.8234],[12.2519,8.8417],[12.2381,8.8577],[12.2335,8.8657],[12.2266,8.8715],[12.2127,8.8932],[12.1989,8.9103],[12.1969,8.9155],[12.1826,8.9035],[12.1674,8.9025],[12.1609,8.8983],[12.1583,8.891],[12.1432,8.8778],[12.1384,8.8761],[12.1177,8.8499],[12.0991,8.8489],[12.096,8.8432],[12.0835,8.8321],[12.076,8.8179],[12.0548,8.7975],[12.0497,8.805],[12.0428,8.8005],[12.0401,8.7932],[12.0436,8.7875],[12.0226,8.7723],[11.9109,8.6701],[11.9067,8.6699],[11.8938,8.6529],[11.886,8.6458]]]}},{"type":"Feature","properties":{"name":"Lamurde","state":"Adamawa","scode":"AD","centroid":[9.5626,11.6951]},"geometry":{"type":"Polygon","coordinates":[[[11.524,9.3961],[11.5346,9.3962],[11.5393,9.3981],[11.5388,9.4057],[11.5525,9.4142],[11.5652,9.4118],[11.5832,9.4216],[11.5904,9.4294],[11.6021,9.4369],[11.6102,9.4334],[11.6191,9.4348],[11.6277,9.4422],[11.6325,9.4499],[11.6472,9.4642],[11.6641,9.4692],[11.6754,9.4793],[11.6917,9.4904],[11.7145,9.4977],[11.7402,9.5008],[11.7863,9.5122],[11.8216,9.5177],[11.8436,9.5168],[11.8544,9.52],[11.8737,9.5208],[11.8879,9.5155],[11.9077,9.5011],[11.921,9.502],[11.9356,9.5053],[11.9486,9.5041],[11.9615,9.5059],[11.9577,9.5193],[11.9759,9.5379],[11.979,9.552],[11.9789,9.554],[11.9589,9.5836],[11.96,9.5978],[11.92,9.6424],[11.9012,9.6603],[11.9008,9.6709],[11.8824,9.6776],[11.8711,9.6764],[11.8619,9.6658],[11.8527,9.6478],[11.8353,9.6363],[11.8316,9.6425],[11.8341,9.6587],[11.8318,9.6629],[11.8249,9.6679],[11.823,9.6678],[11.8198,9.6751],[11.8245,9.6959],[11.8002,9.7028],[11.7761,9.7071],[11.7566,9.7187],[11.7463,9.7054],[11.7382,9.6997],[11.7359,9.6997],[11.7266,9.6906],[11.7009,9.6738],[11.6964,9.6689],[11.6836,9.6632],[11.672,9.6552],[11.6639,9.6484],[11.6546,9.6369],[11.6345,9.6275],[11.6136,9.6563],[11.5983,9.6493],[11.5862,9.6338],[11.5817,9.6198],[11.5764,9.6153],[11.5671,9.6108],[11.563,9.6051],[11.5456,9.6052],[11.5273,9.6082],[11.5017,9.6075],[11.4912,9.6041],[11.4843,9.6042],[11.468,9.5985],[11.4445,9.5762],[11.4419,9.5604],[11.4339,9.5521],[11.4296,9.5496],[11.4362,9.5398],[11.4335,9.5197],[11.4391,9.5163],[11.4402,9.4938],[11.4438,9.4885],[11.47,9.4773],[11.4791,9.4656],[11.4843,9.4641],[11.4935,9.4507],[11.4974,9.4405],[11.5063,9.434],[11.5259,9.4078],[11.5201,9.404],[11.524,9.3961]]]}},{"type":"Feature","properties":{"name":"Madagali","state":"Adamawa","scode":"AD","centroid":[10.8147,13.5215]},"geometry":{"type":"Polygon","coordinates":[[[13.3362,10.8669],[13.3348,10.8127],[13.3359,10.8001],[13.323,10.759],[13.3209,10.7441],[13.3308,10.7346],[13.3343,10.726],[13.3476,10.7201],[13.3583,10.7136],[13.3728,10.7164],[13.3907,10.7038],[13.3968,10.7103],[13.3976,10.7191],[13.4225,10.7126],[13.4253,10.7105],[13.4327,10.713],[13.4361,10.7108],[13.4367,10.7055],[13.4411,10.6987],[13.4564,10.6872],[13.4601,10.6906],[13.467,10.7065],[13.4727,10.7032],[13.4785,10.6963],[13.4842,10.6945],[13.4891,10.6967],[13.4983,10.6922],[13.5013,10.6932],[13.5042,10.691],[13.5052,10.6729],[13.5367,10.6482],[13.5478,10.6534],[13.5581,10.6478],[13.5553,10.6434],[13.5596,10.6398],[13.5731,10.6672],[13.618,10.716],[13.6328,10.7346],[13.6602,10.782],[13.6769,10.8075],[13.7064,10.8467],[13.7131,10.8608],[13.7183,10.8815],[13.7507,10.9141],[13.6699,10.9447],[13.6548,10.9445],[13.6514,10.9459],[13.641,10.9459],[13.6132,10.9494],[13.5854,10.9495],[13.5773,10.9483],[13.5518,10.9347],[13.546,10.929],[13.5181,10.9187],[13.5135,10.9153],[13.5019,10.9108],[13.4752,10.9028],[13.4634,10.9028],[13.4452,10.8951],[13.4357,10.8889],[13.4113,10.8803],[13.3831,10.8784],[13.3804,10.8827],[13.3906,10.8917],[13.3887,10.8959],[13.3829,10.8973],[13.3765,10.8957],[13.3734,10.8967],[13.372,10.913],[13.3677,10.9248],[13.3504,10.9317],[13.3457,10.9306],[13.3434,10.9283],[13.3428,10.9179],[13.3359,10.9078],[13.3344,10.89],[13.3362,10.8669]]]}},{"type":"Feature","properties":{"name":"Maiha","state":"Adamawa","scode":"AD","centroid":[9.8504,13.1624]},"geometry":{"type":"Polygon","coordinates":[[[13.1219,10.2243],[13.119,10.2036],[13.1175,10.2006],[13.1134,10.203],[13.1119,10.1985],[13.1163,10.1944],[13.1148,10.1789],[13.1194,10.1684],[13.1015,10.1306],[13.1031,10.1181],[13.0963,10.1025],[13.0802,10.0757],[13.0896,10.0573],[13.0742,10.0484],[13.0708,10.0418],[13.0661,10.0404],[13.0591,10.0316],[13.0544,10.0202],[13.0475,9.9997],[13.0474,9.9939],[13.0664,9.9843],[13.0693,9.9652],[13.0643,9.9571],[13.0676,9.9452],[13.0655,9.9385],[13.0688,9.9257],[13.059,9.9053],[13.0549,9.892],[13.0553,9.8717],[13.0587,9.8454],[13.0633,9.8316],[13.0805,9.7951],[13.0921,9.7745],[13.0932,9.755],[13.0885,9.7413],[13.0896,9.7093],[13.0907,9.6808],[13.0848,9.6453],[13.0855,9.6306],[13.0754,9.6309],[13.0766,9.6131],[13.0871,9.611],[13.0882,9.603],[13.0835,9.579],[13.0784,9.5358],[13.0794,9.5261],[13.0867,9.512],[13.1509,9.5147],[13.1867,9.5267],[13.1958,9.5311],[13.205,9.5394],[13.2152,9.5444],[13.2187,9.5426],[13.2306,9.5676],[13.2392,9.5789],[13.2436,9.5883],[13.2453,9.5939],[13.2597,9.7517],[13.2406,9.8542],[13.2447,9.8724],[13.237,9.8934],[13.2375,9.9003],[13.2355,9.9077],[13.2458,9.9223],[13.2746,9.9384],[13.2864,9.9711],[13.2622,10.0118],[13.2439,10.0317],[13.2451,10.0376],[13.2523,10.0407],[13.2571,10.0508],[13.2617,10.0567],[13.2749,10.058],[13.2787,10.0662],[13.2517,10.0854],[13.2486,10.1037],[13.242,10.1097],[13.2298,10.1102],[13.2218,10.1245],[13.2117,10.126],[13.2053,10.125],[13.2029,10.1181],[13.1918,10.121],[13.1813,10.1271],[13.1871,10.1312],[13.1888,10.1368],[13.1827,10.1726],[13.1597,10.1941],[13.1528,10.2071],[13.1219,10.2243]]]}},{"type":"Feature","properties":{"name":"Mayo-Belwa","state":"Adamawa","scode":"AD","centroid":[8.9986,11.9594]},"geometry":{"type":"Polygon","coordinates":[[[11.7576,8.6172],[11.7597,8.6075],[11.7668,8.5969],[11.79,8.5728],[11.7927,8.5645],[11.807,8.5679],[11.8132,8.5724],[11.8147,8.601],[11.8294,8.6283],[11.8436,8.6314],[11.8499,8.6275],[11.8696,8.6356],[11.886,8.6458],[11.8938,8.6529],[11.9067,8.6699],[11.9109,8.6701],[12.0226,8.7723],[12.0436,8.7875],[12.0401,8.7932],[12.0428,8.8005],[12.0497,8.805],[12.0548,8.7975],[12.076,8.8179],[12.0835,8.8321],[12.096,8.8432],[12.0991,8.8489],[12.1177,8.8499],[12.1384,8.8761],[12.1432,8.8778],[12.1583,8.891],[12.1609,8.8983],[12.1674,8.9025],[12.1826,8.9035],[12.1969,8.9155],[12.1916,8.9184],[12.1884,8.9248],[12.1796,8.9316],[12.1721,8.9402],[12.1733,8.9489],[12.1862,8.9653],[12.1977,8.967],[12.2044,8.9703],[12.2097,8.982],[12.2004,8.9984],[12.179,9.0053],[12.1691,9.0066],[12.1667,9.0132],[12.1629,9.0178],[12.1549,9.0209],[12.1472,9.0206],[12.1383,9.0165],[12.1327,9.0034],[12.108,8.9907],[12.0976,8.9876],[12.0823,9.0026],[12.0773,9.0101],[12.0779,9.0178],[12.0668,9.0214],[12.0625,9.0248],[12.0642,9.0329],[12.0646,9.0582],[12.0671,9.0587],[12.0695,9.068],[12.0879,9.0707],[12.0901,9.0832],[12.1248,9.0984],[12.1777,9.1042],[12.1943,9.0987],[12.2066,9.1033],[12.2111,9.1075],[12.2158,9.1079],[12.2244,9.1116],[12.2214,9.117],[12.2138,9.1241],[12.2109,9.146],[12.2077,9.2087],[12.2104,9.2156],[12.2087,9.2313],[12.2118,9.2342],[12.2071,9.252],[12.2016,9.2586],[12.1563,9.2411],[12.1493,9.243],[12.1455,9.2402],[12.1421,9.2414],[12.1476,9.2498],[12.1446,9.256],[12.1159,9.2741],[12.0784,9.2675],[12.0742,9.2739],[12.0746,9.2951],[12.0812,9.3067],[12.0772,9.3153],[12.0599,9.3124],[12.0605,9.3081],[12.0542,9.3033],[12.0456,9.3011],[12.038,9.3025],[12.0285,9.2983],[12.0199,9.2923],[12.0279,9.2784],[12.0184,9.2727],[11.9695,9.2588],[11.9511,9.2518],[11.9489,9.2366],[11.9238,9.2256],[11.9192,9.2104],[11.9025,9.1928],[11.9008,9.1887],[11.8869,9.1827],[11.8875,9.1793],[11.8824,9.1793],[11.8743,9.1769],[11.8602,9.1778],[11.8478,9.167],[11.8419,9.1714],[11.8264,9.2086],[11.8086,9.2054],[11.792,9.2044],[11.783,9.1977],[11.7482,9.2143],[11.7311,9.2138],[11.7204,9.2206],[11.6874,9.2295],[11.679,9.2239],[11.6795,9.2175],[11.6777,9.2106],[11.6836,9.1928],[11.6896,9.1902],[11.6964,9.1804],[11.6986,9.1737],[11.7026,9.1608],[11.6985,9.1438],[11.6954,9.1328],[11.6963,9.1138],[11.6949,9.1068],[11.7068,9.0745],[11.7103,9.0712],[11.7296,9.0617],[11.7352,9.0533],[11.7525,9.0497],[11.7675,9.0337],[11.7918,9.0199],[11.8311,9.0084],[11.8299,8.9935],[11.8437,8.9789],[11.8639,8.9541],[11.8715,8.9471],[11.8736,8.9376],[11.8624,8.9152],[11.8647,8.9099],[11.8609,8.9066],[11.854,8.8952],[11.8498,8.8751],[11.8506,8.8699],[11.8434,8.8667],[11.8451,8.8598],[11.8407,8.845],[11.8317,8.7923],[11.8312,8.7695],[11.8271,8.7391],[11.7855,8.711],[11.7692,8.712],[11.7543,8.7001],[11.7431,8.6776],[11.7517,8.6734],[11.7605,8.6637],[11.7614,8.6665],[11.7879,8.6434],[11.7889,8.6412],[11.7842,8.6298],[11.7769,8.6251],[11.7576,8.6172]]]}},{"type":"Feature","properties":{"name":"Michika","state":"Adamawa","scode":"AD","centroid":[10.5799,13.4097]},"geometry":{"type":"Polygon","coordinates":[[[13.3209,10.7441],[13.3112,10.7135],[13.3088,10.7112],[13.3042,10.6995],[13.2832,10.6675],[13.2678,10.63],[13.2583,10.612],[13.2392,10.6005],[13.2325,10.5889],[13.2292,10.5776],[13.233,10.5585],[13.2528,10.5403],[13.2486,10.5111],[13.2828,10.5088],[13.2992,10.5051],[13.3111,10.5103],[13.3264,10.5094],[13.3439,10.518],[13.3588,10.5168],[13.3634,10.4929],[13.3595,10.4916],[13.3567,10.4858],[13.4016,10.462],[13.4099,10.4485],[13.4207,10.4479],[13.4222,10.4462],[13.4219,10.4423],[13.4348,10.4438],[13.4401,10.4366],[13.4546,10.4235],[13.4866,10.4167],[13.5255,10.4247],[13.5318,10.4539],[13.5542,10.5663],[13.5556,10.6281],[13.5596,10.6398],[13.5553,10.6434],[13.5581,10.6478],[13.5478,10.6534],[13.5367,10.6482],[13.5052,10.6729],[13.5042,10.691],[13.5013,10.6932],[13.4983,10.6922],[13.4891,10.6967],[13.4842,10.6945],[13.4785,10.6963],[13.4727,10.7032],[13.467,10.7065],[13.4601,10.6906],[13.4564,10.6872],[13.4411,10.6987],[13.4367,10.7055],[13.4361,10.7108],[13.4327,10.713],[13.4253,10.7105],[13.4225,10.7126],[13.3976,10.7191],[13.3968,10.7103],[13.3907,10.7038],[13.3728,10.7164],[13.3583,10.7136],[13.3476,10.7201],[13.3343,10.726],[13.3308,10.7346],[13.3209,10.7441]]]}},{"type":"Feature","properties":{"name":"Mubi North","state":"Adamawa","scode":"AD","centroid":[10.3555,13.3519]},"geometry":{"type":"Polygon","coordinates":[[[13.4689,10.1861],[13.4714,10.1978],[13.4708,10.2042],[13.4636,10.2175],[13.5077,10.2145],[13.5174,10.2573],[13.5109,10.2734],[13.4875,10.2781],[13.4987,10.3372],[13.4941,10.3888],[13.4922,10.3898],[13.5188,10.3938],[13.5318,10.4539],[13.5255,10.4247],[13.4866,10.4167],[13.4546,10.4235],[13.4401,10.4366],[13.4348,10.4438],[13.4219,10.4423],[13.4222,10.4462],[13.4207,10.4479],[13.4099,10.4485],[13.4016,10.462],[13.3567,10.4858],[13.3595,10.4916],[13.3634,10.4929],[13.3588,10.5168],[13.3439,10.518],[13.3264,10.5094],[13.3111,10.5103],[13.2992,10.5051],[13.2828,10.5088],[13.2486,10.5111],[13.2392,10.4861],[13.2345,10.4632],[13.2356,10.4586],[13.2341,10.4454],[13.2304,10.4391],[13.23,10.4349],[13.2323,10.4292],[13.2307,10.4251],[13.2245,10.4236],[13.2165,10.4186],[13.2158,10.4013],[13.2134,10.3901],[13.212,10.3875],[13.2074,10.3894],[13.2043,10.3838],[13.2154,10.3736],[13.2183,10.3621],[13.186,10.3515],[13.1846,10.348],[13.2213,10.3147],[13.2277,10.2979],[13.2275,10.2847],[13.2303,10.2801],[13.23,10.2763],[13.227,10.2737],[13.2215,10.2744],[13.2121,10.273],[13.1815,10.3079],[13.1694,10.2977],[13.1642,10.2863],[13.1777,10.2703],[13.1751,10.2515],[13.1798,10.2461],[13.1926,10.2371],[13.2182,10.2401],[13.2257,10.2375],[13.2243,10.2312],[13.2258,10.2274],[13.2367,10.224],[13.2375,10.2203],[13.2509,10.2329],[13.2469,10.2369],[13.2458,10.2439],[13.2524,10.2468],[13.2537,10.2534],[13.2439,10.2587],[13.2405,10.256],[13.2339,10.2597],[13.2299,10.2602],[13.2297,10.2622],[13.2327,10.2656],[13.2297,10.268],[13.236,10.2731],[13.2408,10.2702],[13.2523,10.2694],[13.2523,10.2709],[13.2564,10.271],[13.256,10.2686],[13.2592,10.2679],[13.2636,10.2636],[13.2726,10.2657],[13.2725,10.2645],[13.2756,10.2635],[13.2801,10.2649],[13.2795,10.2659],[13.2809,10.2671],[13.2889,10.269],[13.2962,10.2667],[13.2953,10.2745],[13.3011,10.2806],[13.3112,10.2854],[13.3286,10.2774],[13.3582,10.2587],[13.3805,10.2535],[13.3806,10.2553],[13.3883,10.2544],[13.3953,10.2507],[13.4022,10.2495],[13.3977,10.2298],[13.4111,10.2112],[13.4206,10.2201],[13.4689,10.1861]]]}},{"type":"Feature","properties":{"name":"Mubi South","state":"Adamawa","scode":"AD","centroid":[10.1794,13.3068]},"geometry":{"type":"Polygon","coordinates":[[[13.2787,10.0662],[13.2804,10.0699],[13.2853,10.0713],[13.2896,10.0755],[13.2915,10.0802],[13.3122,10.0882],[13.3166,10.0937],[13.318,10.0997],[13.3981,10.1111],[13.4103,10.1197],[13.4517,10.1544],[13.4622,10.1719],[13.4689,10.1861],[13.4206,10.2201],[13.4111,10.2112],[13.3977,10.2298],[13.4022,10.2495],[13.3953,10.2507],[13.3883,10.2544],[13.3806,10.2553],[13.3805,10.2535],[13.3582,10.2587],[13.3286,10.2774],[13.3112,10.2854],[13.3011,10.2806],[13.2953,10.2745],[13.2962,10.2667],[13.2889,10.269],[13.2809,10.2671],[13.2795,10.2659],[13.2801,10.2649],[13.2756,10.2635],[13.2725,10.2645],[13.2726,10.2657],[13.2636,10.2636],[13.2592,10.2679],[13.256,10.2686],[13.2564,10.271],[13.2523,10.2709],[13.2523,10.2694],[13.2408,10.2702],[13.236,10.2731],[13.2297,10.268],[13.2327,10.2656],[13.2297,10.2622],[13.2299,10.2602],[13.2339,10.2597],[13.2405,10.256],[13.2439,10.2587],[13.2537,10.2534],[13.2524,10.2468],[13.2458,10.2439],[13.2469,10.2369],[13.2509,10.2329],[13.2375,10.2203],[13.2349,10.2165],[13.202,10.2193],[13.1868,10.2166],[13.1778,10.2216],[13.1737,10.2203],[13.1498,10.2382],[13.1361,10.244],[13.1308,10.2437],[13.1261,10.2383],[13.1275,10.2335],[13.1219,10.2243],[13.1528,10.2071],[13.1597,10.1941],[13.1827,10.1726],[13.1888,10.1368],[13.1871,10.1312],[13.1813,10.1271],[13.1918,10.121],[13.2029,10.1181],[13.2053,10.125],[13.2117,10.126],[13.2218,10.1245],[13.2298,10.1102],[13.242,10.1097],[13.2486,10.1037],[13.2517,10.0854],[13.2787,10.0662]]]}},{"type":"Feature","properties":{"name":"Numan","state":"Adamawa","scode":"AD","centroid":[9.4462,11.8008]},"geometry":{"type":"Polygon","coordinates":[[[11.6396,9.3067],[11.6397,9.3084],[11.6354,9.3111],[11.6364,9.3163],[11.64,9.316],[11.6391,9.3187],[11.6238,9.3354],[11.63,9.345],[11.6336,9.3473],[11.6364,9.3485],[11.6785,9.3344],[11.6904,9.3243],[11.6966,9.3219],[11.7157,9.3272],[11.7298,9.3336],[11.7554,9.3612],[11.7729,9.3546],[11.7776,9.3552],[11.7973,9.3699],[11.8278,9.3891],[11.8319,9.4054],[11.8296,9.4154],[11.833,9.4272],[11.862,9.4465],[11.8793,9.4358],[11.8889,9.4399],[11.8986,9.4353],[11.9076,9.4336],[11.913,9.426],[11.9246,9.4197],[11.9399,9.4062],[11.9484,9.4079],[11.954,9.4159],[11.9767,9.424],[11.9887,9.4304],[11.9922,9.4295],[12.0026,9.4331],[12.0163,9.4254],[12.028,9.4275],[12.034,9.4367],[12.0334,9.44],[12.0349,9.4416],[12.034,9.4451],[12.0358,9.4567],[12.0375,9.4586],[12.0374,9.464],[12.0332,9.4748],[12.0385,9.4768],[12.0441,9.49],[12.0448,9.5137],[12.0531,9.5412],[12.0528,9.5489],[12.0573,9.576],[12.0564,9.583],[12.0637,9.5978],[12.0618,9.6032],[12.0655,9.6179],[12.0709,9.6261],[12.0402,9.6323],[12.0345,9.6269],[12.0233,9.6331],[12.015,9.6321],[12.0129,9.6221],[12.0148,9.612],[11.9931,9.6006],[11.9825,9.6022],[11.9647,9.5999],[11.96,9.5978],[11.9589,9.5836],[11.9789,9.554],[11.979,9.552],[11.9759,9.5379],[11.9577,9.5193],[11.9615,9.5059],[11.9486,9.5041],[11.9356,9.5053],[11.921,9.502],[11.9077,9.5011],[11.8879,9.5155],[11.8737,9.5208],[11.8544,9.52],[11.8436,9.5168],[11.8216,9.5177],[11.7863,9.5122],[11.7402,9.5008],[11.7145,9.4977],[11.6917,9.4904],[11.6754,9.4793],[11.6641,9.4692],[11.6472,9.4642],[11.6325,9.4499],[11.6277,9.4422],[11.6191,9.4348],[11.6102,9.4334],[11.6021,9.4369],[11.5904,9.4294],[11.5832,9.4216],[11.5652,9.4118],[11.5525,9.4142],[11.5388,9.4057],[11.5393,9.3981],[11.5346,9.3962],[11.524,9.3961],[11.5239,9.3851],[11.5261,9.3808],[11.5302,9.3784],[11.5349,9.3724],[11.5359,9.3666],[11.5301,9.343],[11.5307,9.3261],[11.5818,9.3167],[11.5907,9.3108],[11.5933,9.3037],[11.599,9.3016],[11.6116,9.3036],[11.6249,9.3091],[11.6396,9.3067]]]}},{"type":"Feature","properties":{"name":"Shelleng","state":"Adamawa","scode":"AD","centroid":[9.8952,12.106]},"geometry":{"type":"Polygon","coordinates":[[[12.0709,9.6261],[12.0792,9.6246],[12.0932,9.6182],[12.1039,9.6309],[12.1067,9.6473],[12.1601,9.6521],[12.1693,9.6521],[12.1831,9.6489],[12.2143,9.6507],[12.2273,9.6559],[12.2515,9.6657],[12.2435,9.6794],[12.2313,9.7052],[12.2176,9.7059],[12.2124,9.708],[12.2147,9.7298],[12.2054,9.7458],[12.2054,9.7503],[12.1985,9.7629],[12.1796,9.8126],[12.1707,9.8107],[12.1677,9.8126],[12.171,9.8151],[12.1754,9.8264],[12.1809,9.8319],[12.1811,9.835],[12.1859,9.837],[12.197,9.8369],[12.2006,9.8384],[12.2193,9.8537],[12.2325,9.8588],[12.2297,9.8697],[12.2251,9.8771],[12.2194,9.8959],[12.222,9.908],[12.2221,9.9263],[12.2256,9.9377],[12.2188,9.9448],[12.2034,9.9497],[12.1902,9.9684],[12.1827,9.9822],[12.1794,10.002],[12.1638,10.0198],[12.1651,10.0601],[12.1972,10.0834],[12.2006,10.0899],[12.1716,10.1291],[12.1767,10.1313],[12.1792,10.1343],[12.1786,10.1375],[12.1828,10.1402],[12.1811,10.1466],[12.1923,10.1594],[12.2141,10.1675],[12.207,10.1941],[12.2351,10.2113],[12.2639,10.2138],[12.2776,10.2269],[12.266,10.2464],[12.2127,10.2808],[12.2008,10.2779],[12.1938,10.2729],[12.1791,10.2717],[12.1732,10.2687],[12.1746,10.2644],[12.1689,10.2623],[12.1633,10.2622],[12.1609,10.257],[12.1502,10.2502],[12.136,10.2367],[12.135,10.2333],[12.1374,10.2295],[12.1349,10.2276],[12.1333,10.2206],[12.1301,10.2171],[12.1297,10.2108],[12.1265,10.2036],[12.1089,10.1868],[12.1025,10.1638],[12.089,10.1425],[12.0887,10.1344],[12.0938,10.1173],[12.0913,10.1013],[12.1028,10.0934],[12.1013,10.0744],[12.0966,10.0679],[12.0868,10.0605],[12.0752,10.0586],[12.0554,10.0588],[12.0472,10.0568],[12.0343,10.0578],[12.0235,10.0628],[12.0188,10.0669],[12.0112,10.0599],[12.0043,10.0474],[11.9912,10.0353],[12.0031,10.0222],[11.9814,9.9757],[11.9826,9.9689],[11.9802,9.9403],[11.9767,9.9335],[11.9767,9.9266],[11.979,9.9163],[11.994,9.8991],[11.9986,9.8889],[12.0008,9.8306],[12.0053,9.7906],[11.9907,9.7626],[11.9671,9.7593],[11.9615,9.7393],[12.0109,9.7243],[12.0029,9.721],[11.9856,9.6927],[11.9813,9.6816],[11.9959,9.6647],[12.0075,9.6603],[12.0107,9.642],[12.0012,9.6472],[11.9855,9.6472],[11.977,9.6523],[11.9668,9.65],[11.9476,9.6486],[11.9205,9.6649],[11.9008,9.6709],[11.9012,9.6603],[11.92,9.6424],[11.96,9.5978],[11.9647,9.5999],[11.9825,9.6022],[11.9931,9.6006],[12.0148,9.612],[12.0129,9.6221],[12.015,9.6321],[12.0233,9.6331],[12.0345,9.6269],[12.0402,9.6323],[12.0709,9.6261]]]}},{"type":"Feature","properties":{"name":"Song","state":"Adamawa","scode":"AD","centroid":[9.8227,12.6211]},"geometry":{"type":"Polygon","coordinates":[[[12.6484,9.562],[12.6764,9.5952],[12.7186,9.577],[12.721,9.5658],[12.714,9.5567],[12.7163,9.5501],[12.7303,9.5516],[12.7334,9.5496],[12.7362,9.5512],[12.7365,9.5567],[12.7438,9.5629],[12.7425,9.5645],[12.7434,9.5673],[12.7611,9.5784],[12.7599,9.5829],[12.7636,9.6012],[12.7665,9.6061],[12.7651,9.6082],[12.759,9.6099],[12.7597,9.6116],[12.7614,9.6138],[12.7671,9.6142],[12.7712,9.6113],[12.7725,9.6134],[12.7723,9.6164],[12.768,9.6185],[12.7712,9.6216],[12.7716,9.6266],[12.7678,9.6352],[12.7623,9.6371],[12.7545,9.6354],[12.7542,9.6461],[12.7587,9.6521],[12.7625,9.6608],[12.7583,9.6723],[12.7491,9.675],[12.765,9.6798],[12.7753,9.6867],[12.7949,9.6935],[12.8014,9.6935],[12.8137,9.6903],[12.8262,9.6826],[12.8287,9.694],[12.8648,9.6851],[12.8886,9.6766],[12.9447,9.6968],[12.9545,9.7253],[12.9991,9.718],[13.0447,9.7067],[13.0896,9.7093],[13.0885,9.7413],[13.0932,9.755],[13.0921,9.7745],[13.0805,9.7951],[13.0633,9.8316],[13.0587,9.8454],[13.0553,9.8717],[13.0549,9.892],[13.059,9.9053],[13.0688,9.9257],[13.0655,9.9385],[13.0676,9.9452],[13.0643,9.9571],[13.0693,9.9652],[13.0664,9.9843],[13.0474,9.9939],[13.0475,9.9997],[13.0544,10.0202],[13.0445,10.024],[13.0267,10.0214],[13.0154,10.0035],[13.0019,9.9998],[12.9803,10.0043],[12.9604,9.9935],[12.9352,10.0123],[12.8964,10.0254],[12.8758,10.0243],[12.8319,10.0059],[12.8299,10.0091],[12.8288,10.0571],[12.8242,10.0685],[12.8208,10.0833],[12.7968,10.0828],[12.782,10.0887],[12.7751,10.1016],[12.77,10.1236],[12.7688,10.1371],[12.7618,10.1395],[12.7522,10.1162],[12.721,10.1055],[12.7164,10.0785],[12.7164,10.0492],[12.7055,10.0495],[12.6947,10.0523],[12.6825,10.0506],[12.6726,10.0435],[12.6626,10.0435],[12.634,10.034],[12.6158,10.0447],[12.5927,10.0885],[12.5881,10.1133],[12.5681,10.0961],[12.5695,10.0448],[12.5444,10.0414],[12.5376,10.0392],[12.529,10.0425],[12.5036,10.0391],[12.4908,10.0357],[12.4712,10.0392],[12.4654,10.0313],[12.464,10.0253],[12.4534,10.019],[12.4117,10.0141],[12.4077,10.0252],[12.3947,10.0119],[12.3535,10.0187],[12.3383,9.9646],[12.3231,9.9692],[12.3109,10.0042],[12.2926,9.9913],[12.2835,9.9723],[12.2767,9.9452],[12.2696,9.9448],[12.2508,9.9386],[12.2221,9.9263],[12.222,9.908],[12.2194,9.8959],[12.2251,9.8771],[12.2297,9.8697],[12.2325,9.8588],[12.2193,9.8537],[12.2006,9.8384],[12.197,9.8369],[12.1859,9.837],[12.1811,9.835],[12.1809,9.8319],[12.1754,9.8264],[12.171,9.8151],[12.1677,9.8126],[12.1707,9.8107],[12.1796,9.8126],[12.1985,9.7629],[12.2054,9.7503],[12.2054,9.7458],[12.2147,9.7298],[12.2124,9.708],[12.2176,9.7059],[12.2313,9.7052],[12.2435,9.6794],[12.2515,9.6657],[12.2273,9.6559],[12.2298,9.5911],[12.2495,9.5627],[12.2611,9.5554],[12.2663,9.5537],[12.2709,9.5457],[12.2732,9.5331],[12.2721,9.5222],[12.2855,9.5229],[12.2869,9.5328],[12.3311,9.5411],[12.3404,9.5468],[12.3561,9.5669],[12.3606,9.5782],[12.3744,9.5789],[12.379,9.5865],[12.3795,9.5918],[12.3705,9.6064],[12.3816,9.6132],[12.3921,9.6076],[12.4136,9.6067],[12.4319,9.6015],[12.4447,9.6049],[12.4574,9.606],[12.4785,9.6121],[12.5073,9.6074],[12.5394,9.5937],[12.5611,9.5931],[12.575,9.584],[12.5917,9.5808],[12.6079,9.5844],[12.6124,9.58],[12.6245,9.5731],[12.6284,9.5666],[12.6391,9.5602],[12.6445,9.5632],[12.6484,9.562]]]}},{"type":"Feature","properties":{"name":"Toungo","state":"Adamawa","scode":"AD","centroid":[7.9703,11.8153]},"geometry":{"type":"Polygon","coordinates":[[[11.8527,7.3912],[11.8572,7.3983],[11.8714,7.4117],[11.8883,7.4222],[11.9067,7.4383],[12.0408,7.5736],[12.0436,7.5778],[12.0408,7.6286],[12.0294,7.6444],[12.025,7.6606],[12.0269,7.6864],[12.0331,7.715],[12.0436,7.7397],[12.0767,7.7964],[12.0961,7.8261],[12.1197,7.8511],[12.1411,7.8778],[12.1613,7.9132],[12.1679,7.9173],[12.1729,7.9263],[12.1758,7.9282],[12.1796,7.9286],[12.1833,7.9371],[12.189,7.9374],[12.1953,7.9423],[12.1914,7.9462],[12.1938,7.9515],[12.1899,7.9568],[12.2037,7.9649],[12.2071,7.9683],[12.21,7.9774],[12.2094,7.9812],[12.2109,7.9829],[12.2136,7.9825],[12.2131,7.9875],[12.2143,7.9903],[12.219,7.9913],[12.2211,7.9945],[12.2094,8.0034],[12.2017,8.0425],[12.1994,8.0742],[12.2015,8.1068],[12.21,8.1325],[12.2455,8.1772],[12.2556,8.1978],[12.2564,8.2128],[12.2399,8.2198],[12.2314,8.2167],[12.2223,8.2196],[12.1981,8.2211],[12.1834,8.2315],[12.1788,8.2452],[12.1684,8.2475],[12.1556,8.248],[12.1516,8.2622],[12.1358,8.2521],[12.1071,8.2278],[12.0871,8.2154],[12.0778,8.2118],[12.083,8.1941],[12.0621,8.1863],[12.0571,8.191],[12.0534,8.1895],[12.0494,8.1934],[12.0438,8.1927],[12.0405,8.194],[12.0393,8.1957],[12.0404,8.1989],[12.0378,8.2032],[12.0317,8.2077],[12.0178,8.21],[12.001,8.2209],[11.9869,8.2259],[11.9722,8.2263],[11.968,8.2407],[11.9591,8.253],[11.9456,8.2548],[11.9265,8.2489],[11.9149,8.2547],[11.8525,8.2765],[11.82,8.3307],[11.7924,8.3457],[11.7368,8.369],[11.6963,8.3908],[11.7131,8.4123],[11.7215,8.4416],[11.7163,8.4652],[11.709,8.4653],[11.6994,8.4689],[11.6902,8.4646],[11.6795,8.4626],[11.6702,8.4518],[11.6618,8.4498],[11.6558,8.4454],[11.6483,8.4424],[11.6383,8.4138],[11.6129,8.4037],[11.6298,8.3866],[11.6012,8.3522],[11.5895,8.3316],[11.5778,8.3042],[11.5661,8.2847],[11.5544,8.2596],[11.5463,8.2459],[11.523,8.215],[11.5044,8.1945],[11.4776,8.1694],[11.4695,8.1637],[11.4335,8.1317],[11.408,8.1066],[11.3905,8.0929],[11.3801,8.0827],[11.3719,8.0712],[11.3626,8.0644],[11.3579,8.0552],[11.3498,8.0438],[11.3463,8.0415],[11.3469,8.0358],[11.3521,8.0347],[11.3544,8.0324],[11.3543,8.0266],[11.3474,8.0301],[11.3427,8.0278],[11.3415,8.0187],[11.3507,8.0118],[11.3519,8.0026],[11.3542,7.9969],[11.3634,7.9843],[11.3656,7.9763],[11.3725,7.9648],[11.3932,7.9385],[11.4116,7.8984],[11.4438,7.8537],[11.4656,7.8285],[11.4725,7.8159],[11.4806,7.8124],[11.4898,7.7998],[11.4944,7.7986],[11.5003,7.7998],[11.5142,7.8158],[11.5166,7.8249],[11.5259,7.8455],[11.5412,7.8924],[11.5516,7.9033],[11.5632,7.906],[11.5904,7.908],[11.6099,7.8876],[11.6197,7.8737],[11.6324,7.8672],[11.6464,7.8658],[11.6506,7.8573],[11.6479,7.8455],[11.6462,7.8172],[11.6488,7.7908],[11.6361,7.773],[11.6321,7.7645],[11.633,7.7504],[11.6487,7.7429],[11.6827,7.7341],[11.7265,7.7192],[11.758,7.7248],[11.7648,7.6939],[11.7694,7.6824],[11.7727,7.6515],[11.7662,7.6149],[11.7666,7.6031],[11.7683,7.5984],[11.7684,7.5796],[11.7654,7.5692],[11.763,7.5475],[11.7629,7.5406],[11.7719,7.4879],[11.7857,7.4707],[11.7961,7.4547],[11.8099,7.4421],[11.8527,7.3912]]]}},{"type":"Feature","properties":{"name":"Yola North","state":"Adamawa","scode":"AD","centroid":[9.2508,12.4484]},"geometry":{"type":"Polygon","coordinates":[[[12.4406,9.2892],[12.4253,9.2937],[12.4189,9.2938],[12.4142,9.2914],[12.4074,9.2944],[12.411,9.278],[12.407,9.27],[12.397,9.2213],[12.401,9.2193],[12.4158,9.219],[12.4523,9.2209],[12.4553,9.2199],[12.4555,9.2161],[12.4621,9.2158],[12.4808,9.2211],[12.4879,9.2218],[12.4966,9.2207],[12.5113,9.2335],[12.4922,9.2622],[12.4862,9.2642],[12.4832,9.2682],[12.4774,9.2712],[12.4738,9.2785],[12.4674,9.2833],[12.4647,9.2889],[12.4608,9.2861],[12.4406,9.2892]]]}},{"type":"Feature","properties":{"name":"Yola South","state":"Adamawa","scode":"AD","centroid":[9.2554,12.3477]},"geometry":{"type":"Polygon","coordinates":[[[12.5113,9.2335],[12.4966,9.2207],[12.4879,9.2218],[12.4808,9.2211],[12.4621,9.2158],[12.4555,9.2161],[12.4553,9.2199],[12.4523,9.2209],[12.4158,9.219],[12.401,9.2193],[12.397,9.2213],[12.407,9.27],[12.411,9.278],[12.4074,9.2944],[12.4142,9.2914],[12.4189,9.2938],[12.4253,9.2937],[12.4406,9.2892],[12.4185,9.3112],[12.4012,9.3261],[12.3862,9.3421],[12.3701,9.3639],[12.3655,9.3753],[12.3551,9.3908],[12.3378,9.4108],[12.3193,9.4382],[12.3131,9.4397],[12.3043,9.4311],[12.2661,9.4333],[12.2579,9.4063],[12.2584,9.3987],[12.2317,9.3694],[12.2214,9.3786],[12.2085,9.3759],[12.1998,9.3708],[12.1986,9.3677],[12.1935,9.3623],[12.1841,9.3719],[12.1793,9.3702],[12.1739,9.3707],[12.1629,9.3752],[12.1417,9.358],[12.1046,9.3644],[12.1014,9.3624],[12.0999,9.3595],[12.1073,9.3487],[12.1012,9.3457],[12.0946,9.3458],[12.0772,9.3153],[12.0812,9.3067],[12.0746,9.2951],[12.0742,9.2739],[12.0784,9.2675],[12.1159,9.2741],[12.1446,9.256],[12.1476,9.2498],[12.1421,9.2414],[12.1455,9.2402],[12.1493,9.243],[12.1563,9.2411],[12.2016,9.2586],[12.2071,9.252],[12.2118,9.2342],[12.2193,9.2417],[12.2379,9.2532],[12.246,9.2554],[12.2506,9.2589],[12.2633,9.2611],[12.2749,9.2565],[12.3038,9.2497],[12.3165,9.2416],[12.3281,9.2302],[12.3419,9.2073],[12.3754,9.1673],[12.3519,9.1507],[12.3455,9.1311],[12.3653,9.108],[12.3283,9.0534],[12.3534,9.0437],[12.368,9.0596],[12.3727,9.0746],[12.388,9.0897],[12.4108,9.1199],[12.4562,9.1231],[12.4816,9.1101],[12.4806,9.1092],[12.4831,9.1096],[12.4849,9.1075],[12.498,9.1069],[12.5231,9.108],[12.5272,9.124],[12.572,9.0996],[12.5836,9.1088],[12.5894,9.1168],[12.5964,9.1316],[12.5952,9.1407],[12.5985,9.1479],[12.596,9.1566],[12.5993,9.1687],[12.6092,9.1864],[12.6058,9.2093],[12.607,9.2207],[12.6011,9.2488],[12.5819,9.2404],[12.5494,9.2334],[12.5153,9.2406],[12.5113,9.2335]]]}}]}