{"type":"FeatureCollection","features":[{"type":"Feature","properties":{"name":"Aguata","state":"Anambra","scode":"AN","centroid":[5.9785,7.0917]},"geometry":{"type":"Polygon","coordinates":[[[7.0367,5.9167],[7.0435,5.9235],[7.0478,5.9272],[7.0602,5.9314],[7.1077,5.9262],[7.1189,5.9218],[7.1492,5.9167],[7.1649,5.9112],[7.1888,5.8995],[7.1914,5.9004],[7.1952,5.9049],[7.2028,5.921],[7.1941,5.9272],[7.1923,5.9315],[7.1822,5.9278],[7.1771,5.9292],[7.1755,5.9321],[7.1674,5.9358],[7.1626,5.9424],[7.1592,5.9426],[7.1555,5.9465],[7.1609,5.9528],[7.163,5.9585],[7.1593,5.9659],[7.1532,5.9656],[7.1524,5.9782],[7.155,5.9857],[7.1581,5.9888],[7.1513,5.9896],[7.1479,5.9918],[7.1385,6.0052],[7.1312,6.0093],[7.1281,6.0129],[7.1312,6.0146],[7.132,6.0201],[7.1346,6.023],[7.1345,6.0269],[7.1306,6.0321],[7.1203,6.0306],[7.1174,6.0256],[7.1142,6.0269],[7.1135,6.0287],[7.1031,6.0298],[7.0997,6.0321],[7.0966,6.0383],[7.0984,6.0395],[7.0975,6.0412],[7.0987,6.0431],[7.0954,6.0492],[7.0939,6.0472],[7.0912,6.0474],[7.0862,6.0429],[7.0839,6.0425],[7.0825,6.0398],[7.0816,6.0445],[7.0678,6.0432],[7.0695,6.0394],[7.0744,6.0343],[7.0742,6.0268],[7.0739,6.0255],[7.0663,6.0267],[7.0538,6.0299],[7.0516,6.0375],[7.0434,6.0344],[7.0421,6.0401],[7.0357,6.0367],[7.0324,6.0374],[7.0354,6.0411],[7.0344,6.0442],[7.0404,6.0439],[7.0419,6.0483],[7.0472,6.0498],[7.0442,6.0524],[7.0421,6.0573],[7.0439,6.0588],[7.0381,6.0592],[7.0355,6.0514],[7.0337,6.0519],[7.0335,6.0545],[7.0305,6.055],[7.0282,6.046],[7.0192,6.0385],[7.0193,6.0367],[7.0151,6.0353],[7.008,6.0392],[7.0076,6.0377],[7.0004,6.037],[7.0014,6.0349],[6.9987,6.0338],[7.0012,6.0238],[6.9971,6.0234],[6.9979,6.0213],[6.9956,6.0095],[6.9983,5.996],[6.9997,5.9973],[7.0021,5.9941],[7.0053,5.9954],[7.0137,5.9933],[7.0158,5.9857],[7.0243,5.987],[7.0301,5.9859],[7.0326,5.9871],[7.0358,5.9854],[7.0358,5.9868],[7.0395,5.9864],[7.0413,5.9827],[7.0459,5.9831],[7.0464,5.9697],[7.0541,5.9672],[7.0553,5.9579],[7.0571,5.9564],[7.0519,5.9518],[7.0533,5.9493],[7.0472,5.9457],[7.0386,5.937],[7.0352,5.9362],[7.0336,5.9335],[7.029,5.9313],[7.0292,5.9254],[7.0367,5.9167]]]}},{"type":"Feature","properties":{"name":"Anambra East","state":"Anambra","scode":"AN","centroid":[6.4754,6.8773]},"geometry":{"type":"Polygon","coordinates":[[[6.8086,6.5894],[6.8212,6.5793],[6.8582,6.5588],[6.8448,6.53],[6.8358,6.4893],[6.8359,6.4784],[6.8451,6.4644],[6.8486,6.4504],[6.8514,6.421],[6.8546,6.4048],[6.8525,6.3901],[6.8494,6.3866],[6.8474,6.3802],[6.8439,6.3775],[6.8302,6.3742],[6.8269,6.3597],[6.8339,6.3477],[6.8327,6.3419],[6.8372,6.3338],[6.8261,6.2934],[6.7842,6.2558],[6.7822,6.2389],[6.784,6.2208],[6.7866,6.2103],[6.7859,6.2065],[6.7948,6.1991],[6.7977,6.199],[6.7991,6.2017],[6.8084,6.2051],[6.8113,6.2023],[6.8164,6.2011],[6.8178,6.2021],[6.8171,6.2061],[6.8216,6.2084],[6.8214,6.2109],[6.8197,6.211],[6.8202,6.2145],[6.8176,6.2154],[6.8192,6.2178],[6.8193,6.2252],[6.8216,6.2264],[6.8205,6.232],[6.8261,6.2318],[6.826,6.2334],[6.8418,6.2374],[6.8453,6.2413],[6.8628,6.2489],[6.8786,6.2502],[6.8916,6.2601],[6.9012,6.2754],[6.9308,6.2956],[6.9405,6.2866],[6.9472,6.2829],[6.9667,6.2829],[6.9806,6.2941],[6.9878,6.3049],[6.9756,6.3276],[6.9773,6.3343],[6.9749,6.3425],[6.9719,6.3457],[6.9712,6.3513],[6.9638,6.3626],[6.9692,6.3929],[6.9641,6.4079],[6.9533,6.4198],[6.9087,6.3966],[6.8918,6.412],[6.8957,6.4341],[6.8925,6.4555],[6.8933,6.4926],[6.9107,6.5159],[6.9043,6.5484],[6.8998,6.5549],[6.9048,6.5657],[6.9051,6.5709],[6.9098,6.5718],[6.9142,6.5692],[6.9207,6.5709],[6.9236,6.5736],[6.9235,6.5773],[6.9167,6.5827],[6.915,6.5864],[6.9176,6.5912],[6.9261,6.5961],[6.9311,6.6093],[6.9423,6.6225],[6.9342,6.6372],[6.9385,6.647],[6.9363,6.6578],[6.9389,6.6585],[6.9418,6.6624],[6.9404,6.6665],[6.9334,6.6696],[6.932,6.6724],[6.9331,6.6799],[6.9354,6.6798],[6.9383,6.6767],[6.9419,6.6767],[6.9452,6.6804],[6.9465,6.6866],[6.9431,6.693],[6.9436,6.6984],[6.9423,6.7028],[6.9393,6.7033],[6.9356,6.6956],[6.9306,6.6957],[6.9269,6.6985],[6.9229,6.6991],[6.9187,6.6986],[6.9131,6.6954],[6.9098,6.6964],[6.861,6.7534],[6.8338,6.7222],[6.8064,6.7031],[6.8003,6.6935],[6.799,6.6795],[6.809,6.6159],[6.8086,6.5894]]]}},{"type":"Feature","properties":{"name":"Anambra West","state":"Anambra","scode":"AN","centroid":[6.4187,6.7653]},"geometry":{"type":"Polygon","coordinates":[[[6.6617,6.5579],[6.6689,6.5012],[6.6739,6.4683],[6.6818,6.4557],[6.6921,6.4184],[6.6998,6.3817],[6.7073,6.3686],[6.7128,6.3534],[6.7221,6.2827],[6.7231,6.2656],[6.7262,6.2599],[6.731,6.2391],[6.7427,6.2094],[6.7537,6.1928],[6.7626,6.1856],[6.7812,6.1855],[6.7859,6.2065],[6.7866,6.2103],[6.784,6.2208],[6.7822,6.2389],[6.7842,6.2558],[6.8261,6.2934],[6.8372,6.3338],[6.8327,6.3419],[6.8339,6.3477],[6.8269,6.3597],[6.8302,6.3742],[6.8439,6.3775],[6.8474,6.3802],[6.8494,6.3866],[6.8525,6.3901],[6.8546,6.4048],[6.8514,6.421],[6.8486,6.4504],[6.8451,6.4644],[6.8359,6.4784],[6.8358,6.4893],[6.8448,6.53],[6.8582,6.5588],[6.8212,6.5793],[6.8086,6.5894],[6.8081,6.5802],[6.7933,6.5723],[6.7641,6.5636],[6.7157,6.5603],[6.672,6.5675],[6.6617,6.5579]]]}},{"type":"Feature","properties":{"name":"Anaocha","state":"Anambra","scode":"AN","centroid":[6.0887,7.0162]},"geometry":{"type":"Polygon","coordinates":[[[6.9719,6.0287],[6.9795,6.029],[6.9789,6.0314],[6.9815,6.0324],[6.983,6.0309],[6.9848,6.0324],[6.9885,6.0319],[6.9887,6.0342],[6.9901,6.0338],[6.9929,6.0369],[6.9936,6.0325],[6.9987,6.0338],[7.0014,6.0349],[7.0004,6.037],[7.0076,6.0377],[7.008,6.0392],[7.0151,6.0353],[7.0193,6.0367],[7.0192,6.0385],[7.0282,6.046],[7.0305,6.055],[7.0335,6.0545],[7.0337,6.0519],[7.0355,6.0514],[7.0381,6.0592],[7.0439,6.0588],[7.0421,6.0573],[7.0442,6.0524],[7.0517,6.0545],[7.0551,6.0524],[7.0564,6.0555],[7.0631,6.0544],[7.0618,6.0571],[7.0639,6.0572],[7.0669,6.0626],[7.0693,6.0625],[7.0697,6.0642],[7.0736,6.0669],[7.0742,6.0788],[7.072,6.0778],[7.0677,6.0794],[7.0672,6.0947],[7.071,6.0988],[7.0758,6.109],[7.0767,6.1169],[7.0648,6.118],[7.0599,6.1329],[7.0553,6.1255],[7.0514,6.1318],[7.0456,6.1301],[7.0348,6.1386],[7.0348,6.1364],[7.0274,6.1381],[7.0207,6.1356],[7.0173,6.1395],[7.0148,6.1388],[7.0124,6.1408],[7.0141,6.1449],[7.013,6.1452],[7.0127,6.1531],[7.0144,6.1558],[7.014,6.158],[7.0153,6.157],[7.0142,6.1605],[7.0107,6.1636],[7.0163,6.1652],[7.0162,6.1684],[7.0143,6.1694],[7.0068,6.1665],[7.0083,6.1604],[7.0062,6.1571],[7.0087,6.1486],[7.0063,6.1426],[6.9994,6.1325],[6.9957,6.1341],[6.9793,6.132],[6.9694,6.1234],[6.9713,6.1199],[6.9687,6.1054],[6.9699,6.1013],[6.9675,6.101],[6.9665,6.0989],[6.9653,6.0995],[6.9626,6.0955],[6.9635,6.0932],[6.9691,6.0951],[6.9699,6.0971],[6.974,6.0951],[6.976,6.0917],[6.9751,6.0864],[6.9767,6.0852],[6.9727,6.0821],[6.9704,6.0752],[6.9694,6.0769],[6.9686,6.0758],[6.9698,6.0698],[6.9678,6.0677],[6.9683,6.0617],[6.9726,6.0596],[6.9724,6.0578],[6.9758,6.0535],[6.9746,6.0512],[6.9754,6.0498],[6.9703,6.0472],[6.9679,6.0477],[6.9667,6.0456],[6.9621,6.0454],[6.9604,6.042],[6.9589,6.0424],[6.9575,6.0401],[6.9612,6.0373],[6.9639,6.0323],[6.9697,6.0307],[6.9719,6.0287]]]}},{"type":"Feature","properties":{"name":"Awka North","state":"Anambra","scode":"AN","centroid":[6.3396,7.0606]},"geometry":{"type":"Polygon","coordinates":[[[7.1602,6.3034],[7.1618,6.3156],[7.1589,6.323],[7.1523,6.3289],[7.1419,6.3597],[7.1418,6.3799],[7.1439,6.3883],[7.1307,6.3994],[7.1154,6.4015],[7.1,6.4187],[7.0894,6.4263],[7.0706,6.4288],[7.0635,6.4279],[7.0648,6.4372],[7.0387,6.4402],[7.0322,6.4424],[7.0318,6.4508],[7.0244,6.4504],[7.0084,6.4378],[6.9533,6.4198],[6.9641,6.4079],[6.9692,6.3929],[6.9638,6.3626],[6.9712,6.3513],[6.9719,6.3457],[6.9749,6.3425],[6.9773,6.3343],[6.9756,6.3276],[6.9878,6.3049],[6.993,6.2917],[7.0012,6.2902],[7.0023,6.2821],[7.0013,6.2651],[7.0078,6.2601],[7.0104,6.2561],[7.0103,6.2411],[7.0184,6.2369],[7.0295,6.2359],[7.0355,6.2367],[7.0471,6.2474],[7.0497,6.248],[7.0562,6.2446],[7.0626,6.2565],[7.0791,6.2635],[7.0806,6.2665],[7.0875,6.2711],[7.0906,6.269],[7.0951,6.2685],[7.0971,6.2609],[7.1011,6.2609],[7.1044,6.256],[7.1031,6.2537],[7.107,6.2475],[7.1178,6.2364],[7.1252,6.2224],[7.1292,6.2227],[7.1294,6.2164],[7.1348,6.2158],[7.1356,6.2112],[7.1387,6.2111],[7.1506,6.2286],[7.1507,6.23],[7.1434,6.2356],[7.1453,6.2363],[7.1455,6.2404],[7.1423,6.2439],[7.1448,6.246],[7.1455,6.25],[7.1484,6.251],[7.147,6.2558],[7.1491,6.2625],[7.1426,6.2891],[7.1504,6.2969],[7.1602,6.3034]]]}},{"type":"Feature","properties":{"name":"Awka South","state":"Anambra","scode":"AN","centroid":[6.1899,7.0787]},"geometry":{"type":"Polygon","coordinates":[[[7.1387,6.2111],[7.1356,6.2112],[7.1348,6.2158],[7.1294,6.2164],[7.1292,6.2227],[7.1252,6.2224],[7.1178,6.2364],[7.107,6.2475],[7.1031,6.2537],[7.1044,6.256],[7.1011,6.2609],[7.0971,6.2609],[7.0951,6.2685],[7.0906,6.269],[7.0875,6.2711],[7.0806,6.2665],[7.0791,6.2635],[7.0626,6.2565],[7.0562,6.2446],[7.0497,6.248],[7.0471,6.2474],[7.0355,6.2367],[7.0295,6.2359],[7.0276,6.2292],[7.0307,6.2242],[7.0326,6.2234],[7.0344,6.2257],[7.0361,6.2239],[7.033,6.2163],[7.027,6.219],[7.0252,6.2087],[7.0219,6.203],[7.022,6.2009],[7.0302,6.2023],[7.0277,6.1979],[7.0323,6.1947],[7.0337,6.1881],[7.0376,6.1866],[7.0382,6.1837],[7.0396,6.1838],[7.0408,6.1723],[7.0295,6.1721],[7.0248,6.1759],[7.0236,6.1742],[7.0205,6.1757],[7.02,6.1734],[7.0165,6.174],[7.0176,6.172],[7.0153,6.1719],[7.017,6.1702],[7.0162,6.1684],[7.0163,6.1652],[7.0107,6.1636],[7.0142,6.1605],[7.0153,6.157],[7.014,6.158],[7.0144,6.1558],[7.0127,6.1531],[7.013,6.1452],[7.0141,6.1449],[7.0124,6.1408],[7.0148,6.1388],[7.0173,6.1395],[7.0207,6.1356],[7.0274,6.1381],[7.0348,6.1364],[7.0348,6.1386],[7.0456,6.1301],[7.0514,6.1318],[7.0553,6.1255],[7.0599,6.1329],[7.0648,6.118],[7.0767,6.1169],[7.084,6.1118],[7.0865,6.1121],[7.0893,6.1174],[7.094,6.1211],[7.0953,6.1312],[7.1002,6.141],[7.1073,6.1451],[7.1085,6.1507],[7.1231,6.1546],[7.1232,6.1563],[7.1272,6.1604],[7.1319,6.1625],[7.1501,6.1764],[7.1507,6.1783],[7.1387,6.2111]]]}},{"type":"Feature","properties":{"name":"Ayamelum","state":"Anambra","scode":"AN","centroid":[6.5674,6.9957]},"geometry":{"type":"Polygon","coordinates":[[[6.9393,6.7033],[6.9423,6.7028],[6.9436,6.6984],[6.9431,6.693],[6.9465,6.6866],[6.9452,6.6804],[6.9419,6.6767],[6.9383,6.6767],[6.9354,6.6798],[6.9331,6.6799],[6.932,6.6724],[6.9334,6.6696],[6.9404,6.6665],[6.9418,6.6624],[6.9389,6.6585],[6.9363,6.6578],[6.9385,6.647],[6.9342,6.6372],[6.9423,6.6225],[6.9311,6.6093],[6.9261,6.5961],[6.9176,6.5912],[6.915,6.5864],[6.9167,6.5827],[6.9235,6.5773],[6.9236,6.5736],[6.9207,6.5709],[6.9142,6.5692],[6.9098,6.5718],[6.9051,6.5709],[6.9048,6.5657],[6.8998,6.5549],[6.9043,6.5484],[6.9107,6.5159],[6.8933,6.4926],[6.8925,6.4555],[6.8957,6.4341],[6.8918,6.412],[6.9087,6.3966],[6.9533,6.4198],[7.0084,6.4378],[7.0244,6.4504],[7.0318,6.4508],[7.0331,6.4637],[7.0363,6.4738],[7.0454,6.4712],[7.0497,6.4744],[7.0463,6.5008],[7.0463,6.5122],[7.0485,6.5274],[7.0554,6.5453],[7.0633,6.5549],[7.0781,6.5575],[7.0842,6.5623],[7.092,6.5758],[7.1095,6.5932],[7.1156,6.6033],[7.1177,6.6155],[7.1247,6.6259],[7.1286,6.6355],[7.1317,6.6434],[7.1326,6.6521],[7.1291,6.6595],[7.1016,6.6756],[7.0903,6.6773],[7.0702,6.6856],[7.0506,6.6826],[7.0463,6.6874],[7.0166,6.7061],[7.0075,6.7087],[6.9909,6.7131],[6.9827,6.7131],[6.9565,6.71],[6.9439,6.7061],[6.9393,6.7033]]]}},{"type":"Feature","properties":{"name":"Dunukofia","state":"Anambra","scode":"AN","centroid":[6.2143,6.9611]},"geometry":{"type":"Polygon","coordinates":[[[6.8893,6.157],[6.8917,6.1467],[6.8912,6.1433],[6.9008,6.1409],[6.9111,6.1402],[6.9158,6.1507],[6.9192,6.1499],[6.9312,6.1533],[6.9332,6.1517],[6.9403,6.1531],[6.9459,6.1547],[6.9477,6.1585],[6.9534,6.1591],[6.9534,6.1654],[6.9603,6.1686],[6.9551,6.1749],[6.95,6.1768],[6.9531,6.1839],[6.9747,6.1853],[6.9868,6.1845],[6.9903,6.1907],[6.993,6.1912],[6.9993,6.1977],[7.0021,6.2022],[6.991,6.21],[6.9954,6.2305],[7.0007,6.2368],[7.0103,6.2411],[7.0104,6.2561],[7.0078,6.2601],[7.0013,6.2651],[7.0023,6.2821],[7.0012,6.2902],[6.993,6.2917],[6.9878,6.3049],[6.9806,6.2941],[6.9667,6.2829],[6.9675,6.2751],[6.966,6.2717],[6.9612,6.2679],[6.9649,6.2522],[6.9646,6.2457],[6.9573,6.238],[6.9592,6.2199],[6.9524,6.219],[6.9462,6.2141],[6.946,6.2116],[6.9299,6.2119],[6.9285,6.2034],[6.9219,6.1868],[6.9112,6.1842],[6.9102,6.1805],[6.9068,6.1819],[6.9058,6.1797],[6.9094,6.1767],[6.9094,6.1664],[6.9034,6.1651],[6.9018,6.1596],[6.8893,6.157]]]}},{"type":"Feature","properties":{"name":"Ekwusigo","state":"Anambra","scode":"AN","centroid":[5.9882,6.8293]},"geometry":{"type":"Polygon","coordinates":[[[6.7775,6.0565],[6.7765,6.0171],[6.7827,6.0176],[6.7953,6.0062],[6.7957,6.005],[6.7919,6.0022],[6.8028,5.9908],[6.8004,5.9735],[6.7949,5.9618],[6.7989,5.9499],[6.801,5.9272],[6.8146,5.9217],[6.8107,5.9121],[6.8264,5.9063],[6.8358,5.916],[6.8387,5.9164],[6.8615,5.9324],[6.8678,5.9339],[6.8686,5.9346],[6.8638,5.9434],[6.872,5.9575],[6.8712,5.963],[6.873,5.9641],[6.8693,5.9676],[6.8708,5.9714],[6.8725,5.9713],[6.878,5.9774],[6.8742,5.9852],[6.8742,5.9895],[6.8635,5.9888],[6.8645,5.9924],[6.8619,5.9968],[6.869,6.0075],[6.8648,6.0103],[6.8664,6.0122],[6.8738,6.0143],[6.871,6.0157],[6.8708,6.019],[6.8641,6.0168],[6.866,6.0194],[6.8661,6.0311],[6.8683,6.0393],[6.8697,6.0428],[6.8752,6.0485],[6.8761,6.0551],[6.8734,6.056],[6.8728,6.0576],[6.8671,6.0574],[6.8655,6.0552],[6.8665,6.0542],[6.863,6.0523],[6.8653,6.0496],[6.8578,6.0484],[6.8516,6.0442],[6.8416,6.0445],[6.8345,6.0411],[6.8212,6.0419],[6.8093,6.0502],[6.8043,6.0519],[6.7775,6.0565]]]}},{"type":"Feature","properties":{"name":"Idemili North","state":"Anambra","scode":"AN","centroid":[6.1232,6.8888]},"geometry":{"type":"Polygon","coordinates":[[[6.9635,6.0932],[6.9626,6.0955],[6.9653,6.0995],[6.9665,6.0989],[6.9675,6.101],[6.9699,6.1013],[6.9687,6.1054],[6.9713,6.1199],[6.9694,6.1234],[6.9793,6.132],[6.9785,6.1377],[6.9713,6.1447],[6.9624,6.1588],[6.9534,6.1591],[6.9477,6.1585],[6.9459,6.1547],[6.9403,6.1531],[6.9332,6.1517],[6.9312,6.1533],[6.9192,6.1499],[6.9158,6.1507],[6.9111,6.1402],[6.9008,6.1409],[6.8912,6.1433],[6.8917,6.1467],[6.8893,6.157],[6.8878,6.1652],[6.8828,6.1601],[6.8773,6.1625],[6.8724,6.1621],[6.8722,6.1603],[6.8661,6.1601],[6.8646,6.1608],[6.8651,6.1618],[6.8592,6.1632],[6.8531,6.1712],[6.8524,6.1755],[6.8484,6.1796],[6.8468,6.174],[6.8456,6.1746],[6.843,6.1704],[6.8383,6.1711],[6.8319,6.1752],[6.8275,6.1712],[6.8251,6.1724],[6.8203,6.1692],[6.8267,6.1538],[6.8284,6.1522],[6.8352,6.155],[6.8373,6.1523],[6.8378,6.1505],[6.8336,6.1474],[6.8328,6.1434],[6.8343,6.1324],[6.8285,6.1282],[6.8245,6.1208],[6.8206,6.1187],[6.8185,6.1206],[6.8161,6.1186],[6.8137,6.1207],[6.8108,6.1207],[6.8089,6.1182],[6.8053,6.1216],[6.8025,6.1193],[6.8033,6.1153],[6.7949,6.1137],[6.795,6.1123],[6.7929,6.1112],[6.7979,6.1033],[6.8125,6.0937],[6.8138,6.0929],[6.8262,6.0979],[6.8386,6.0992],[6.8453,6.097],[6.8441,6.0889],[6.8478,6.0819],[6.8447,6.0763],[6.8466,6.0738],[6.8648,6.078],[6.8745,6.0841],[6.8737,6.0802],[6.8779,6.0784],[6.8863,6.0819],[6.8935,6.088],[6.8932,6.0922],[6.8965,6.0923],[6.9041,6.0992],[6.9116,6.0947],[6.916,6.0968],[6.9197,6.0935],[6.9171,6.09],[6.9262,6.086],[6.9316,6.088],[6.9292,6.092],[6.9358,6.0978],[6.9406,6.0948],[6.943,6.0952],[6.9444,6.093],[6.9516,6.098],[6.9557,6.095],[6.9575,6.0959],[6.961,6.0927],[6.9635,6.0932]]]}},{"type":"Feature","properties":{"name":"Idemili South","state":"Anambra","scode":"AN","centroid":[6.0654,6.8886]},"geometry":{"type":"Polygon","coordinates":[[[6.9719,6.0287],[6.9697,6.0307],[6.9639,6.0323],[6.9612,6.0373],[6.9575,6.0401],[6.9589,6.0424],[6.9604,6.042],[6.9621,6.0454],[6.9667,6.0456],[6.9679,6.0477],[6.9703,6.0472],[6.9754,6.0498],[6.9746,6.0512],[6.9758,6.0535],[6.9724,6.0578],[6.9726,6.0596],[6.9683,6.0617],[6.9678,6.0677],[6.9698,6.0698],[6.9686,6.0758],[6.9694,6.0769],[6.9704,6.0752],[6.9727,6.0821],[6.9767,6.0852],[6.9751,6.0864],[6.976,6.0917],[6.974,6.0951],[6.9699,6.0971],[6.9691,6.0951],[6.9635,6.0932],[6.961,6.0927],[6.9575,6.0959],[6.9557,6.095],[6.9516,6.098],[6.9444,6.093],[6.943,6.0952],[6.9406,6.0948],[6.9358,6.0978],[6.9292,6.092],[6.9316,6.088],[6.9262,6.086],[6.9171,6.09],[6.9197,6.0935],[6.916,6.0968],[6.9116,6.0947],[6.9041,6.0992],[6.8965,6.0923],[6.8932,6.0922],[6.8935,6.088],[6.8863,6.0819],[6.8779,6.0784],[6.8737,6.0802],[6.8745,6.0841],[6.8648,6.078],[6.8466,6.0738],[6.8447,6.0763],[6.8478,6.0819],[6.8441,6.0889],[6.8453,6.097],[6.8386,6.0992],[6.8262,6.0979],[6.8138,6.0929],[6.8125,6.0937],[6.7823,6.0766],[6.7775,6.0565],[6.8043,6.0519],[6.8093,6.0502],[6.8212,6.0419],[6.8345,6.0411],[6.8416,6.0445],[6.8516,6.0442],[6.8578,6.0484],[6.8653,6.0496],[6.863,6.0523],[6.8665,6.0542],[6.8655,6.0552],[6.8671,6.0574],[6.8728,6.0576],[6.8734,6.056],[6.8761,6.0551],[6.8789,6.0537],[6.8806,6.0588],[6.8841,6.0579],[6.8871,6.0703],[6.8914,6.0711],[6.9008,6.0672],[6.9028,6.059],[6.909,6.0575],[6.9128,6.0531],[6.916,6.0531],[6.9177,6.0497],[6.9197,6.0507],[6.9214,6.0495],[6.9185,6.045],[6.9209,6.0439],[6.9243,6.0365],[6.924,6.029],[6.9292,6.0189],[6.931,6.0176],[6.9419,6.0194],[6.9438,6.0191],[6.9437,6.0176],[6.9511,6.0197],[6.9553,6.0241],[6.96,6.0215],[6.9619,6.0258],[6.9677,6.0179],[6.9706,6.0184],[6.9707,6.0236],[6.9737,6.0233],[6.9719,6.0287]]]}},{"type":"Feature","properties":{"name":"Ihiala","state":"Anambra","scode":"AN","centroid":[5.8541,6.8587]},"geometry":{"type":"Polygon","coordinates":[[[6.8678,5.9339],[6.8615,5.9324],[6.8387,5.9164],[6.8358,5.916],[6.8264,5.9063],[6.8107,5.9121],[6.8146,5.9217],[6.801,5.9272],[6.7873,5.9043],[6.7815,5.9019],[6.7678,5.8998],[6.7612,5.8927],[6.7599,5.885],[6.7549,5.8852],[6.7527,5.8886],[6.7484,5.8896],[6.7422,5.8738],[6.7598,5.8525],[6.7673,5.8359],[6.7755,5.8296],[6.7843,5.8089],[6.8008,5.7846],[6.8107,5.7876],[6.8127,5.787],[6.8465,5.7658],[6.8655,5.7479],[6.8723,5.7444],[6.8766,5.7441],[6.8795,5.7455],[6.8837,5.7541],[6.8855,5.7871],[6.8898,5.8063],[6.9014,5.8168],[6.9204,5.8259],[6.9334,5.8304],[6.9484,5.8386],[6.9539,5.8455],[6.956,5.8506],[6.9795,5.8745],[6.9937,5.8952],[6.9813,5.9048],[6.972,5.9024],[6.961,5.9036],[6.9558,5.907],[6.9554,5.9051],[6.9534,5.9043],[6.9481,5.9056],[6.949,5.9023],[6.9421,5.8953],[6.9376,5.8991],[6.9371,5.9032],[6.9302,5.9017],[6.9309,5.9049],[6.9269,5.9078],[6.926,5.911],[6.9143,5.9105],[6.899,5.9125],[6.8931,5.9162],[6.8919,5.9193],[6.8897,5.919],[6.8839,5.9238],[6.8806,5.929],[6.8678,5.9339]]]}},{"type":"Feature","properties":{"name":"Njikoka","state":"Anambra","scode":"AN","centroid":[6.1834,6.9989]},"geometry":{"type":"Polygon","coordinates":[[[6.9793,6.132],[6.9957,6.1341],[6.9994,6.1325],[7.0063,6.1426],[7.0087,6.1486],[7.0062,6.1571],[7.0083,6.1604],[7.0068,6.1665],[7.0143,6.1694],[7.0162,6.1684],[7.017,6.1702],[7.0153,6.1719],[7.0176,6.172],[7.0165,6.174],[7.02,6.1734],[7.0205,6.1757],[7.0236,6.1742],[7.0248,6.1759],[7.0295,6.1721],[7.0408,6.1723],[7.0396,6.1838],[7.0382,6.1837],[7.0376,6.1866],[7.0337,6.1881],[7.0323,6.1947],[7.0277,6.1979],[7.0302,6.2023],[7.022,6.2009],[7.0219,6.203],[7.0252,6.2087],[7.027,6.219],[7.033,6.2163],[7.0361,6.2239],[7.0344,6.2257],[7.0326,6.2234],[7.0307,6.2242],[7.0276,6.2292],[7.0295,6.2359],[7.0184,6.2369],[7.0103,6.2411],[7.0007,6.2368],[6.9954,6.2305],[6.991,6.21],[7.0021,6.2022],[6.9993,6.1977],[6.993,6.1912],[6.9903,6.1907],[6.9868,6.1845],[6.9747,6.1853],[6.9531,6.1839],[6.95,6.1768],[6.9551,6.1749],[6.9603,6.1686],[6.9534,6.1654],[6.9534,6.1591],[6.9624,6.1588],[6.9713,6.1447],[6.9785,6.1377],[6.9793,6.132]]]}},{"type":"Feature","properties":{"name":"Nnewi North","state":"Anambra","scode":"AN","centroid":[6.0139,6.9041]},"geometry":{"type":"Polygon","coordinates":[[[6.8761,6.0551],[6.8752,6.0485],[6.8697,6.0428],[6.8683,6.0393],[6.8661,6.0311],[6.866,6.0194],[6.8641,6.0168],[6.8708,6.019],[6.871,6.0157],[6.8738,6.0143],[6.8664,6.0122],[6.8648,6.0103],[6.869,6.0075],[6.8619,5.9968],[6.8645,5.9924],[6.8635,5.9888],[6.8742,5.9895],[6.8742,5.9852],[6.878,5.9774],[6.8799,5.9767],[6.8796,5.9753],[6.8818,5.9763],[6.884,5.9753],[6.8906,5.9814],[6.8912,5.9798],[6.8943,5.9798],[6.8954,5.9782],[6.9022,5.9824],[6.9105,5.9756],[6.9099,5.9779],[6.9111,5.9784],[6.9209,5.9799],[6.9255,5.9684],[6.9332,5.9713],[6.9362,5.9755],[6.9409,5.9729],[6.9427,5.9731],[6.9431,5.9752],[6.9462,5.9754],[6.9514,5.9695],[6.955,5.9758],[6.9448,5.9822],[6.9462,5.9857],[6.9458,5.9926],[6.9492,5.9917],[6.9518,5.9927],[6.9523,5.998],[6.9505,5.9987],[6.9516,6.0027],[6.9502,6.0056],[6.9466,6.0076],[6.9458,6.0097],[6.9473,6.0104],[6.945,6.0141],[6.9465,6.015],[6.9434,6.0158],[6.9437,6.0176],[6.9438,6.0191],[6.9419,6.0194],[6.931,6.0176],[6.9292,6.0189],[6.924,6.029],[6.9243,6.0365],[6.9209,6.0439],[6.9185,6.045],[6.9214,6.0495],[6.9197,6.0507],[6.9177,6.0497],[6.916,6.0531],[6.9128,6.0531],[6.909,6.0575],[6.9028,6.059],[6.9008,6.0672],[6.8914,6.0711],[6.8871,6.0703],[6.8841,6.0579],[6.8806,6.0588],[6.8789,6.0537],[6.8761,6.0551]]]}},{"type":"Feature","properties":{"name":"Nnewi South","state":"Anambra","scode":"AN","centroid":[5.9545,6.9644]},"geometry":{"type":"Polygon","coordinates":[[[6.9437,6.0176],[6.9434,6.0158],[6.9465,6.015],[6.945,6.0141],[6.9473,6.0104],[6.9458,6.0097],[6.9466,6.0076],[6.9502,6.0056],[6.9516,6.0027],[6.9505,5.9987],[6.9523,5.998],[6.9518,5.9927],[6.9492,5.9917],[6.9458,5.9926],[6.9462,5.9857],[6.9448,5.9822],[6.955,5.9758],[6.9514,5.9695],[6.9462,5.9754],[6.9431,5.9752],[6.9427,5.9731],[6.9409,5.9729],[6.9362,5.9755],[6.9332,5.9713],[6.9255,5.9684],[6.9209,5.9799],[6.9111,5.9784],[6.9099,5.9779],[6.9105,5.9756],[6.9022,5.9824],[6.8954,5.9782],[6.8943,5.9798],[6.8912,5.9798],[6.8906,5.9814],[6.884,5.9753],[6.8818,5.9763],[6.8796,5.9753],[6.8799,5.9767],[6.878,5.9774],[6.8725,5.9713],[6.8708,5.9714],[6.8693,5.9676],[6.873,5.9641],[6.8712,5.963],[6.872,5.9575],[6.8638,5.9434],[6.8686,5.9346],[6.8678,5.9339],[6.8806,5.929],[6.8839,5.9238],[6.8897,5.919],[6.8919,5.9193],[6.8931,5.9162],[6.899,5.9125],[6.9143,5.9105],[6.926,5.911],[6.9269,5.9078],[6.9309,5.9049],[6.9302,5.9017],[6.9371,5.9032],[6.9376,5.8991],[6.9421,5.8953],[6.949,5.9023],[6.9481,5.9056],[6.9534,5.9043],[6.9554,5.9051],[6.9558,5.907],[6.961,5.9036],[6.972,5.9024],[6.9813,5.9048],[6.9937,5.8952],[7.0031,5.9052],[7.0092,5.9077],[7.0255,5.9098],[7.031,5.9121],[7.0367,5.9167],[7.0292,5.9254],[7.029,5.9313],[7.0336,5.9335],[7.0352,5.9362],[7.0386,5.937],[7.0472,5.9457],[7.0533,5.9493],[7.0519,5.9518],[7.0571,5.9564],[7.0553,5.9579],[7.0541,5.9672],[7.0464,5.9697],[7.0459,5.9831],[7.0413,5.9827],[7.0395,5.9864],[7.0358,5.9868],[7.0358,5.9854],[7.0326,5.9871],[7.0301,5.9859],[7.0243,5.987],[7.0158,5.9857],[7.0137,5.9933],[7.0053,5.9954],[7.0021,5.9941],[6.9997,5.9973],[6.9983,5.996],[6.9956,6.0095],[6.9979,6.0213],[6.9971,6.0234],[7.0012,6.0238],[6.9987,6.0338],[6.9936,6.0325],[6.9929,6.0369],[6.9901,6.0338],[6.9887,6.0342],[6.9885,6.0319],[6.9848,6.0324],[6.983,6.0309],[6.9815,6.0324],[6.9789,6.0314],[6.9795,6.029],[6.9719,6.0287],[6.9737,6.0233],[6.9707,6.0236],[6.9706,6.0184],[6.9677,6.0179],[6.9619,6.0258],[6.96,6.0215],[6.9553,6.0241],[6.9511,6.0197],[6.9437,6.0176]]]}},{"type":"Feature","properties":{"name":"Ogbaru","state":"Anambra","scode":"AN","centroid":[5.8895,6.7242]},"geometry":{"type":"Polygon","coordinates":[[[6.7579,6.1349],[6.7553,6.1207],[6.7492,6.1137],[6.7221,6.0975],[6.7133,6.0871],[6.7045,6.0811],[6.6991,6.061],[6.7032,6.0512],[6.7202,6.0457],[6.7255,6.0407],[6.7265,6.0289],[6.7245,6.0123],[6.7197,5.9962],[6.7165,5.981],[6.7159,5.9699],[6.7094,5.9593],[6.7001,5.9293],[6.686,5.9048],[6.6735,5.8891],[6.6609,5.8565],[6.6579,5.8404],[6.6508,5.8171],[6.6472,5.7853],[6.6483,5.7717],[6.6436,5.7473],[6.6391,5.7395],[6.6006,5.7066],[6.6019,5.6875],[6.626,5.6835],[6.6531,5.6816],[6.6689,5.6899],[6.6794,5.6958],[6.6913,5.6997],[6.6949,5.7462],[6.7143,5.7613],[6.7301,5.7507],[6.7514,5.7496],[6.7617,5.7578],[6.794,5.7742],[6.8008,5.7846],[6.7843,5.8089],[6.7755,5.8296],[6.7673,5.8359],[6.7598,5.8525],[6.7422,5.8738],[6.7484,5.8896],[6.7527,5.8886],[6.7549,5.8852],[6.7599,5.885],[6.7612,5.8927],[6.7678,5.8998],[6.7815,5.9019],[6.7873,5.9043],[6.801,5.9272],[6.7989,5.9499],[6.7949,5.9618],[6.8004,5.9735],[6.8028,5.9908],[6.7919,6.0022],[6.7957,6.005],[6.7953,6.0062],[6.7827,6.0176],[6.7765,6.0171],[6.7775,6.0565],[6.7823,6.0766],[6.8125,6.0937],[6.7979,6.1033],[6.7929,6.1112],[6.795,6.1123],[6.7949,6.1137],[6.8033,6.1153],[6.8025,6.1193],[6.8053,6.1216],[6.7969,6.1296],[6.7906,6.1317],[6.784,6.1274],[6.779,6.1272],[6.7579,6.1349]]]}},{"type":"Feature","properties":{"name":"Onitsha North","state":"Anambra","scode":"AN","centroid":[6.1592,6.8005]},"geometry":{"type":"Polygon","coordinates":[[[6.7906,6.1317],[6.7969,6.1296],[6.8053,6.1216],[6.8089,6.1182],[6.8108,6.1207],[6.8137,6.1207],[6.8161,6.1186],[6.8185,6.1206],[6.8206,6.1187],[6.8245,6.1208],[6.8285,6.1282],[6.8343,6.1324],[6.8328,6.1434],[6.8336,6.1474],[6.8378,6.1505],[6.8373,6.1523],[6.8352,6.155],[6.8284,6.1522],[6.8267,6.1538],[6.8203,6.1692],[6.8168,6.1727],[6.8104,6.1736],[6.8097,6.1744],[6.8114,6.1761],[6.8091,6.1799],[6.8026,6.1791],[6.7985,6.1802],[6.8046,6.1878],[6.8057,6.1976],[6.8074,6.2007],[6.8095,6.2012],[6.8084,6.2051],[6.7991,6.2017],[6.7977,6.199],[6.7948,6.1991],[6.7859,6.2065],[6.7812,6.1855],[6.7626,6.1856],[6.7673,6.1818],[6.7694,6.168],[6.7648,6.1558],[6.768,6.1527],[6.7708,6.1525],[6.7731,6.1553],[6.7743,6.155],[6.7754,6.1513],[6.7783,6.1509],[6.7885,6.153],[6.7914,6.1425],[6.7852,6.14],[6.7924,6.1329],[6.7906,6.1317]]]}},{"type":"Feature","properties":{"name":"Onitsha South","state":"Anambra","scode":"AN","centroid":[6.141,6.7752]},"geometry":{"type":"Polygon","coordinates":[[[6.7906,6.1317],[6.7924,6.1329],[6.7852,6.14],[6.7914,6.1425],[6.7885,6.153],[6.7783,6.1509],[6.7754,6.1513],[6.7743,6.155],[6.7731,6.1553],[6.7708,6.1525],[6.768,6.1527],[6.7648,6.1558],[6.7607,6.1478],[6.7579,6.1349],[6.779,6.1272],[6.784,6.1274],[6.7906,6.1317]]]}},{"type":"Feature","properties":{"name":"Orumba North","state":"Anambra","scode":"AN","centroid":[6.1104,7.1627]},"geometry":{"type":"Polygon","coordinates":[[[7.1506,6.2286],[7.1387,6.2111],[7.1507,6.1783],[7.1501,6.1764],[7.1319,6.1625],[7.1272,6.1604],[7.1232,6.1563],[7.1231,6.1546],[7.1085,6.1507],[7.1073,6.1451],[7.1002,6.141],[7.0953,6.1312],[7.094,6.1211],[7.0893,6.1174],[7.0865,6.1121],[7.084,6.1118],[7.0767,6.1169],[7.0758,6.109],[7.071,6.0988],[7.0672,6.0947],[7.0677,6.0794],[7.072,6.0778],[7.0742,6.0788],[7.0736,6.0669],[7.0697,6.0642],[7.0693,6.0625],[7.0669,6.0626],[7.0639,6.0572],[7.0618,6.0571],[7.0631,6.0544],[7.0564,6.0555],[7.0551,6.0524],[7.0517,6.0545],[7.0442,6.0524],[7.0472,6.0498],[7.0419,6.0483],[7.0404,6.0439],[7.0344,6.0442],[7.0354,6.0411],[7.0324,6.0374],[7.0357,6.0367],[7.0421,6.0401],[7.0434,6.0344],[7.0516,6.0375],[7.0538,6.0299],[7.0663,6.0267],[7.0739,6.0255],[7.0742,6.0268],[7.0744,6.0343],[7.0695,6.0394],[7.0678,6.0432],[7.0816,6.0445],[7.0825,6.0398],[7.0839,6.0425],[7.0862,6.0429],[7.0912,6.0474],[7.0939,6.0472],[7.0954,6.0492],[7.0987,6.0431],[7.0975,6.0412],[7.0984,6.0395],[7.0966,6.0383],[7.0997,6.0321],[7.1031,6.0298],[7.1135,6.0287],[7.1142,6.0269],[7.1174,6.0256],[7.1203,6.0306],[7.1306,6.0321],[7.1345,6.0269],[7.1346,6.023],[7.132,6.0201],[7.1312,6.0146],[7.1281,6.0129],[7.1312,6.0093],[7.1385,6.0052],[7.1485,6.0128],[7.1461,6.0161],[7.1616,6.026],[7.1673,6.0333],[7.1714,6.0332],[7.1787,6.0382],[7.1807,6.0366],[7.1823,6.0314],[7.1885,6.0295],[7.1872,6.0467],[7.1918,6.0478],[7.1939,6.0457],[7.1957,6.0481],[7.1964,6.0458],[7.2005,6.0427],[7.2047,6.0472],[7.2094,6.047],[7.2102,6.0503],[7.2165,6.0497],[7.2182,6.0483],[7.2246,6.0519],[7.2356,6.052],[7.2443,6.0494],[7.2644,6.0542],[7.2708,6.079],[7.2613,6.0794],[7.2548,6.1047],[7.2497,6.1065],[7.2484,6.1087],[7.2397,6.1142],[7.2295,6.1276],[7.224,6.1426],[7.2216,6.1576],[7.2247,6.1788],[7.224,6.1914],[7.209,6.2025],[7.2043,6.2088],[7.2035,6.2182],[7.1995,6.2348],[7.1893,6.2395],[7.1506,6.2286]]]}},{"type":"Feature","properties":{"name":"Orumba South","state":"Anambra","scode":"AN","centroid":[6.0008,7.231]},"geometry":{"type":"Polygon","coordinates":[[[7.2708,6.079],[7.2644,6.0542],[7.2443,6.0494],[7.2356,6.052],[7.2246,6.0519],[7.2182,6.0483],[7.2165,6.0497],[7.2102,6.0503],[7.2094,6.047],[7.2047,6.0472],[7.2005,6.0427],[7.1964,6.0458],[7.1957,6.0481],[7.1939,6.0457],[7.1918,6.0478],[7.1872,6.0467],[7.1885,6.0295],[7.1823,6.0314],[7.1807,6.0366],[7.1787,6.0382],[7.1714,6.0332],[7.1673,6.0333],[7.1616,6.026],[7.1461,6.0161],[7.1485,6.0128],[7.1385,6.0052],[7.1479,5.9918],[7.1513,5.9896],[7.1581,5.9888],[7.155,5.9857],[7.1524,5.9782],[7.1532,5.9656],[7.1593,5.9659],[7.163,5.9585],[7.1609,5.9528],[7.1555,5.9465],[7.1592,5.9426],[7.1626,5.9424],[7.1674,5.9358],[7.1755,5.9321],[7.1771,5.9292],[7.1822,5.9278],[7.1923,5.9315],[7.1941,5.9272],[7.2028,5.921],[7.215,5.9303],[7.2288,5.9328],[7.2486,5.9319],[7.2569,5.9347],[7.261,5.9389],[7.2564,5.9505],[7.2546,5.9652],[7.264,5.9915],[7.2726,5.9977],[7.3183,5.9986],[7.3226,6.0038],[7.333,6.0314],[7.3383,6.0362],[7.3391,6.0421],[7.3038,6.045],[7.2995,6.0481],[7.2972,6.0526],[7.2973,6.0562],[7.3006,6.0656],[7.3039,6.071],[7.3096,6.0765],[7.3095,6.079],[7.2849,6.0777],[7.2708,6.079]]]}},{"type":"Feature","properties":{"name":"Oyi","state":"Anambra","scode":"AN","centroid":[6.2212,6.8903]},"geometry":{"type":"Polygon","coordinates":[[[6.8084,6.2051],[6.8095,6.2012],[6.8074,6.2007],[6.8057,6.1976],[6.8046,6.1878],[6.7985,6.1802],[6.8026,6.1791],[6.8091,6.1799],[6.8114,6.1761],[6.8097,6.1744],[6.8104,6.1736],[6.8168,6.1727],[6.8203,6.1692],[6.8251,6.1724],[6.8275,6.1712],[6.8319,6.1752],[6.8383,6.1711],[6.843,6.1704],[6.8456,6.1746],[6.8468,6.174],[6.8484,6.1796],[6.8524,6.1755],[6.8531,6.1712],[6.8592,6.1632],[6.8651,6.1618],[6.8646,6.1608],[6.8661,6.1601],[6.8722,6.1603],[6.8724,6.1621],[6.8773,6.1625],[6.8828,6.1601],[6.8878,6.1652],[6.8893,6.157],[6.9018,6.1596],[6.9034,6.1651],[6.9094,6.1664],[6.9094,6.1767],[6.9058,6.1797],[6.9068,6.1819],[6.9102,6.1805],[6.9112,6.1842],[6.9219,6.1868],[6.9285,6.2034],[6.9299,6.2119],[6.946,6.2116],[6.9462,6.2141],[6.9524,6.219],[6.9592,6.2199],[6.9573,6.238],[6.9646,6.2457],[6.9649,6.2522],[6.9612,6.2679],[6.966,6.2717],[6.9675,6.2751],[6.9667,6.2829],[6.9472,6.2829],[6.9405,6.2866],[6.9308,6.2956],[6.9012,6.2754],[6.8916,6.2601],[6.8786,6.2502],[6.8628,6.2489],[6.8453,6.2413],[6.8418,6.2374],[6.826,6.2334],[6.8261,6.2318],[6.8205,6.232],[6.8216,6.2264],[6.8193,6.2252],[6.8192,6.2178],[6.8176,6.2154],[6.8202,6.2145],[6.8197,6.211],[6.8214,6.2109],[6.8216,6.2084],[6.8171,6.2061],[6.8178,6.2021],[6.8164,6.2011],[6.8113,6.2023],[6.8084,6.2051]]]}}]}