{"type":"FeatureCollection","features":[{"type":"Feature","properties":{"name":"Alkaleri","state":"Bauchi","scode":"BA","centroid":[9.8731,10.4808]},"geometry":{"type":"Polygon","coordinates":[[[10.9691,9.6154],[10.9882,9.6302],[10.9899,9.6406],[10.985,9.6418],[10.9569,9.6686],[10.9563,9.6719],[10.9605,9.6754],[10.9601,9.6792],[10.9608,9.6958],[10.9578,9.7033],[10.9567,9.7114],[10.9618,9.7168],[10.9664,9.7311],[10.9647,9.7455],[10.9655,9.7523],[10.9747,9.7669],[10.9785,9.7698],[10.9787,9.7722],[10.9816,9.7748],[10.9776,9.8102],[10.9773,9.8127],[10.9702,9.8117],[10.9657,9.8141],[10.9612,9.8234],[10.9577,9.8345],[10.9591,9.8522],[10.9449,9.8704],[10.9454,9.8804],[10.9185,9.8997],[10.8906,9.9307],[10.8752,9.9405],[10.8659,9.9499],[10.8577,9.9557],[10.825,9.97],[10.8122,9.9793],[10.7884,10.0061],[10.7753,10.0125],[10.7277,10.0415],[10.7175,10.0499],[10.7169,10.0635],[10.7115,10.0762],[10.7134,10.0888],[10.7159,10.0945],[10.7212,10.0951],[10.7265,10.1055],[10.7384,10.121],[10.7492,10.1199],[10.7746,10.1376],[10.7867,10.1348],[10.8003,10.1348],[10.8074,10.138],[10.8186,10.1573],[10.8172,10.1695],[10.8199,10.1811],[10.8356,10.2041],[10.8393,10.2152],[10.8512,10.2242],[10.8572,10.2357],[10.8553,10.2408],[10.8345,10.2445],[10.776,10.2388],[10.7573,10.2357],[10.7355,10.2403],[10.7271,10.252],[10.7209,10.2544],[10.7031,10.2712],[10.6905,10.2638],[10.683,10.2644],[10.68,10.2629],[10.6765,10.2564],[10.6664,10.2534],[10.6659,10.2408],[10.6544,10.2334],[10.649,10.2331],[10.6415,10.2154],[10.6377,10.2137],[10.6299,10.2232],[10.6272,10.2286],[10.621,10.2341],[10.6089,10.2386],[10.6081,10.2413],[10.604,10.2452],[10.5958,10.2468],[10.5897,10.2515],[10.5809,10.2548],[10.5661,10.253],[10.5594,10.2553],[10.5521,10.2555],[10.5327,10.2508],[10.5187,10.2516],[10.4546,10.2667],[10.4431,10.2674],[10.4308,10.2724],[10.4241,10.2724],[10.4164,10.2794],[10.4145,10.2761],[10.4044,10.2784],[10.4006,10.2769],[10.399,10.2788],[10.3938,10.2765],[10.3825,10.2779],[10.3747,10.2749],[10.3656,10.2779],[10.3639,10.2802],[10.3588,10.2825],[10.3517,10.2812],[10.3506,10.2793],[10.342,10.2779],[10.3351,10.2791],[10.3308,10.2781],[10.3275,10.28],[10.3206,10.2784],[10.3174,10.2742],[10.3141,10.2737],[10.3149,10.2722],[10.3136,10.2705],[10.3087,10.2728],[10.3069,10.2705],[10.3018,10.2685],[10.2998,10.271],[10.2954,10.2703],[10.2947,10.2726],[10.2919,10.2745],[10.2889,10.2747],[10.2869,10.2786],[10.2846,10.2795],[10.2832,10.278],[10.283,10.2796],[10.28,10.2801],[10.2724,10.2795],[10.2669,10.276],[10.2628,10.2758],[10.2574,10.2692],[10.2568,10.2602],[10.2529,10.2591],[10.2533,10.2541],[10.2469,10.2283],[10.2419,10.227],[10.2347,10.2298],[10.2191,10.2297],[10.215,10.2318],[10.2039,10.2242],[10.2048,10.22],[10.2025,10.2133],[10.2094,10.2073],[10.207,10.2001],[10.2016,10.2002],[10.1945,10.1908],[10.1889,10.1926],[10.1803,10.1913],[10.1799,10.1839],[10.1779,10.1783],[10.1785,10.1722],[10.1858,10.1611],[10.1912,10.1597],[10.1785,10.1455],[10.1583,10.1129],[10.1533,10.1099],[10.1399,10.106],[10.1063,10.1033],[10.0946,10.0899],[10.0939,10.0831],[10.0961,10.0717],[10.0988,10.0691],[10.0931,10.0592],[10.0804,10.0428],[10.0824,10.0381],[10.0763,10.0315],[10.0765,10.0267],[10.0818,10.0231],[10.0818,10.0205],[10.0861,10.0182],[10.0903,10.0118],[10.0839,10.0063],[10.0763,10.0054],[10.0737,10.0019],[10.0616,10.0038],[10.057,10.0097],[10.0502,10.0231],[10.0397,10.0284],[10.033,10.0267],[10.0239,10.0203],[10.0198,10.0241],[10.017,10.0246],[10.0132,10.0219],[10.0114,9.9985],[9.9994,9.9828],[9.9746,9.9682],[9.9727,9.9654],[9.9788,9.9566],[9.9861,9.954],[9.9874,9.9514],[9.9865,9.9492],[9.9759,9.9417],[9.9652,9.9275],[9.957,9.9202],[9.9318,9.9014],[9.9231,9.8972],[9.9177,9.8967],[9.9159,9.9019],[9.9124,9.903],[9.911,9.9133],[9.9058,9.9205],[9.9029,9.9278],[9.8999,9.9318],[9.8936,9.9341],[9.8844,9.9344],[9.8769,9.9286],[9.8536,9.9305],[9.8433,9.93],[9.8367,9.9228],[9.8341,9.9223],[9.8209,9.9115],[9.8249,9.9057],[9.8332,9.8986],[9.846,9.8818],[9.8412,9.8753],[9.8406,9.8646],[9.8484,9.8623],[9.8505,9.858],[9.8503,9.8519],[9.8564,9.8479],[9.8656,9.8579],[9.8969,9.8491],[9.9141,9.8492],[9.9241,9.8248],[9.9193,9.818],[9.9116,9.8111],[9.9066,9.7999],[9.8969,9.7979],[9.895,9.7953],[9.8926,9.7912],[9.8856,9.7633],[9.8902,9.7528],[9.9206,9.7328],[9.9304,9.7153],[9.9475,9.7072],[9.96,9.7049],[9.9726,9.6995],[9.9843,9.713],[9.9956,9.7182],[10.0057,9.7176],[10.0135,9.7191],[10.0388,9.7271],[10.0418,9.7305],[10.0468,9.7289],[10.0485,9.726],[10.0534,9.729],[10.0711,9.7308],[10.0849,9.7247],[10.096,9.7242],[10.1033,9.7195],[10.1049,9.7105],[10.1037,9.7009],[10.1088,9.6906],[10.1153,9.6937],[10.1217,9.6942],[10.1299,9.6923],[10.1432,9.6921],[10.1465,9.6903],[10.15,9.6807],[10.1522,9.6788],[10.1652,9.6841],[10.1995,9.6898],[10.2068,9.6884],[10.2265,9.6901],[10.2606,9.6871],[10.2649,9.6813],[10.2674,9.6811],[10.2924,9.6655],[10.2954,9.6582],[10.3003,9.6527],[10.3118,9.644],[10.3269,9.64],[10.353,9.6161],[10.3729,9.6034],[10.3827,9.5981],[10.4043,9.5913],[10.4162,9.5841],[10.4238,9.5845],[10.4397,9.5755],[10.4534,9.5703],[10.4654,9.5612],[10.479,9.5579],[10.4889,9.5526],[10.4913,9.543],[10.4997,9.528],[10.5076,9.5225],[10.523,9.4884],[10.541,9.4835],[10.6178,9.4628],[10.7735,9.4473],[10.9172,9.5545],[10.9563,9.6057],[10.9691,9.6154]]]}},{"type":"Feature","properties":{"name":"Bauchi","state":"Bauchi","scode":"BA","centroid":[10.2365,9.9048]},"geometry":{"type":"Polygon","coordinates":[[[10.28,10.2801],[10.2706,10.2931],[10.2703,10.3038],[10.2653,10.3083],[10.2551,10.3063],[10.2456,10.3121],[10.2344,10.3143],[10.2216,10.3131],[10.2187,10.3115],[10.2155,10.315],[10.2132,10.3136],[10.211,10.3166],[10.2108,10.3254],[10.2156,10.335],[10.2135,10.3586],[10.2202,10.3648],[10.2303,10.3699],[10.2367,10.3765],[10.2287,10.3829],[10.2262,10.4111],[10.2283,10.4186],[10.226,10.4216],[10.2272,10.4287],[10.2378,10.4324],[10.2421,10.4419],[10.2404,10.4448],[10.2156,10.4609],[10.2055,10.4579],[10.2007,10.4611],[10.1903,10.4577],[10.1863,10.4594],[10.173,10.4554],[10.1573,10.4554],[10.1519,10.4503],[10.1416,10.4489],[10.1376,10.4468],[10.1276,10.4542],[10.1172,10.4659],[10.1124,10.4666],[10.105,10.4757],[10.0894,10.4712],[10.0851,10.4646],[10.0832,10.4421],[10.0684,10.4281],[10.0648,10.4287],[10.058,10.4266],[10.0411,10.43],[10.0255,10.4303],[10.0151,10.4275],[10.0108,10.4151],[10.008,10.4122],[10.0033,10.4105],[10.0171,10.3802],[10.0108,10.3769],[9.9789,10.3789],[9.9419,10.3708],[9.9167,10.3687],[9.9135,10.3865],[9.9003,10.3891],[9.8697,10.3814],[9.8624,10.3833],[9.8508,10.3884],[9.8553,10.4195],[9.8574,10.4247],[9.854,10.4395],[9.8483,10.4522],[9.8434,10.4522],[9.8396,10.4501],[9.8188,10.4552],[9.8111,10.4631],[9.817,10.4868],[9.8123,10.4903],[9.8061,10.498],[9.8009,10.5163],[9.7968,10.5238],[9.7982,10.5337],[9.8046,10.5454],[9.7865,10.5544],[9.7789,10.5466],[9.7711,10.5537],[9.7663,10.56],[9.7647,10.5654],[9.7618,10.5681],[9.753,10.5703],[9.7514,10.5742],[9.7487,10.5762],[9.7403,10.5773],[9.7334,10.5867],[9.7299,10.5966],[9.7305,10.6005],[9.7225,10.608],[9.705,10.6077],[9.6845,10.6002],[9.674,10.6009],[9.6612,10.6115],[9.6478,10.5997],[9.6371,10.5866],[9.6354,10.5758],[9.6158,10.5652],[9.6226,10.5555],[9.6226,10.5531],[9.6269,10.5515],[9.6266,10.5494],[9.6238,10.5474],[9.6239,10.5429],[9.6287,10.5352],[9.6261,10.5287],[9.6261,10.5192],[9.6309,10.5119],[9.6329,10.5001],[9.6372,10.4974],[9.6438,10.4853],[9.6412,10.4776],[9.6404,10.465],[9.6417,10.4626],[9.6458,10.4629],[9.6492,10.4593],[9.6565,10.4556],[9.6774,10.4503],[9.6835,10.447],[9.6871,10.437],[9.6942,10.4327],[9.693,10.4227],[9.6902,10.4178],[9.6921,10.415],[9.6911,10.4075],[9.6888,10.4061],[9.6848,10.3991],[9.6809,10.3987],[9.6777,10.3926],[9.6798,10.3906],[9.6785,10.3892],[9.6816,10.3739],[9.6802,10.3723],[9.6814,10.3696],[9.6869,10.3668],[9.6874,10.362],[9.6911,10.3591],[9.6896,10.3506],[9.6951,10.3437],[9.6942,10.3383],[9.6962,10.3363],[9.6962,10.3329],[9.6935,10.3253],[9.6887,10.3196],[9.6599,10.2911],[9.653,10.2751],[9.652,10.2635],[9.6478,10.2495],[9.65,10.243],[9.6347,10.2393],[9.624,10.2415],[9.6132,10.2397],[9.6057,10.2331],[9.6065,10.2312],[9.609,10.2317],[9.6176,10.2158],[9.6295,10.2103],[9.6308,10.2068],[9.6534,10.2043],[9.622,10.1774],[9.6268,10.1715],[9.6171,10.1626],[9.6219,10.1391],[9.6365,10.1262],[9.6322,10.121],[9.6332,10.1003],[9.6483,10.0863],[9.661,10.07],[9.7022,10.0277],[9.7003,10.015],[9.7013,10.0112],[9.7122,9.9958],[9.7122,9.9921],[9.7083,9.9854],[9.7145,9.9821],[9.7245,9.9813],[9.7304,9.9743],[9.7338,9.9663],[9.7435,9.9661],[9.7456,9.9687],[9.752,9.9711],[9.7644,9.971],[9.7757,9.9608],[9.7905,9.9561],[9.7928,9.9528],[9.7917,9.9337],[9.7989,9.9348],[9.8145,9.9252],[9.8209,9.9115],[9.8341,9.9223],[9.8367,9.9228],[9.8433,9.93],[9.8536,9.9305],[9.8769,9.9286],[9.8844,9.9344],[9.8936,9.9341],[9.8999,9.9318],[9.9029,9.9278],[9.9058,9.9205],[9.911,9.9133],[9.9124,9.903],[9.9159,9.9019],[9.9177,9.8967],[9.9231,9.8972],[9.9318,9.9014],[9.957,9.9202],[9.9652,9.9275],[9.9759,9.9417],[9.9865,9.9492],[9.9874,9.9514],[9.9861,9.954],[9.9788,9.9566],[9.9727,9.9654],[9.9746,9.9682],[9.9994,9.9828],[10.0114,9.9985],[10.0132,10.0219],[10.017,10.0246],[10.0198,10.0241],[10.0239,10.0203],[10.033,10.0267],[10.0397,10.0284],[10.0502,10.0231],[10.057,10.0097],[10.0616,10.0038],[10.0737,10.0019],[10.0763,10.0054],[10.0839,10.0063],[10.0903,10.0118],[10.0861,10.0182],[10.0818,10.0205],[10.0818,10.0231],[10.0765,10.0267],[10.0763,10.0315],[10.0824,10.0381],[10.0804,10.0428],[10.0931,10.0592],[10.0988,10.0691],[10.0961,10.0717],[10.0939,10.0831],[10.0946,10.0899],[10.1063,10.1033],[10.1399,10.106],[10.1533,10.1099],[10.1583,10.1129],[10.1785,10.1455],[10.1912,10.1597],[10.1858,10.1611],[10.1785,10.1722],[10.1779,10.1783],[10.1799,10.1839],[10.1803,10.1913],[10.1889,10.1926],[10.1945,10.1908],[10.2016,10.2002],[10.207,10.2001],[10.2094,10.2073],[10.2025,10.2133],[10.2048,10.22],[10.2039,10.2242],[10.215,10.2318],[10.2191,10.2297],[10.2347,10.2298],[10.2419,10.227],[10.2469,10.2283],[10.2533,10.2541],[10.2529,10.2591],[10.2568,10.2602],[10.2574,10.2692],[10.2628,10.2758],[10.2669,10.276],[10.2724,10.2795],[10.28,10.2801]]]}},{"type":"Feature","properties":{"name":"Bogoro","state":"Bauchi","scode":"BA","centroid":[9.6305,9.6098]},"geometry":{"type":"Polygon","coordinates":[[[9.5767,9.5228],[9.5705,9.5291],[9.57,9.5344],[9.5782,9.5428],[9.5792,9.5517],[9.5867,9.5441],[9.5903,9.5437],[9.5989,9.5465],[9.606,9.546],[9.6108,9.5489],[9.6141,9.547],[9.6151,9.5446],[9.6201,9.5433],[9.6202,9.5414],[9.6242,9.5372],[9.6277,9.5379],[9.6274,9.5346],[9.6484,9.5223],[9.651,9.5219],[9.6586,9.5317],[9.6679,9.5353],[9.6781,9.5308],[9.6832,9.5258],[9.6923,9.5225],[9.7039,9.5274],[9.7136,9.5278],[9.7326,9.5325],[9.7457,9.5315],[9.7609,9.5387],[9.7843,9.5572],[9.8033,9.5791],[9.8078,9.58],[9.8071,9.5861],[9.8046,9.5884],[9.8025,9.5963],[9.8005,9.5955],[9.7989,9.6003],[9.7947,9.6039],[9.7954,9.6073],[9.7984,9.6094],[9.8009,9.6203],[9.805,9.626],[9.8025,9.6316],[9.8047,9.6384],[9.8033,9.6433],[9.8069,9.649],[9.8069,9.6549],[9.805,9.6598],[9.8058,9.6665],[9.8044,9.6676],[9.8071,9.6705],[9.8096,9.6777],[9.8061,9.68],[9.8023,9.6893],[9.7915,9.6896],[9.7699,9.6871],[9.7533,9.6898],[9.7466,9.6935],[9.74,9.701],[9.7246,9.7077],[9.7151,9.7139],[9.6949,9.7147],[9.6705,9.7208],[9.6727,9.7274],[9.6675,9.7235],[9.6615,9.7278],[9.6576,9.7271],[9.6563,9.7235],[9.6501,9.7247],[9.6502,9.7292],[9.6418,9.7371],[9.6374,9.7308],[9.6281,9.73],[9.6273,9.7265],[9.6232,9.7272],[9.6135,9.7237],[9.606,9.7292],[9.597,9.7313],[9.5929,9.7339],[9.5883,9.7394],[9.5909,9.7431],[9.575,9.7363],[9.5599,9.7457],[9.5526,9.7471],[9.5387,9.7466],[9.5241,9.7679],[9.5139,9.7494],[9.5031,9.7521],[9.5004,9.7504],[9.4837,9.7519],[9.4806,9.7578],[9.4718,9.7592],[9.466,9.7531],[9.465,9.747],[9.46,9.7436],[9.4529,9.7507],[9.4469,9.7519],[9.4353,9.7461],[9.43,9.7467],[9.418,9.7542],[9.4137,9.7488],[9.408,9.7317],[9.4235,9.7254],[9.4328,9.718],[9.4395,9.7179],[9.4447,9.7236],[9.4555,9.7288],[9.4659,9.7254],[9.471,9.7216],[9.4751,9.7147],[9.4819,9.7089],[9.4882,9.7108],[9.4956,9.7216],[9.5086,9.7144],[9.5019,9.7059],[9.4965,9.7051],[9.4927,9.6967],[9.4903,9.6968],[9.4875,9.6917],[9.4747,9.6863],[9.4728,9.6714],[9.4748,9.6636],[9.461,9.6423],[9.4543,9.6452],[9.4504,9.6493],[9.4484,9.6559],[9.4376,9.655],[9.4343,9.6508],[9.4368,9.6474],[9.4396,9.6464],[9.4399,9.6394],[9.4344,9.636],[9.4362,9.6308],[9.4321,9.6215],[9.4271,9.6172],[9.4216,9.6087],[9.4046,9.5916],[9.4194,9.5809],[9.4239,9.5736],[9.435,9.5679],[9.4451,9.5544],[9.4611,9.5484],[9.462,9.5468],[9.4681,9.5447],[9.4692,9.5424],[9.4846,9.5402],[9.4861,9.5299],[9.4909,9.5285],[9.497,9.5323],[9.5065,9.5319],[9.5227,9.5243],[9.5311,9.5159],[9.5411,9.5098],[9.5485,9.5176],[9.5767,9.5228]]]}},{"type":"Feature","properties":{"name":"Dambam","state":"Bauchi","scode":"BA","centroid":[11.627,10.7804]},"geometry":{"type":"Polygon","coordinates":[[[10.8775,11.829],[10.8693,11.8096],[10.8617,11.8027],[10.8547,11.7999],[10.8543,11.7953],[10.8498,11.7931],[10.8472,11.7968],[10.8401,11.7947],[10.8336,11.8012],[10.8251,11.8013],[10.8255,11.7958],[10.8237,11.7883],[10.81,11.7807],[10.8121,11.7733],[10.803,11.7666],[10.8049,11.7606],[10.7943,11.7571],[10.7837,11.7558],[10.7775,11.758],[10.7757,11.7557],[10.763,11.7539],[10.7566,11.7494],[10.7512,11.7512],[10.7483,11.7572],[10.7396,11.7664],[10.735,11.768],[10.7356,11.7844],[10.7211,11.7902],[10.7138,11.7973],[10.698,11.8059],[10.6869,11.8093],[10.6839,11.8062],[10.6806,11.7946],[10.6793,11.7791],[10.6759,11.7681],[10.6557,11.7529],[10.6508,11.7338],[10.6379,11.7236],[10.6317,11.7054],[10.6223,11.7031],[10.6214,11.7008],[10.6192,11.7013],[10.6147,11.6978],[10.6071,11.7006],[10.6007,11.6921],[10.5963,11.6949],[10.5988,11.6992],[10.5964,11.7011],[10.593,11.702],[10.5906,11.7009],[10.5894,11.6978],[10.5875,11.6972],[10.5853,11.6984],[10.5819,11.6978],[10.5811,11.6947],[10.5779,11.695],[10.5756,11.6929],[10.5734,11.6834],[10.5598,11.6688],[10.5571,11.6629],[10.5659,11.6599],[10.5915,11.6591],[10.5974,11.6602],[10.5984,11.6559],[10.5933,11.6539],[10.5948,11.6454],[10.5978,11.6415],[10.5991,11.6313],[10.6045,11.6259],[10.6034,11.6211],[10.6065,11.6067],[10.5947,11.6022],[10.5935,11.5906],[10.5986,11.5846],[10.596,11.5818],[10.5998,11.5697],[10.5993,11.5676],[10.6041,11.559],[10.6202,11.5598],[10.6221,11.5635],[10.6281,11.568],[10.6385,11.5654],[10.649,11.539],[10.6561,11.5392],[10.6949,11.5079],[10.7077,11.4932],[10.708,11.4828],[10.7034,11.4674],[10.7098,11.4617],[10.7119,11.4567],[10.719,11.4498],[10.7217,11.4448],[10.718,11.4279],[10.7301,11.4318],[10.7512,11.4256],[10.7701,11.4332],[10.7893,11.4532],[10.7937,11.4646],[10.8354,11.4795],[10.8564,11.4791],[10.8801,11.4453],[10.9244,11.4605],[10.9344,11.4678],[10.9356,11.4746],[10.9356,11.4815],[10.9337,11.4864],[10.9347,11.4956],[10.9306,11.5008],[10.9297,11.516],[10.9277,11.5256],[10.9293,11.5347],[10.9395,11.554],[10.9325,11.567],[10.9287,11.5856],[10.927,11.6102],[10.9287,11.6665],[10.9209,11.7184],[10.9265,11.7393],[10.9277,11.7766],[10.9054,11.8273],[10.8775,11.829]]]}},{"type":"Feature","properties":{"name":"Darazo","state":"Bauchi","scode":"BA","centroid":[11.1388,10.6298]},"geometry":{"type":"Polygon","coordinates":[[[10.718,11.4279],[10.6948,11.4239],[10.6883,11.4182],[10.6798,11.4154],[10.6682,11.4157],[10.6522,11.4111],[10.635,11.4137],[10.6171,11.4132],[10.6016,11.4069],[10.6057,11.4027],[10.6011,11.4006],[10.5999,11.3969],[10.6055,11.3945],[10.6058,11.3913],[10.6042,11.3907],[10.6001,11.3933],[10.5978,11.3931],[10.5966,11.3888],[10.5896,11.3871],[10.5876,11.3836],[10.5883,11.3816],[10.5982,11.3799],[10.5985,11.3781],[10.5927,11.371],[10.5919,11.367],[10.5948,11.3676],[10.5997,11.3723],[10.6028,11.3724],[10.6046,11.3691],[10.597,11.3626],[10.5989,11.3527],[10.5968,11.3486],[10.5932,11.3477],[10.5883,11.3487],[10.5865,11.3483],[10.5857,11.3464],[10.5873,11.3432],[10.5927,11.3416],[10.5952,11.3351],[10.589,11.331],[10.5874,11.3265],[10.5811,11.3255],[10.5798,11.3234],[10.5809,11.3199],[10.5872,11.3185],[10.587,11.3139],[10.5813,11.3089],[10.579,11.3086],[10.578,11.3104],[10.5785,11.3167],[10.5768,11.3177],[10.5686,11.315],[10.5686,11.312],[10.5723,11.3065],[10.5723,11.3045],[10.5638,11.2995],[10.5626,11.2921],[10.5592,11.2865],[10.5594,11.285],[10.5708,11.2816],[10.5646,11.2734],[10.5649,11.2643],[10.5621,11.2551],[10.5554,11.2541],[10.5385,11.2677],[10.5369,11.268],[10.5323,11.2607],[10.5295,11.2614],[10.5256,11.2664],[10.5223,11.2654],[10.515,11.2569],[10.5127,11.2565],[10.5075,11.2606],[10.4496,11.2211],[10.4091,11.2104],[10.3794,11.2235],[10.3659,11.2048],[10.3667,11.2025],[10.3634,11.1875],[10.3646,11.1794],[10.3464,11.1628],[10.3461,11.1596],[10.3403,11.1526],[10.3357,11.1434],[10.3385,11.1306],[10.334,11.1181],[10.3323,11.1174],[10.3312,11.1187],[10.3319,11.1218],[10.3299,11.1258],[10.3258,11.1248],[10.3167,11.1304],[10.3135,11.1305],[10.3068,11.122],[10.3024,11.12],[10.2917,11.1223],[10.2852,11.1041],[10.2851,11.1],[10.2987,11.0914],[10.3155,11.0854],[10.3182,11.0832],[10.3283,11.0819],[10.3353,11.084],[10.3329,11.071],[10.3223,11.0406],[10.3243,10.9597],[10.2989,10.9506],[10.2788,10.952],[10.262,10.9409],[10.2589,10.9302],[10.2813,10.9],[10.3191,10.8798],[10.3514,10.8678],[10.3646,10.8667],[10.3753,10.8827],[10.4222,10.9106],[10.4342,10.9131],[10.435,10.9183],[10.4469,10.9188],[10.4576,10.9096],[10.4612,10.8962],[10.4767,10.898],[10.4722,10.8787],[10.4654,10.884],[10.4561,10.8694],[10.4194,10.8437],[10.4222,10.8323],[10.4446,10.8369],[10.4709,10.8494],[10.5121,10.8512],[10.5164,10.8404],[10.4894,10.8072],[10.4594,10.8118],[10.4522,10.8091],[10.4407,10.7727],[10.5019,10.7749],[10.514,10.7611],[10.5145,10.7487],[10.5267,10.737],[10.5687,10.8108],[10.5765,10.8071],[10.5955,10.8269],[10.6098,10.8488],[10.62,10.8513],[10.6247,10.8587],[10.6365,10.8675],[10.6427,10.876],[10.652,10.8814],[10.6467,10.8932],[10.6772,10.9309],[10.6746,10.9386],[10.6627,10.9463],[10.6571,10.9517],[10.6411,10.9608],[10.6427,10.977],[10.6597,10.9849],[10.6647,10.9944],[10.6625,11.0107],[10.6647,11.0283],[10.6695,11.0398],[10.679,11.0458],[10.6899,11.0472],[10.7079,11.0848],[10.7384,11.101],[10.7724,11.0603],[10.7871,11.0641],[10.789,11.0728],[10.7991,11.0843],[10.8534,11.085],[10.8642,11.0884],[10.8821,11.086],[10.9103,11.0883],[10.9219,11.0921],[10.9296,11.0907],[10.9293,11.0945],[10.9374,11.0962],[10.9893,11.1363],[11.0085,11.1491],[10.9817,11.1788],[10.9456,11.219],[10.926,11.2512],[10.9478,11.2658],[10.9443,11.2758],[10.9206,11.2679],[10.9179,11.2688],[10.917,11.2709],[10.928,11.2844],[10.9331,11.3149],[10.9103,11.3309],[10.9207,11.3864],[10.9207,11.4259],[10.9298,11.4433],[10.9312,11.4594],[10.9334,11.4622],[10.9344,11.4678],[10.9244,11.4605],[10.8801,11.4453],[10.8564,11.4791],[10.8354,11.4795],[10.7937,11.4646],[10.7893,11.4532],[10.7701,11.4332],[10.7512,11.4256],[10.7301,11.4318],[10.718,11.4279]]]}},{"type":"Feature","properties":{"name":"Dass","state":"Bauchi","scode":"BA","centroid":[9.9966,9.4884]},"geometry":{"type":"Polygon","coordinates":[[[9.5183,10.1132],[9.504,10.1181],[9.4872,10.1193],[9.482,10.123],[9.4718,10.1258],[9.47,10.1296],[9.4651,10.1325],[9.4541,10.131],[9.448,10.1378],[9.4477,10.1403],[9.4403,10.1453],[9.4398,10.1493],[9.4344,10.147],[9.43,10.1499],[9.4249,10.1497],[9.3989,10.1296],[9.3895,10.1168],[9.3812,10.0943],[9.3851,10.0904],[9.3846,10.088],[9.3785,10.0771],[9.3696,10.0767],[9.3664,10.0528],[9.3653,10.0481],[9.3609,10.042],[9.3594,10.0273],[9.3511,10.0265],[9.3464,10.0276],[9.3464,10.022],[9.3535,10.0203],[9.3552,10.014],[9.3619,10.0157],[9.3628,10.0132],[9.3626,10.0097],[9.3584,10.0028],[9.3593,9.9969],[9.3612,9.996],[9.3591,9.9915],[9.3585,9.9814],[9.3613,9.9718],[9.3687,9.9619],[9.3718,9.9446],[9.3744,9.9424],[9.3709,9.9142],[9.3695,9.9113],[9.355,9.9062],[9.349,9.9021],[9.3597,9.8716],[9.3646,9.8718],[9.3706,9.8676],[9.3865,9.8802],[9.4077,9.8844],[9.4267,9.8905],[9.4398,9.8984],[9.4418,9.901],[9.4637,9.9048],[9.4837,9.9107],[9.49,9.9081],[9.4945,9.9024],[9.5038,9.8982],[9.5202,9.901],[9.5285,9.896],[9.5359,9.8935],[9.5434,9.8981],[9.5419,9.9098],[9.5661,9.9109],[9.5646,9.8861],[9.5718,9.8739],[9.5719,9.8675],[9.5862,9.8762],[9.5935,9.8838],[9.596,9.8904],[9.6028,9.8927],[9.6083,9.8842],[9.614,9.8865],[9.6246,9.8848],[9.6302,9.8933],[9.6302,9.9058],[9.6512,9.8816],[9.6552,9.8848],[9.6617,9.8861],[9.6693,9.8945],[9.6743,9.8961],[9.6844,9.9184],[9.6812,9.93],[9.6661,9.9266],[9.6496,9.927],[9.6421,9.9298],[9.6347,9.9301],[9.6325,9.9368],[9.6365,9.9561],[9.6227,9.9744],[9.615,9.9806],[9.6067,9.9816],[9.6051,9.9857],[9.5758,9.9864],[9.5753,9.9891],[9.5833,10.006],[9.5898,10.0093],[9.6056,10.0286],[9.6096,10.0287],[9.6194,10.0343],[9.6066,10.0428],[9.6051,10.0447],[9.6054,10.0486],[9.5998,10.0513],[9.5992,10.0538],[9.5916,10.0541],[9.5793,10.0654],[9.5785,10.074],[9.5732,10.0782],[9.5697,10.0778],[9.5631,10.0908],[9.5547,10.0948],[9.5543,10.0979],[9.5389,10.1004],[9.5374,10.1025],[9.5403,10.1083],[9.5387,10.1101],[9.5273,10.1107],[9.5183,10.1132]]]}},{"type":"Feature","properties":{"name":"Gamawa","state":"Bauchi","scode":"BA","centroid":[12.0373,10.6124]},"geometry":{"type":"Polygon","coordinates":[[[10.8219,11.9883],[10.8201,11.9943],[10.8225,11.9986],[10.8182,11.9995],[10.8182,12.0029],[10.8152,12.008],[10.819,12.01],[10.8223,12.0068],[10.8262,12.0134],[10.8227,12.0148],[10.8259,12.048],[10.8218,12.0656],[10.8267,12.0959],[10.8232,12.1094],[10.8192,12.1121],[10.8044,12.1171],[10.7995,12.128],[10.8032,12.1448],[10.7949,12.1847],[10.7921,12.2303],[10.7895,12.2411],[10.789,12.2784],[10.785,12.2872],[10.7817,12.2909],[10.7759,12.3097],[10.7643,12.3696],[10.7213,12.3701],[10.7079,12.3544],[10.7063,12.3501],[10.6872,12.3501],[10.6813,12.3515],[10.6766,12.3479],[10.6743,12.341],[10.6611,12.3342],[10.651,12.3232],[10.6463,12.3223],[10.6432,12.325],[10.6211,12.3212],[10.6183,12.3264],[10.6016,12.3295],[10.5962,12.3282],[10.5931,12.3226],[10.5589,12.3302],[10.5593,12.3426],[10.5255,12.3611],[10.5202,12.3614],[10.514,12.3547],[10.5059,12.3514],[10.4967,12.3191],[10.5116,12.3167],[10.5275,12.2948],[10.5219,12.2917],[10.5037,12.2925],[10.4913,12.2714],[10.4862,12.2583],[10.4638,12.2619],[10.4578,12.2607],[10.4503,12.2563],[10.442,12.2586],[10.4429,12.2679],[10.4474,12.2773],[10.4454,12.2843],[10.4481,12.2895],[10.4474,12.2956],[10.4433,12.2992],[10.4336,12.2999],[10.4306,12.2966],[10.4367,12.2856],[10.4389,12.2767],[10.4361,12.2739],[10.4296,12.2719],[10.428,12.2724],[10.4203,12.2913],[10.4172,12.3036],[10.4109,12.3055],[10.3941,12.2952],[10.3959,12.2922],[10.3839,12.2882],[10.376,12.2877],[10.3748,12.2836],[10.3722,12.2825],[10.3664,12.281],[10.3551,12.2833],[10.3546,12.2798],[10.357,12.2757],[10.3549,12.272],[10.3554,12.2681],[10.3587,12.2668],[10.3651,12.2703],[10.3664,12.2699],[10.3672,12.2673],[10.3561,12.253],[10.3414,12.2513],[10.3405,12.2464],[10.3429,12.2405],[10.3379,12.2419],[10.3349,12.2452],[10.3308,12.2421],[10.3301,12.2404],[10.3313,12.2382],[10.336,12.2333],[10.3355,12.2301],[10.3262,12.2334],[10.3199,12.2316],[10.3203,12.2283],[10.3285,12.2229],[10.3252,12.2152],[10.3241,12.2072],[10.325,12.2006],[10.3203,12.199],[10.3208,12.1938],[10.3137,12.1895],[10.3104,12.1852],[10.3356,12.179],[10.3492,12.1726],[10.3682,12.1682],[10.3791,12.1671],[10.3951,12.1612],[10.3952,12.1576],[10.4055,12.1485],[10.406,12.1452],[10.4088,12.143],[10.4107,12.1369],[10.403,12.1351],[10.4023,12.1286],[10.4074,12.1247],[10.4104,12.1242],[10.4187,12.1306],[10.431,12.1148],[10.4337,12.1016],[10.4404,12.0941],[10.4412,12.0797],[10.4191,12.0757],[10.4199,12.0642],[10.4177,12.0616],[10.4021,12.0515],[10.3982,12.0525],[10.395,12.0491],[10.3964,12.0453],[10.4045,12.0377],[10.402,12.0244],[10.407,12.0107],[10.4088,12.0095],[10.4102,12.0017],[10.4245,11.9962],[10.4278,11.9986],[10.4324,11.9978],[10.4382,11.9858],[10.4234,11.9856],[10.4156,11.9792],[10.4166,11.9753],[10.4306,11.9682],[10.4278,11.9584],[10.4402,11.9521],[10.4351,11.9434],[10.4386,11.9269],[10.4596,11.9066],[10.4675,11.9023],[10.4739,11.8952],[10.4498,11.8688],[10.4352,11.877],[10.4074,11.8718],[10.4083,11.8659],[10.4237,11.8468],[10.4219,11.8388],[10.4295,11.8266],[10.4506,11.8245],[10.4518,11.8257],[10.4671,11.8164],[10.4747,11.8184],[10.4749,11.8023],[10.4764,11.7989],[10.4863,11.7963],[10.4905,11.7708],[10.4847,11.7637],[10.4847,11.7451],[10.4624,11.7353],[10.4718,11.7079],[10.4816,11.7011],[10.5,11.7235],[10.5013,11.7228],[10.5124,11.7079],[10.5117,11.6981],[10.5084,11.6895],[10.523,11.6871],[10.523,11.679],[10.5261,11.6738],[10.5304,11.6755],[10.5381,11.6737],[10.5518,11.6634],[10.5571,11.6629],[10.5598,11.6688],[10.5734,11.6834],[10.5756,11.6929],[10.5779,11.695],[10.5811,11.6947],[10.5819,11.6978],[10.5853,11.6984],[10.5875,11.6972],[10.5894,11.6978],[10.5906,11.7009],[10.593,11.702],[10.5964,11.7011],[10.5988,11.6992],[10.5963,11.6949],[10.6007,11.6921],[10.6071,11.7006],[10.6147,11.6978],[10.6192,11.7013],[10.6214,11.7008],[10.6223,11.7031],[10.6317,11.7054],[10.6379,11.7236],[10.6508,11.7338],[10.6557,11.7529],[10.6759,11.7681],[10.6793,11.7791],[10.6806,11.7946],[10.6839,11.8062],[10.6869,11.8093],[10.698,11.8059],[10.7138,11.7973],[10.7211,11.7902],[10.7356,11.7844],[10.735,11.768],[10.7396,11.7664],[10.7483,11.7572],[10.7512,11.7512],[10.7566,11.7494],[10.763,11.7539],[10.7757,11.7557],[10.7775,11.758],[10.7837,11.7558],[10.7943,11.7571],[10.8049,11.7606],[10.803,11.7666],[10.8121,11.7733],[10.81,11.7807],[10.8237,11.7883],[10.8255,11.7958],[10.8251,11.8013],[10.8336,11.8012],[10.8401,11.7947],[10.8472,11.7968],[10.8498,11.7931],[10.8543,11.7953],[10.8547,11.7999],[10.8617,11.8027],[10.8693,11.8096],[10.8775,11.829],[10.8605,11.8556],[10.8407,11.8729],[10.817,11.8861],[10.8128,11.9169],[10.802,11.9364],[10.8033,11.9372],[10.8038,11.9416],[10.8027,11.9432],[10.8004,11.9434],[10.7997,11.9457],[10.8027,11.9475],[10.8056,11.9454],[10.8068,11.9473],[10.8049,11.9508],[10.8072,11.9573],[10.8097,11.9572],[10.8127,11.9544],[10.814,11.9551],[10.8116,11.9636],[10.8097,11.9654],[10.8109,11.9682],[10.8187,11.9705],[10.817,11.9761],[10.8188,11.9797],[10.8207,11.9798],[10.8221,11.9768],[10.8237,11.9772],[10.8234,11.9806],[10.8184,11.9831],[10.8228,11.9855],[10.8219,11.9883]]]}},{"type":"Feature","properties":{"name":"Ganjuwa","state":"Bauchi","scode":"BA","centroid":[10.7432,10.0077]},"geometry":{"type":"Polygon","coordinates":[[[10.2421,10.4419],[10.2506,10.4386],[10.2693,10.4524],[10.2718,10.4627],[10.2935,10.4675],[10.2938,10.4843],[10.3228,10.4907],[10.3255,10.4993],[10.3197,10.5056],[10.3142,10.5075],[10.303,10.5157],[10.3023,10.522],[10.3064,10.5324],[10.3048,10.5365],[10.3102,10.5455],[10.328,10.5569],[10.3367,10.5561],[10.3433,10.5735],[10.3442,10.5858],[10.3461,10.5914],[10.3568,10.5954],[10.3731,10.5879],[10.3832,10.5991],[10.3947,10.6053],[10.4026,10.603],[10.4265,10.6151],[10.4568,10.6067],[10.467,10.607],[10.4713,10.6251],[10.4763,10.6347],[10.4867,10.6454],[10.4888,10.6511],[10.4891,10.6575],[10.4875,10.6609],[10.4891,10.6639],[10.4911,10.664],[10.4923,10.6691],[10.4912,10.672],[10.4877,10.6742],[10.4878,10.6761],[10.4915,10.6821],[10.4903,10.6874],[10.4943,10.6883],[10.5,10.6976],[10.4997,10.712],[10.5054,10.7145],[10.5065,10.7178],[10.5109,10.7199],[10.5143,10.7255],[10.5186,10.7255],[10.5203,10.7269],[10.5214,10.7326],[10.5267,10.737],[10.5145,10.7487],[10.514,10.7611],[10.5019,10.7749],[10.4407,10.7727],[10.4522,10.8091],[10.4594,10.8118],[10.4894,10.8072],[10.5164,10.8404],[10.5121,10.8512],[10.4709,10.8494],[10.4446,10.8369],[10.4222,10.8323],[10.4194,10.8437],[10.4561,10.8694],[10.4654,10.884],[10.4722,10.8787],[10.4767,10.898],[10.4612,10.8962],[10.4576,10.9096],[10.4469,10.9188],[10.435,10.9183],[10.4342,10.9131],[10.4222,10.9106],[10.3753,10.8827],[10.3646,10.8667],[10.3514,10.8678],[10.3191,10.8798],[10.2813,10.9],[10.2589,10.9302],[10.262,10.9409],[10.2788,10.952],[10.2989,10.9506],[10.3243,10.9597],[10.3223,11.0406],[10.3329,11.071],[10.3353,11.084],[10.3283,11.0819],[10.3182,11.0832],[10.3155,11.0854],[10.2987,11.0914],[10.2851,11.1],[10.2852,11.1041],[10.2773,11.1071],[10.2744,11.1015],[10.2705,11.0982],[10.2717,11.094],[10.2696,11.088],[10.2638,11.0865],[10.258,11.0831],[10.2507,11.0817],[10.2481,11.0793],[10.2314,11.0895],[10.2263,11.0943],[10.2185,11.0947],[10.2098,11.0923],[10.1892,11.0817],[10.1788,11.0702],[10.1748,11.0628],[10.1716,11.0615],[10.1688,11.0581],[10.1666,11.0479],[10.1588,11.0327],[10.1618,11.0297],[10.1536,11.0136],[10.1556,11.0056],[10.1691,10.9888],[10.1845,10.986],[10.1953,10.9818],[10.2043,10.9755],[10.2215,10.9537],[10.2203,10.9468],[10.1914,10.9482],[10.1868,10.9447],[10.1727,10.9422],[10.1634,10.9444],[10.1563,10.9443],[10.1511,10.9472],[10.1481,10.9454],[10.134,10.9475],[10.1199,10.9542],[10.1112,10.9626],[10.1119,10.9922],[10.088,10.99],[10.0603,10.97],[10.0462,10.9659],[10.0254,10.9729],[10.0103,10.9701],[10.0063,10.9557],[9.9855,10.9582],[9.9671,10.9708],[9.9292,10.9916],[9.8904,10.991],[9.8815,10.9893],[9.874,10.9973],[9.8689,10.9996],[9.8629,11.0064],[9.8593,11.0144],[9.8578,11.0232],[9.832,11.0299],[9.8273,11.0245],[9.8243,11.0147],[9.786,11.0085],[9.7804,11.0225],[9.7801,11.0389],[9.7782,11.0419],[9.7691,11.0478],[9.7507,11.0422],[9.7296,11.0411],[9.7255,11.0344],[9.7218,11.0369],[9.6961,11.0408],[9.679,11.0368],[9.6737,11.0453],[9.6728,11.0517],[9.6587,11.0555],[9.6549,11.0533],[9.6498,11.0553],[9.6279,11.0524],[9.6287,11.0324],[9.6269,11.0117],[9.6302,10.999],[9.6361,10.9904],[9.6387,10.9631],[9.637,10.9581],[9.6255,10.9518],[9.6246,10.9445],[9.6162,10.9399],[9.6101,10.9384],[9.6065,10.9349],[9.6051,10.9264],[9.598,10.9115],[9.5979,10.9075],[9.5932,10.8994],[9.5902,10.8872],[9.5935,10.8779],[9.5969,10.876],[9.6041,10.8788],[9.6061,10.879],[9.6079,10.877],[9.6078,10.872],[9.6015,10.8653],[9.5983,10.8593],[9.5968,10.8576],[9.5877,10.8558],[9.5807,10.8555],[9.5699,10.8582],[9.5661,10.8573],[9.5633,10.8557],[9.5531,10.843],[9.5474,10.8403],[9.5413,10.8415],[9.5305,10.8404],[9.5149,10.8304],[9.5131,10.8275],[9.5073,10.8259],[9.5037,10.8212],[9.4995,10.8215],[9.4897,10.8262],[9.4778,10.8194],[9.4696,10.8199],[9.4601,10.816],[9.4537,10.8107],[9.4456,10.8118],[9.441,10.808],[9.437,10.808],[9.4372,10.8054],[9.4288,10.8022],[9.4216,10.7975],[9.4217,10.7951],[9.4175,10.7892],[9.4177,10.7874],[9.4455,10.7589],[9.5637,10.6921],[9.5728,10.6971],[9.5951,10.689],[9.6029,10.6839],[9.6051,10.6616],[9.6387,10.6369],[9.6612,10.6115],[9.674,10.6009],[9.6845,10.6002],[9.705,10.6077],[9.7225,10.608],[9.7305,10.6005],[9.7299,10.5966],[9.7334,10.5867],[9.7403,10.5773],[9.7487,10.5762],[9.7514,10.5742],[9.753,10.5703],[9.7618,10.5681],[9.7647,10.5654],[9.7663,10.56],[9.7711,10.5537],[9.7789,10.5466],[9.7865,10.5544],[9.8046,10.5454],[9.7982,10.5337],[9.7968,10.5238],[9.8009,10.5163],[9.8061,10.498],[9.8123,10.4903],[9.817,10.4868],[9.8111,10.4631],[9.8188,10.4552],[9.8396,10.4501],[9.8434,10.4522],[9.8483,10.4522],[9.854,10.4395],[9.8574,10.4247],[9.8553,10.4195],[9.8508,10.3884],[9.8624,10.3833],[9.8697,10.3814],[9.9003,10.3891],[9.9135,10.3865],[9.9167,10.3687],[9.9419,10.3708],[9.9789,10.3789],[10.0108,10.3769],[10.0171,10.3802],[10.0033,10.4105],[10.008,10.4122],[10.0108,10.4151],[10.0151,10.4275],[10.0255,10.4303],[10.0411,10.43],[10.058,10.4266],[10.0648,10.4287],[10.0684,10.4281],[10.0832,10.4421],[10.0851,10.4646],[10.0894,10.4712],[10.105,10.4757],[10.1124,10.4666],[10.1172,10.4659],[10.1276,10.4542],[10.1376,10.4468],[10.1416,10.4489],[10.1519,10.4503],[10.1573,10.4554],[10.173,10.4554],[10.1863,10.4594],[10.1903,10.4577],[10.2007,10.4611],[10.2055,10.4579],[10.2156,10.4609],[10.2404,10.4448],[10.2421,10.4419]]]}},{"type":"Feature","properties":{"name":"Giade","state":"Bauchi","scode":"BA","centroid":[11.4087,10.2509]},"geometry":{"type":"Polygon","coordinates":[[[10.3335,11.2057],[10.3318,11.2158],[10.3349,11.2326],[10.3326,11.252],[10.3334,11.26],[10.3208,11.2681],[10.3194,11.272],[10.3168,11.2733],[10.3163,11.2882],[10.3112,11.2973],[10.3128,11.3037],[10.3064,11.3105],[10.3088,11.3154],[10.3024,11.3208],[10.2967,11.3228],[10.3016,11.3338],[10.2988,11.3407],[10.3019,11.3475],[10.2986,11.3517],[10.3083,11.3565],[10.3133,11.3616],[10.3141,11.3651],[10.3219,11.3625],[10.3254,11.3693],[10.3258,11.3744],[10.3294,11.3732],[10.3334,11.374],[10.3386,11.3775],[10.337,11.3848],[10.3391,11.3875],[10.3347,11.393],[10.3375,11.4021],[10.3186,11.4017],[10.3235,11.4153],[10.3173,11.4201],[10.316,11.4236],[10.3181,11.4309],[10.3138,11.4361],[10.3187,11.4418],[10.3133,11.449],[10.3104,11.4502],[10.309,11.4575],[10.3057,11.4615],[10.306,11.4642],[10.3116,11.4635],[10.3185,11.4738],[10.3248,11.4786],[10.3375,11.4843],[10.3397,11.4908],[10.345,11.4954],[10.3444,11.501],[10.3469,11.5028],[10.3495,11.5117],[10.3525,11.5124],[10.356,11.5095],[10.3611,11.5123],[10.3699,11.5102],[10.3829,11.5386],[10.3909,11.5457],[10.3964,11.5459],[10.4043,11.5525],[10.4058,11.557],[10.405,11.5677],[10.397,11.5709],[10.3887,11.5621],[10.3759,11.5583],[10.3727,11.559],[10.3728,11.5669],[10.3703,11.5733],[10.3631,11.5718],[10.3554,11.5645],[10.3493,11.5636],[10.341,11.5703],[10.332,11.5744],[10.3303,11.5802],[10.333,11.5847],[10.3348,11.5955],[10.3387,11.6029],[10.3451,11.6051],[10.3457,11.6088],[10.3486,11.6128],[10.3465,11.6213],[10.3395,11.6277],[10.2933,11.6238],[10.276,11.6073],[10.2697,11.6143],[10.2598,11.6077],[10.258,11.6096],[10.2493,11.6068],[10.1992,11.5807],[10.1984,11.5762],[10.1868,11.566],[10.1816,11.5664],[10.1797,11.5685],[10.1642,11.5583],[10.1644,11.5558],[10.1718,11.555],[10.1688,11.5444],[10.1662,11.5424],[10.17,11.5353],[10.1788,11.5322],[10.1796,11.5288],[10.1903,11.5201],[10.1756,11.5074],[10.181,11.5028],[10.1872,11.49],[10.1994,11.4907],[10.1996,11.4893],[10.2065,11.4856],[10.2078,11.482],[10.2125,11.4826],[10.2175,11.4783],[10.239,11.471],[10.2444,11.4659],[10.2446,11.4618],[10.2523,11.4518],[10.2566,11.451],[10.2568,11.4433],[10.2509,11.4341],[10.2434,11.4305],[10.2278,11.4424],[10.2136,11.4432],[10.2074,11.4316],[10.1928,11.441],[10.1912,11.4381],[10.1809,11.4318],[10.1814,11.4179],[10.1665,11.4237],[10.1475,11.4187],[10.1459,11.3989],[10.1387,11.4018],[10.128,11.3996],[10.1265,11.3978],[10.1291,11.3902],[10.1314,11.3882],[10.1231,11.3787],[10.1396,11.3702],[10.138,11.3604],[10.1195,11.3537],[10.1138,11.3415],[10.1283,11.3199],[10.1372,11.3189],[10.1576,11.3123],[10.1608,11.3093],[10.1458,11.2841],[10.1416,11.2731],[10.1482,11.2645],[10.1343,11.2561],[10.139,11.2464],[10.1457,11.241],[10.1518,11.2391],[10.1592,11.2311],[10.165,11.2277],[10.1756,11.2243],[10.1897,11.2222],[10.2,11.2261],[10.2131,11.2271],[10.2353,11.2239],[10.2471,11.2206],[10.2506,11.2195],[10.2533,11.2153],[10.2795,11.2032],[10.2988,11.2058],[10.3222,11.2042],[10.3335,11.2057]]]}},{"type":"Feature","properties":{"name":"Itas/Gadau","state":"Bauchi","scode":"BA","centroid":[11.8526,10.0345]},"geometry":{"type":"Polygon","coordinates":[[[9.6644,11.7268],[9.6849,11.7253],[9.6924,11.7222],[9.7037,11.7207],[9.7126,11.7209],[9.7796,11.7365],[9.7848,11.7272],[9.7843,11.7239],[9.802,11.6915],[9.8278,11.6923],[9.827,11.7028],[9.8205,11.7122],[9.8323,11.7214],[9.8345,11.7261],[9.8417,11.7283],[9.846,11.7262],[9.8616,11.7309],[9.8639,11.7299],[9.8744,11.7351],[9.8866,11.7388],[9.8882,11.7369],[9.9028,11.7408],[9.907,11.7373],[9.9115,11.7382],[9.9218,11.7482],[9.9308,11.7542],[9.931,11.7605],[9.9353,11.77],[9.948,11.7682],[9.9464,11.7654],[9.9513,11.7582],[9.9537,11.7515],[9.9746,11.7474],[9.9798,11.7479],[9.9816,11.7537],[9.9886,11.7604],[9.9897,11.7652],[9.9934,11.7689],[10.002,11.7698],[10.0068,11.7731],[10.0155,11.7749],[10.0206,11.7792],[10.0544,11.7756],[10.0667,11.7825],[10.0763,11.7838],[10.0809,11.7881],[10.0826,11.7974],[10.0916,11.8098],[10.1193,11.8108],[10.1337,11.7704],[10.1336,11.7612],[10.1398,11.7569],[10.1703,11.7672],[10.1981,11.772],[10.2158,11.7786],[10.2264,11.7642],[10.2316,11.763],[10.236,11.753],[10.244,11.751],[10.2464,11.7388],[10.274,11.747],[10.2739,11.7504],[10.3043,11.7574],[10.3073,11.7522],[10.322,11.7612],[10.3306,11.7592],[10.3354,11.76],[10.3428,11.77],[10.3505,11.7735],[10.3586,11.7824],[10.3841,11.7855],[10.3907,11.7965],[10.3906,11.8245],[10.3828,11.8322],[10.3703,11.838],[10.3604,11.8403],[10.3674,11.8565],[10.4083,11.8659],[10.4074,11.8718],[10.4352,11.877],[10.4498,11.8688],[10.4739,11.8952],[10.4675,11.9023],[10.4596,11.9066],[10.4393,11.8996],[10.4219,11.9028],[10.4189,11.9139],[10.4142,11.9146],[10.3968,11.8903],[10.3949,11.8831],[10.3832,11.8825],[10.371,11.8933],[10.37,11.9017],[10.3561,11.912],[10.3391,11.9102],[10.3368,11.9084],[10.3378,11.9041],[10.3578,11.8886],[10.3529,11.8834],[10.352,11.8799],[10.3373,11.8561],[10.3253,11.8716],[10.3122,11.8708],[10.3029,11.8732],[10.2979,11.8769],[10.2958,11.884],[10.3039,11.8989],[10.3019,11.9115],[10.293,11.918],[10.2895,11.9167],[10.2847,11.9107],[10.2832,11.9122],[10.2784,11.9111],[10.2754,11.9126],[10.2667,11.9188],[10.2678,11.9209],[10.2665,11.9287],[10.2613,11.9332],[10.2599,11.9405],[10.2548,11.9444],[10.2493,11.937],[10.238,11.9392],[10.2369,11.9368],[10.2228,11.9331],[10.219,11.9355],[10.2109,11.9377],[10.2088,11.95],[10.2219,11.9522],[10.2167,11.9599],[10.2153,11.9653],[10.2188,11.968],[10.2098,11.9799],[10.1894,11.9669],[10.1919,11.9721],[10.1913,11.9745],[10.187,11.9765],[10.1868,11.9823],[10.1837,11.9843],[10.1782,11.9835],[10.1776,11.9849],[10.1788,11.9876],[10.1816,11.9888],[10.1838,11.9963],[10.1855,11.9978],[10.1876,11.9979],[10.1913,11.9947],[10.1942,11.9964],[10.1961,12.0],[10.1965,12.0063],[10.2037,12.0073],[10.204,12.0112],[10.1987,12.0222],[10.1908,12.0241],[10.1917,12.0303],[10.1932,12.0326],[10.1991,12.0343],[10.2039,12.0387],[10.2092,12.036],[10.2124,12.0363],[10.2187,12.0416],[10.2185,12.063],[10.2205,12.0643],[10.2263,12.0627],[10.2276,12.0643],[10.2269,12.0681],[10.2307,12.0779],[10.2207,12.0752],[10.2165,12.0766],[10.2119,12.0715],[10.2089,12.0716],[10.2091,12.0769],[10.2054,12.0771],[10.202,12.0814],[10.2019,12.0795],[10.1886,12.0782],[10.1876,12.0721],[10.1886,12.0708],[10.1911,12.0721],[10.1913,12.07],[10.1861,12.0693],[10.1855,12.067],[10.1769,12.0683],[10.1765,12.0669],[10.1794,12.0649],[10.1792,12.0582],[10.1722,12.0615],[10.1723,12.0645],[10.1699,12.0639],[10.1675,12.0592],[10.1682,12.057],[10.1657,12.054],[10.1663,12.0503],[10.1689,12.0515],[10.1707,12.0485],[10.1749,12.0462],[10.1763,12.0427],[10.1745,12.0395],[10.1672,12.0407],[10.1646,12.0424],[10.1624,12.0417],[10.1621,12.0397],[10.1649,12.0369],[10.1623,12.0367],[10.1591,12.031],[10.1568,12.0302],[10.1577,12.0275],[10.155,12.0233],[10.1453,12.0252],[10.1447,12.0275],[10.1428,12.0246],[10.1391,12.0233],[10.1359,12.0254],[10.1344,12.0283],[10.132,12.0282],[10.1294,12.0244],[10.1321,12.0214],[10.1314,12.0199],[10.1303,12.0186],[10.1253,12.0184],[10.1249,12.0171],[10.1272,12.0161],[10.1246,12.0144],[10.121,12.0152],[10.1182,12.0133],[10.1133,12.0135],[10.1119,12.0149],[10.1098,12.0139],[10.1087,12.0155],[10.1055,12.0155],[10.1047,12.0171],[10.1004,12.0164],[10.0966,12.0187],[10.0959,12.0144],[10.0971,12.0121],[10.092,12.006],[10.092,12.0027],[10.0954,11.9997],[10.0927,11.9942],[10.0904,11.9953],[10.0891,11.9922],[10.0866,11.9917],[10.0848,11.9969],[10.083,11.9976],[10.0797,11.9953],[10.0802,11.9973],[10.0789,11.9984],[10.0773,11.9921],[10.0748,11.9938],[10.0695,11.9919],[10.0701,11.9886],[10.0682,11.9878],[10.0671,11.9899],[10.0646,11.9893],[10.0653,11.9884],[10.0636,11.9863],[10.067,11.985],[10.0664,11.9836],[10.0634,11.9836],[10.0629,11.9853],[10.0605,11.9863],[10.0542,11.9817],[10.054,11.9781],[10.051,11.979],[10.0476,11.9775],[10.0481,11.9812],[10.0461,11.9813],[10.0458,11.9801],[10.0446,11.9811],[10.0413,11.9763],[10.0379,11.9762],[10.0372,11.9746],[10.0312,11.9787],[10.0237,11.9805],[10.0215,11.9833],[10.0167,11.9827],[10.0122,11.979],[9.9966,11.9751],[9.984,11.9702],[9.9763,11.9627],[9.9733,11.9641],[9.9704,11.9617],[9.9678,11.9544],[9.9627,11.9539],[9.9605,11.9551],[9.9597,11.9604],[9.9515,11.9578],[9.9517,11.956],[9.9503,11.9552],[9.9414,11.9536],[9.9397,11.9508],[9.9345,11.952],[9.9337,11.9496],[9.9315,11.9518],[9.9304,11.9501],[9.9267,11.9497],[9.9263,11.9479],[9.9236,11.9467],[9.9234,11.9438],[9.9087,11.9432],[9.8987,11.9381],[9.8916,11.9354],[9.8888,11.9366],[9.8827,11.9332],[9.873,11.9231],[9.8335,11.8904],[9.8162,11.8867],[9.8087,11.882],[9.804,11.8824],[9.8002,11.8801],[9.7903,11.8785],[9.7871,11.8745],[9.7823,11.8746],[9.7805,11.8722],[9.7778,11.8726],[9.763,11.8678],[9.7536,11.8625],[9.7499,11.864],[9.7476,11.8611],[9.7316,11.8579],[9.7079,11.8499],[9.7065,11.8517],[9.7039,11.8511],[9.7018,11.855],[9.7031,11.8587],[9.7004,11.8602],[9.6939,11.8595],[9.6906,11.864],[9.6878,11.8642],[9.6882,11.8657],[9.6862,11.8679],[9.6792,11.8649],[9.6738,11.8593],[9.6735,11.8471],[9.6778,11.8432],[9.6761,11.8131],[9.6731,11.7922],[9.6695,11.7843],[9.6623,11.7835],[9.6612,11.7809],[9.6583,11.7811],[9.6555,11.7781],[9.6515,11.779],[9.6476,11.7775],[9.645,11.7797],[9.6414,11.7787],[9.6407,11.7779],[9.6432,11.7765],[9.6431,11.775],[9.6399,11.7742],[9.6401,11.7725],[9.6363,11.7701],[9.6345,11.7702],[9.6351,11.7673],[9.6304,11.7638],[9.6288,11.7593],[9.6258,11.7614],[9.6256,11.7593],[9.6281,11.7584],[9.6269,11.7558],[9.6257,11.7574],[9.6232,11.753],[9.6209,11.7545],[9.6201,11.7537],[9.6191,11.7455],[9.6233,11.744],[9.6234,11.7412],[9.627,11.7411],[9.6285,11.7392],[9.6307,11.7395],[9.6307,11.7424],[9.6342,11.7415],[9.6321,11.7405],[9.632,11.7385],[9.6397,11.733],[9.6644,11.7268]]]}},{"type":"Feature","properties":{"name":"Jama'Are","state":"Bauchi","scode":"BA","centroid":[11.6654,9.9207]},"geometry":{"type":"Polygon","coordinates":[[[10.0748,11.6839],[10.0739,11.6997],[10.0654,11.7202],[10.0435,11.7141],[10.0392,11.7172],[10.0265,11.7075],[10.007,11.7018],[10.0016,11.701],[9.9828,11.707],[9.9817,11.7113],[9.9831,11.726],[9.9799,11.7322],[9.98,11.7416],[9.9746,11.7474],[9.9537,11.7515],[9.9513,11.7582],[9.9464,11.7654],[9.948,11.7682],[9.9353,11.77],[9.931,11.7605],[9.9308,11.7542],[9.9218,11.7482],[9.9115,11.7382],[9.907,11.7373],[9.9028,11.7408],[9.8882,11.7369],[9.8866,11.7388],[9.8744,11.7351],[9.8639,11.7299],[9.8616,11.7309],[9.846,11.7262],[9.8417,11.7283],[9.8345,11.7261],[9.8323,11.7214],[9.8205,11.7122],[9.827,11.7028],[9.8278,11.6923],[9.8306,11.6846],[9.8278,11.6824],[9.8208,11.6716],[9.8221,11.6576],[9.8257,11.6484],[9.8282,11.6347],[9.8259,11.6268],[9.8125,11.6276],[9.811,11.6263],[9.8109,11.6225],[9.8136,11.6192],[9.8187,11.6196],[9.8197,11.6159],[9.8215,11.6157],[9.8228,11.6134],[9.8172,11.6041],[9.8349,11.5989],[9.8295,11.5881],[9.8196,11.5799],[9.848,11.5746],[9.8489,11.5657],[9.8478,11.5576],[9.8576,11.5528],[9.8671,11.5562],[9.8694,11.5633],[9.8823,11.5624],[9.9043,11.5529],[9.9038,11.5407],[9.9092,11.5375],[9.9102,11.5347],[9.9196,11.5322],[9.9251,11.5429],[9.9259,11.5476],[9.9228,11.5494],[9.9239,11.5629],[9.9148,11.5719],[9.908,11.5689],[9.9039,11.5707],[9.8955,11.586],[9.8989,11.592],[9.8988,11.5954],[9.9038,11.5994],[9.9124,11.6104],[9.9199,11.6003],[9.9378,11.6121],[9.9387,11.6201],[9.9361,11.6266],[9.9484,11.642],[9.9474,11.6468],[9.9641,11.6616],[9.9709,11.6592],[9.9751,11.6556],[9.9844,11.6586],[9.9953,11.6698],[9.9979,11.67],[10.0023,11.6682],[10.008,11.6499],[10.0252,11.6546],[10.0292,11.6487],[10.0413,11.6534],[10.0434,11.6499],[10.0534,11.6423],[10.0607,11.6425],[10.0722,11.6491],[10.0715,11.6658],[10.0648,11.6791],[10.0689,11.6823],[10.0748,11.6839]]]}},{"type":"Feature","properties":{"name":"Katagum","state":"Bauchi","scode":"BA","centroid":[11.6601,10.3387]},"geometry":{"type":"Polygon","coordinates":[[[10.5571,11.6629],[10.5518,11.6634],[10.5381,11.6737],[10.5304,11.6755],[10.5261,11.6738],[10.523,11.679],[10.523,11.6871],[10.5084,11.6895],[10.5117,11.6981],[10.5124,11.7079],[10.5013,11.7228],[10.5,11.7235],[10.4816,11.7011],[10.4718,11.7079],[10.4624,11.7353],[10.4847,11.7451],[10.4847,11.7637],[10.4905,11.7708],[10.4863,11.7963],[10.4764,11.7989],[10.4749,11.8023],[10.4747,11.8184],[10.4671,11.8164],[10.4518,11.8257],[10.4506,11.8245],[10.4295,11.8266],[10.4219,11.8388],[10.4237,11.8468],[10.4083,11.8659],[10.3674,11.8565],[10.3604,11.8403],[10.3703,11.838],[10.3828,11.8322],[10.3906,11.8245],[10.3907,11.7965],[10.3841,11.7855],[10.3586,11.7824],[10.3505,11.7735],[10.3428,11.77],[10.3354,11.76],[10.3306,11.7592],[10.322,11.7612],[10.3073,11.7522],[10.3043,11.7574],[10.2739,11.7504],[10.274,11.747],[10.2464,11.7388],[10.244,11.751],[10.236,11.753],[10.2316,11.763],[10.2264,11.7642],[10.2158,11.7786],[10.1981,11.772],[10.1703,11.7672],[10.1398,11.7569],[10.1336,11.7612],[10.1337,11.7704],[10.1193,11.8108],[10.0916,11.8098],[10.0826,11.7974],[10.0809,11.7881],[10.0763,11.7838],[10.0667,11.7825],[10.0544,11.7756],[10.0206,11.7792],[10.0155,11.7749],[10.0068,11.7731],[10.002,11.7698],[9.9934,11.7689],[9.9897,11.7652],[9.9886,11.7604],[9.9816,11.7537],[9.9798,11.7479],[9.9746,11.7474],[9.98,11.7416],[9.9799,11.7322],[9.9831,11.726],[9.9817,11.7113],[9.9828,11.707],[10.0016,11.701],[10.007,11.7018],[10.0265,11.7075],[10.0392,11.7172],[10.0435,11.7141],[10.0654,11.7202],[10.0739,11.6997],[10.0748,11.6839],[10.077,11.6707],[10.0934,11.669],[10.1004,11.6591],[10.1024,11.6516],[10.1074,11.6413],[10.1016,11.6347],[10.1012,11.6318],[10.1115,11.6223],[10.1187,11.6191],[10.132,11.6098],[10.1381,11.6001],[10.139,11.5889],[10.1518,11.5721],[10.1687,11.5748],[10.1797,11.5685],[10.1816,11.5664],[10.1868,11.566],[10.1984,11.5762],[10.1992,11.5807],[10.2493,11.6068],[10.258,11.6096],[10.2598,11.6077],[10.2697,11.6143],[10.276,11.6073],[10.2933,11.6238],[10.3395,11.6277],[10.3465,11.6213],[10.3486,11.6128],[10.3457,11.6088],[10.3451,11.6051],[10.3387,11.6029],[10.3348,11.5955],[10.333,11.5847],[10.3303,11.5802],[10.332,11.5744],[10.341,11.5703],[10.3493,11.5636],[10.3554,11.5645],[10.3631,11.5718],[10.3703,11.5733],[10.3728,11.5669],[10.3727,11.559],[10.3759,11.5583],[10.3887,11.5621],[10.397,11.5709],[10.405,11.5677],[10.4058,11.557],[10.4043,11.5525],[10.3964,11.5459],[10.3909,11.5457],[10.3829,11.5386],[10.3699,11.5102],[10.3611,11.5123],[10.356,11.5095],[10.3581,11.5018],[10.3569,11.4995],[10.3613,11.4906],[10.3661,11.4832],[10.3743,11.4784],[10.3796,11.4731],[10.3813,11.4631],[10.3873,11.458],[10.3914,11.4478],[10.3938,11.4454],[10.4092,11.4518],[10.4233,11.4527],[10.4253,11.4643],[10.4296,11.4665],[10.4324,11.4717],[10.4457,11.4814],[10.4509,11.4819],[10.4695,11.4909],[10.4755,11.4947],[10.4765,11.4969],[10.4802,11.4973],[10.4863,11.5051],[10.489,11.5044],[10.4909,11.5065],[10.4974,11.5076],[10.5008,11.5117],[10.5119,11.51],[10.5212,11.5004],[10.5255,11.5016],[10.5389,11.492],[10.5583,11.5089],[10.5649,11.5046],[10.566,11.4955],[10.5757,11.4883],[10.5845,11.4996],[10.5879,11.5083],[10.5934,11.5133],[10.5998,11.5167],[10.6045,11.5332],[10.6125,11.5419],[10.6148,11.5421],[10.6216,11.5513],[10.6202,11.5598],[10.6041,11.559],[10.5993,11.5676],[10.5998,11.5697],[10.596,11.5818],[10.5986,11.5846],[10.5935,11.5906],[10.5947,11.6022],[10.6065,11.6067],[10.6034,11.6211],[10.6045,11.6259],[10.5991,11.6313],[10.5978,11.6415],[10.5948,11.6454],[10.5933,11.6539],[10.5984,11.6559],[10.5974,11.6602],[10.5915,11.6591],[10.5659,11.6599],[10.5571,11.6629]]]}},{"type":"Feature","properties":{"name":"Kirfi","state":"Bauchi","scode":"BA","centroid":[10.4098,10.527]},"geometry":{"type":"Polygon","coordinates":[[[10.8553,10.2408],[10.8629,10.2683],[10.8473,10.2864],[10.8192,10.313],[10.8222,10.3208],[10.8234,10.3311],[10.8222,10.343],[10.8283,10.351],[10.8339,10.365],[10.8351,10.3951],[10.8354,10.3996],[10.8041,10.4245],[10.8135,10.4377],[10.8103,10.4478],[10.8004,10.4507],[10.7926,10.4407],[10.7907,10.4351],[10.7425,10.4736],[10.7302,10.4874],[10.7216,10.4901],[10.7054,10.4804],[10.7014,10.4874],[10.6894,10.4931],[10.6696,10.4931],[10.6655,10.4909],[10.6619,10.4914],[10.6124,10.5566],[10.5934,10.5714],[10.57,10.5868],[10.5582,10.6006],[10.5695,10.6279],[10.5626,10.6423],[10.538,10.6494],[10.5286,10.6497],[10.5253,10.6627],[10.4943,10.6883],[10.4903,10.6874],[10.4915,10.6821],[10.4878,10.6761],[10.4877,10.6742],[10.4912,10.672],[10.4923,10.6691],[10.4911,10.664],[10.4891,10.6639],[10.4875,10.6609],[10.4891,10.6575],[10.4888,10.6511],[10.4867,10.6454],[10.4763,10.6347],[10.4713,10.6251],[10.467,10.607],[10.4568,10.6067],[10.4265,10.6151],[10.4026,10.603],[10.3947,10.6053],[10.3832,10.5991],[10.3731,10.5879],[10.3568,10.5954],[10.3461,10.5914],[10.3442,10.5858],[10.3433,10.5735],[10.3367,10.5561],[10.328,10.5569],[10.3102,10.5455],[10.3048,10.5365],[10.3064,10.5324],[10.3023,10.522],[10.303,10.5157],[10.3142,10.5075],[10.3197,10.5056],[10.3255,10.4993],[10.3228,10.4907],[10.2938,10.4843],[10.2935,10.4675],[10.2718,10.4627],[10.2693,10.4524],[10.2506,10.4386],[10.2421,10.4419],[10.2378,10.4324],[10.2272,10.4287],[10.226,10.4216],[10.2283,10.4186],[10.2262,10.4111],[10.2287,10.3829],[10.2367,10.3765],[10.2303,10.3699],[10.2202,10.3648],[10.2135,10.3586],[10.2156,10.335],[10.2108,10.3254],[10.211,10.3166],[10.2132,10.3136],[10.2155,10.315],[10.2187,10.3115],[10.2216,10.3131],[10.2344,10.3143],[10.2456,10.3121],[10.2551,10.3063],[10.2653,10.3083],[10.2703,10.3038],[10.2706,10.2931],[10.28,10.2801],[10.283,10.2796],[10.2832,10.278],[10.2846,10.2795],[10.2869,10.2786],[10.2889,10.2747],[10.2919,10.2745],[10.2947,10.2726],[10.2954,10.2703],[10.2998,10.271],[10.3018,10.2685],[10.3069,10.2705],[10.3087,10.2728],[10.3136,10.2705],[10.3149,10.2722],[10.3141,10.2737],[10.3174,10.2742],[10.3206,10.2784],[10.3275,10.28],[10.3308,10.2781],[10.3351,10.2791],[10.342,10.2779],[10.3506,10.2793],[10.3517,10.2812],[10.3588,10.2825],[10.3639,10.2802],[10.3656,10.2779],[10.3747,10.2749],[10.3825,10.2779],[10.3938,10.2765],[10.399,10.2788],[10.4006,10.2769],[10.4044,10.2784],[10.4145,10.2761],[10.4164,10.2794],[10.4241,10.2724],[10.4308,10.2724],[10.4431,10.2674],[10.4546,10.2667],[10.5187,10.2516],[10.5327,10.2508],[10.5521,10.2555],[10.5594,10.2553],[10.5661,10.253],[10.5809,10.2548],[10.5897,10.2515],[10.5958,10.2468],[10.604,10.2452],[10.6081,10.2413],[10.6089,10.2386],[10.621,10.2341],[10.6272,10.2286],[10.6299,10.2232],[10.6377,10.2137],[10.6415,10.2154],[10.649,10.2331],[10.6544,10.2334],[10.6659,10.2408],[10.6664,10.2534],[10.6765,10.2564],[10.68,10.2629],[10.683,10.2644],[10.6905,10.2638],[10.7031,10.2712],[10.7209,10.2544],[10.7271,10.252],[10.7355,10.2403],[10.7573,10.2357],[10.776,10.2388],[10.8345,10.2445],[10.8553,10.2408]]]}},{"type":"Feature","properties":{"name":"Misau","state":"Bauchi","scode":"BA","centroid":[11.3819,10.4836]},"geometry":{"type":"Polygon","coordinates":[[[10.6202,11.5598],[10.6216,11.5513],[10.6148,11.5421],[10.6125,11.5419],[10.6045,11.5332],[10.5998,11.5167],[10.5934,11.5133],[10.5879,11.5083],[10.5845,11.4996],[10.5757,11.4883],[10.566,11.4955],[10.5649,11.5046],[10.5583,11.5089],[10.5389,11.492],[10.5255,11.5016],[10.5212,11.5004],[10.5119,11.51],[10.5008,11.5117],[10.4974,11.5076],[10.4909,11.5065],[10.489,11.5044],[10.4863,11.5051],[10.4802,11.4973],[10.4765,11.4969],[10.4755,11.4947],[10.4695,11.4909],[10.4509,11.4819],[10.4457,11.4814],[10.4324,11.4717],[10.4296,11.4665],[10.4253,11.4643],[10.4233,11.4527],[10.4092,11.4518],[10.3938,11.4454],[10.3914,11.4478],[10.3873,11.458],[10.3813,11.4631],[10.3796,11.4731],[10.3743,11.4784],[10.3661,11.4832],[10.3613,11.4906],[10.3569,11.4995],[10.3581,11.5018],[10.356,11.5095],[10.3525,11.5124],[10.3495,11.5117],[10.3469,11.5028],[10.3444,11.501],[10.345,11.4954],[10.3397,11.4908],[10.3375,11.4843],[10.3248,11.4786],[10.3185,11.4738],[10.3116,11.4635],[10.306,11.4642],[10.3057,11.4615],[10.309,11.4575],[10.3104,11.4502],[10.3133,11.449],[10.3187,11.4418],[10.3138,11.4361],[10.3181,11.4309],[10.316,11.4236],[10.3173,11.4201],[10.3235,11.4153],[10.3186,11.4017],[10.3375,11.4021],[10.3347,11.393],[10.3391,11.3875],[10.337,11.3848],[10.3386,11.3775],[10.3334,11.374],[10.3294,11.3732],[10.3258,11.3744],[10.3254,11.3693],[10.3219,11.3625],[10.3141,11.3651],[10.3133,11.3616],[10.3083,11.3565],[10.2986,11.3517],[10.3019,11.3475],[10.2988,11.3407],[10.3016,11.3338],[10.2967,11.3228],[10.3024,11.3208],[10.3088,11.3154],[10.3064,11.3105],[10.3128,11.3037],[10.3112,11.2973],[10.3163,11.2882],[10.3168,11.2733],[10.3194,11.272],[10.3208,11.2681],[10.3334,11.26],[10.3326,11.252],[10.3349,11.2326],[10.3318,11.2158],[10.3335,11.2057],[10.3468,11.208],[10.3585,11.2081],[10.3632,11.207],[10.3659,11.2048],[10.3794,11.2235],[10.4091,11.2104],[10.4496,11.2211],[10.5075,11.2606],[10.5127,11.2565],[10.515,11.2569],[10.5223,11.2654],[10.5256,11.2664],[10.5295,11.2614],[10.5323,11.2607],[10.5369,11.268],[10.5385,11.2677],[10.5554,11.2541],[10.5621,11.2551],[10.5649,11.2643],[10.5646,11.2734],[10.5708,11.2816],[10.5594,11.285],[10.5592,11.2865],[10.5626,11.2921],[10.5638,11.2995],[10.5723,11.3045],[10.5723,11.3065],[10.5686,11.312],[10.5686,11.315],[10.5768,11.3177],[10.5785,11.3167],[10.578,11.3104],[10.579,11.3086],[10.5813,11.3089],[10.587,11.3139],[10.5872,11.3185],[10.5809,11.3199],[10.5798,11.3234],[10.5811,11.3255],[10.5874,11.3265],[10.589,11.331],[10.5952,11.3351],[10.5927,11.3416],[10.5873,11.3432],[10.5857,11.3464],[10.5865,11.3483],[10.5883,11.3487],[10.5932,11.3477],[10.5968,11.3486],[10.5989,11.3527],[10.597,11.3626],[10.6046,11.3691],[10.6028,11.3724],[10.5997,11.3723],[10.5948,11.3676],[10.5919,11.367],[10.5927,11.371],[10.5985,11.3781],[10.5982,11.3799],[10.5883,11.3816],[10.5876,11.3836],[10.5896,11.3871],[10.5966,11.3888],[10.5978,11.3931],[10.6001,11.3933],[10.6042,11.3907],[10.6058,11.3913],[10.6055,11.3945],[10.5999,11.3969],[10.6011,11.4006],[10.6057,11.4027],[10.6016,11.4069],[10.6171,11.4132],[10.635,11.4137],[10.6522,11.4111],[10.6682,11.4157],[10.6798,11.4154],[10.6883,11.4182],[10.6948,11.4239],[10.718,11.4279],[10.7217,11.4448],[10.719,11.4498],[10.7119,11.4567],[10.7098,11.4617],[10.7034,11.4674],[10.708,11.4828],[10.7077,11.4932],[10.6949,11.5079],[10.6561,11.5392],[10.649,11.539],[10.6385,11.5654],[10.6281,11.568],[10.6221,11.5635],[10.6202,11.5598]]]}},{"type":"Feature","properties":{"name":"Ningi","state":"Bauchi","scode":"BA","centroid":[11.0292,9.2312]},"geometry":{"type":"Polygon","coordinates":[[[9.195,11.3266],[9.1868,11.3206],[9.1781,11.3183],[9.1824,11.3111],[9.1804,11.3085],[9.1748,11.3063],[9.1695,11.3082],[9.1614,11.3146],[9.143,11.3156],[9.1415,11.3164],[9.1403,11.3216],[9.1422,11.3262],[9.1302,11.3288],[9.1287,11.3275],[9.1241,11.3277],[9.1236,11.3263],[9.1179,11.3239],[9.1149,11.3169],[9.1018,11.3068],[9.0992,11.3104],[9.0849,11.3149],[9.0831,11.3139],[9.082,11.3093],[9.0753,11.3062],[9.0725,11.3017],[9.0626,11.293],[9.0558,11.2909],[9.0511,11.2873],[9.0448,11.2859],[9.0378,11.2781],[9.0348,11.2769],[9.0267,11.2771],[9.0187,11.2653],[9.0182,11.2597],[9.0194,11.2577],[9.01,11.2508],[9.008,11.2465],[9.0036,11.2443],[9.0003,11.2401],[8.9998,11.2359],[8.9958,11.2329],[8.9956,11.2275],[8.9898,11.2248],[8.9852,11.2247],[8.9834,11.2205],[8.9798,11.2217],[8.9779,11.2206],[8.974,11.2159],[8.9736,11.2121],[8.9703,11.2086],[8.9668,11.2079],[8.9668,11.206],[8.9633,11.2024],[8.9559,11.2003],[8.9524,11.1951],[8.9527,11.1925],[8.9488,11.1922],[8.9487,11.1944],[8.9418,11.1912],[8.9402,11.1919],[8.9258,11.1803],[8.9199,11.1775],[8.921,11.1722],[8.9192,11.1703],[8.9205,11.1677],[8.918,11.1597],[8.9197,11.1588],[8.9147,11.1544],[8.9122,11.1467],[8.9098,11.1435],[8.901,11.1354],[8.9011,11.1314],[8.894,11.1214],[8.8934,11.1171],[8.8849,11.1109],[8.8814,11.1121],[8.8764,11.1099],[8.8689,11.1025],[8.8562,11.0985],[8.8456,11.1008],[8.8246,11.0958],[8.8178,11.0969],[8.8087,11.1041],[8.8053,11.1037],[8.8051,11.1001],[8.8119,11.0971],[8.8129,11.0918],[8.8024,11.0743],[8.7985,11.0745],[8.7955,11.0837],[8.7927,11.0829],[8.7942,11.0688],[8.7904,11.0682],[8.7938,11.0615],[8.7842,11.0372],[8.7804,11.0193],[8.7798,11.0115],[8.7829,10.9998],[8.7868,10.9939],[8.7841,10.9743],[8.7897,10.9477],[8.7887,10.9423],[8.7773,10.9368],[8.7733,10.9383],[8.7707,10.9418],[8.7667,10.9417],[8.7679,10.9364],[8.7672,10.9301],[8.7652,10.9266],[8.7596,10.9235],[8.7499,10.8856],[8.7501,10.8669],[8.7454,10.8618],[8.7451,10.8595],[8.7458,10.8572],[8.7662,10.8511],[8.7947,10.8544],[8.8139,10.8529],[8.9065,10.8353],[8.9571,10.8065],[8.9605,10.8059],[9.021,10.8125],[9.0203,10.8089],[9.0236,10.7904],[9.0433,10.7753],[9.0352,10.7378],[9.0523,10.7282],[9.0686,10.7229],[9.0915,10.7193],[9.1363,10.7152],[9.1912,10.6955],[9.2043,10.6985],[9.2077,10.7012],[9.2253,10.697],[9.2283,10.7022],[9.2411,10.7066],[9.2491,10.7132],[9.2556,10.7144],[9.2714,10.722],[9.2806,10.7242],[9.2829,10.727],[9.2908,10.7298],[9.2924,10.7337],[9.3068,10.741],[9.3126,10.7411],[9.3198,10.744],[9.3291,10.7412],[9.3376,10.7463],[9.3489,10.744],[9.3554,10.7454],[9.3637,10.7519],[9.3908,10.7637],[9.3963,10.7741],[9.3993,10.7752],[9.4021,10.7785],[9.4033,10.784],[9.4074,10.7851],[9.4115,10.7833],[9.4177,10.7874],[9.4175,10.7892],[9.4217,10.7951],[9.4216,10.7975],[9.4288,10.8022],[9.4372,10.8054],[9.437,10.808],[9.441,10.808],[9.4456,10.8118],[9.4537,10.8107],[9.4601,10.816],[9.4696,10.8199],[9.4778,10.8194],[9.4897,10.8262],[9.4995,10.8215],[9.5037,10.8212],[9.5073,10.8259],[9.5131,10.8275],[9.5149,10.8304],[9.5305,10.8404],[9.5413,10.8415],[9.5474,10.8403],[9.5531,10.843],[9.5633,10.8557],[9.5661,10.8573],[9.5699,10.8582],[9.5807,10.8555],[9.5877,10.8558],[9.5968,10.8576],[9.5983,10.8593],[9.6015,10.8653],[9.6078,10.872],[9.6079,10.877],[9.6061,10.879],[9.6041,10.8788],[9.5969,10.876],[9.5935,10.8779],[9.5902,10.8872],[9.5932,10.8994],[9.5979,10.9075],[9.598,10.9115],[9.6051,10.9264],[9.6065,10.9349],[9.6101,10.9384],[9.6162,10.9399],[9.6246,10.9445],[9.6255,10.9518],[9.637,10.9581],[9.6387,10.9631],[9.6361,10.9904],[9.6302,10.999],[9.6269,11.0117],[9.6287,11.0324],[9.6279,11.0524],[9.6253,11.0607],[9.6317,11.0712],[9.6395,11.0765],[9.6494,11.0873],[9.657,11.0927],[9.6555,11.1099],[9.6567,11.1124],[9.6422,11.1316],[9.6434,11.1389],[9.635,11.1459],[9.6254,11.1493],[9.6209,11.155],[9.6144,11.1767],[9.617,11.1804],[9.6259,11.1816],[9.628,11.1839],[9.6303,11.1964],[9.6188,11.2004],[9.6181,11.2054],[9.6162,11.2073],[9.6149,11.2123],[9.6206,11.2208],[9.6172,11.2284],[9.6154,11.2403],[9.6034,11.2434],[9.5956,11.2476],[9.5935,11.2572],[9.597,11.2689],[9.5984,11.2929],[9.6016,11.2983],[9.6073,11.3026],[9.6096,11.3091],[9.6094,11.3155],[9.5591,11.3155],[9.559,11.3169],[9.5379,11.3173],[9.5256,11.3165],[9.5118,11.3131],[9.5114,11.3079],[9.5083,11.3051],[9.5075,11.302],[9.5077,11.2977],[9.5052,11.2954],[9.5058,11.2899],[9.4975,11.2781],[9.4788,11.2865],[9.4753,11.2861],[9.4753,11.2846],[9.4712,11.2818],[9.4667,11.2836],[9.4641,11.2815],[9.4491,11.2874],[9.4452,11.2913],[9.441,11.2932],[9.4262,11.295],[9.4212,11.2988],[9.4116,11.3],[9.398,11.3166],[9.3796,11.3313],[9.3514,11.3432],[9.3461,11.3467],[9.3426,11.3407],[9.3378,11.3449],[9.337,11.3414],[9.3355,11.3405],[9.3301,11.3448],[9.3305,11.3399],[9.3232,11.3437],[9.3239,11.341],[9.322,11.3394],[9.3136,11.3462],[9.3038,11.3377],[9.2943,11.3394],[9.291,11.3482],[9.2871,11.3494],[9.2303,11.3352],[9.2114,11.3288],[9.195,11.3266]]]}},{"type":"Feature","properties":{"name":"Shira","state":"Bauchi","scode":"BA","centroid":[11.4643,10.0185]},"geometry":{"type":"Polygon","coordinates":[[[10.1457,11.241],[10.139,11.2464],[10.1343,11.2561],[10.1482,11.2645],[10.1416,11.2731],[10.1458,11.2841],[10.1608,11.3093],[10.1576,11.3123],[10.1372,11.3189],[10.1283,11.3199],[10.1138,11.3415],[10.1195,11.3537],[10.138,11.3604],[10.1396,11.3702],[10.1231,11.3787],[10.1314,11.3882],[10.1291,11.3902],[10.1265,11.3978],[10.128,11.3996],[10.1387,11.4018],[10.1459,11.3989],[10.1475,11.4187],[10.1665,11.4237],[10.1814,11.4179],[10.1809,11.4318],[10.1912,11.4381],[10.1928,11.441],[10.2074,11.4316],[10.2136,11.4432],[10.2278,11.4424],[10.2434,11.4305],[10.2509,11.4341],[10.2568,11.4433],[10.2566,11.451],[10.2523,11.4518],[10.2446,11.4618],[10.2444,11.4659],[10.239,11.471],[10.2175,11.4783],[10.2125,11.4826],[10.2078,11.482],[10.2065,11.4856],[10.1996,11.4893],[10.1994,11.4907],[10.1872,11.49],[10.181,11.5028],[10.1756,11.5074],[10.1903,11.5201],[10.1796,11.5288],[10.1788,11.5322],[10.17,11.5353],[10.1662,11.5424],[10.1688,11.5444],[10.1718,11.555],[10.1644,11.5558],[10.1642,11.5583],[10.1797,11.5685],[10.1687,11.5748],[10.1518,11.5721],[10.139,11.5889],[10.1381,11.6001],[10.132,11.6098],[10.1187,11.6191],[10.1115,11.6223],[10.1012,11.6318],[10.1016,11.6347],[10.1074,11.6413],[10.1024,11.6516],[10.1004,11.6591],[10.0934,11.669],[10.077,11.6707],[10.0748,11.6839],[10.0689,11.6823],[10.0648,11.6791],[10.0715,11.6658],[10.0722,11.6491],[10.0607,11.6425],[10.0534,11.6423],[10.0434,11.6499],[10.0413,11.6534],[10.0292,11.6487],[10.0252,11.6546],[10.008,11.6499],[10.0023,11.6682],[9.9979,11.67],[9.9953,11.6698],[9.9844,11.6586],[9.9751,11.6556],[9.9709,11.6592],[9.9641,11.6616],[9.9474,11.6468],[9.9484,11.642],[9.9361,11.6266],[9.9387,11.6201],[9.9378,11.6121],[9.9199,11.6003],[9.9124,11.6104],[9.9038,11.5994],[9.8988,11.5954],[9.8989,11.592],[9.8955,11.586],[9.9039,11.5707],[9.908,11.5689],[9.9148,11.5719],[9.9239,11.5629],[9.9228,11.5494],[9.9259,11.5476],[9.9251,11.5429],[9.9196,11.5322],[9.9102,11.5347],[9.9092,11.5375],[9.9038,11.5407],[9.9043,11.5529],[9.8823,11.5624],[9.8694,11.5633],[9.8671,11.5562],[9.8576,11.5528],[9.8478,11.5576],[9.8489,11.5657],[9.848,11.5746],[9.8196,11.5799],[9.8308,11.5403],[9.8297,11.5378],[9.8154,11.5293],[9.8056,11.5214],[9.7921,11.5065],[9.7879,11.5047],[9.784,11.4913],[9.7865,11.4822],[9.7847,11.4682],[9.788,11.4633],[9.8014,11.4434],[9.8557,11.466],[9.8646,11.4584],[9.8689,11.4583],[9.8748,11.4527],[9.878,11.4485],[9.8769,11.4459],[9.8801,11.4355],[9.8761,11.4234],[9.8762,11.4154],[9.8856,11.4064],[9.8851,11.3963],[9.88,11.3889],[9.8845,11.3813],[9.8884,11.381],[9.8895,11.3714],[9.8857,11.3703],[9.8835,11.3676],[9.8826,11.359],[9.9035,11.3475],[9.9183,11.3474],[9.9137,11.3199],[9.9121,11.3171],[9.9415,11.3139],[9.9484,11.2963],[9.9577,11.2863],[9.9646,11.2818],[9.9683,11.283],[9.9695,11.2788],[9.9772,11.2772],[9.9915,11.2702],[9.9985,11.2646],[10.0119,11.2614],[10.0277,11.2652],[10.0628,11.2661],[10.0842,11.2697],[10.0905,11.2671],[10.1082,11.2536],[10.1221,11.247],[10.1199,11.2374],[10.1298,11.2379],[10.1365,11.2362],[10.1457,11.241]]]}},{"type":"Feature","properties":{"name":"Tafawa-Balewa","state":"Bauchi","scode":"BA","centroid":[9.7847,9.5794]},"geometry":{"type":"Polygon","coordinates":[[[9.8209,9.9115],[9.8145,9.9252],[9.7989,9.9348],[9.7917,9.9337],[9.7928,9.9528],[9.7905,9.9561],[9.7757,9.9608],[9.7644,9.971],[9.752,9.9711],[9.7456,9.9687],[9.7435,9.9661],[9.7338,9.9663],[9.7304,9.9743],[9.7245,9.9813],[9.7145,9.9821],[9.7083,9.9854],[9.7122,9.9921],[9.7122,9.9958],[9.7013,10.0112],[9.7003,10.015],[9.7022,10.0277],[9.661,10.07],[9.6483,10.0863],[9.6332,10.1003],[9.6322,10.121],[9.6365,10.1262],[9.6219,10.1391],[9.6171,10.1626],[9.6268,10.1715],[9.622,10.1774],[9.6245,10.1869],[9.6157,10.1992],[9.6161,10.2011],[9.6008,10.2162],[9.5975,10.2131],[9.6018,10.2028],[9.6014,10.1888],[9.5958,10.1836],[9.5815,10.175],[9.5722,10.1582],[9.5498,10.1609],[9.5333,10.1508],[9.5239,10.1513],[9.5183,10.1132],[9.5273,10.1107],[9.5387,10.1101],[9.5403,10.1083],[9.5374,10.1025],[9.5389,10.1004],[9.5543,10.0979],[9.5547,10.0948],[9.5631,10.0908],[9.5697,10.0778],[9.5732,10.0782],[9.5785,10.074],[9.5793,10.0654],[9.5916,10.0541],[9.5992,10.0538],[9.5998,10.0513],[9.6054,10.0486],[9.6051,10.0447],[9.6066,10.0428],[9.6194,10.0343],[9.6096,10.0287],[9.6056,10.0286],[9.5898,10.0093],[9.5833,10.006],[9.5753,9.9891],[9.5758,9.9864],[9.6051,9.9857],[9.6067,9.9816],[9.615,9.9806],[9.6227,9.9744],[9.6365,9.9561],[9.6325,9.9368],[9.6347,9.9301],[9.6421,9.9298],[9.6496,9.927],[9.6661,9.9266],[9.6812,9.93],[9.6844,9.9184],[9.6743,9.8961],[9.6693,9.8945],[9.6617,9.8861],[9.6552,9.8848],[9.6512,9.8816],[9.6302,9.9058],[9.6302,9.8933],[9.6246,9.8848],[9.614,9.8865],[9.6083,9.8842],[9.6028,9.8927],[9.596,9.8904],[9.5935,9.8838],[9.5862,9.8762],[9.5719,9.8675],[9.5718,9.8739],[9.5646,9.8861],[9.5661,9.9109],[9.5419,9.9098],[9.5434,9.8981],[9.5359,9.8935],[9.5285,9.896],[9.5202,9.901],[9.5038,9.8982],[9.4945,9.9024],[9.49,9.9081],[9.4837,9.9107],[9.4637,9.9048],[9.4418,9.901],[9.4398,9.8984],[9.4267,9.8905],[9.4077,9.8844],[9.3865,9.8802],[9.3706,9.8676],[9.3646,9.8718],[9.3597,9.8716],[9.349,9.9021],[9.3377,9.9034],[9.3311,9.9062],[9.3231,9.9018],[9.3112,9.8989],[9.2963,9.898],[9.2942,9.8957],[9.2942,9.8907],[9.2987,9.8785],[9.282,9.8661],[9.288,9.853],[9.2877,9.8499],[9.2721,9.8461],[9.2608,9.8185],[9.2536,9.8086],[9.2442,9.8023],[9.2358,9.7896],[9.2233,9.7772],[9.2187,9.7733],[9.212,9.7729],[9.2094,9.7701],[9.1987,9.7727],[9.1927,9.7715],[9.1596,9.758],[9.1521,9.7519],[9.1504,9.748],[9.1522,9.7448],[9.1576,9.7408],[9.1783,9.728],[9.1887,9.7165],[9.1951,9.7138],[9.1981,9.7085],[9.2039,9.7035],[9.2103,9.6874],[9.2166,9.684],[9.2672,9.6804],[9.2846,9.6981],[9.2878,9.6923],[9.2906,9.6751],[9.2945,9.6733],[9.2912,9.6616],[9.2914,9.6577],[9.2843,9.6439],[9.2846,9.6361],[9.2973,9.6248],[9.2898,9.6144],[9.3153,9.6072],[9.3272,9.5958],[9.3093,9.5989],[9.304,9.5715],[9.3142,9.5631],[9.351,9.5323],[9.3974,9.5312],[9.4018,9.5198],[9.4035,9.5102],[9.4254,9.4769],[9.4842,9.4752],[9.5691,9.4727],[9.5899,9.5115],[9.5767,9.5228],[9.5485,9.5176],[9.5411,9.5098],[9.5311,9.5159],[9.5227,9.5243],[9.5065,9.5319],[9.497,9.5323],[9.4909,9.5285],[9.4861,9.5299],[9.4846,9.5402],[9.4692,9.5424],[9.4681,9.5447],[9.462,9.5468],[9.4611,9.5484],[9.4451,9.5544],[9.435,9.5679],[9.4239,9.5736],[9.4194,9.5809],[9.4046,9.5916],[9.4216,9.6087],[9.4271,9.6172],[9.4321,9.6215],[9.4362,9.6308],[9.4344,9.636],[9.4399,9.6394],[9.4396,9.6464],[9.4368,9.6474],[9.4343,9.6508],[9.4376,9.655],[9.4484,9.6559],[9.4504,9.6493],[9.4543,9.6452],[9.461,9.6423],[9.4748,9.6636],[9.4728,9.6714],[9.4747,9.6863],[9.4875,9.6917],[9.4903,9.6968],[9.4927,9.6967],[9.4965,9.7051],[9.5019,9.7059],[9.5086,9.7144],[9.4956,9.7216],[9.4882,9.7108],[9.4819,9.7089],[9.4751,9.7147],[9.471,9.7216],[9.4659,9.7254],[9.4555,9.7288],[9.4447,9.7236],[9.4395,9.7179],[9.4328,9.718],[9.4235,9.7254],[9.408,9.7317],[9.4137,9.7488],[9.418,9.7542],[9.43,9.7467],[9.4353,9.7461],[9.4469,9.7519],[9.4529,9.7507],[9.46,9.7436],[9.465,9.747],[9.466,9.7531],[9.4718,9.7592],[9.4806,9.7578],[9.4837,9.7519],[9.5004,9.7504],[9.5031,9.7521],[9.5139,9.7494],[9.5241,9.7679],[9.5387,9.7466],[9.5526,9.7471],[9.5599,9.7457],[9.575,9.7363],[9.5909,9.7431],[9.5883,9.7394],[9.5929,9.7339],[9.597,9.7313],[9.606,9.7292],[9.6135,9.7237],[9.6232,9.7272],[9.6273,9.7265],[9.6281,9.73],[9.6374,9.7308],[9.6418,9.7371],[9.6502,9.7292],[9.6501,9.7247],[9.6563,9.7235],[9.6576,9.7271],[9.6615,9.7278],[9.6675,9.7235],[9.6727,9.7274],[9.6705,9.7208],[9.6949,9.7147],[9.7151,9.7139],[9.7246,9.7077],[9.74,9.701],[9.7466,9.6935],[9.7533,9.6898],[9.7699,9.6871],[9.7915,9.6896],[9.8023,9.6893],[9.8061,9.68],[9.8096,9.6777],[9.8071,9.6705],[9.8044,9.6676],[9.8058,9.6665],[9.805,9.6598],[9.8069,9.6549],[9.8069,9.649],[9.8033,9.6433],[9.8047,9.6384],[9.8025,9.6316],[9.805,9.626],[9.8009,9.6203],[9.7984,9.6094],[9.7954,9.6073],[9.7947,9.6039],[9.7989,9.6003],[9.8005,9.5955],[9.8025,9.5963],[9.8046,9.5884],[9.8071,9.5861],[9.8078,9.58],[9.8242,9.5832],[9.8314,9.5986],[9.8389,9.6012],[9.902,9.6087],[9.9068,9.6118],[9.916,9.6109],[9.9356,9.6051],[9.9422,9.6091],[9.9623,9.6127],[9.9806,9.6233],[9.9912,9.6384],[9.9917,9.6457],[9.9751,9.6893],[9.9726,9.6995],[9.96,9.7049],[9.9475,9.7072],[9.9304,9.7153],[9.9206,9.7328],[9.8902,9.7528],[9.8856,9.7633],[9.8926,9.7912],[9.895,9.7953],[9.8969,9.7979],[9.9066,9.7999],[9.9116,9.8111],[9.9193,9.818],[9.9241,9.8248],[9.9141,9.8492],[9.8969,9.8491],[9.8656,9.8579],[9.8564,9.8479],[9.8503,9.8519],[9.8505,9.858],[9.8484,9.8623],[9.8406,9.8646],[9.8412,9.8753],[9.846,9.8818],[9.8332,9.8986],[9.8249,9.9057],[9.8209,9.9115]]]}},{"type":"Feature","properties":{"name":"Toro","state":"Bauchi","scode":"BA","centroid":[10.4101,9.225]},"geometry":{"type":"Polygon","coordinates":[[[8.8183,10.3804],[8.8206,10.3755],[8.8232,10.3742],[8.8381,10.3704],[8.8702,10.3576],[8.8987,10.3582],[8.9181,10.3535],[8.9258,10.3539],[8.9298,10.3521],[8.9357,10.3485],[8.9422,10.3333],[8.9463,10.3277],[8.9487,10.3182],[8.9549,10.3088],[8.9539,10.2895],[8.9392,10.2734],[8.9356,10.2674],[8.9364,10.2501],[8.9347,10.2461],[8.9312,10.2451],[8.9297,10.2285],[8.9303,10.215],[8.9739,10.19],[8.9782,10.1805],[8.9767,10.1708],[8.9771,10.1611],[8.9718,10.1513],[8.9722,10.1435],[8.9744,10.1379],[8.9683,10.1028],[8.9521,10.093],[8.9387,10.0266],[8.9438,10.0263],[8.9472,10.0196],[8.9495,10.0199],[8.9499,10.0132],[8.9515,10.0111],[8.9621,10.0052],[8.9775,9.9874],[9.0028,9.9888],[9.0005,10.006],[9.0013,10.0089],[9.0058,10.0121],[9.0069,10.0194],[9.004,10.026],[9.0048,10.0291],[9.0036,10.031],[9.0072,10.0328],[9.0201,10.0233],[9.0272,10.0209],[9.0309,10.018],[9.0357,10.0162],[9.0474,10.0156],[9.0589,10.0181],[9.0683,10.0223],[9.0855,10.025],[9.1089,10.044],[9.1186,10.056],[9.124,10.058],[9.128,10.0586],[9.1446,10.0495],[9.1553,10.046],[9.1646,10.0464],[9.163,10.0419],[9.183,10.0383],[9.1925,10.0402],[9.2108,10.0484],[9.2297,10.0482],[9.2548,10.0301],[9.2513,10.0247],[9.2143,10.0175],[9.2321,9.8616],[9.2457,9.8479],[9.2721,9.8461],[9.2877,9.8499],[9.288,9.853],[9.282,9.8661],[9.2987,9.8785],[9.2942,9.8907],[9.2942,9.8957],[9.2963,9.898],[9.3112,9.8989],[9.3231,9.9018],[9.3311,9.9062],[9.3377,9.9034],[9.349,9.9021],[9.355,9.9062],[9.3695,9.9113],[9.3709,9.9142],[9.3744,9.9424],[9.3718,9.9446],[9.3687,9.9619],[9.3613,9.9718],[9.3585,9.9814],[9.3591,9.9915],[9.3612,9.996],[9.3593,9.9969],[9.3584,10.0028],[9.3626,10.0097],[9.3628,10.0132],[9.3619,10.0157],[9.3552,10.014],[9.3535,10.0203],[9.3464,10.022],[9.3464,10.0276],[9.3511,10.0265],[9.3594,10.0273],[9.3609,10.042],[9.3653,10.0481],[9.3664,10.0528],[9.3696,10.0767],[9.3785,10.0771],[9.3846,10.088],[9.3851,10.0904],[9.3812,10.0943],[9.3895,10.1168],[9.3989,10.1296],[9.4249,10.1497],[9.43,10.1499],[9.4344,10.147],[9.4398,10.1493],[9.4403,10.1453],[9.4477,10.1403],[9.448,10.1378],[9.4541,10.131],[9.4651,10.1325],[9.47,10.1296],[9.4718,10.1258],[9.482,10.123],[9.4872,10.1193],[9.504,10.1181],[9.5183,10.1132],[9.5239,10.1513],[9.5333,10.1508],[9.5498,10.1609],[9.5722,10.1582],[9.5815,10.175],[9.5958,10.1836],[9.6014,10.1888],[9.6018,10.2028],[9.5975,10.2131],[9.6008,10.2162],[9.6161,10.2011],[9.6157,10.1992],[9.6245,10.1869],[9.622,10.1774],[9.6534,10.2043],[9.6308,10.2068],[9.6295,10.2103],[9.6176,10.2158],[9.609,10.2317],[9.6065,10.2312],[9.6057,10.2331],[9.6132,10.2397],[9.624,10.2415],[9.6347,10.2393],[9.65,10.243],[9.6478,10.2495],[9.652,10.2635],[9.653,10.2751],[9.6599,10.2911],[9.6887,10.3196],[9.6935,10.3253],[9.6962,10.3329],[9.6962,10.3363],[9.6942,10.3383],[9.6951,10.3437],[9.6896,10.3506],[9.6911,10.3591],[9.6874,10.362],[9.6869,10.3668],[9.6814,10.3696],[9.6802,10.3723],[9.6816,10.3739],[9.6785,10.3892],[9.6798,10.3906],[9.6777,10.3926],[9.6809,10.3987],[9.6848,10.3991],[9.6888,10.4061],[9.6911,10.4075],[9.6921,10.415],[9.6902,10.4178],[9.693,10.4227],[9.6942,10.4327],[9.6871,10.437],[9.6835,10.447],[9.6774,10.4503],[9.6565,10.4556],[9.6492,10.4593],[9.6458,10.4629],[9.6417,10.4626],[9.6404,10.465],[9.6412,10.4776],[9.6438,10.4853],[9.6372,10.4974],[9.6329,10.5001],[9.6309,10.5119],[9.6261,10.5192],[9.6261,10.5287],[9.6287,10.5352],[9.6239,10.5429],[9.6238,10.5474],[9.6266,10.5494],[9.6269,10.5515],[9.6226,10.5531],[9.6226,10.5555],[9.6158,10.5652],[9.6354,10.5758],[9.6371,10.5866],[9.6478,10.5997],[9.6612,10.6115],[9.6387,10.6369],[9.6051,10.6616],[9.6029,10.6839],[9.5951,10.689],[9.5728,10.6971],[9.5637,10.6921],[9.4455,10.7589],[9.4177,10.7874],[9.4115,10.7833],[9.4074,10.7851],[9.4033,10.784],[9.4021,10.7785],[9.3993,10.7752],[9.3963,10.7741],[9.3908,10.7637],[9.3637,10.7519],[9.3554,10.7454],[9.3489,10.744],[9.3376,10.7463],[9.3291,10.7412],[9.3198,10.744],[9.3126,10.7411],[9.3068,10.741],[9.2924,10.7337],[9.2908,10.7298],[9.2829,10.727],[9.2806,10.7242],[9.2714,10.722],[9.2556,10.7144],[9.2491,10.7132],[9.2411,10.7066],[9.2283,10.7022],[9.2253,10.697],[9.2077,10.7012],[9.2043,10.6985],[9.1912,10.6955],[9.1363,10.7152],[9.0915,10.7193],[9.0686,10.7229],[9.0523,10.7282],[9.0352,10.7378],[9.0433,10.7753],[9.0236,10.7904],[9.0203,10.8089],[9.021,10.8125],[8.9605,10.8059],[8.9571,10.8065],[8.9065,10.8353],[8.8139,10.8529],[8.7947,10.8544],[8.7662,10.8511],[8.7694,10.8293],[8.7856,10.7972],[8.8216,10.7692],[8.829,10.7578],[8.838,10.7336],[8.8513,10.7201],[8.8552,10.7074],[8.8525,10.6863],[8.8482,10.6799],[8.8247,10.6753],[8.8219,10.6723],[8.7819,10.601],[8.7832,10.597],[8.7931,10.5655],[8.7843,10.5433],[8.7821,10.5259],[8.7753,10.5191],[8.7737,10.5138],[8.7731,10.5045],[8.7761,10.4963],[8.7767,10.4795],[8.7583,10.4579],[8.7528,10.4546],[8.7494,10.4452],[8.7492,10.4407],[8.7552,10.4391],[8.7576,10.435],[8.765,10.4317],[8.7673,10.4277],[8.7702,10.4281],[8.778,10.4242],[8.7823,10.4242],[8.7931,10.4107],[8.7937,10.4024],[8.7969,10.403],[8.7983,10.4017],[8.7955,10.3994],[8.7979,10.3989],[8.8037,10.3928],[8.8066,10.3932],[8.8076,10.3921],[8.8053,10.3881],[8.8089,10.3863],[8.8103,10.3812],[8.8131,10.3798],[8.8183,10.3804]]]}},{"type":"Feature","properties":{"name":"Warji","state":"Bauchi","scode":"BA","centroid":[11.1423,9.7575]},"geometry":{"type":"Polygon","coordinates":[[[9.6154,11.2403],[9.6172,11.2284],[9.6206,11.2208],[9.6149,11.2123],[9.6162,11.2073],[9.6181,11.2054],[9.6188,11.2004],[9.6303,11.1964],[9.628,11.1839],[9.6259,11.1816],[9.617,11.1804],[9.6144,11.1767],[9.6209,11.155],[9.6254,11.1493],[9.635,11.1459],[9.6434,11.1389],[9.6422,11.1316],[9.6567,11.1124],[9.6555,11.1099],[9.657,11.0927],[9.6494,11.0873],[9.6395,11.0765],[9.6317,11.0712],[9.6253,11.0607],[9.6279,11.0524],[9.6498,11.0553],[9.6549,11.0533],[9.6587,11.0555],[9.6728,11.0517],[9.6737,11.0453],[9.679,11.0368],[9.6961,11.0408],[9.7218,11.0369],[9.7255,11.0344],[9.7296,11.0411],[9.7507,11.0422],[9.7691,11.0478],[9.7782,11.0419],[9.7801,11.0389],[9.7804,11.0225],[9.786,11.0085],[9.8243,11.0147],[9.8273,11.0245],[9.832,11.0299],[9.8578,11.0232],[9.8544,11.0374],[9.8543,11.0455],[9.8592,11.0555],[9.8529,11.0662],[9.8552,11.0765],[9.889,11.094],[9.8903,11.1066],[9.8781,11.1325],[9.8833,11.1473],[9.8827,11.1638],[9.8738,11.1868],[9.8783,11.1893],[9.8787,11.194],[9.881,11.1961],[9.8738,11.1966],[9.872,11.1986],[9.8615,11.1982],[9.8486,11.2277],[9.8419,11.2296],[9.8249,11.2796],[9.8199,11.2776],[9.8163,11.2786],[9.8137,11.277],[9.8108,11.2783],[9.8022,11.2739],[9.7982,11.2733],[9.7941,11.2703],[9.7943,11.2666],[9.792,11.2634],[9.79,11.2634],[9.7889,11.2607],[9.7828,11.2625],[9.7791,11.2616],[9.7765,11.257],[9.7676,11.2533],[9.7671,11.2504],[9.7653,11.2503],[9.7625,11.2458],[9.7455,11.2449],[9.7446,11.2472],[9.7455,11.2476],[9.7428,11.2493],[9.7396,11.2482],[9.7264,11.2509],[9.7267,11.2493],[9.7248,11.2476],[9.7256,11.246],[9.7209,11.2475],[9.7155,11.2447],[9.7143,11.236],[9.7122,11.2351],[9.7118,11.2323],[9.7139,11.2317],[9.7132,11.2299],[9.7005,11.231],[9.7011,11.2294],[9.6966,11.2287],[9.6949,11.2263],[9.6939,11.2272],[9.6896,11.2258],[9.6865,11.2233],[9.6852,11.2244],[9.6841,11.2219],[9.6776,11.2213],[9.6724,11.223],[9.6676,11.2314],[9.662,11.2284],[9.6476,11.2341],[9.6259,11.2367],[9.6154,11.2403]]]}},{"type":"Feature","properties":{"name":"Zaki","state":"Bauchi","scode":"BA","centroid":[12.2427,10.3919]},"geometry":{"type":"Polygon","coordinates":[[[10.1675,12.0592],[10.1699,12.0639],[10.1723,12.0645],[10.1722,12.0615],[10.1792,12.0582],[10.1794,12.0649],[10.1765,12.0669],[10.1769,12.0683],[10.1855,12.067],[10.1861,12.0693],[10.1913,12.07],[10.1911,12.0721],[10.1886,12.0708],[10.1876,12.0721],[10.1886,12.0782],[10.2019,12.0795],[10.202,12.0814],[10.2054,12.0771],[10.2091,12.0769],[10.2089,12.0716],[10.2119,12.0715],[10.2165,12.0766],[10.2207,12.0752],[10.2307,12.0779],[10.2269,12.0681],[10.2276,12.0643],[10.2263,12.0627],[10.2205,12.0643],[10.2185,12.063],[10.2187,12.0416],[10.2124,12.0363],[10.2092,12.036],[10.2039,12.0387],[10.1991,12.0343],[10.1932,12.0326],[10.1917,12.0303],[10.1908,12.0241],[10.1987,12.0222],[10.204,12.0112],[10.2037,12.0073],[10.1965,12.0063],[10.1961,12.0],[10.1942,11.9964],[10.1913,11.9947],[10.1876,11.9979],[10.1855,11.9978],[10.1838,11.9963],[10.1816,11.9888],[10.1788,11.9876],[10.1776,11.9849],[10.1782,11.9835],[10.1837,11.9843],[10.1868,11.9823],[10.187,11.9765],[10.1913,11.9745],[10.1919,11.9721],[10.1894,11.9669],[10.2098,11.9799],[10.2188,11.968],[10.2153,11.9653],[10.2167,11.9599],[10.2219,11.9522],[10.2088,11.95],[10.2109,11.9377],[10.219,11.9355],[10.2228,11.9331],[10.2369,11.9368],[10.238,11.9392],[10.2493,11.937],[10.2548,11.9444],[10.2599,11.9405],[10.2613,11.9332],[10.2665,11.9287],[10.2678,11.9209],[10.2667,11.9188],[10.2754,11.9126],[10.2784,11.9111],[10.2832,11.9122],[10.2847,11.9107],[10.2895,11.9167],[10.293,11.918],[10.3019,11.9115],[10.3039,11.8989],[10.2958,11.884],[10.2979,11.8769],[10.3029,11.8732],[10.3122,11.8708],[10.3253,11.8716],[10.3373,11.8561],[10.352,11.8799],[10.3529,11.8834],[10.3578,11.8886],[10.3378,11.9041],[10.3368,11.9084],[10.3391,11.9102],[10.3561,11.912],[10.37,11.9017],[10.371,11.8933],[10.3832,11.8825],[10.3949,11.8831],[10.3968,11.8903],[10.4142,11.9146],[10.4189,11.9139],[10.4219,11.9028],[10.4393,11.8996],[10.4596,11.9066],[10.4386,11.9269],[10.4351,11.9434],[10.4402,11.9521],[10.4278,11.9584],[10.4306,11.9682],[10.4166,11.9753],[10.4156,11.9792],[10.4234,11.9856],[10.4382,11.9858],[10.4324,11.9978],[10.4278,11.9986],[10.4245,11.9962],[10.4102,12.0017],[10.4088,12.0095],[10.407,12.0107],[10.402,12.0244],[10.4045,12.0377],[10.3964,12.0453],[10.395,12.0491],[10.3982,12.0525],[10.4021,12.0515],[10.4177,12.0616],[10.4199,12.0642],[10.4191,12.0757],[10.4412,12.0797],[10.4404,12.0941],[10.4337,12.1016],[10.431,12.1148],[10.4187,12.1306],[10.4104,12.1242],[10.4074,12.1247],[10.4023,12.1286],[10.403,12.1351],[10.4107,12.1369],[10.4088,12.143],[10.406,12.1452],[10.4055,12.1485],[10.3952,12.1576],[10.3951,12.1612],[10.3791,12.1671],[10.3682,12.1682],[10.3492,12.1726],[10.3356,12.179],[10.3104,12.1852],[10.3137,12.1895],[10.3208,12.1938],[10.3203,12.199],[10.325,12.2006],[10.3241,12.2072],[10.3252,12.2152],[10.3285,12.2229],[10.3203,12.2283],[10.3199,12.2316],[10.3262,12.2334],[10.3355,12.2301],[10.336,12.2333],[10.3313,12.2382],[10.3301,12.2404],[10.3308,12.2421],[10.3349,12.2452],[10.3379,12.2419],[10.3429,12.2405],[10.3405,12.2464],[10.3414,12.2513],[10.3561,12.253],[10.3672,12.2673],[10.3664,12.2699],[10.3651,12.2703],[10.3587,12.2668],[10.3554,12.2681],[10.3549,12.272],[10.357,12.2757],[10.3546,12.2798],[10.3551,12.2833],[10.3664,12.281],[10.3722,12.2825],[10.3748,12.2836],[10.376,12.2877],[10.3839,12.2882],[10.3959,12.2922],[10.3941,12.2952],[10.4109,12.3055],[10.4172,12.3036],[10.4203,12.2913],[10.428,12.2724],[10.4296,12.2719],[10.4361,12.2739],[10.4389,12.2767],[10.4367,12.2856],[10.4306,12.2966],[10.4336,12.2999],[10.4433,12.2992],[10.4474,12.2956],[10.4481,12.2895],[10.4454,12.2843],[10.4474,12.2773],[10.4429,12.2679],[10.442,12.2586],[10.4503,12.2563],[10.4578,12.2607],[10.4638,12.2619],[10.4862,12.2583],[10.4913,12.2714],[10.5037,12.2925],[10.5219,12.2917],[10.5275,12.2948],[10.5116,12.3167],[10.4967,12.3191],[10.5059,12.3514],[10.514,12.3547],[10.5202,12.3614],[10.5255,12.3611],[10.5593,12.3426],[10.5589,12.3302],[10.5931,12.3226],[10.5962,12.3282],[10.6016,12.3295],[10.6183,12.3264],[10.6211,12.3212],[10.6432,12.325],[10.6463,12.3223],[10.651,12.3232],[10.6611,12.3342],[10.6743,12.341],[10.6766,12.3479],[10.6813,12.3515],[10.6872,12.3501],[10.7063,12.3501],[10.7079,12.3544],[10.7213,12.3701],[10.7643,12.3696],[10.7505,12.4762],[10.7152,12.5008],[10.6913,12.5144],[10.6513,12.5294],[10.6424,12.5312],[10.6142,12.5325],[10.6055,12.5281],[10.5982,12.522],[10.597,12.5202],[10.5952,12.521],[10.5925,12.5198],[10.5912,12.5184],[10.5917,12.5162],[10.5987,12.5142],[10.6044,12.515],[10.6056,12.5146],[10.6052,12.5117],[10.6047,12.5107],[10.5949,12.5113],[10.5929,12.5101],[10.5905,12.5049],[10.6056,12.489],[10.6025,12.4883],[10.6032,12.4871],[10.6017,12.4851],[10.5949,12.4856],[10.5908,12.4823],[10.5838,12.4817],[10.5812,12.4769],[10.5786,12.4752],[10.5758,12.4748],[10.5726,12.4771],[10.5701,12.4699],[10.5626,12.471],[10.5577,12.4671],[10.5547,12.4725],[10.5546,12.4808],[10.539,12.4778],[10.5157,12.4682],[10.5125,12.4684],[10.4623,12.4418],[10.452,12.4393],[10.4378,12.4409],[10.4333,12.4433],[10.4296,12.456],[10.426,12.4579],[10.411,12.4595],[10.3939,12.4652],[10.3812,12.4637],[10.3632,12.4521],[10.3578,12.4459],[10.3522,12.4452],[10.3498,12.4434],[10.3477,12.4449],[10.3443,12.4447],[10.3392,12.4413],[10.3257,12.4428],[10.3027,12.4486],[10.2881,12.4555],[10.2581,12.4596],[10.2405,12.434],[10.225,12.4339],[10.2541,12.391],[10.2429,12.3799],[10.2266,12.3686],[10.2258,12.364],[10.2205,12.3563],[10.2084,12.3552],[10.2012,12.3419],[10.2017,12.3361],[10.1989,12.3306],[10.195,12.3281],[10.1975,12.3247],[10.1964,12.3213],[10.2045,12.3243],[10.202,12.3172],[10.2036,12.3168],[10.2062,12.3193],[10.2055,12.3142],[10.2066,12.3119],[10.2023,12.3116],[10.1994,12.3135],[10.1962,12.311],[10.1798,12.288],[10.175,12.2734],[10.1475,12.2382],[10.1515,12.2023],[10.1622,12.1832],[10.1704,12.165],[10.1658,12.1511],[10.164,12.139],[10.1573,12.1294],[10.1568,12.1197],[10.1528,12.1024],[10.1525,12.0899],[10.1626,12.0657],[10.1675,12.0592]]]}}]}