{"type":"FeatureCollection","features":[{"type":"Feature","properties":{"name":"Ado","state":"Benue","scode":"BE","centroid":[6.7894,7.9982]},"geometry":{"type":"Polygon","coordinates":[[[7.8177,6.6375],[7.8218,6.6389],[7.8318,6.6385],[7.8336,6.6194],[7.844,6.6085],[7.8462,6.5983],[7.8558,6.5808],[7.8781,6.5617],[7.8996,6.556],[7.9253,6.5438],[7.9329,6.5415],[7.9448,6.54],[7.9508,6.5431],[7.9542,6.5518],[7.9552,6.5834],[7.9592,6.5908],[7.9732,6.5968],[7.9871,6.6112],[7.9884,6.618],[7.9871,6.6335],[7.9783,6.6479],[7.9788,6.6671],[7.9746,6.6903],[7.9745,6.7113],[7.9844,6.7205],[8.0093,6.725],[8.02,6.7333],[8.032,6.7325],[8.0625,6.7202],[8.0754,6.7138],[8.089,6.7116],[8.0985,6.707],[8.104,6.712],[8.1122,6.7093],[8.1276,6.7116],[8.1362,6.7161],[8.1444,6.7252],[8.1471,6.7429],[8.1526,6.7547],[8.1603,6.7611],[8.146,6.779],[8.1393,6.7819],[8.1357,6.787],[8.1261,6.7911],[8.1186,6.8002],[8.1118,6.8335],[8.1146,6.8482],[8.1099,6.8616],[8.0966,6.8509],[8.0941,6.856],[8.0853,6.8622],[8.0881,6.8704],[8.1088,6.8841],[8.1235,6.8961],[8.1673,6.8969],[8.1927,6.9011],[8.1975,6.9089],[8.1919,6.9394],[8.1823,6.9587],[8.171,6.9744],[8.1646,6.9862],[8.1495,6.9815],[8.1051,6.9751],[8.0868,6.9692],[8.0783,6.9718],[8.0534,6.9734],[8.0138,6.981],[7.9885,6.9835],[7.9783,6.982],[7.9477,6.9715],[7.9382,6.9659],[7.9506,6.9454],[7.9548,6.932],[7.9641,6.9144],[7.8897,6.8345],[7.8865,6.8051],[7.8876,6.7893],[7.89,6.7854],[7.9002,6.7862],[7.9034,6.7815],[7.8947,6.7744],[7.8884,6.7665],[7.8782,6.7602],[7.8749,6.741],[7.8685,6.7249],[7.856,6.7001],[7.8308,6.6619],[7.814,6.6501],[7.811,6.6457],[7.8177,6.6375]]]}},{"type":"Feature","properties":{"name":"Agatu","state":"Benue","scode":"BE","centroid":[7.8662,7.8931]},"geometry":{"type":"Polygon","coordinates":[[[7.7502,7.7518],[7.7921,7.765],[7.7954,7.7756],[7.8056,7.7895],[7.8461,7.7927],[7.8477,7.7954],[7.8609,7.7934],[7.8957,7.7845],[7.9055,7.7834],[7.9141,7.7801],[7.9386,7.7965],[7.9776,7.7855],[7.9687,7.7666],[7.971,7.7531],[7.9748,7.7422],[7.9985,7.7197],[7.9995,7.7091],[8.0265,7.7027],[8.0349,7.7335],[8.0382,7.7367],[8.0893,7.7486],[8.102,7.7573],[8.1351,7.7907],[8.1572,7.803],[8.1671,7.8024],[8.1867,7.8101],[8.1981,7.8205],[8.2065,7.8252],[8.2152,7.8346],[8.1831,7.8532],[8.1804,7.8526],[8.1599,7.8597],[8.1138,7.8639],[8.0952,7.869],[8.0724,7.8774],[8.0408,7.8964],[7.9947,7.923],[7.9729,7.9392],[7.9031,7.969],[7.877,7.9834],[7.8673,7.9862],[7.8384,7.9853],[7.7607,8.0034],[7.6975,8.0137],[7.6768,8.0145],[7.6643,7.9351],[7.6636,7.9059],[7.6698,7.8848],[7.6929,7.8386],[7.7447,7.7687],[7.7502,7.7518]]]}},{"type":"Feature","properties":{"name":"Apa","state":"Benue","scode":"BE","centroid":[7.6208,7.8811]},"geometry":{"type":"Polygon","coordinates":[[[7.7526,7.7082],[7.7547,7.6477],[7.7524,7.6478],[7.7524,7.6397],[7.7326,7.639],[7.7243,7.6205],[7.7263,7.6145],[7.7318,7.6127],[7.7362,7.5994],[7.7378,7.5672],[7.7374,7.5391],[7.7558,7.5304],[7.7545,7.5129],[7.7586,7.4925],[7.7608,7.4516],[7.7641,7.4337],[7.7683,7.427],[7.7762,7.4195],[7.7929,7.4149],[7.7922,7.4099],[7.803,7.4079],[7.8159,7.4088],[7.8215,7.4164],[7.8334,7.4225],[7.8548,7.4459],[7.8937,7.4715],[7.9157,7.4893],[7.9322,7.4964],[7.9637,7.5185],[7.9972,7.5382],[8.0122,7.5501],[8.0221,7.5633],[8.0324,7.5733],[8.0546,7.5925],[8.0668,7.6006],[8.0768,7.6119],[8.073,7.6265],[8.0677,7.6612],[8.0645,7.6725],[8.0646,7.6808],[8.0627,7.6905],[8.0487,7.6933],[8.0345,7.7005],[8.0265,7.7027],[7.9995,7.7091],[7.9985,7.7197],[7.9748,7.7422],[7.971,7.7531],[7.9687,7.7666],[7.9776,7.7855],[7.9386,7.7965],[7.9141,7.7801],[7.9055,7.7834],[7.8957,7.7845],[7.8609,7.7934],[7.8477,7.7954],[7.8461,7.7927],[7.8056,7.7895],[7.7954,7.7756],[7.7921,7.765],[7.7502,7.7518],[7.7526,7.7442],[7.7526,7.7082]]]}},{"type":"Feature","properties":{"name":"Buruku","state":"Benue","scode":"BE","centroid":[7.3402,9.1804]},"geometry":{"type":"Polygon","coordinates":[[[9.3134,7.0981],[9.3103,7.1035],[9.3015,7.1055],[9.2964,7.1091],[9.2928,7.1179],[9.2987,7.1307],[9.2972,7.1383],[9.2895,7.1485],[9.281,7.1547],[9.2758,7.1657],[9.2738,7.1785],[9.28,7.1851],[9.2862,7.1887],[9.2938,7.197],[9.3101,7.2099],[9.3167,7.2191],[9.3156,7.2389],[9.3126,7.2406],[9.3047,7.2368],[9.2712,7.236],[9.2512,7.2379],[9.2463,7.2433],[9.2537,7.2531],[9.2571,7.2733],[9.2735,7.2787],[9.2924,7.3097],[9.3175,7.321],[9.3182,7.3327],[9.3246,7.3373],[9.3366,7.3362],[9.3487,7.3396],[9.349,7.3497],[9.3714,7.357],[9.3687,7.3637],[9.357,7.3767],[9.3492,7.3829],[9.3473,7.3948],[9.353,7.4015],[9.361,7.4027],[9.3696,7.3997],[9.3729,7.3961],[9.3901,7.4117],[9.3878,7.4249],[9.389,7.4314],[9.4085,7.4506],[9.4349,7.4571],[9.4381,7.4725],[9.4062,7.4719],[9.3997,7.4761],[9.3775,7.4839],[9.365,7.4797],[9.3597,7.4801],[9.3368,7.4757],[9.3273,7.4757],[9.3023,7.463],[9.2944,7.466],[9.2673,7.4588],[9.2594,7.47],[9.2549,7.4813],[9.2475,7.4914],[9.2235,7.512],[9.2162,7.5086],[9.1909,7.5148],[9.1833,7.5188],[9.164,7.5357],[9.1582,7.5475],[9.1527,7.5972],[9.1472,7.6132],[9.1318,7.6308],[9.1019,7.6197],[9.0793,7.5987],[9.048,7.5777],[9.0436,7.5722],[9.0222,7.5616],[9.0081,7.5716],[9.0043,7.5845],[8.9969,7.5986],[8.9952,7.617],[8.9978,7.6371],[8.9907,7.6496],[8.9926,7.6639],[8.9848,7.6758],[8.9802,7.679],[8.9667,7.6776],[8.9648,7.6644],[8.9716,7.6482],[8.9673,7.6385],[8.9658,7.6299],[8.958,7.6199],[8.9585,7.5943],[8.9608,7.5809],[8.9579,7.5767],[8.9501,7.571],[8.9429,7.5591],[8.9424,7.5509],[8.9497,7.5458],[8.947,7.5288],[8.9504,7.5184],[8.9665,7.515],[8.9714,7.5033],[8.9729,7.4954],[8.9989,7.4893],[9.0085,7.4911],[9.0184,7.4899],[9.0303,7.4831],[9.0483,7.4841],[9.0505,7.4825],[9.077,7.4819],[9.0824,7.4751],[9.0895,7.4703],[9.0936,7.4602],[9.109,7.4582],[9.116,7.4494],[9.1181,7.4449],[9.119,7.4301],[9.1121,7.4167],[9.1315,7.4061],[9.1396,7.4133],[9.144,7.4086],[9.1485,7.3962],[9.1592,7.3925],[9.1612,7.3935],[9.169,7.3844],[9.1767,7.3673],[9.1822,7.3697],[9.1843,7.368],[9.184,7.358],[9.1812,7.3505],[9.1915,7.35],[9.1916,7.3316],[9.1818,7.3151],[9.1855,7.2997],[9.1873,7.2985],[9.1872,7.2812],[9.1795,7.2748],[9.1694,7.2735],[9.1518,7.2796],[9.1462,7.2702],[9.1388,7.2634],[9.1257,7.2461],[9.1068,7.2394],[9.105,7.2332],[9.1039,7.2094],[9.1237,7.1838],[9.1286,7.1734],[9.1291,7.165],[9.1226,7.1608],[9.1065,7.1553],[9.0964,7.1595],[9.0855,7.1684],[9.0742,7.1735],[9.0667,7.1617],[9.0608,7.1566],[9.0771,7.1321],[9.0754,7.1252],[9.0599,7.1243],[9.0484,7.1186],[9.0212,7.088],[9.0185,7.0822],[9.0167,7.0729],[9.02,7.0653],[9.0242,7.0613],[9.0358,7.055],[9.0393,7.051],[9.0395,7.0473],[9.0537,7.0443],[9.0603,7.0406],[9.0682,7.0425],[9.0831,7.0532],[9.0999,7.0603],[9.1088,7.0685],[9.1141,7.0659],[9.1202,7.0595],[9.1375,7.0572],[9.1435,7.0517],[9.1488,7.0554],[9.1732,7.0623],[9.1799,7.0663],[9.1837,7.0668],[9.1926,7.0734],[9.2064,7.0743],[9.2169,7.0796],[9.2242,7.08],[9.2434,7.0911],[9.2534,7.0923],[9.2605,7.0575],[9.2745,7.0497],[9.2808,7.0527],[9.2844,7.0605],[9.2916,7.0582],[9.3029,7.0679],[9.3076,7.0772],[9.3039,7.0876],[9.3052,7.0893],[9.3081,7.0895],[9.3096,7.0913],[9.3089,7.0954],[9.3134,7.0981]]]}},{"type":"Feature","properties":{"name":"Gboko","state":"Benue","scode":"BE","centroid":[7.3637,8.8904]},"geometry":{"type":"Polygon","coordinates":[[[9.1039,7.2094],[9.105,7.2332],[9.1068,7.2394],[9.1257,7.2461],[9.1388,7.2634],[9.1462,7.2702],[9.1518,7.2796],[9.1694,7.2735],[9.1795,7.2748],[9.1872,7.2812],[9.1873,7.2985],[9.1855,7.2997],[9.1818,7.3151],[9.1916,7.3316],[9.1915,7.35],[9.1812,7.3505],[9.184,7.358],[9.1843,7.368],[9.1822,7.3697],[9.1767,7.3673],[9.169,7.3844],[9.1612,7.3935],[9.1592,7.3925],[9.1485,7.3962],[9.144,7.4086],[9.1396,7.4133],[9.1315,7.4061],[9.1121,7.4167],[9.119,7.4301],[9.1181,7.4449],[9.116,7.4494],[9.109,7.4582],[9.0936,7.4602],[9.0895,7.4703],[9.0824,7.4751],[9.077,7.4819],[9.0505,7.4825],[9.0483,7.4841],[9.0303,7.4831],[9.0184,7.4899],[9.0085,7.4911],[8.9989,7.4893],[8.9729,7.4954],[8.9714,7.5033],[8.9665,7.515],[8.9504,7.5184],[8.9403,7.5113],[8.9367,7.4973],[8.9288,7.4929],[8.9227,7.4865],[8.9172,7.4694],[8.9101,7.4521],[8.9075,7.4495],[8.8787,7.4507],[8.8745,7.4616],[8.8661,7.4756],[8.866,7.479],[8.846,7.5008],[8.8414,7.4992],[8.8289,7.5088],[8.8213,7.5079],[8.8147,7.5375],[8.8074,7.5367],[8.773,7.5492],[8.7559,7.5586],[8.7414,7.5482],[8.7247,7.5335],[8.7112,7.5249],[8.6946,7.5119],[8.6875,7.5005],[8.6468,7.489],[8.6515,7.4797],[8.655,7.4684],[8.6541,7.4177],[8.651,7.4111],[8.6393,7.3565],[8.6687,7.3088],[8.6743,7.2971],[8.6941,7.2427],[8.7182,7.2065],[8.7316,7.1801],[8.7335,7.1789],[8.7566,7.1831],[8.7764,7.1804],[8.8124,7.1836],[8.8262,7.1822],[8.8416,7.1871],[8.8536,7.2137],[8.8663,7.2229],[8.8732,7.2341],[8.8696,7.2562],[8.8947,7.2698],[8.8992,7.2707],[8.9037,7.2763],[8.9274,7.2742],[8.94,7.2838],[8.9421,7.287],[8.9583,7.2763],[8.9844,7.2842],[8.9886,7.2721],[8.9972,7.2615],[9.002,7.2461],[9.0053,7.2425],[9.0219,7.2451],[9.0278,7.2473],[9.0363,7.2473],[9.0525,7.2364],[9.0625,7.2247],[9.1039,7.2094]]]}},{"type":"Feature","properties":{"name":"Guma","state":"Benue","scode":"BE","centroid":[7.9013,8.7546]},"geometry":{"type":"Polygon","coordinates":[[[9.1344,7.9886],[9.1147,8.008],[9.0625,8.0745],[9.057,8.0776],[9.0254,8.0626],[8.9641,8.0613],[8.9108,8.0563],[8.7805,8.0752],[8.6967,8.0964],[8.6371,8.1162],[8.588,8.1289],[8.5605,8.1401],[8.5244,8.1573],[8.5127,8.1578],[8.5037,8.1582],[8.4663,8.1392],[8.4266,8.1122],[8.3909,8.0783],[8.3711,8.0463],[8.3635,8.0166],[8.3603,7.9873],[8.3603,7.9623],[8.3444,7.9734],[8.3397,7.961],[8.3479,7.9282],[8.374,7.8992],[8.389,7.8926],[8.3911,7.8905],[8.3919,7.8788],[8.3985,7.8574],[8.4015,7.8382],[8.406,7.8296],[8.4067,7.8177],[8.4103,7.8081],[8.4158,7.8],[8.4207,7.8008],[8.4198,7.8107],[8.4228,7.8143],[8.4377,7.8173],[8.4377,7.8207],[8.4424,7.8261],[8.4425,7.8315],[8.4458,7.8344],[8.45,7.8463],[8.4945,7.8514],[8.5491,7.8333],[8.5666,7.8336],[8.5804,7.8356],[8.6168,7.8336],[8.6532,7.8264],[8.6674,7.827],[8.6813,7.8244],[8.6842,7.8131],[8.6891,7.806],[8.6881,7.7965],[8.6917,7.7858],[8.7156,7.7667],[8.6933,7.7531],[8.7039,7.7026],[8.6966,7.6611],[8.716,7.6606],[8.7678,7.6533],[8.7639,7.659],[8.7791,7.6909],[8.8189,7.73],[8.8561,7.7057],[8.8786,7.7047],[8.8914,7.6926],[8.8986,7.6909],[8.9088,7.6923],[8.9299,7.7066],[8.9397,7.6993],[8.9561,7.6995],[8.9838,7.7052],[8.9802,7.679],[8.9848,7.6758],[8.9926,7.6639],[8.9907,7.6496],[8.9978,7.6371],[8.9952,7.617],[8.9969,7.5986],[9.0043,7.5845],[9.0081,7.5716],[9.0222,7.5616],[9.0436,7.5722],[9.048,7.5777],[9.0793,7.5987],[9.1019,7.6197],[9.1318,7.6308],[9.1472,7.6132],[9.1527,7.5972],[9.1876,7.574],[9.2131,7.5765],[9.2173,7.5781],[9.2209,7.5819],[9.2364,7.5915],[9.2018,7.6508],[9.1634,7.6724],[9.1456,7.6645],[9.1103,7.7052],[9.082,7.7265],[9.0636,7.761],[9.0328,7.7752],[9.0169,7.8028],[8.9907,7.8028],[8.98,7.8065],[8.9561,7.8054],[8.949,7.8068],[8.9304,7.8353],[8.9604,7.9323],[9.0897,7.9696],[9.1318,7.9855],[9.1344,7.9886]]]}},{"type":"Feature","properties":{"name":"Gwer East","state":"Benue","scode":"BE","centroid":[7.3758,8.4328]},"geometry":{"type":"Polygon","coordinates":[[[8.6966,7.6611],[8.6891,7.6564],[8.6749,7.6523],[8.6652,7.6319],[8.6512,7.6096],[8.6331,7.5993],[8.6192,7.5841],[8.6017,7.5697],[8.5827,7.5658],[8.5599,7.5561],[8.5463,7.5529],[8.5236,7.5509],[8.4848,7.5597],[8.4745,7.5644],[8.4514,7.5789],[8.4234,7.6148],[8.4121,7.6312],[8.4067,7.6428],[8.405,7.6376],[8.4,7.6346],[8.3999,7.6311],[8.3977,7.6286],[8.3994,7.627],[8.3976,7.6256],[8.3981,7.6212],[8.3961,7.6194],[8.3896,7.6192],[8.3891,7.6173],[8.3829,7.6194],[8.3812,7.6175],[8.3711,7.6197],[8.3673,7.619],[8.3621,7.6214],[8.3479,7.6134],[8.3404,7.6029],[8.3323,7.5724],[8.3256,7.5607],[8.302,7.5374],[8.2824,7.5235],[8.2687,7.5069],[8.2578,7.4871],[8.2716,7.4602],[8.2489,7.439],[8.2366,7.4465],[8.226,7.441],[8.2105,7.4413],[8.1956,7.4341],[8.1878,7.4172],[8.1823,7.4162],[8.1594,7.4029],[8.1446,7.3913],[8.1343,7.3755],[8.1588,7.3609],[8.1719,7.3319],[8.181,7.3188],[8.186,7.3182],[8.2097,7.2793],[8.2199,7.2713],[8.2203,7.2398],[8.2327,7.2195],[8.243,7.1924],[8.2347,7.1758],[8.2561,7.126],[8.3056,7.125],[8.3201,7.1301],[8.3384,7.1156],[8.3597,7.1192],[8.3875,7.103],[8.4054,7.1032],[8.4075,7.1017],[8.4104,7.0912],[8.4214,7.0694],[8.4229,7.0525],[8.4318,7.05],[8.4774,7.0641],[8.4935,7.0716],[8.5141,7.0644],[8.5203,7.0728],[8.5274,7.1271],[8.5234,7.1389],[8.5238,7.1805],[8.5192,7.2027],[8.5103,7.2046],[8.5035,7.2086],[8.4925,7.2111],[8.4878,7.228],[8.4816,7.2369],[8.4832,7.2489],[8.4922,7.2629],[8.4992,7.2765],[8.5057,7.2946],[8.5135,7.3069],[8.5333,7.3136],[8.5495,7.3242],[8.5617,7.3276],[8.5645,7.3272],[8.5953,7.348],[8.6393,7.3565],[8.651,7.4111],[8.6541,7.4177],[8.655,7.4684],[8.6515,7.4797],[8.6468,7.489],[8.6875,7.5005],[8.6946,7.5119],[8.7112,7.5249],[8.7247,7.5335],[8.7414,7.5482],[8.7559,7.5586],[8.7687,7.5691],[8.7604,7.6107],[8.7592,7.6257],[8.7678,7.6533],[8.716,7.6606],[8.6966,7.6611]]]}},{"type":"Feature","properties":{"name":"Gwer West","state":"Benue","scode":"BE","centroid":[7.632,8.2123]},"geometry":{"type":"Polygon","coordinates":[[[8.0265,7.7027],[8.0345,7.7005],[8.0487,7.6933],[8.0627,7.6905],[8.0646,7.6808],[8.0645,7.6725],[8.0677,7.6612],[8.073,7.6265],[8.0768,7.6119],[8.0824,7.5536],[8.0901,7.5055],[8.1038,7.4647],[8.1061,7.4389],[8.111,7.4221],[8.0964,7.4183],[8.0681,7.4153],[8.0913,7.3896],[8.1096,7.3766],[8.116,7.37],[8.1343,7.3755],[8.1446,7.3913],[8.1594,7.4029],[8.1823,7.4162],[8.1878,7.4172],[8.1956,7.4341],[8.2105,7.4413],[8.226,7.441],[8.2366,7.4465],[8.2489,7.439],[8.2716,7.4602],[8.2578,7.4871],[8.2687,7.5069],[8.2824,7.5235],[8.302,7.5374],[8.3256,7.5607],[8.3323,7.5724],[8.3404,7.6029],[8.3479,7.6134],[8.3621,7.6214],[8.3673,7.619],[8.3711,7.6197],[8.3812,7.6175],[8.3829,7.6194],[8.3891,7.6173],[8.3896,7.6192],[8.3961,7.6194],[8.3981,7.6212],[8.3976,7.6256],[8.3994,7.627],[8.3977,7.6286],[8.3999,7.6311],[8.4,7.6346],[8.405,7.6376],[8.4067,7.6428],[8.4052,7.6533],[8.4082,7.6634],[8.4081,7.672],[8.4116,7.6744],[8.4091,7.6768],[8.3994,7.6777],[8.3943,7.6837],[8.3916,7.6845],[8.3893,7.7198],[8.39,7.7594],[8.3855,7.768],[8.3722,7.77],[8.3455,7.7843],[8.2748,7.8146],[8.2152,7.8346],[8.2065,7.8252],[8.1981,7.8205],[8.1867,7.8101],[8.1671,7.8024],[8.1572,7.803],[8.1351,7.7907],[8.102,7.7573],[8.0893,7.7486],[8.0382,7.7367],[8.0349,7.7335],[8.0265,7.7027]]]}},{"type":"Feature","properties":{"name":"Katsina-Ala","state":"Benue","scode":"BE","centroid":[7.2578,9.5679]},"geometry":{"type":"Polygon","coordinates":[[[9.8301,7.5876],[9.8265,7.5812],[9.8136,7.5725],[9.8077,7.5662],[9.7926,7.5542],[9.7805,7.5393],[9.8248,7.5025],[9.8339,7.4968],[9.8451,7.4963],[9.8458,7.4863],[9.8405,7.4687],[9.8358,7.4597],[9.8067,7.3818],[9.7972,7.3616],[9.7917,7.3575],[9.7851,7.3466],[9.7651,7.3204],[9.752,7.3267],[9.7304,7.3455],[9.7175,7.3471],[9.6521,7.3918],[9.6383,7.3998],[9.6227,7.4039],[9.6184,7.4004],[9.6016,7.4018],[9.5986,7.4003],[9.5718,7.4421],[9.5634,7.4614],[9.5581,7.4842],[9.5501,7.4885],[9.5483,7.5067],[9.5406,7.5122],[9.5365,7.5175],[9.5348,7.5258],[9.5313,7.5322],[9.5308,7.5378],[9.521,7.5475],[9.5123,7.5367],[9.5113,7.5378],[9.5016,7.5365],[9.4855,7.5332],[9.4778,7.5196],[9.4868,7.5058],[9.4709,7.4976],[9.4675,7.4848],[9.449,7.4834],[9.4381,7.4725],[9.4349,7.4571],[9.4085,7.4506],[9.389,7.4314],[9.3878,7.4249],[9.3901,7.4117],[9.3729,7.3961],[9.3696,7.3997],[9.361,7.4027],[9.353,7.4015],[9.3473,7.3948],[9.3492,7.3829],[9.357,7.3767],[9.3687,7.3637],[9.3714,7.357],[9.349,7.3497],[9.3487,7.3396],[9.3366,7.3362],[9.3246,7.3373],[9.3182,7.3327],[9.3175,7.321],[9.2924,7.3097],[9.2735,7.2787],[9.2571,7.2733],[9.2537,7.2531],[9.2463,7.2433],[9.2512,7.2379],[9.2712,7.236],[9.3047,7.2368],[9.3126,7.2406],[9.3156,7.2389],[9.3167,7.2191],[9.3101,7.2099],[9.2938,7.197],[9.2862,7.1887],[9.28,7.1851],[9.2738,7.1785],[9.2758,7.1657],[9.281,7.1547],[9.2895,7.1485],[9.2972,7.1383],[9.2987,7.1307],[9.2928,7.1179],[9.2964,7.1091],[9.3015,7.1055],[9.3103,7.1035],[9.3134,7.0981],[9.3153,7.0957],[9.345,7.0886],[9.3544,7.0835],[9.3856,7.074],[9.3908,7.0657],[9.3948,7.0496],[9.4,7.049],[9.4102,7.059],[9.4155,7.0671],[9.4196,7.0694],[9.4235,7.0694],[9.4279,7.0648],[9.4329,7.0647],[9.4413,7.069],[9.4505,7.0674],[9.4576,7.0762],[9.4642,7.0819],[9.4678,7.0825],[9.4724,7.08],[9.4724,7.059],[9.4747,7.0526],[9.4775,7.0507],[9.4783,7.0358],[9.483,7.0293],[9.4864,7.0289],[9.4906,7.0315],[9.4941,7.0388],[9.5003,7.0413],[9.5201,7.0377],[9.5263,7.0336],[9.5343,7.0134],[9.5327,7.0077],[9.5216,7.0023],[9.5214,6.9967],[9.5236,6.9895],[9.5992,7.0007],[9.6056,7.0186],[9.6156,7.0336],[9.6256,7.0414],[9.6413,7.0507],[9.667,7.065],[9.7241,7.0807],[9.738,7.0781],[9.7617,7.1011],[9.824,7.1723],[9.8346,7.1994],[9.8352,7.2172],[9.8286,7.2363],[9.825,7.2546],[9.8283,7.2574],[9.8408,7.2798],[9.856,7.3253],[9.8652,7.3628],[9.8827,7.4143],[9.8886,7.4617],[9.8847,7.5079],[9.8708,7.5402],[9.8458,7.5744],[9.84,7.5793],[9.8301,7.5876]]]}},{"type":"Feature","properties":{"name":"Konshisha","state":"Benue","scode":"BE","centroid":[7.0488,8.7091]},"geometry":{"type":"Polygon","coordinates":[[[8.7764,7.1804],[8.7566,7.1831],[8.7335,7.1789],[8.7316,7.1801],[8.7182,7.2065],[8.6941,7.2427],[8.6743,7.2971],[8.6687,7.3088],[8.6393,7.3565],[8.5953,7.348],[8.5645,7.3272],[8.5617,7.3276],[8.5495,7.3242],[8.5333,7.3136],[8.5135,7.3069],[8.5057,7.2946],[8.4992,7.2765],[8.4922,7.2629],[8.4832,7.2489],[8.4816,7.2369],[8.4878,7.228],[8.4925,7.2111],[8.5035,7.2086],[8.5103,7.2046],[8.5192,7.2027],[8.5238,7.1805],[8.5234,7.1389],[8.5274,7.1271],[8.5203,7.0728],[8.5141,7.0644],[8.5209,7.0386],[8.5255,7.0334],[8.5327,6.9765],[8.5441,6.9551],[8.5462,6.9437],[8.5471,6.9199],[8.5372,6.8997],[8.5318,6.8833],[8.5487,6.8768],[8.5818,6.8564],[8.5991,6.848],[8.6024,6.8495],[8.6008,6.8558],[8.6065,6.8592],[8.6236,6.8625],[8.6362,6.8624],[8.6544,6.8646],[8.6693,6.8702],[8.7037,6.8964],[8.7209,6.8963],[8.7414,6.8927],[8.7596,6.8914],[8.7767,6.8879],[8.7858,6.8832],[8.7904,6.8832],[8.8177,6.8761],[8.8393,6.8691],[8.8598,6.8597],[8.8677,6.854],[8.8791,6.8493],[8.8973,6.8377],[8.9234,6.8249],[8.9608,6.7971],[8.9745,6.7889],[8.9914,6.7693],[8.9948,6.7601],[8.9948,6.7543],[8.9871,6.7362],[8.9894,6.7339],[8.9957,6.7366],[9.0004,6.7451],[9.0096,6.754],[9.0139,6.7641],[9.003,6.7803],[8.9986,6.7841],[9.0053,6.8069],[9.0145,6.8131],[9.014,6.8159],[9.0047,6.828],[8.9979,6.8317],[8.9889,6.8445],[8.9836,6.8484],[8.9802,6.855],[8.9794,6.8604],[8.982,6.8708],[8.9954,6.8825],[9.0058,6.887],[8.9992,6.9071],[8.9965,6.9623],[8.9767,6.9601],[8.9474,6.9721],[8.9439,6.9767],[8.936,6.9827],[8.9114,6.9969],[8.8909,7.0128],[8.8674,7.0455],[8.8441,7.066],[8.8395,7.0657],[8.8338,7.0784],[8.8352,7.0888],[8.8292,7.1077],[8.8352,7.1217],[8.8272,7.1342],[8.8182,7.1391],[8.8146,7.1344],[8.7764,7.1804]]]}},{"type":"Feature","properties":{"name":"Kwande","state":"Benue","scode":"BE","centroid":[6.8074,9.4453]},"geometry":{"type":"Polygon","coordinates":[[[9.738,7.0781],[9.7241,7.0807],[9.667,7.065],[9.6413,7.0507],[9.6256,7.0414],[9.6156,7.0336],[9.6056,7.0186],[9.5992,7.0007],[9.5236,6.9895],[9.5214,6.9967],[9.5216,7.0023],[9.5327,7.0077],[9.5343,7.0134],[9.5263,7.0336],[9.5201,7.0377],[9.5003,7.0413],[9.4941,7.0388],[9.4906,7.0315],[9.4864,7.0289],[9.483,7.0293],[9.4783,7.0358],[9.4775,7.0507],[9.4747,7.0526],[9.4724,7.059],[9.4724,7.08],[9.4678,7.0825],[9.4642,7.0819],[9.4576,7.0762],[9.4505,7.0674],[9.4413,7.069],[9.4329,7.0647],[9.4279,7.0648],[9.4235,7.0694],[9.4196,7.0694],[9.4155,7.0671],[9.4102,7.059],[9.4,7.049],[9.3948,7.0496],[9.3908,7.0657],[9.3856,7.074],[9.3544,7.0835],[9.3517,7.074],[9.3556,7.0714],[9.3569,7.0681],[9.3546,7.0647],[9.3551,7.0609],[9.3522,7.0551],[9.3487,7.0547],[9.3402,7.0494],[9.3319,7.0404],[9.332,7.0368],[9.328,7.032],[9.3145,7.0275],[9.308,7.0296],[9.2915,7.0183],[9.2795,7.0165],[9.2677,7.0166],[9.2575,7.0142],[9.2569,7.0157],[9.2515,7.0169],[9.2397,7.0147],[9.2324,7.0119],[9.22,7.0027],[9.2075,7.0042],[9.2056,6.9988],[9.2075,6.9958],[9.2057,6.9897],[9.2023,6.9879],[9.2018,6.9838],[9.1995,6.9817],[9.201,6.9807],[9.2001,6.9782],[9.1981,6.9777],[9.2,6.9748],[9.1972,6.9663],[9.1992,6.9638],[9.1965,6.9606],[9.1962,6.9575],[9.1815,6.9523],[9.1759,6.9537],[9.1737,6.9529],[9.1625,6.9431],[9.1775,6.9244],[9.1837,6.9095],[9.1876,6.8719],[9.1723,6.8454],[9.1717,6.8403],[9.1638,6.8301],[9.1577,6.8277],[9.1777,6.8131],[9.1791,6.7904],[9.1935,6.7703],[9.1851,6.7591],[9.1826,6.7581],[9.1849,6.7451],[9.1727,6.7255],[9.1764,6.7106],[9.1848,6.6933],[9.1928,6.6944],[9.2157,6.7057],[9.2558,6.7181],[9.2797,6.7191],[9.2911,6.7213],[9.3003,6.7201],[9.3037,6.7178],[9.3183,6.6936],[9.3432,6.6647],[9.3477,6.6555],[9.3579,6.6428],[9.3612,6.6359],[9.3817,6.6185],[9.3862,6.6127],[9.4021,6.6011],[9.4054,6.5954],[9.4168,6.5827],[9.4325,6.5573],[9.4495,6.5388],[9.4711,6.5249],[9.4744,6.5111],[9.4743,6.4996],[9.4673,6.4732],[9.458,6.4047],[9.4674,6.4013],[9.4685,6.4043],[9.5253,6.4297],[9.5944,6.4978],[9.598,6.4999],[9.6065,6.5718],[9.6223,6.6641],[9.6361,6.7129],[9.646,6.7386],[9.6487,6.7992],[9.6414,6.8665],[9.6457,6.8948],[9.6892,6.9864],[9.6998,7.0115],[9.738,7.0781]]]}},{"type":"Feature","properties":{"name":"Logo","state":"Benue","scode":"BE","centroid":[7.7081,9.2397]},"geometry":{"type":"Polygon","coordinates":[[[9.1791,7.9081],[9.1458,7.9701],[9.1344,7.9886],[9.1318,7.9855],[9.0897,7.9696],[8.9604,7.9323],[8.9304,7.8353],[8.949,7.8068],[8.9561,7.8054],[8.98,7.8065],[8.9907,7.8028],[9.0169,7.8028],[9.0328,7.7752],[9.0636,7.761],[9.082,7.7265],[9.1103,7.7052],[9.1456,7.6645],[9.1634,7.6724],[9.2018,7.6508],[9.2364,7.5915],[9.2209,7.5819],[9.2173,7.5781],[9.2131,7.5765],[9.1876,7.574],[9.1527,7.5972],[9.1582,7.5475],[9.164,7.5357],[9.1833,7.5188],[9.1909,7.5148],[9.2162,7.5086],[9.2235,7.512],[9.2475,7.4914],[9.2549,7.4813],[9.2594,7.47],[9.2673,7.4588],[9.2944,7.466],[9.3023,7.463],[9.3273,7.4757],[9.3368,7.4757],[9.3597,7.4801],[9.365,7.4797],[9.3775,7.4839],[9.3997,7.4761],[9.4062,7.4719],[9.4381,7.4725],[9.449,7.4834],[9.4675,7.4848],[9.4709,7.4976],[9.4868,7.5058],[9.4778,7.5196],[9.4855,7.5332],[9.5016,7.5365],[9.5113,7.5378],[9.5123,7.5367],[9.521,7.5475],[9.5124,7.5473],[9.5069,7.5418],[9.5043,7.5446],[9.5081,7.5499],[9.5012,7.5572],[9.501,7.562],[9.4987,7.564],[9.4956,7.5702],[9.496,7.5723],[9.4853,7.5931],[9.4888,7.6029],[9.4834,7.6139],[9.4811,7.6177],[9.4701,7.6212],[9.4599,7.6271],[9.4648,7.6351],[9.4646,7.6419],[9.4591,7.6597],[9.4515,7.6709],[9.4506,7.6757],[9.4517,7.7059],[9.4441,7.7152],[9.4469,7.7332],[9.435,7.729],[9.4026,7.7213],[9.378,7.7177],[9.3794,7.7297],[9.3762,7.7463],[9.3818,7.7521],[9.3786,7.7639],[9.3815,7.7777],[9.3784,7.7829],[9.3793,7.7949],[9.3849,7.8053],[9.3808,7.8149],[9.3851,7.8306],[9.3866,7.8447],[9.3148,7.8348],[9.2726,7.8229],[9.2251,7.8183],[9.1902,7.8104],[9.1302,7.788],[9.1203,7.7933],[9.1157,7.8084],[9.1243,7.8269],[9.1401,7.8487],[9.15,7.8599],[9.1625,7.8691],[9.1722,7.8866],[9.1782,7.8885],[9.1818,7.8917],[9.1832,7.8957],[9.1791,7.9081]]]}},{"type":"Feature","properties":{"name":"Makurdi","state":"Benue","scode":"BE","centroid":[7.7073,8.5451]},"geometry":{"type":"Polygon","coordinates":[[[8.4158,7.8],[8.4155,7.792],[8.4201,7.7826],[8.419,7.7782],[8.4206,7.7742],[8.412,7.7685],[8.4032,7.7662],[8.3855,7.768],[8.39,7.7594],[8.3893,7.7198],[8.3916,7.6845],[8.3943,7.6837],[8.3994,7.6777],[8.4091,7.6768],[8.4116,7.6744],[8.4081,7.672],[8.4082,7.6634],[8.4052,7.6533],[8.4067,7.6428],[8.4121,7.6312],[8.4234,7.6148],[8.4514,7.5789],[8.4745,7.5644],[8.4848,7.5597],[8.5236,7.5509],[8.5463,7.5529],[8.5599,7.5561],[8.5827,7.5658],[8.6017,7.5697],[8.6192,7.5841],[8.6331,7.5993],[8.6512,7.6096],[8.6652,7.6319],[8.6749,7.6523],[8.6891,7.6564],[8.6966,7.6611],[8.7039,7.7026],[8.6933,7.7531],[8.7156,7.7667],[8.6917,7.7858],[8.6881,7.7965],[8.6891,7.806],[8.6842,7.8131],[8.6813,7.8244],[8.6674,7.827],[8.6532,7.8264],[8.6168,7.8336],[8.5804,7.8356],[8.5666,7.8336],[8.5491,7.8333],[8.4945,7.8514],[8.45,7.8463],[8.4458,7.8344],[8.4425,7.8315],[8.4424,7.8261],[8.4377,7.8207],[8.4377,7.8173],[8.4228,7.8143],[8.4198,7.8107],[8.4207,7.8008],[8.4158,7.8]]]}},{"type":"Feature","properties":{"name":"Obi","state":"Benue","scode":"BE","centroid":[7.0068,8.3092]},"geometry":{"type":"Polygon","coordinates":[[[8.1975,6.9089],[8.2056,6.9077],[8.2717,6.9207],[8.2679,6.8986],[8.2798,6.8945],[8.2955,6.8944],[8.342,6.889],[8.3682,6.9121],[8.3772,6.9255],[8.3892,6.9396],[8.4017,6.9465],[8.4077,6.9727],[8.4063,6.9877],[8.4325,7.0061],[8.4237,7.0154],[8.424,7.0226],[8.4154,7.0452],[8.4229,7.0525],[8.4214,7.0694],[8.4104,7.0912],[8.4075,7.1017],[8.4054,7.1032],[8.3875,7.103],[8.3597,7.1192],[8.3384,7.1156],[8.3201,7.1301],[8.3056,7.125],[8.2561,7.126],[8.2489,7.1094],[8.246,7.1057],[8.2413,7.0659],[8.2382,7.0587],[8.2405,7.0478],[8.2355,7.0445],[8.2244,7.0233],[8.2113,7.0067],[8.1935,6.9952],[8.1646,6.9862],[8.171,6.9744],[8.1823,6.9587],[8.1919,6.9394],[8.1975,6.9089]]]}},{"type":"Feature","properties":{"name":"Ogbadibo","state":"Benue","scode":"BE","centroid":[7.0277,7.6685]},"geometry":{"type":"Polygon","coordinates":[[[7.6881,6.8527],[7.6917,6.8516],[7.7119,6.8609],[7.7068,6.8762],[7.7124,6.8872],[7.6961,6.8995],[7.69,6.9002],[7.6859,6.9035],[7.688,6.9075],[7.6908,6.909],[7.6983,6.9265],[7.7068,6.9369],[7.7073,6.941],[7.7094,6.9436],[7.7185,6.95],[7.7365,6.9576],[7.7428,6.9645],[7.7368,6.9659],[7.7351,6.9705],[7.7382,6.9861],[7.7498,7.0037],[7.7633,7.0092],[7.7624,7.0237],[7.7737,7.0292],[7.7718,7.0306],[7.7709,7.0371],[7.7661,7.0425],[7.7663,7.0453],[7.747,7.0579],[7.741,7.0647],[7.7447,7.0684],[7.7504,7.0708],[7.7625,7.0705],[7.767,7.075],[7.7686,7.0832],[7.7727,7.0907],[7.7724,7.1001],[7.767,7.1062],[7.7622,7.1086],[7.7623,7.1188],[7.7559,7.134],[7.7428,7.1477],[7.7403,7.1641],[7.7101,7.1831],[7.703,7.189],[7.691,7.1918],[7.6819,7.1854],[7.6724,7.1737],[7.6431,7.1583],[7.6355,7.1471],[7.6374,7.1327],[7.6299,7.1248],[7.6186,7.1081],[7.6019,7.0906],[7.5994,7.0793],[7.6036,7.053],[7.6111,7.0272],[7.6078,7.0176],[7.6011,7.0164],[7.5932,7.018],[7.5807,7.0272],[7.5436,7.0401],[7.5305,7.0323],[7.5383,7.0202],[7.5493,6.991],[7.5552,6.9806],[7.5572,6.9776],[7.5643,6.9524],[7.5714,6.9398],[7.5777,6.9327],[7.6202,6.9193],[7.636,6.9036],[7.658,6.8681],[7.6746,6.8555],[7.6881,6.8527]]]}},{"type":"Feature","properties":{"name":"Ohimini","state":"Benue","scode":"BE","centroid":[7.2514,7.9364]},"geometry":{"type":"Polygon","coordinates":[[[7.8012,7.2926],[7.8053,7.2906],[7.8155,7.28],[7.8245,7.2799],[7.8283,7.2594],[7.8306,7.2563],[7.8309,7.236],[7.8334,7.2268],[7.8325,7.2199],[7.8303,7.2158],[7.8302,7.206],[7.8283,7.2006],[7.8292,7.1928],[7.8357,7.1916],[7.8386,7.1888],[7.8464,7.1871],[7.8429,7.1765],[7.8434,7.1594],[7.8492,7.1597],[7.8685,7.1545],[7.8975,7.1526],[7.9063,7.1474],[7.9156,7.1449],[7.9282,7.147],[7.935,7.1499],[7.9369,7.1247],[7.9348,7.1132],[7.9383,7.1126],[7.94,7.109],[7.9527,7.1047],[7.9584,7.1077],[7.9622,7.1063],[7.9695,7.1063],[8.0503,7.1411],[8.0649,7.1522],[8.0748,7.1538],[8.0746,7.1914],[8.0685,7.1965],[8.077,7.1999],[8.0846,7.2065],[8.0892,7.2127],[8.102,7.2179],[8.1046,7.2247],[8.0978,7.2274],[8.0833,7.2461],[8.0764,7.2526],[8.0663,7.257],[8.0596,7.2634],[8.0588,7.2697],[8.0625,7.2782],[8.0603,7.2847],[8.0463,7.2989],[8.0388,7.31],[8.0372,7.3163],[8.0374,7.3196],[8.0413,7.3283],[8.0447,7.3482],[8.0308,7.3401],[8.0209,7.3321],[8.0145,7.3298],[8.0069,7.3314],[7.9961,7.34],[7.9696,7.348],[7.954,7.3471],[7.9323,7.3507],[7.9195,7.3501],[7.9123,7.3558],[7.9047,7.3574],[7.8833,7.3545],[7.8679,7.3501],[7.8673,7.3526],[7.871,7.3552],[7.8715,7.3571],[7.8702,7.3589],[7.8605,7.3614],[7.8562,7.3642],[7.8546,7.3774],[7.8553,7.381],[7.867,7.3884],[7.8669,7.3962],[7.8618,7.4003],[7.8508,7.404],[7.8201,7.4099],[7.8159,7.4088],[7.803,7.4079],[7.7922,7.4099],[7.7994,7.4011],[7.8001,7.3918],[7.7971,7.376],[7.8026,7.3643],[7.7687,7.3019],[7.7791,7.3007],[7.8012,7.2926]]]}},{"type":"Feature","properties":{"name":"Oju","state":"Benue","scode":"BE","centroid":[6.8516,8.3828]},"geometry":{"type":"Polygon","coordinates":[[[8.1603,6.7611],[8.173,6.7733],[8.1916,6.7783],[8.213,6.7761],[8.2202,6.7788],[8.2261,6.7897],[8.2293,6.8001],[8.2343,6.7992],[8.2407,6.7924],[8.2498,6.7756],[8.2498,6.7683],[8.2557,6.7661],[8.2661,6.7416],[8.2625,6.7379],[8.2516,6.7356],[8.2688,6.7279],[8.2738,6.7166],[8.2738,6.7129],[8.2802,6.7152],[8.2856,6.7102],[8.2802,6.7048],[8.2788,6.698],[8.2945,6.6787],[8.2994,6.6799],[8.3074,6.6776],[8.3211,6.6786],[8.3405,6.6842],[8.3611,6.6933],[8.3749,6.7069],[8.3934,6.7424],[8.4083,6.7526],[8.4198,6.7572],[8.4357,6.7582],[8.4437,6.7547],[8.4505,6.7478],[8.4687,6.7465],[8.4802,6.751],[8.4962,6.7543],[8.5088,6.7588],[8.535,6.7598],[8.5441,6.7586],[8.5784,6.7652],[8.6207,6.781],[8.6368,6.7981],[8.6403,6.805],[8.6416,6.8188],[8.637,6.8257],[8.62,6.835],[8.6024,6.8495],[8.5991,6.848],[8.5818,6.8564],[8.5487,6.8768],[8.5318,6.8833],[8.5372,6.8997],[8.5471,6.9199],[8.5462,6.9437],[8.5441,6.9551],[8.5327,6.9765],[8.5255,7.0334],[8.5209,7.0386],[8.5141,7.0644],[8.4935,7.0716],[8.4774,7.0641],[8.4318,7.05],[8.4229,7.0525],[8.4154,7.0452],[8.424,7.0226],[8.4237,7.0154],[8.4325,7.0061],[8.4063,6.9877],[8.4077,6.9727],[8.4017,6.9465],[8.3892,6.9396],[8.3772,6.9255],[8.3682,6.9121],[8.342,6.889],[8.2955,6.8944],[8.2798,6.8945],[8.2679,6.8986],[8.2717,6.9207],[8.2056,6.9077],[8.1975,6.9089],[8.1927,6.9011],[8.1673,6.8969],[8.1235,6.8961],[8.1088,6.8841],[8.0881,6.8704],[8.0853,6.8622],[8.0941,6.856],[8.0966,6.8509],[8.1099,6.8616],[8.1146,6.8482],[8.1118,6.8335],[8.1186,6.8002],[8.1261,6.7911],[8.1357,6.787],[8.1393,6.7819],[8.146,6.779],[8.1603,6.7611]]]}},{"type":"Feature","properties":{"name":"Okpokwu","state":"Benue","scode":"BE","centroid":[7.0284,7.8494]},"geometry":{"type":"Polygon","coordinates":[[[7.8897,6.8345],[7.9641,6.9144],[7.9548,6.932],[7.9506,6.9454],[7.9382,6.9659],[7.9477,6.9715],[7.9783,6.982],[7.9885,6.9835],[8.0138,6.981],[8.0534,6.9734],[8.0452,6.9779],[8.0351,6.9864],[8.0263,6.9964],[8.0135,7.0188],[8.0132,7.0248],[8.0044,7.0417],[7.9888,7.0588],[7.9817,7.0631],[7.9719,7.0746],[7.9692,7.0916],[7.9721,7.1052],[7.9695,7.1063],[7.9622,7.1063],[7.9584,7.1077],[7.9527,7.1047],[7.94,7.109],[7.9383,7.1126],[7.9348,7.1132],[7.9369,7.1247],[7.935,7.1499],[7.9282,7.147],[7.9156,7.1449],[7.9063,7.1474],[7.8975,7.1526],[7.8685,7.1545],[7.8492,7.1597],[7.8434,7.1594],[7.8429,7.1765],[7.8464,7.1871],[7.8386,7.1888],[7.8357,7.1916],[7.8292,7.1928],[7.8283,7.2006],[7.8302,7.206],[7.8303,7.2158],[7.8325,7.2199],[7.8334,7.2268],[7.8309,7.236],[7.8306,7.2563],[7.8283,7.2594],[7.8245,7.2799],[7.8155,7.28],[7.8053,7.2906],[7.8012,7.2926],[7.7942,7.2687],[7.7971,7.2331],[7.79,7.2169],[7.7849,7.215],[7.7794,7.2089],[7.7678,7.2063],[7.7293,7.1927],[7.718,7.1836],[7.7101,7.1831],[7.7403,7.1641],[7.7428,7.1477],[7.7559,7.134],[7.7623,7.1188],[7.7622,7.1086],[7.767,7.1062],[7.7724,7.1001],[7.7727,7.0907],[7.7686,7.0832],[7.767,7.075],[7.7625,7.0705],[7.7504,7.0708],[7.7447,7.0684],[7.741,7.0647],[7.747,7.0579],[7.7663,7.0453],[7.7661,7.0425],[7.7709,7.0371],[7.7718,7.0306],[7.7737,7.0292],[7.7624,7.0237],[7.7633,7.0092],[7.7498,7.0037],[7.7382,6.9861],[7.7351,6.9705],[7.7368,6.9659],[7.7428,6.9645],[7.7365,6.9576],[7.7185,6.95],[7.7094,6.9436],[7.7073,6.941],[7.7068,6.9369],[7.6983,6.9265],[7.6908,6.909],[7.688,6.9075],[7.6859,6.9035],[7.69,6.9002],[7.6961,6.8995],[7.7124,6.8872],[7.7068,6.8762],[7.7119,6.8609],[7.7138,6.871],[7.7191,6.8725],[7.7376,6.8704],[7.7502,6.8784],[7.7628,6.8799],[7.7856,6.8728],[7.7918,6.8893],[7.8186,6.8919],[7.8335,6.8864],[7.8396,6.8807],[7.8636,6.8799],[7.8746,6.8689],[7.8762,6.8634],[7.888,6.8539],[7.8904,6.8437],[7.8897,6.8345]]]}},{"type":"Feature","properties":{"name":"Oturkpo","state":"Benue","scode":"BE","centroid":[7.261,8.076]},"geometry":{"type":"Polygon","coordinates":[[[8.0534,6.9734],[8.0783,6.9718],[8.0868,6.9692],[8.1051,6.9751],[8.1495,6.9815],[8.1646,6.9862],[8.1935,6.9952],[8.2113,7.0067],[8.2244,7.0233],[8.2355,7.0445],[8.2405,7.0478],[8.2382,7.0587],[8.2413,7.0659],[8.246,7.1057],[8.2489,7.1094],[8.2561,7.126],[8.2347,7.1758],[8.243,7.1924],[8.2327,7.2195],[8.2203,7.2398],[8.2199,7.2713],[8.2097,7.2793],[8.186,7.3182],[8.181,7.3188],[8.1719,7.3319],[8.1588,7.3609],[8.1343,7.3755],[8.116,7.37],[8.1096,7.3766],[8.0913,7.3896],[8.0681,7.4153],[8.0964,7.4183],[8.111,7.4221],[8.1061,7.4389],[8.1038,7.4647],[8.0901,7.5055],[8.0824,7.5536],[8.0768,7.6119],[8.0668,7.6006],[8.0546,7.5925],[8.0324,7.5733],[8.0221,7.5633],[8.0122,7.5501],[7.9972,7.5382],[7.9637,7.5185],[7.9322,7.4964],[7.9157,7.4893],[7.8937,7.4715],[7.8548,7.4459],[7.8334,7.4225],[7.8215,7.4164],[7.8159,7.4088],[7.8201,7.4099],[7.8508,7.404],[7.8618,7.4003],[7.8669,7.3962],[7.867,7.3884],[7.8553,7.381],[7.8546,7.3774],[7.8562,7.3642],[7.8605,7.3614],[7.8702,7.3589],[7.8715,7.3571],[7.871,7.3552],[7.8673,7.3526],[7.8679,7.3501],[7.8833,7.3545],[7.9047,7.3574],[7.9123,7.3558],[7.9195,7.3501],[7.9323,7.3507],[7.954,7.3471],[7.9696,7.348],[7.9961,7.34],[8.0069,7.3314],[8.0145,7.3298],[8.0209,7.3321],[8.0308,7.3401],[8.0447,7.3482],[8.0413,7.3283],[8.0374,7.3196],[8.0372,7.3163],[8.0388,7.31],[8.0463,7.2989],[8.0603,7.2847],[8.0625,7.2782],[8.0588,7.2697],[8.0596,7.2634],[8.0663,7.257],[8.0764,7.2526],[8.0833,7.2461],[8.0978,7.2274],[8.1046,7.2247],[8.102,7.2179],[8.0892,7.2127],[8.0846,7.2065],[8.077,7.1999],[8.0685,7.1965],[8.0746,7.1914],[8.0748,7.1538],[8.0649,7.1522],[8.0503,7.1411],[7.9695,7.1063],[7.9721,7.1052],[7.9692,7.0916],[7.9719,7.0746],[7.9817,7.0631],[7.9888,7.0588],[8.0044,7.0417],[8.0132,7.0248],[8.0135,7.0188],[8.0263,6.9964],[8.0351,6.9864],[8.0452,6.9779],[8.0534,6.9734]]]}},{"type":"Feature","properties":{"name":"Tarka","state":"Benue","scode":"BE","centroid":[7.6023,8.8679]},"geometry":{"type":"Polygon","coordinates":[[[8.7678,7.6533],[8.7592,7.6257],[8.7604,7.6107],[8.7687,7.5691],[8.7559,7.5586],[8.773,7.5492],[8.8074,7.5367],[8.8147,7.5375],[8.8213,7.5079],[8.8289,7.5088],[8.8414,7.4992],[8.846,7.5008],[8.866,7.479],[8.8661,7.4756],[8.8745,7.4616],[8.8787,7.4507],[8.9075,7.4495],[8.9101,7.4521],[8.9172,7.4694],[8.9227,7.4865],[8.9288,7.4929],[8.9367,7.4973],[8.9403,7.5113],[8.9504,7.5184],[8.947,7.5288],[8.9497,7.5458],[8.9424,7.5509],[8.9429,7.5591],[8.9501,7.571],[8.9579,7.5767],[8.9608,7.5809],[8.9585,7.5943],[8.958,7.6199],[8.9658,7.6299],[8.9673,7.6385],[8.9716,7.6482],[8.9648,7.6644],[8.9667,7.6776],[8.9802,7.679],[8.9838,7.7052],[8.9561,7.6995],[8.9397,7.6993],[8.9299,7.7066],[8.9088,7.6923],[8.8986,7.6909],[8.8914,7.6926],[8.8786,7.7047],[8.8561,7.7057],[8.8189,7.73],[8.7791,7.6909],[8.7639,7.659],[8.7678,7.6533]]]}},{"type":"Feature","properties":{"name":"Ukum","state":"Benue","scode":"BE","centroid":[7.6066,9.6227]},"geometry":{"type":"Polygon","coordinates":[[[9.7977,7.6147],[9.7472,7.6549],[9.7017,7.7102],[9.6694,7.763],[9.6431,7.7999],[9.6015,7.8295],[9.5613,7.8388],[9.4994,7.8427],[9.3866,7.8447],[9.3851,7.8306],[9.3808,7.8149],[9.3849,7.8053],[9.3793,7.7949],[9.3784,7.7829],[9.3815,7.7777],[9.3786,7.7639],[9.3818,7.7521],[9.3762,7.7463],[9.3794,7.7297],[9.378,7.7177],[9.4026,7.7213],[9.435,7.729],[9.4469,7.7332],[9.4441,7.7152],[9.4517,7.7059],[9.4506,7.6757],[9.4515,7.6709],[9.4591,7.6597],[9.4646,7.6419],[9.4648,7.6351],[9.4599,7.6271],[9.4701,7.6212],[9.4811,7.6177],[9.4834,7.6139],[9.4888,7.6029],[9.4853,7.5931],[9.496,7.5723],[9.4956,7.5702],[9.4987,7.564],[9.501,7.562],[9.5012,7.5572],[9.5081,7.5499],[9.5043,7.5446],[9.5069,7.5418],[9.5124,7.5473],[9.521,7.5475],[9.5308,7.5378],[9.5313,7.5322],[9.5348,7.5258],[9.5365,7.5175],[9.5406,7.5122],[9.5483,7.5067],[9.5501,7.4885],[9.5581,7.4842],[9.5634,7.4614],[9.5718,7.4421],[9.5986,7.4003],[9.6016,7.4018],[9.6184,7.4004],[9.6227,7.4039],[9.6383,7.3998],[9.6521,7.3918],[9.7175,7.3471],[9.7304,7.3455],[9.752,7.3267],[9.7651,7.3204],[9.7851,7.3466],[9.7917,7.3575],[9.7972,7.3616],[9.8067,7.3818],[9.8358,7.4597],[9.8405,7.4687],[9.8458,7.4863],[9.8451,7.4963],[9.8339,7.4968],[9.8248,7.5025],[9.7805,7.5393],[9.7926,7.5542],[9.8077,7.5662],[9.8136,7.5725],[9.8265,7.5812],[9.8301,7.5876],[9.8164,7.5978],[9.7977,7.6147]]]}},{"type":"Feature","properties":{"name":"Ushongo","state":"Benue","scode":"BE","centroid":[7.1016,9.0173]},"geometry":{"type":"Polygon","coordinates":[[[9.3544,7.0835],[9.345,7.0886],[9.3153,7.0957],[9.3134,7.0981],[9.3089,7.0954],[9.3096,7.0913],[9.3081,7.0895],[9.3052,7.0893],[9.3039,7.0876],[9.3076,7.0772],[9.3029,7.0679],[9.2916,7.0582],[9.2844,7.0605],[9.2808,7.0527],[9.2745,7.0497],[9.2605,7.0575],[9.2534,7.0923],[9.2434,7.0911],[9.2242,7.08],[9.2169,7.0796],[9.2064,7.0743],[9.1926,7.0734],[9.1837,7.0668],[9.1799,7.0663],[9.1732,7.0623],[9.1488,7.0554],[9.1435,7.0517],[9.1375,7.0572],[9.1202,7.0595],[9.1141,7.0659],[9.1088,7.0685],[9.0999,7.0603],[9.0831,7.0532],[9.0682,7.0425],[9.0603,7.0406],[9.0537,7.0443],[9.0395,7.0473],[9.0393,7.051],[9.0358,7.055],[9.0242,7.0613],[9.02,7.0653],[9.0167,7.0729],[9.0185,7.0822],[9.0212,7.088],[9.0484,7.1186],[9.0599,7.1243],[9.0754,7.1252],[9.0771,7.1321],[9.0608,7.1566],[9.0667,7.1617],[9.0742,7.1735],[9.0855,7.1684],[9.0964,7.1595],[9.1065,7.1553],[9.1226,7.1608],[9.1291,7.165],[9.1286,7.1734],[9.1237,7.1838],[9.1039,7.2094],[9.0625,7.2247],[9.0525,7.2364],[9.0363,7.2473],[9.0278,7.2473],[9.0219,7.2451],[9.0053,7.2425],[9.002,7.2461],[8.9972,7.2615],[8.9886,7.2721],[8.9844,7.2842],[8.9583,7.2763],[8.9421,7.287],[8.94,7.2838],[8.9274,7.2742],[8.9037,7.2763],[8.8992,7.2707],[8.8947,7.2698],[8.8696,7.2562],[8.8732,7.2341],[8.8663,7.2229],[8.8536,7.2137],[8.8416,7.1871],[8.8262,7.1822],[8.8124,7.1836],[8.7764,7.1804],[8.8146,7.1344],[8.8182,7.1391],[8.8272,7.1342],[8.8352,7.1217],[8.8292,7.1077],[8.8352,7.0888],[8.8338,7.0784],[8.8395,7.0657],[8.8441,7.066],[8.8674,7.0455],[8.8909,7.0128],[8.9114,6.9969],[8.936,6.9827],[8.9439,6.9767],[8.9474,6.9721],[8.9767,6.9601],[8.9965,6.9623],[9.0113,6.9696],[9.0306,6.9671],[9.0743,6.972],[9.0835,6.9664],[9.0907,6.9684],[9.094,6.9646],[9.1057,6.9624],[9.1086,6.9662],[9.1126,6.9683],[9.1291,6.9676],[9.1344,6.9637],[9.1421,6.9667],[9.1452,6.9568],[9.1457,6.9466],[9.1542,6.9436],[9.1625,6.9431],[9.1737,6.9529],[9.1759,6.9537],[9.1815,6.9523],[9.1962,6.9575],[9.1965,6.9606],[9.1992,6.9638],[9.1972,6.9663],[9.2,6.9748],[9.1981,6.9777],[9.2001,6.9782],[9.201,6.9807],[9.1995,6.9817],[9.2018,6.9838],[9.2023,6.9879],[9.2057,6.9897],[9.2075,6.9958],[9.2056,6.9988],[9.2075,7.0042],[9.22,7.0027],[9.2324,7.0119],[9.2397,7.0147],[9.2515,7.0169],[9.2569,7.0157],[9.2575,7.0142],[9.2677,7.0166],[9.2795,7.0165],[9.2915,7.0183],[9.308,7.0296],[9.3145,7.0275],[9.328,7.032],[9.332,7.0368],[9.3319,7.0404],[9.3402,7.0494],[9.3487,7.0547],[9.3522,7.0551],[9.3551,7.0609],[9.3546,7.0647],[9.3569,7.0681],[9.3556,7.0714],[9.3517,7.074],[9.3544,7.0835]]]}},{"type":"Feature","properties":{"name":"Vandeikya","state":"Benue","scode":"BE","centroid":[6.8118,9.0843]},"geometry":{"type":"Polygon","coordinates":[[[9.1625,6.9431],[9.1542,6.9436],[9.1457,6.9466],[9.1452,6.9568],[9.1421,6.9667],[9.1344,6.9637],[9.1291,6.9676],[9.1126,6.9683],[9.1086,6.9662],[9.1057,6.9624],[9.094,6.9646],[9.0907,6.9684],[9.0835,6.9664],[9.0743,6.972],[9.0306,6.9671],[9.0113,6.9696],[8.9965,6.9623],[8.9992,6.9071],[9.0058,6.887],[8.9954,6.8825],[8.982,6.8708],[8.9794,6.8604],[8.9802,6.855],[8.9836,6.8484],[8.9889,6.8445],[8.9979,6.8317],[9.0047,6.828],[9.014,6.8159],[9.0145,6.8131],[9.0053,6.8069],[8.9986,6.7841],[9.003,6.7803],[9.0139,6.7641],[9.0096,6.754],[9.0004,6.7451],[8.9957,6.7366],[8.9894,6.7339],[8.9871,6.7362],[8.9681,6.6971],[8.9703,6.6914],[8.9852,6.6936],[8.9902,6.6924],[8.992,6.6924],[8.9977,6.6831],[9.018,6.6623],[9.0271,6.6508],[9.0476,6.6438],[9.059,6.6425],[9.0704,6.6425],[9.0853,6.6515],[9.1059,6.6606],[9.1173,6.6674],[9.1231,6.6731],[9.1357,6.6799],[9.1494,6.6844],[9.1585,6.6843],[9.1711,6.6877],[9.1848,6.6933],[9.1764,6.7106],[9.1727,6.7255],[9.1849,6.7451],[9.1826,6.7581],[9.1851,6.7591],[9.1935,6.7703],[9.1791,6.7904],[9.1777,6.8131],[9.1577,6.8277],[9.1638,6.8301],[9.1717,6.8403],[9.1723,6.8454],[9.1876,6.8719],[9.1837,6.9095],[9.1775,6.9244],[9.1625,6.9431]]]}}]}