{"type":"FeatureCollection","features":[{"type":"Feature","properties":{"name":"Abadam","state":"Borno","scode":"BO","centroid":[13.404,13.3185]},"geometry":{"type":"Polygon","coordinates":[[[13.0842,13.1126],[13.134,13.1067],[13.1489,13.0997],[13.1715,13.086],[13.1901,13.0562],[13.2041,13.0494],[13.2496,13.0341],[13.2833,13.0126],[13.3081,13.0299],[13.3465,13.0472],[13.3841,13.0907],[13.3964,13.113],[13.4003,13.1282],[13.4337,13.1624],[13.4687,13.1828],[13.4599,13.2347],[13.4555,13.3232],[13.6483,13.3964],[13.7621,13.5295],[13.6335,13.7083],[13.3716,13.7087],[13.3634,13.7077],[13.3613,13.7102],[13.358,13.7093],[13.3588,13.7128],[13.3533,13.7148],[13.3511,13.7142],[13.3508,13.7158],[13.3489,13.7147],[13.3454,13.72],[13.3408,13.7192],[13.3404,13.7211],[13.3389,13.7214],[13.3369,13.7198],[13.3366,13.717],[13.3319,13.7164],[13.3329,13.714],[13.3318,13.7123],[13.3336,13.7107],[13.3353,13.7113],[13.336,13.7042],[13.334,13.6983],[13.336,13.6953],[13.3354,13.6935],[13.3314,13.6932],[13.3286,13.6952],[13.3266,13.6922],[13.3253,13.6923],[13.3268,13.6903],[13.3248,13.6888],[13.3221,13.6942],[13.3187,13.6925],[13.32,13.6899],[13.3163,13.6901],[13.3168,13.6936],[13.3132,13.6974],[13.3092,13.6962],[13.3101,13.6949],[13.3073,13.694],[13.3098,13.6934],[13.3097,13.6916],[13.3075,13.6913],[13.31,13.6881],[13.3115,13.6891],[13.3118,13.6871],[13.3099,13.6832],[13.3039,13.6823],[13.3053,13.6802],[13.3026,13.6772],[13.3036,13.6767],[13.3047,13.6785],[13.306,13.6768],[13.3027,13.6759],[13.3035,13.6717],[13.3019,13.6753],[13.2998,13.6738],[13.2979,13.6752],[13.2977,13.674],[13.2958,13.6742],[13.2994,13.6684],[13.2981,13.6648],[13.2961,13.6693],[13.2928,13.6693],[13.2939,13.6678],[13.2926,13.665],[13.2963,13.6655],[13.2973,13.6639],[13.2943,13.6586],[13.2925,13.657],[13.2867,13.6611],[13.2864,13.659],[13.2787,13.6544],[13.275,13.6492],[13.273,13.6488],[13.2736,13.6474],[13.2693,13.646],[13.2688,13.6425],[13.2758,13.6404],[13.2756,13.6392],[13.2621,13.6365],[13.2619,13.6325],[13.2579,13.6309],[13.2597,13.6263],[13.2589,13.6246],[13.2628,13.6219],[13.2631,13.6195],[13.2594,13.62],[13.2569,13.6224],[13.2556,13.6184],[13.2515,13.6198],[13.2507,13.6181],[13.2485,13.6175],[13.2463,13.6189],[13.2433,13.6163],[13.2427,13.6125],[13.2449,13.6125],[13.2462,13.6104],[13.2524,13.6072],[13.2525,13.6057],[13.2484,13.6055],[13.2476,13.6039],[13.2495,13.5999],[13.2522,13.599],[13.2519,13.597],[13.2538,13.5974],[13.2568,13.6043],[13.259,13.5988],[13.2626,13.5952],[13.257,13.5938],[13.2543,13.5905],[13.2514,13.5801],[13.2484,13.5825],[13.244,13.5836],[13.2423,13.5898],[13.2392,13.5882],[13.2338,13.5889],[13.2305,13.5866],[13.2282,13.5899],[13.2263,13.589],[13.2299,13.5828],[13.2262,13.5784],[13.227,13.5759],[13.2328,13.5727],[13.2343,13.5753],[13.2364,13.5749],[13.2356,13.5717],[13.2397,13.565],[13.2355,13.564],[13.233,13.5597],[13.2313,13.5604],[13.2255,13.5558],[13.2232,13.5594],[13.2209,13.5596],[13.2198,13.5523],[13.2178,13.5495],[13.2148,13.5515],[13.2162,13.555],[13.2138,13.5552],[13.2118,13.5539],[13.2095,13.5487],[13.2067,13.5491],[13.2104,13.5457],[13.2079,13.5451],[13.2057,13.5418],[13.2063,13.5387],[13.2047,13.5358],[13.2123,13.5332],[13.2059,13.531],[13.2047,13.5272],[13.1987,13.5285],[13.1944,13.5262],[13.1943,13.5226],[13.2002,13.5177],[13.1978,13.5134],[13.1944,13.513],[13.1876,13.5191],[13.1851,13.5254],[13.1863,13.5332],[13.1811,13.5375],[13.1722,13.5349],[13.169,13.5316],[13.1618,13.5337],[13.1594,13.5308],[13.1605,13.5277],[13.1551,13.5242],[13.1549,13.5218],[13.157,13.5198],[13.1552,13.5162],[13.1488,13.5177],[13.1436,13.5164],[13.1404,13.5177],[13.1387,13.5216],[13.1405,13.5255],[13.1401,13.533],[13.1422,13.5359],[13.1447,13.5366],[13.1419,13.543],[13.1481,13.5489],[13.1466,13.5505],[13.1426,13.55],[13.1394,13.5443],[13.136,13.5416],[13.1265,13.544],[13.1224,13.5412],[13.1211,13.5387],[13.1237,13.5372],[13.1273,13.5314],[13.1269,13.5292],[13.1259,13.5308],[13.1239,13.5291],[13.1243,13.5263],[13.1269,13.5243],[13.1252,13.5217],[13.1208,13.5218],[13.1165,13.5249],[13.1111,13.5306],[13.1099,13.5361],[13.108,13.5357],[13.1059,13.5396],[13.1042,13.5399],[13.1007,13.5386],[13.1013,13.5341],[13.0997,13.5295],[13.0955,13.5276],[13.0921,13.5201],[13.0911,13.5197],[13.0908,13.5212],[13.0894,13.52],[13.0907,13.518],[13.0885,13.5161],[13.0876,13.522],[13.0837,13.5219],[13.081,13.52],[13.0743,13.5256],[13.0685,13.5261],[13.0652,13.528],[13.0632,13.5267],[13.061,13.5275],[13.0625,13.5301],[13.0602,13.5338],[13.064,13.5334],[13.0653,13.538],[13.0687,13.5368],[13.0688,13.5323],[13.0728,13.5354],[13.069,13.5388],[13.0694,13.5418],[13.0667,13.5439],[13.0674,13.5476],[13.0645,13.5499],[13.062,13.5499],[13.0602,13.5492],[13.0616,13.5471],[13.0583,13.5459],[13.052,13.5391],[13.0491,13.5381],[13.0369,13.5398],[13.0161,13.5336],[12.9277,13.4963],[12.8878,13.4911],[12.8771,13.4856],[12.8189,13.4217],[12.8303,13.4242],[12.8465,13.4234],[12.876,13.4105],[12.9183,13.4069],[12.9388,13.3929],[12.974,13.3479],[12.995,13.3107],[13.0221,13.23],[13.0513,13.171],[13.0661,13.1479],[13.0842,13.1126]]]}},{"type":"Feature","properties":{"name":"Askira Uba","state":"Borno","scode":"BO","centroid":[10.6626,12.9422]},"geometry":{"type":"Polygon","coordinates":[[[13.0872,10.9402],[13.0889,10.8421],[13.0688,10.8246],[13.0543,10.8142],[13.0466,10.8028],[13.0374,10.7765],[13.0161,10.7455],[12.9978,10.7262],[12.9946,10.7106],[12.9946,10.6977],[12.9913,10.672],[12.974,10.6724],[12.9578,10.6689],[12.9479,10.6591],[12.9397,10.6569],[12.9363,10.6581],[12.9309,10.6651],[12.927,10.6767],[12.9274,10.6823],[12.9174,10.6924],[12.9001,10.7033],[12.8582,10.7107],[12.8278,10.7188],[12.7976,10.7241],[12.7495,10.7236],[12.7329,10.7212],[12.7297,10.7325],[12.7129,10.7401],[12.695,10.7539],[12.6953,10.7595],[12.6663,10.7823],[12.6512,10.767],[12.5883,10.7574],[12.5465,10.8106],[12.5155,10.7779],[12.4525,10.7377],[12.4374,10.7278],[12.4295,10.7208],[12.422,10.7011],[12.4068,10.6865],[12.4302,10.6653],[12.436,10.6567],[12.4451,10.6482],[12.4647,10.6394],[12.5051,10.629],[12.5184,10.6237],[12.536,10.5914],[12.5437,10.5851],[12.5541,10.5692],[12.5658,10.5358],[12.5798,10.5126],[12.5844,10.5013],[12.5923,10.4899],[12.5949,10.4899],[12.5982,10.4854],[12.6026,10.484],[12.6028,10.4777],[12.5998,10.4613],[12.6067,10.4515],[12.6104,10.4504],[12.612,10.4484],[12.614,10.4476],[12.6186,10.4501],[12.6225,10.4442],[12.6333,10.4378],[12.6352,10.4402],[12.6397,10.4357],[12.6525,10.439],[12.6572,10.4459],[12.6587,10.4515],[12.6653,10.4596],[12.6737,10.4849],[12.6863,10.4996],[12.7027,10.5327],[12.7132,10.5453],[12.7283,10.5681],[12.7353,10.5761],[12.7446,10.5795],[12.7608,10.5829],[12.777,10.5772],[12.8754,10.5735],[12.9182,10.562],[12.9586,10.5481],[12.9829,10.5355],[13.0025,10.5217],[13.0105,10.5137],[13.0153,10.4949],[13.0314,10.4789],[13.0404,10.4747],[13.045,10.469],[13.052,10.4644],[13.0982,10.4506],[13.1074,10.4471],[13.1098,10.4448],[13.1225,10.4437],[13.1559,10.4287],[13.191,10.4097],[13.1971,10.4089],[13.2068,10.4157],[13.2108,10.4208],[13.2186,10.4351],[13.2191,10.4385],[13.2105,10.4425],[13.2141,10.4477],[13.2181,10.4493],[13.2192,10.4486],[13.2193,10.4436],[13.2281,10.4435],[13.2277,10.4519],[13.2233,10.4525],[13.2257,10.4532],[13.2266,10.4562],[13.2281,10.456],[13.2296,10.4588],[13.229,10.4608],[13.2345,10.4632],[13.2392,10.4861],[13.2486,10.5111],[13.2528,10.5403],[13.233,10.5585],[13.2292,10.5776],[13.2325,10.5889],[13.2392,10.6005],[13.2583,10.612],[13.2678,10.63],[13.2832,10.6675],[13.3042,10.6995],[13.3088,10.7112],[13.3112,10.7135],[13.3209,10.7441],[13.323,10.759],[13.3359,10.8001],[13.3348,10.8127],[13.3362,10.8669],[13.3279,10.8652],[13.3149,10.8672],[13.2839,10.8786],[13.2745,10.8896],[13.2367,10.8979],[13.2086,10.8609],[13.1506,10.8611],[13.1607,10.9592],[13.147,10.9635],[13.0993,10.9704],[13.0872,10.9402]]]}},{"type":"Feature","properties":{"name":"Bama","state":"Borno","scode":"BO","centroid":[11.5182,14.0056]},"geometry":{"type":"Polygon","coordinates":[[[13.7864,11.7493],[13.7356,11.7515],[13.7092,11.7479],[13.6288,11.6802],[13.5855,11.6507],[13.6098,11.6398],[13.6385,11.6307],[13.6631,11.6159],[13.6566,11.6088],[13.6574,11.6046],[13.6558,11.5957],[13.6606,11.5897],[13.658,11.579],[13.6589,11.5749],[13.6604,11.5714],[13.6674,11.5667],[13.6702,11.5572],[13.6777,11.5521],[13.6813,11.5471],[13.6797,11.5421],[13.6854,11.5421],[13.6854,11.5393],[13.6828,11.5384],[13.6812,11.5358],[13.6788,11.5226],[13.6723,11.5148],[13.6601,11.5121],[13.647,11.5021],[13.645,11.504],[13.6444,11.5084],[13.6421,11.512],[13.6398,11.5123],[13.635,11.5087],[13.6335,11.5093],[13.6335,11.5131],[13.6316,11.5142],[13.6276,11.514],[13.6245,11.5116],[13.6191,11.5137],[13.6141,11.5196],[13.6137,11.5251],[13.6049,11.5317],[13.5989,11.531],[13.595,11.5328],[13.5889,11.5299],[13.5829,11.5236],[13.5731,11.5216],[13.5748,11.5015],[13.594,11.4346],[13.598,11.3885],[13.7647,11.3348],[13.8585,11.3254],[13.9208,11.3261],[13.99,11.2974],[14.0036,11.2833],[14.0156,11.2822],[14.0267,11.2792],[14.1475,11.2358],[14.1581,11.2336],[14.1644,11.2342],[14.1886,11.2442],[14.2241,11.2669],[14.3297,11.3389],[14.3617,11.366],[14.3739,11.3781],[14.4108,11.4039],[14.4425,11.4061],[14.4667,11.4164],[14.4993,11.4351],[14.4666,11.4788],[14.4177,11.4967],[14.2994,11.5743],[14.2345,11.621],[14.265,11.7865],[14.0667,11.7802],[13.9214,11.7437],[13.7864,11.7493]]]}},{"type":"Feature","properties":{"name":"Bayo","state":"Borno","scode":"BO","centroid":[10.4253,11.7018]},"geometry":{"type":"Polygon","coordinates":[[[11.7639,10.7382],[11.7674,10.7227],[11.767,10.7058],[11.7537,10.6626],[11.7143,10.6341],[11.6799,10.6252],[11.6567,10.614],[11.639,10.6107],[11.6269,10.6024],[11.6036,10.5999],[11.5833,10.5939],[11.5728,10.5726],[11.5998,10.5342],[11.6377,10.5186],[11.6628,10.4968],[11.6568,10.4897],[11.6611,10.4863],[11.6569,10.4732],[11.6565,10.4606],[11.6552,10.4564],[11.6197,10.4422],[11.6025,10.4273],[11.5982,10.4176],[11.5989,10.4064],[11.597,10.395],[11.5925,10.3914],[11.5687,10.3846],[11.5657,10.3812],[11.5609,10.3705],[11.5524,10.3685],[11.5435,10.3421],[11.5439,10.3343],[11.5463,10.3274],[11.5357,10.3271],[11.5307,10.3188],[11.5293,10.3136],[11.5448,10.3181],[11.5465,10.3008],[11.5496,10.2964],[11.5515,10.2901],[11.5565,10.2963],[11.5612,10.2974],[11.5642,10.2967],[11.5679,10.2933],[11.57,10.2886],[11.5751,10.2921],[11.5815,10.2867],[11.5867,10.2859],[11.5898,10.2826],[11.5945,10.2705],[11.5955,10.2604],[11.5972,10.257],[11.6124,10.2491],[11.6141,10.2448],[11.6139,10.2371],[11.6179,10.23],[11.6167,10.2286],[11.6118,10.228],[11.61,10.2241],[11.6119,10.22],[11.6212,10.2127],[11.6231,10.2097],[11.6337,10.2081],[11.6395,10.2031],[11.6463,10.2034],[11.6481,10.2012],[11.6565,10.2009],[11.671,10.1973],[11.6868,10.1899],[11.7017,10.1952],[11.7006,10.2069],[11.7015,10.2079],[11.7107,10.208],[11.7192,10.21],[11.7284,10.2151],[11.7335,10.2221],[11.7358,10.2233],[11.7413,10.2209],[11.7562,10.2395],[11.7624,10.2419],[11.7662,10.2416],[11.7734,10.2355],[11.7798,10.2322],[11.7949,10.2295],[11.799,10.2356],[11.7996,10.2393],[11.7999,10.2537],[11.7983,10.258],[11.7993,10.265],[11.8025,10.2683],[11.8015,10.2718],[11.805,10.2736],[11.8086,10.2731],[11.811,10.2774],[11.8174,10.28],[11.8226,10.2845],[11.8264,10.2836],[11.8303,10.2854],[11.8323,10.2951],[11.8365,10.3024],[11.8398,10.304],[11.8368,10.3142],[11.8345,10.3147],[11.8283,10.3103],[11.825,10.3114],[11.822,10.3145],[11.8211,10.3193],[11.8185,10.322],[11.8212,10.324],[11.8195,10.3293],[11.8242,10.3345],[11.8203,10.3421],[11.8173,10.3426],[11.8171,10.3491],[11.8199,10.3557],[11.8249,10.3568],[11.8256,10.3614],[11.8244,10.3642],[11.827,10.3678],[11.826,10.3742],[11.8247,10.3754],[11.822,10.3751],[11.8205,10.3722],[11.8188,10.3725],[11.817,10.3763],[11.8198,10.3808],[11.8189,10.3834],[11.8113,10.39],[11.8117,10.394],[11.8078,10.3964],[11.8045,10.4028],[11.8061,10.4087],[11.8045,10.4168],[11.8101,10.428],[11.8084,10.4325],[11.7896,10.4378],[11.7694,10.4458],[11.7522,10.4618],[11.7449,10.4756],[11.7248,10.4647],[11.7157,10.5184],[11.7035,10.5279],[11.7121,10.5413],[11.7641,10.5339],[11.7775,10.5352],[11.7942,10.5267],[11.7936,10.5293],[11.7961,10.532],[11.7916,10.5409],[11.7964,10.5469],[11.7951,10.5515],[11.7961,10.561],[11.7919,10.5668],[11.79,10.5721],[11.7918,10.5733],[11.7868,10.5823],[11.7861,10.5901],[11.7945,10.599],[11.795,10.6027],[11.7995,10.61],[11.8028,10.62],[11.8021,10.6215],[11.8063,10.6227],[11.8084,10.626],[11.8112,10.6256],[11.8102,10.6285],[11.812,10.6408],[11.8161,10.6475],[11.8247,10.6496],[11.8262,10.6503],[11.8266,10.6531],[11.8289,10.6534],[11.83,10.6549],[11.8264,10.6604],[11.8349,10.661],[11.839,10.6649],[11.8172,10.7247],[11.7913,10.7413],[11.7639,10.7382]]]}},{"type":"Feature","properties":{"name":"Biu","state":"Borno","scode":"BO","centroid":[10.8109,12.1084]},"geometry":{"type":"Polygon","coordinates":[[[12.1531,11.1196],[12.1537,11.1112],[12.1661,11.0885],[12.1677,11.0802],[12.1619,11.0618],[12.1503,11.0476],[12.1353,11.0401],[12.126,11.0378],[12.0943,11.0385],[12.0567,11.0485],[12.0425,11.0493],[12.0353,11.0444],[12.017,11.0156],[11.9989,10.9977],[11.9937,10.9918],[11.9828,10.9921],[11.9746,10.9869],[11.9672,10.9683],[11.9468,10.9522],[11.9363,10.9472],[11.9079,10.9393],[11.8996,10.9689],[11.8948,10.962],[11.8942,10.9587],[11.8904,10.9574],[11.8904,10.9558],[11.8873,10.9549],[11.8833,10.9578],[11.8804,10.9544],[11.8762,10.9524],[11.8772,10.9472],[11.8737,10.9435],[11.8708,10.9445],[11.8689,10.9419],[11.8666,10.9415],[11.8629,10.9435],[11.8611,10.9384],[11.8545,10.9383],[11.8549,10.935],[11.8468,10.9353],[11.8467,10.9383],[11.8359,10.9371],[11.8342,10.9393],[11.8289,10.9384],[11.8186,10.945],[11.8168,10.939],[11.812,10.9396],[11.8065,10.9377],[11.8034,10.9328],[11.8007,10.9335],[11.8001,10.9377],[11.799,10.9382],[11.7954,10.9353],[11.7899,10.9336],[11.7833,10.9366],[11.7824,10.9349],[11.7768,10.9332],[11.7748,10.9278],[11.7758,10.9237],[11.7705,10.9237],[11.7679,10.92],[11.7647,10.9228],[11.7629,10.9171],[11.7602,10.9153],[11.755,10.919],[11.7499,10.916],[11.7465,10.9175],[11.746,10.9161],[11.742,10.9148],[11.7413,10.9118],[11.7432,10.9099],[11.7427,10.9081],[11.7395,10.9092],[11.7387,10.911],[11.7372,10.9064],[11.7336,10.9046],[11.7336,10.9011],[11.7243,10.899],[11.7221,10.896],[11.7198,10.8954],[11.7171,10.8996],[11.7122,10.9017],[11.7062,10.8993],[11.7064,10.8946],[11.7044,10.8915],[11.6981,10.8869],[11.6924,10.8836],[11.687,10.884],[11.6768,10.8768],[11.6722,10.8782],[11.6624,10.8782],[11.6583,10.8806],[11.6557,10.8796],[11.6508,10.8804],[11.6503,10.8771],[11.6467,10.8783],[11.6402,10.8757],[11.6321,10.8572],[11.6338,10.8331],[11.6469,10.8343],[11.7168,10.8242],[11.7292,10.8252],[11.742,10.8208],[11.7497,10.815],[11.7556,10.804],[11.7599,10.782],[11.7639,10.7382],[11.7913,10.7413],[11.8172,10.7247],[11.839,10.6649],[11.8429,10.6633],[11.8445,10.6561],[11.8491,10.6564],[11.8517,10.6545],[11.8557,10.6571],[11.8611,10.6538],[11.865,10.655],[11.8701,10.6523],[11.88,10.6234],[11.8894,10.6084],[11.8975,10.599],[11.9073,10.5905],[11.9021,10.5805],[11.9044,10.5768],[11.9136,10.5769],[11.9165,10.5744],[11.9203,10.5755],[11.9226,10.5745],[11.9231,10.5722],[11.9308,10.5694],[11.9406,10.5738],[11.9435,10.5769],[11.9441,10.5799],[11.9463,10.5802],[11.9475,10.5786],[11.9488,10.5813],[11.9514,10.5824],[11.9678,10.5839],[11.9708,10.5845],[11.9797,10.5819],[11.9867,10.588],[11.9878,10.5916],[11.9791,10.6175],[11.9786,10.6243],[11.9809,10.6329],[11.9879,10.6363],[11.9921,10.6456],[11.9973,10.6483],[12.0047,10.6499],[12.0176,10.6479],[12.023,10.6553],[12.0251,10.6614],[12.0271,10.6601],[12.0306,10.6611],[12.0323,10.6592],[12.0396,10.6589],[12.0451,10.6563],[12.056,10.6591],[12.067,10.6652],[12.073,10.6664],[12.0847,10.6644],[12.0823,10.656],[12.0774,10.6473],[12.0785,10.6446],[12.0819,10.6452],[12.0844,10.6408],[12.0887,10.6398],[12.0852,10.6225],[12.0985,10.6052],[12.0981,10.6036],[12.1005,10.6032],[12.0992,10.6029],[12.0985,10.5996],[12.0996,10.5959],[12.1061,10.5938],[12.1075,10.5915],[12.1224,10.5985],[12.1267,10.5989],[12.1375,10.594],[12.1444,10.5934],[12.1588,10.5964],[12.1815,10.5837],[12.1889,10.5834],[12.2053,10.5568],[12.2056,10.5492],[12.2079,10.5423],[12.2248,10.5382],[12.2213,10.5507],[12.2237,10.5633],[12.2265,10.5643],[12.2598,10.5949],[12.2606,10.6239],[12.284,10.641],[12.3152,10.6598],[12.3184,10.6242],[12.3363,10.6233],[12.3318,10.6054],[12.3327,10.5962],[12.3467,10.5896],[12.354,10.5825],[12.3704,10.5741],[12.3738,10.576],[12.3824,10.5751],[12.3837,10.5774],[12.3864,10.5775],[12.3911,10.5808],[12.4001,10.5813],[12.4028,10.5806],[12.4048,10.5776],[12.4107,10.5779],[12.4145,10.5741],[12.4376,10.5745],[12.4357,10.5811],[12.4402,10.5832],[12.4464,10.597],[12.4399,10.6109],[12.4385,10.6175],[12.4507,10.6235],[12.4647,10.6394],[12.4451,10.6482],[12.436,10.6567],[12.4302,10.6653],[12.4068,10.6865],[12.422,10.7011],[12.4295,10.7208],[12.4374,10.7278],[12.4525,10.7377],[12.4366,10.8324],[12.3797,10.9339],[12.3315,10.9958],[12.3145,11.022],[12.1531,11.1196]]]}},{"type":"Feature","properties":{"name":"Chibok","state":"Borno","scode":"BO","centroid":[10.8448,12.8558]},"geometry":{"type":"Polygon","coordinates":[[[12.6663,10.7823],[12.6953,10.7595],[12.695,10.7539],[12.7129,10.7401],[12.7297,10.7325],[12.7329,10.7212],[12.7495,10.7236],[12.7976,10.7241],[12.8278,10.7188],[12.8582,10.7107],[12.9001,10.7033],[12.9174,10.6924],[12.9274,10.6823],[12.927,10.6767],[12.9309,10.6651],[12.9363,10.6581],[12.9397,10.6569],[12.9479,10.6591],[12.9578,10.6689],[12.974,10.6724],[12.9913,10.672],[12.9946,10.6977],[12.9946,10.7106],[12.9978,10.7262],[13.0161,10.7455],[13.0374,10.7765],[13.0466,10.8028],[13.0543,10.8142],[13.0688,10.8246],[13.0889,10.8421],[13.0872,10.9402],[13.045,10.9523],[12.9837,10.9468],[12.847,10.9656],[12.8283,10.9635],[12.789,10.9801],[12.7703,10.9745],[12.7509,10.9741],[12.7292,11.0018],[12.6769,11.0168],[12.6597,10.9354],[12.6604,10.9155],[12.6441,10.8892],[12.6372,10.8673],[12.6156,10.8325],[12.6177,10.8236],[12.625,10.812],[12.6663,10.7823]]]}},{"type":"Feature","properties":{"name":"Damboa","state":"Borno","scode":"BO","centroid":[11.1104,12.6788]},"geometry":{"type":"Polygon","coordinates":[[[12.4525,10.7377],[12.5155,10.7779],[12.5465,10.8106],[12.5883,10.7574],[12.6512,10.767],[12.6663,10.7823],[12.625,10.812],[12.6177,10.8236],[12.6156,10.8325],[12.6372,10.8673],[12.6441,10.8892],[12.6604,10.9155],[12.6597,10.9354],[12.6769,11.0168],[12.7292,11.0018],[12.7509,10.9741],[12.7703,10.9745],[12.789,10.9801],[12.8283,10.9635],[12.847,10.9656],[12.9837,10.9468],[13.045,10.9523],[13.0872,10.9402],[13.0993,10.9704],[13.147,10.9635],[13.1607,10.9592],[13.1506,10.8611],[13.2086,10.8609],[13.2367,10.8979],[13.2745,10.8896],[13.2839,10.8786],[13.3149,10.8672],[13.3279,10.8652],[13.3298,10.8734],[13.3273,10.8784],[13.3286,10.8828],[13.3162,10.8918],[13.3214,10.9056],[13.3139,10.9138],[13.2931,10.9176],[13.219,10.9436],[13.1686,11.0737],[13.1431,11.1245],[13.2167,11.1729],[13.1921,11.3207],[13.1004,11.34],[12.9036,11.2745],[12.8453,11.3322],[12.8293,11.3576],[12.8061,11.3069],[12.7506,11.3011],[12.6349,11.2124],[12.5791,11.2172],[12.5603,11.2027],[12.5403,11.2004],[12.5109,11.2343],[12.4673,11.2664],[12.4904,11.3249],[12.4407,11.3898],[12.4271,11.384],[12.3867,11.3846],[12.3398,11.372],[12.2485,11.3402],[12.2206,11.3588],[12.2019,11.3566],[12.1966,11.3181],[12.1942,11.3116],[12.1869,11.3019],[12.1513,11.2798],[12.113,11.2601],[12.1075,11.2561],[12.1032,11.2478],[12.1025,11.2324],[12.1137,11.1877],[12.1146,11.1558],[12.1171,11.1488],[12.1205,11.1402],[12.1531,11.1196],[12.3145,11.022],[12.3315,10.9958],[12.3797,10.9339],[12.4366,10.8324],[12.4525,10.7377]]]}},{"type":"Feature","properties":{"name":"Dikwa","state":"Borno","scode":"BO","centroid":[11.9244,14.0487]},"geometry":{"type":"Polygon","coordinates":[[[13.7864,11.7493],[13.9214,11.7437],[14.0667,11.7802],[14.265,11.7865],[14.2748,11.8397],[14.2733,11.8909],[14.3105,11.9968],[14.3127,12.0139],[14.3159,12.0909],[14.2925,12.1044],[14.2792,12.0998],[14.2751,12.0923],[14.2747,12.0811],[14.2793,12.0759],[14.2,12.0237],[14.1814,12.0257],[14.1447,12.0243],[14.1291,12.0259],[14.101,12.0236],[14.0713,12.037],[14.0303,12.104],[14.0386,12.1248],[14.0566,12.1337],[14.0458,12.1457],[14.007,12.1551],[13.9846,12.1543],[13.9724,12.1554],[13.9563,12.1664],[13.95,12.1586],[13.9652,12.1264],[13.9526,12.1119],[13.9369,12.1154],[13.9318,12.1263],[13.9174,12.1318],[13.9098,12.1212],[13.8979,12.0803],[13.8874,12.0809],[13.8597,12.0188],[13.8671,11.9789],[13.8504,11.9418],[13.8498,11.9268],[13.8521,11.9016],[13.8414,11.8916],[13.8335,11.8782],[13.8332,11.8745],[13.8365,11.8668],[13.8355,11.8595],[13.8306,11.8525],[13.8174,11.841],[13.8073,11.8183],[13.8045,11.791],[13.7864,11.7493]]]}},{"type":"Feature","properties":{"name":"Gubio","state":"Borno","scode":"BO","centroid":[12.6583,12.7685]},"geometry":{"type":"Polygon","coordinates":[[[12.4188,12.5244],[12.44,12.5357],[12.4642,12.5396],[12.4663,12.5305],[12.4558,12.5234],[12.4568,12.5197],[12.4652,12.5205],[12.4657,12.5178],[12.4611,12.5156],[12.4671,12.5115],[12.495,12.5097],[12.499,12.5055],[12.5211,12.5102],[12.5468,12.5183],[12.5621,12.4769],[12.5742,12.4563],[12.5753,12.4388],[12.6025,12.4449],[12.6334,12.4165],[12.7073,12.4186],[12.7532,12.4126],[12.7835,12.3868],[12.8031,12.3663],[12.8181,12.3545],[12.8698,12.3081],[12.8686,12.3661],[12.8734,12.3876],[12.886,12.4083],[12.9026,12.4448],[12.8828,12.4539],[12.8832,12.4609],[12.9038,12.4578],[12.9303,12.4806],[12.9122,12.4871],[12.9082,12.4972],[12.9345,12.509],[12.9441,12.516],[12.945,12.531],[12.9504,12.5422],[12.9559,12.546],[12.9759,12.5678],[12.9866,12.5875],[12.9999,12.6043],[13.0204,12.6101],[13.0507,12.6683],[13.0616,12.7216],[13.0828,12.7926],[12.9988,12.8096],[12.9643,12.8061],[12.931,12.8441],[12.8852,12.9001],[12.8933,12.9315],[12.8923,12.9377],[12.8819,12.9591],[12.8729,13.0117],[12.8678,13.0224],[12.8557,13.0319],[12.8381,13.0322],[12.8248,13.035],[12.812,12.9961],[12.7848,12.9571],[12.7637,12.9386],[12.7551,12.9166],[12.7373,12.8982],[12.7144,12.888],[12.6961,12.8685],[12.6752,12.8527],[12.6772,12.8498],[12.6744,12.8388],[12.6634,12.842],[12.6478,12.8354],[12.6385,12.8267],[12.6403,12.8151],[12.6366,12.8119],[12.6281,12.8102],[12.6274,12.8119],[12.6076,12.7878],[12.5908,12.7809],[12.5751,12.7669],[12.5619,12.7598],[12.5518,12.7493],[12.532,12.7452],[12.5283,12.7387],[12.5363,12.7211],[12.4992,12.7098],[12.5039,12.6913],[12.5009,12.675],[12.4971,12.6646],[12.4876,12.6529],[12.4834,12.6437],[12.478,12.6422],[12.4734,12.637],[12.4646,12.6137],[12.4616,12.6117],[12.4426,12.6085],[12.4275,12.6025],[12.4419,12.5855],[12.4413,12.5789],[12.4363,12.574],[12.439,12.5672],[12.4438,12.5611],[12.4365,12.5482],[12.4188,12.5244]]]}},{"type":"Feature","properties":{"name":"Guzamala","state":"Borno","scode":"BO","centroid":[12.8659,13.198]},"geometry":{"type":"Polygon","coordinates":[[[13.6063,12.7209],[13.613,12.7281],[13.6086,12.7318],[13.6013,12.7518],[13.5793,12.7579],[13.5546,12.7746],[13.5513,12.7732],[13.5376,12.7597],[13.5328,12.7567],[13.5158,12.7526],[13.5086,12.7687],[13.4956,12.8116],[13.4601,12.8489],[13.4239,12.8679],[13.3592,12.896],[13.3666,12.9088],[13.3513,12.9157],[13.334,12.9069],[13.2909,12.9255],[13.2706,12.9664],[13.2736,12.9854],[13.2833,13.0126],[13.2496,13.0341],[13.2041,13.0494],[13.1901,13.0562],[13.1715,13.086],[13.1489,13.0997],[13.134,13.1067],[13.0842,13.1126],[13.046,13.1167],[12.9993,13.1266],[12.9685,13.1368],[12.9409,13.1488],[12.9143,13.1734],[12.8745,13.0631],[12.8557,13.0319],[12.8678,13.0224],[12.8729,13.0117],[12.8819,12.9591],[12.8923,12.9377],[12.8933,12.9315],[12.8852,12.9001],[12.931,12.8441],[12.9643,12.8061],[12.9988,12.8096],[13.0828,12.7926],[13.127,12.7905],[13.1424,12.7979],[13.1577,12.7932],[13.1887,12.7742],[13.1981,12.7728],[13.2058,12.7324],[13.2352,12.7284],[13.2503,12.7127],[13.2253,12.662],[13.2101,12.6562],[13.2135,12.6347],[13.2221,12.6297],[13.224,12.6223],[13.2326,12.6213],[13.2472,12.6342],[13.2557,12.6326],[13.2664,12.6259],[13.283,12.6302],[13.2966,12.6301],[13.3101,12.6279],[13.321,12.6436],[13.3363,12.6499],[13.3453,12.6445],[13.35,12.6434],[13.3534,12.6462],[13.3523,12.6476],[13.3537,12.6549],[13.3585,12.6519],[13.3521,12.6219],[13.3421,12.6157],[13.341,12.6071],[13.3437,12.5975],[13.3304,12.5647],[13.3239,12.5572],[13.3368,12.5462],[13.3513,12.5586],[13.3681,12.5649],[13.3871,12.5829],[13.4019,12.5468],[13.4288,12.5519],[13.4687,12.6031],[13.4696,12.6105],[13.4945,12.6074],[13.4966,12.6292],[13.4963,12.6417],[13.4928,12.6555],[13.5443,12.6869],[13.5534,12.6848],[13.5579,12.698],[13.5576,12.7172],[13.5651,12.7269],[13.5769,12.7296],[13.5889,12.7305],[13.6063,12.7209]]]}},{"type":"Feature","properties":{"name":"Gwoza","state":"Borno","scode":"BO","centroid":[11.1518,13.5317]},"geometry":{"type":"Polygon","coordinates":[[[13.3279,10.8652],[13.3362,10.8669],[13.3344,10.89],[13.3359,10.9078],[13.3428,10.9179],[13.3434,10.9283],[13.3457,10.9306],[13.3504,10.9317],[13.3677,10.9248],[13.372,10.913],[13.3734,10.8967],[13.3765,10.8957],[13.3829,10.8973],[13.3887,10.8959],[13.3906,10.8917],[13.3804,10.8827],[13.3831,10.8784],[13.4113,10.8803],[13.4357,10.8889],[13.4452,10.8951],[13.4634,10.9028],[13.4752,10.9028],[13.5019,10.9108],[13.5135,10.9153],[13.5181,10.9187],[13.546,10.929],[13.5518,10.9347],[13.5773,10.9483],[13.5854,10.9495],[13.6132,10.9494],[13.641,10.9459],[13.6514,10.9459],[13.6548,10.9445],[13.6699,10.9447],[13.7507,10.9141],[13.7681,10.9317],[13.7725,10.9411],[13.775,10.9528],[13.7744,10.9789],[13.7803,10.9927],[13.7927,11.0031],[13.795,11.0065],[13.8108,11.0517],[13.8249,11.0676],[13.844,11.0847],[13.8541,11.099],[13.857,11.1114],[13.864,11.1208],[13.8727,11.1254],[13.8808,11.1339],[13.8811,11.1358],[13.8755,11.1413],[13.8783,11.1482],[13.8901,11.1537],[13.9196,11.1808],[13.9484,11.2152],[13.9606,11.2361],[13.9659,11.2493],[13.9919,11.2742],[14.0036,11.2833],[13.99,11.2974],[13.9208,11.3261],[13.8585,11.3254],[13.7647,11.3348],[13.598,11.3885],[13.594,11.4346],[13.5422,11.4148],[13.5122,11.3764],[13.5103,11.3261],[13.5058,11.3155],[13.4599,11.3129],[13.4024,11.3236],[13.3556,11.3763],[13.3474,11.3819],[13.25,11.379],[13.223,11.3546],[13.1921,11.3207],[13.2167,11.1729],[13.1431,11.1245],[13.1686,11.0737],[13.219,10.9436],[13.2931,10.9176],[13.3139,10.9138],[13.3214,10.9056],[13.3162,10.8918],[13.3286,10.8828],[13.3273,10.8784],[13.3298,10.8734],[13.3279,10.8652]]]}},{"type":"Feature","properties":{"name":"Hawul","state":"Borno","scode":"BO","centroid":[10.4715,12.2594]},"geometry":{"type":"Polygon","coordinates":[[[11.9678,10.5839],[11.97,10.5818],[11.9685,10.5693],[11.9877,10.5546],[11.996,10.5429],[11.9994,10.5344],[11.9984,10.506],[11.9862,10.4962],[11.9844,10.4901],[11.9895,10.4826],[11.9978,10.4797],[12.006,10.4796],[12.0455,10.4678],[12.0574,10.4728],[12.0429,10.431],[12.042,10.4225],[12.0375,10.4083],[12.0259,10.3821],[12.0431,10.3756],[12.0413,10.3649],[12.0371,10.3616],[12.0379,10.3597],[12.0302,10.3563],[12.0298,10.3582],[12.0282,10.3587],[12.0217,10.3529],[12.0121,10.3496],[12.0092,10.3471],[12.0043,10.3166],[12.001,10.3144],[12.0012,10.2884],[11.9834,10.2722],[12.0159,10.2733],[12.035,10.277],[12.0696,10.2535],[12.0821,10.251],[12.0907,10.2621],[12.102,10.2718],[12.113,10.2775],[12.1312,10.2823],[12.1341,10.2893],[12.136,10.2888],[12.1419,10.2945],[12.1488,10.2974],[12.1502,10.2999],[12.1608,10.3021],[12.1612,10.3054],[12.1663,10.3108],[12.1646,10.3155],[12.1651,10.3186],[12.1696,10.3274],[12.1705,10.3332],[12.1802,10.3402],[12.1905,10.3402],[12.2003,10.3331],[12.2057,10.3325],[12.2146,10.3377],[12.2175,10.338],[12.2225,10.3428],[12.2222,10.35],[12.2263,10.3507],[12.2302,10.3563],[12.2295,10.3596],[12.2347,10.3639],[12.2456,10.368],[12.2481,10.3675],[12.2572,10.3598],[12.2798,10.3287],[12.2908,10.3301],[12.2993,10.3413],[12.3064,10.3361],[12.3128,10.3151],[12.3198,10.3156],[12.329,10.3196],[12.3441,10.3196],[12.3615,10.3173],[12.3719,10.3184],[12.3869,10.3171],[12.3897,10.3226],[12.3886,10.3332],[12.3851,10.3445],[12.3792,10.3505],[12.4216,10.3714],[12.4391,10.3699],[12.4627,10.3748],[12.5042,10.379],[12.5354,10.3929],[12.5516,10.3954],[12.5574,10.3951],[12.5604,10.4093],[12.5545,10.4277],[12.5568,10.4339],[12.5643,10.4325],[12.5652,10.4346],[12.5625,10.4401],[12.5579,10.4435],[12.5581,10.4459],[12.5655,10.4571],[12.568,10.4656],[12.5675,10.469],[12.5709,10.4754],[12.5705,10.4816],[12.5788,10.4921],[12.5923,10.4899],[12.5844,10.5013],[12.5798,10.5126],[12.5658,10.5358],[12.5541,10.5692],[12.5437,10.5851],[12.536,10.5914],[12.5184,10.6237],[12.5051,10.629],[12.4647,10.6394],[12.4507,10.6235],[12.4385,10.6175],[12.4399,10.6109],[12.4464,10.597],[12.4402,10.5832],[12.4357,10.5811],[12.4376,10.5745],[12.4145,10.5741],[12.4107,10.5779],[12.4048,10.5776],[12.4028,10.5806],[12.4001,10.5813],[12.3911,10.5808],[12.3864,10.5775],[12.3837,10.5774],[12.3824,10.5751],[12.3738,10.576],[12.3704,10.5741],[12.354,10.5825],[12.3467,10.5896],[12.3327,10.5962],[12.3318,10.6054],[12.3363,10.6233],[12.3184,10.6242],[12.3152,10.6598],[12.284,10.641],[12.2606,10.6239],[12.2598,10.5949],[12.2265,10.5643],[12.2237,10.5633],[12.2213,10.5507],[12.2248,10.5382],[12.2079,10.5423],[12.2056,10.5492],[12.2053,10.5568],[12.1889,10.5834],[12.1815,10.5837],[12.1588,10.5964],[12.1444,10.5934],[12.1375,10.594],[12.1267,10.5989],[12.1224,10.5985],[12.1075,10.5915],[12.1061,10.5938],[12.0996,10.5959],[12.0985,10.5996],[12.0992,10.6029],[12.1005,10.6032],[12.0981,10.6036],[12.0985,10.6052],[12.0852,10.6225],[12.0887,10.6398],[12.0844,10.6408],[12.0819,10.6452],[12.0785,10.6446],[12.0774,10.6473],[12.0823,10.656],[12.0847,10.6644],[12.073,10.6664],[12.067,10.6652],[12.056,10.6591],[12.0451,10.6563],[12.0396,10.6589],[12.0323,10.6592],[12.0306,10.6611],[12.0271,10.6601],[12.0251,10.6614],[12.023,10.6553],[12.0176,10.6479],[12.0047,10.6499],[11.9973,10.6483],[11.9921,10.6456],[11.9879,10.6363],[11.9809,10.6329],[11.9786,10.6243],[11.9791,10.6175],[11.9878,10.5916],[11.9867,10.588],[11.9797,10.5819],[11.9708,10.5845],[11.9678,10.5839]]]}},{"type":"Feature","properties":{"name":"Jere","state":"Borno","scode":"BO","centroid":[11.9467,13.167]},"geometry":{"type":"Polygon","coordinates":[[[13.092,11.835],[13.0801,11.8375],[13.081,11.842],[13.0752,11.8421],[13.0745,11.8403],[13.0734,11.8407],[13.0703,11.8209],[13.0713,11.8167],[13.0393,11.8037],[13.0494,11.7704],[13.0239,11.7542],[13.0173,11.7426],[13.0512,11.7316],[13.08,11.7152],[13.0923,11.7402],[13.1226,11.7254],[13.1429,11.7585],[13.1509,11.7604],[13.1729,11.7733],[13.1785,11.7692],[13.1682,11.7604],[13.1595,11.748],[13.1663,11.7424],[13.1706,11.7453],[13.189,11.7481],[13.1931,11.747],[13.2021,11.7316],[13.2136,11.7233],[13.2235,11.7191],[13.2303,11.7121],[13.2442,11.7077],[13.2489,11.7095],[13.2554,11.7089],[13.2613,11.7067],[13.2781,11.6945],[13.3023,11.7111],[13.286,11.7211],[13.2843,11.7249],[13.2773,11.7245],[13.2686,11.7329],[13.2587,11.7403],[13.2569,11.7402],[13.2541,11.7444],[13.25,11.7463],[13.2473,11.752],[13.2378,11.7563],[13.2329,11.7558],[13.2296,11.7599],[13.2281,11.7678],[13.2221,11.7674],[13.2182,11.7693],[13.2474,11.8111],[13.2268,11.8273],[13.2149,11.83],[13.2023,11.8294],[13.2001,11.8259],[13.1952,11.8253],[13.194,11.8286],[13.1912,11.8275],[13.1892,11.8341],[13.1905,11.8366],[13.1897,11.8387],[13.1953,11.8407],[13.194,11.8446],[13.1972,11.8453],[13.1956,11.847],[13.2003,11.8473],[13.213,11.852],[13.2156,11.8545],[13.2149,11.856],[13.2183,11.8572],[13.2244,11.8459],[13.2497,11.8522],[13.2688,11.855],[13.2857,11.8613],[13.2907,11.88],[13.2919,11.916],[13.2893,11.9254],[13.2772,11.9464],[13.2724,11.9594],[13.2705,11.9796],[13.2715,11.9878],[13.2705,11.9936],[13.2718,11.9941],[13.272,11.999],[13.27,12.0054],[13.2562,12.0052],[13.2559,12.0105],[13.261,12.0312],[13.2599,12.0338],[13.2508,12.0399],[13.2474,12.0384],[13.2432,12.0276],[13.2469,12.0056],[13.2445,12.0052],[13.2417,12.0006],[13.2369,11.9993],[13.2203,12.0164],[13.2216,12.0515],[13.1956,12.0833],[13.2062,12.1074],[13.2247,12.1279],[13.1993,12.1545],[13.168,12.1831],[13.1546,12.1893],[13.1096,12.1766],[13.0913,12.1491],[13.0841,12.1346],[13.0731,12.1008],[13.0652,12.0973],[13.0596,12.0911],[13.0634,12.086],[13.0634,12.0736],[13.0703,12.0624],[13.0718,12.0492],[13.0706,12.0423],[13.085,12.033],[13.0862,11.9243],[13.0912,11.9142],[13.1024,11.8967],[13.1131,11.8846],[13.1477,11.9014],[13.1493,11.8986],[13.1521,11.9006],[13.154,11.8986],[13.1619,11.8768],[13.1651,11.8628],[13.1751,11.8588],[13.1787,11.8598],[13.1801,11.8569],[13.1722,11.8495],[13.1733,11.8487],[13.1817,11.8104],[13.1841,11.8065],[13.1808,11.8045],[13.1801,11.8079],[13.1767,11.8104],[13.1692,11.8102],[13.163,11.8053],[13.1648,11.802],[13.1562,11.7977],[13.1535,11.7975],[13.1534,11.7997],[13.1463,11.7995],[13.1457,11.8005],[13.1426,11.7983],[13.1421,11.7955],[13.14,11.7954],[13.1387,11.7925],[13.1354,11.793],[13.1341,11.7891],[13.1275,11.7929],[13.1245,11.788],[13.1252,11.7854],[13.122,11.7713],[13.116,11.7738],[13.1036,11.7535],[13.0948,11.7666],[13.0898,11.7664],[13.0853,11.7684],[13.0813,11.7755],[13.0823,11.7805],[13.0762,11.7872],[13.1019,11.8072],[13.1016,11.8127],[13.0994,11.8113],[13.0976,11.8135],[13.0961,11.8219],[13.0921,11.8278],[13.0932,11.8286],[13.092,11.835]]]}},{"type":"Feature","properties":{"name":"Kaga","state":"Borno","scode":"BO","centroid":[11.607,12.5172]},"geometry":{"type":"Polygon","coordinates":[[[12.8293,11.3576],[12.7345,11.5076],[12.7312,11.532],[12.7432,11.5674],[12.7404,11.6036],[12.7447,11.6521],[12.7059,11.7759],[12.7031,11.8067],[12.6653,11.8401],[12.6401,11.8711],[12.6206,11.8732],[12.618,11.8869],[12.6198,11.9055],[12.622,11.9076],[12.6196,11.9138],[12.6345,11.932],[12.6555,11.9417],[12.6558,11.9652],[12.6607,11.9692],[12.6716,11.9492],[12.6867,11.9511],[12.6958,11.9593],[12.6951,11.9784],[12.6819,11.9846],[12.6837,11.9977],[12.6023,11.9905],[12.5895,11.984],[12.5759,11.9843],[12.5618,11.9897],[12.5532,11.9723],[12.5443,11.9629],[12.5334,11.9625],[12.4913,11.9222],[12.4677,11.9162],[12.3991,11.9351],[12.3501,11.9542],[12.3141,11.9614],[12.2741,11.9774],[12.2629,11.9359],[12.2561,11.8856],[12.2615,11.8606],[12.2679,11.8467],[12.2704,11.8265],[12.257,11.8184],[12.2529,11.8172],[12.2443,11.8093],[12.2358,11.7675],[12.2376,11.7604],[12.2213,11.756],[12.2168,11.7337],[12.2161,11.7157],[12.2136,11.7034],[12.2084,11.6884],[12.1986,11.6707],[12.1958,11.6575],[12.1989,11.6425],[12.2237,11.6329],[12.2413,11.6523],[12.2748,11.694],[12.3011,11.6449],[12.3,11.6086],[12.3136,11.6056],[12.3299,11.5936],[12.3485,11.5831],[12.3735,11.5498],[12.3507,11.505],[12.3436,11.4791],[12.3262,11.4652],[12.3219,11.4602],[12.3221,11.4509],[12.3032,11.4445],[12.2674,11.4182],[12.2556,11.4055],[12.2461,11.3994],[12.2276,11.3779],[12.2206,11.3588],[12.2485,11.3402],[12.3398,11.372],[12.3867,11.3846],[12.4271,11.384],[12.4407,11.3898],[12.4904,11.3249],[12.4673,11.2664],[12.5109,11.2343],[12.5403,11.2004],[12.5603,11.2027],[12.5791,11.2172],[12.6349,11.2124],[12.7506,11.3011],[12.8061,11.3069],[12.8293,11.3576]]]}},{"type":"Feature","properties":{"name":"Kala Balge","state":"Borno","scode":"BO","centroid":[11.8802,14.4618]},"geometry":{"type":"Polygon","coordinates":[[[14.265,11.7865],[14.2345,11.621],[14.2994,11.5743],[14.4177,11.4967],[14.4666,11.4788],[14.4993,11.4351],[14.6106,11.4992],[14.6178,11.5056],[14.6464,11.5758],[14.6411,11.6469],[14.635,11.6547],[14.5989,11.6883],[14.5886,11.6922],[14.5886,11.755],[14.6122,11.8253],[14.6061,11.8328],[14.6058,11.8374],[14.6071,11.8434],[14.613,11.8486],[14.6153,11.8521],[14.6146,11.8548],[14.6158,11.8564],[14.6087,11.862],[14.6047,11.8695],[14.6114,11.8783],[14.6142,11.879],[14.6193,11.8831],[14.6196,11.8865],[14.6256,11.8934],[14.6284,11.9014],[14.628,11.904],[14.6327,11.9057],[14.6365,11.9089],[14.6402,11.9094],[14.6432,11.9121],[14.6431,11.915],[14.6394,11.9186],[14.6396,11.9229],[14.6357,11.9266],[14.634,11.9325],[14.6356,11.9364],[14.6424,11.9429],[14.6447,11.9436],[14.6444,11.9463],[14.6469,11.9473],[14.6477,11.9504],[14.6538,11.9554],[14.6564,11.9623],[14.6525,11.9686],[14.6495,11.9685],[14.647,11.9719],[14.6444,11.9723],[14.6412,11.983],[14.6387,11.9844],[14.6382,11.9905],[14.6354,11.9938],[14.633,12.0004],[14.6346,12.0095],[14.6316,12.0172],[14.6324,12.0208],[14.6275,12.0278],[14.623,12.0307],[14.6233,12.0338],[14.6216,12.036],[14.6237,12.0376],[14.6223,12.0423],[14.6242,12.0502],[14.6281,12.0531],[14.6323,12.0592],[14.6368,12.0617],[14.6534,12.0639],[14.6538,12.0668],[14.6518,12.0691],[14.652,12.0713],[14.6401,12.0807],[14.6413,12.0834],[14.6363,12.0891],[14.6359,12.0926],[14.6387,12.0981],[14.6425,12.1004],[14.6484,12.1082],[14.6527,12.1114],[14.651,12.114],[14.6559,12.1157],[14.6562,12.1308],[14.6523,12.1373],[14.6535,12.1391],[14.6561,12.1388],[14.6575,12.1423],[14.6626,12.1445],[14.6635,12.1482],[14.667,12.1493],[14.6675,12.1526],[14.6738,12.1545],[14.6735,12.1563],[14.6773,12.1602],[14.6752,12.1624],[14.678,12.1641],[14.6735,12.1761],[14.6638,12.1798],[14.6669,12.1864],[14.6668,12.1891],[14.6593,12.198],[14.6528,12.1974],[14.6493,12.1941],[14.6443,12.1952],[14.6416,12.1977],[14.6403,12.1925],[14.6387,12.1912],[14.6363,12.1914],[14.6345,12.1943],[14.6324,12.195],[14.626,12.1904],[14.6298,12.186],[14.6291,12.1824],[14.622,12.1835],[14.6176,12.1862],[14.6136,12.1858],[14.6133,12.1883],[14.6158,12.1901],[14.614,12.1925],[14.6103,12.1913],[14.6036,12.1943],[14.5975,12.1947],[14.5989,12.1982],[14.6047,12.1984],[14.609,12.2008],[14.6017,12.2142],[14.5926,12.2166],[14.5919,12.2195],[14.5954,12.2214],[14.5962,12.2239],[14.5932,12.2285],[14.5804,12.2293],[14.5742,12.2269],[14.5722,12.2297],[14.5675,12.2325],[14.557,12.2357],[14.55,12.236],[14.548,12.2384],[14.5482,12.2412],[14.5557,12.2469],[14.5558,12.2512],[14.5592,12.2563],[14.5594,12.2594],[14.5583,12.2608],[14.5554,12.2575],[14.5522,12.2568],[14.5496,12.2579],[14.5432,12.2715],[14.5478,12.2807],[14.5411,12.2838],[14.5348,12.2893],[14.528,12.2902],[14.5229,12.2963],[14.5188,12.298],[14.5116,12.2962],[14.5118,12.3002],[14.5157,12.3055],[14.5101,12.3138],[14.5113,12.3169],[14.514,12.3174],[14.5206,12.3137],[14.5222,12.3183],[14.5203,12.3274],[14.5149,12.3296],[14.5027,12.3296],[14.4979,12.3309],[14.4916,12.3383],[14.486,12.3393],[14.483,12.3416],[14.4833,12.3436],[14.4873,12.3457],[14.4854,12.3514],[14.4825,12.3527],[14.4804,12.3518],[14.4776,12.3466],[14.4748,12.3464],[14.4682,12.3581],[14.4639,12.3605],[14.4556,12.3572],[14.4479,12.3503],[14.4444,12.3502],[14.4426,12.353],[14.4441,12.3617],[14.4427,12.3643],[14.4392,12.3676],[14.4314,12.3704],[14.4281,12.3702],[14.4225,12.3622],[14.4193,12.3612],[14.4138,12.3621],[14.4072,12.3668],[14.4009,12.3674],[14.3879,12.3636],[14.3836,12.3596],[14.3763,12.3595],[14.373,12.3628],[14.3657,12.365],[14.3514,12.3637],[14.3339,12.3736],[14.3269,12.3747],[14.321,12.3711],[14.3227,12.3129],[14.3476,12.292],[14.3693,12.2886],[14.382,12.2891],[14.3944,12.2748],[14.3962,12.2698],[14.3787,12.2587],[14.3765,12.2414],[14.4031,12.2321],[14.4206,12.2104],[14.4269,12.206],[14.4267,12.2003],[14.4143,12.1967],[14.4137,12.1915],[14.4197,12.1846],[14.3973,12.1348],[14.3774,12.1272],[14.3639,12.1153],[14.3219,12.096],[14.3159,12.0909],[14.3127,12.0139],[14.3105,11.9968],[14.2733,11.8909],[14.2748,11.8397],[14.265,11.7865]]]}},{"type":"Feature","properties":{"name":"Konduga","state":"Borno","scode":"BO","centroid":[11.615,13.1143]},"geometry":{"type":"Polygon","coordinates":[[[13.1921,11.3207],[13.223,11.3546],[13.25,11.379],[13.3474,11.3819],[13.3556,11.3763],[13.4024,11.3236],[13.4599,11.3129],[13.5058,11.3155],[13.5103,11.3261],[13.5122,11.3764],[13.5422,11.4148],[13.594,11.4346],[13.5748,11.5015],[13.5731,11.5216],[13.5829,11.5236],[13.5889,11.5299],[13.595,11.5328],[13.5989,11.531],[13.6049,11.5317],[13.6137,11.5251],[13.6141,11.5196],[13.6191,11.5137],[13.6245,11.5116],[13.6276,11.514],[13.6316,11.5142],[13.6335,11.5131],[13.6335,11.5093],[13.635,11.5087],[13.6398,11.5123],[13.6421,11.512],[13.6444,11.5084],[13.645,11.504],[13.647,11.5021],[13.6601,11.5121],[13.6723,11.5148],[13.6788,11.5226],[13.6812,11.5358],[13.6828,11.5384],[13.6854,11.5393],[13.6854,11.5421],[13.6797,11.5421],[13.6813,11.5471],[13.6777,11.5521],[13.6702,11.5572],[13.6674,11.5667],[13.6604,11.5714],[13.6589,11.5749],[13.658,11.579],[13.6606,11.5897],[13.6558,11.5957],[13.6574,11.6046],[13.6566,11.6088],[13.6631,11.6159],[13.6385,11.6307],[13.6098,11.6398],[13.5855,11.6507],[13.5632,11.7415],[13.5537,11.7711],[13.5055,11.7974],[13.4411,11.776],[13.3934,11.7372],[13.3356,11.7256],[13.324,11.7381],[13.3182,11.7469],[13.3133,11.7458],[13.3109,11.7475],[13.3206,11.7605],[13.3157,11.7694],[13.316,11.7767],[13.3132,11.7849],[13.3082,11.7823],[13.2717,11.7982],[13.2662,11.8059],[13.2474,11.8111],[13.2182,11.7693],[13.2221,11.7674],[13.2281,11.7678],[13.2296,11.7599],[13.2329,11.7558],[13.2378,11.7563],[13.2473,11.752],[13.25,11.7463],[13.2541,11.7444],[13.2569,11.7402],[13.2587,11.7403],[13.2686,11.7329],[13.2773,11.7245],[13.2843,11.7249],[13.286,11.7211],[13.3023,11.7111],[13.2781,11.6945],[13.2613,11.7067],[13.2554,11.7089],[13.2489,11.7095],[13.2442,11.7077],[13.2303,11.7121],[13.2235,11.7191],[13.2136,11.7233],[13.2021,11.7316],[13.1931,11.747],[13.189,11.7481],[13.1706,11.7453],[13.1663,11.7424],[13.1595,11.748],[13.1682,11.7604],[13.1785,11.7692],[13.1729,11.7733],[13.1509,11.7604],[13.1429,11.7585],[13.1226,11.7254],[13.0923,11.7402],[13.08,11.7152],[13.0512,11.7316],[13.0173,11.7426],[13.0239,11.7542],[13.0494,11.7704],[13.0393,11.8037],[13.0713,11.8167],[13.0703,11.8209],[13.0734,11.8407],[13.0745,11.8403],[13.0752,11.8421],[13.081,11.842],[13.0801,11.8375],[13.092,11.835],[13.0963,11.8346],[13.0965,11.8456],[13.1028,11.8493],[13.1075,11.8542],[13.1041,11.8571],[13.1081,11.8622],[13.1045,11.8655],[13.105,11.8683],[13.1024,11.8713],[13.0773,11.8951],[13.0774,11.903],[13.085,11.9022],[13.0833,11.9115],[13.0912,11.9142],[13.0862,11.9243],[13.085,12.033],[13.0706,12.0423],[13.067,12.0393],[13.055,12.0428],[13.0509,12.0461],[12.9969,12.068],[12.9897,12.0574],[12.9964,12.0525],[12.9854,12.0376],[12.98,12.0409],[12.9683,12.0149],[12.956,12.0064],[12.9532,12.0026],[12.9614,11.995],[12.965,11.9884],[12.9637,11.9858],[12.9842,11.97],[12.9786,11.9363],[12.9586,11.9133],[12.9549,11.9049],[12.9309,11.8964],[12.9082,11.8916],[12.8724,11.9],[12.8398,11.9101],[12.8255,11.9189],[12.7808,11.9399],[12.7705,11.9502],[12.7755,11.9662],[12.752,12.0016],[12.726,12.0051],[12.7149,12.0108],[12.6943,12.0048],[12.6837,11.9977],[12.6819,11.9846],[12.6951,11.9784],[12.6958,11.9593],[12.6867,11.9511],[12.6716,11.9492],[12.6607,11.9692],[12.6558,11.9652],[12.6555,11.9417],[12.6345,11.932],[12.6196,11.9138],[12.622,11.9076],[12.6198,11.9055],[12.618,11.8869],[12.6206,11.8732],[12.6401,11.8711],[12.6653,11.8401],[12.7031,11.8067],[12.7059,11.7759],[12.7447,11.6521],[12.7404,11.6036],[12.7432,11.5674],[12.7312,11.532],[12.7345,11.5076],[12.8293,11.3576],[12.8453,11.3322],[12.9036,11.2745],[13.1004,11.34],[13.1921,11.3207]]]}},{"type":"Feature","properties":{"name":"Kukawa","state":"Borno","scode":"BO","centroid":[13.06,13.7188]},"geometry":{"type":"Polygon","coordinates":[[[14.1157,12.9363],[14.0832,13.0834],[13.7621,13.5295],[13.6483,13.3964],[13.4555,13.3232],[13.4599,13.2347],[13.4687,13.1828],[13.4337,13.1624],[13.4003,13.1282],[13.3964,13.113],[13.3841,13.0907],[13.3465,13.0472],[13.3081,13.0299],[13.2833,13.0126],[13.2736,12.9854],[13.2706,12.9664],[13.2909,12.9255],[13.334,12.9069],[13.3513,12.9157],[13.3666,12.9088],[13.3592,12.896],[13.4239,12.8679],[13.4601,12.8489],[13.4956,12.8116],[13.5086,12.7687],[13.5158,12.7526],[13.5328,12.7567],[13.5376,12.7597],[13.5513,12.7732],[13.5546,12.7746],[13.5793,12.7579],[13.6013,12.7518],[13.6086,12.7318],[13.613,12.7281],[13.6063,12.7209],[13.6199,12.7178],[13.6331,12.7052],[13.6555,12.6929],[13.667,12.7052],[13.6766,12.7212],[13.6828,12.7367],[13.8354,12.7463],[13.8555,12.7373],[13.8676,12.7251],[13.8848,12.7128],[13.9016,12.7386],[13.9196,12.7439],[13.9421,12.7545],[14.1157,12.9363]]]}},{"type":"Feature","properties":{"name":"Kwaya Kusar","state":"Borno","scode":"BO","centroid":[10.4716,11.8876]},"geometry":{"type":"Polygon","coordinates":[[[11.839,10.6649],[11.8349,10.661],[11.8264,10.6604],[11.83,10.6549],[11.8289,10.6534],[11.8266,10.6531],[11.8262,10.6503],[11.8247,10.6496],[11.8161,10.6475],[11.812,10.6408],[11.8102,10.6285],[11.8112,10.6256],[11.8084,10.626],[11.8063,10.6227],[11.8021,10.6215],[11.8028,10.62],[11.7995,10.61],[11.795,10.6027],[11.7945,10.599],[11.7861,10.5901],[11.7868,10.5823],[11.7918,10.5733],[11.79,10.5721],[11.7919,10.5668],[11.7961,10.561],[11.7951,10.5515],[11.7964,10.5469],[11.7916,10.5409],[11.7961,10.532],[11.7936,10.5293],[11.7942,10.5267],[11.7775,10.5352],[11.7641,10.5339],[11.7121,10.5413],[11.7035,10.5279],[11.7157,10.5184],[11.7248,10.4647],[11.7449,10.4756],[11.7522,10.4618],[11.7694,10.4458],[11.7896,10.4378],[11.8084,10.4325],[11.8101,10.428],[11.8045,10.4168],[11.8061,10.4087],[11.8045,10.4028],[11.8078,10.3964],[11.8117,10.394],[11.8113,10.39],[11.8189,10.3834],[11.8198,10.3808],[11.817,10.3763],[11.8188,10.3725],[11.8205,10.3722],[11.822,10.3751],[11.8247,10.3754],[11.826,10.3742],[11.827,10.3678],[11.8244,10.3642],[11.8256,10.3614],[11.8249,10.3568],[11.8199,10.3557],[11.8171,10.3491],[11.8173,10.3426],[11.8203,10.3421],[11.8242,10.3345],[11.8195,10.3293],[11.8212,10.324],[11.8185,10.322],[11.8211,10.3193],[11.822,10.3145],[11.825,10.3114],[11.8283,10.3103],[11.8345,10.3147],[11.8368,10.3142],[11.8398,10.304],[11.8556,10.3063],[11.8606,10.3101],[11.871,10.3108],[11.8842,10.318],[11.8874,10.318],[11.8987,10.327],[11.9076,10.3289],[11.9109,10.327],[11.918,10.3325],[11.9234,10.3326],[11.9286,10.3361],[11.9412,10.3398],[11.9444,10.3439],[11.9496,10.3469],[11.9524,10.3435],[11.9931,10.3555],[12.0009,10.3541],[12.0036,10.3505],[12.0092,10.3471],[12.0121,10.3496],[12.0217,10.3529],[12.0282,10.3587],[12.0298,10.3582],[12.0302,10.3563],[12.0379,10.3597],[12.0371,10.3616],[12.0413,10.3649],[12.0431,10.3756],[12.0259,10.3821],[12.0375,10.4083],[12.042,10.4225],[12.0429,10.431],[12.0574,10.4728],[12.0455,10.4678],[12.006,10.4796],[11.9978,10.4797],[11.9895,10.4826],[11.9844,10.4901],[11.9862,10.4962],[11.9984,10.506],[11.9994,10.5344],[11.996,10.5429],[11.9877,10.5546],[11.9685,10.5693],[11.97,10.5818],[11.9678,10.5839],[11.9514,10.5824],[11.9488,10.5813],[11.9475,10.5786],[11.9463,10.5802],[11.9441,10.5799],[11.9435,10.5769],[11.9406,10.5738],[11.9308,10.5694],[11.9231,10.5722],[11.9226,10.5745],[11.9203,10.5755],[11.9165,10.5744],[11.9136,10.5769],[11.9044,10.5768],[11.9021,10.5805],[11.9073,10.5905],[11.8975,10.599],[11.8894,10.6084],[11.88,10.6234],[11.8701,10.6523],[11.865,10.655],[11.8611,10.6538],[11.8557,10.6571],[11.8517,10.6545],[11.8491,10.6564],[11.8445,10.6561],[11.8429,10.6633],[11.839,10.6649]]]}},{"type":"Feature","properties":{"name":"Mafa","state":"Borno","scode":"BO","centroid":[11.9878,13.5511]},"geometry":{"type":"Polygon","coordinates":[[[13.9098,12.1212],[13.8699,12.1739],[13.847,12.1763],[13.7861,12.2024],[13.7015,12.2146],[13.6787,12.2408],[13.6539,12.2102],[13.6546,12.1392],[13.6536,12.1371],[13.5978,12.1623],[13.5885,12.1696],[13.5671,12.2031],[13.5166,12.23],[13.4703,12.257],[13.4553,12.2466],[13.4357,12.2455],[13.4262,12.2414],[13.4025,12.2189],[13.384,12.2335],[13.3591,12.2578],[13.3227,12.2665],[13.3062,12.2653],[13.2959,12.2624],[13.2815,12.2576],[13.2714,12.2518],[13.2732,12.2296],[13.2714,12.2254],[13.268,12.2233],[13.2667,12.1981],[13.2863,12.0946],[13.2634,12.0866],[13.2391,12.1145],[13.2247,12.1279],[13.2062,12.1074],[13.1956,12.0833],[13.2216,12.0515],[13.2203,12.0164],[13.2369,11.9993],[13.2417,12.0006],[13.2445,12.0052],[13.2469,12.0056],[13.2432,12.0276],[13.2474,12.0384],[13.2508,12.0399],[13.2599,12.0338],[13.261,12.0312],[13.2559,12.0105],[13.2562,12.0052],[13.27,12.0054],[13.272,11.999],[13.2718,11.9941],[13.2705,11.9936],[13.2715,11.9878],[13.2705,11.9796],[13.2724,11.9594],[13.2772,11.9464],[13.2893,11.9254],[13.2919,11.916],[13.2907,11.88],[13.2857,11.8613],[13.2688,11.855],[13.2497,11.8522],[13.2244,11.8459],[13.2183,11.8572],[13.2149,11.856],[13.2156,11.8545],[13.213,11.852],[13.2003,11.8473],[13.1956,11.847],[13.1972,11.8453],[13.194,11.8446],[13.1953,11.8407],[13.1897,11.8387],[13.1905,11.8366],[13.1892,11.8341],[13.1912,11.8275],[13.194,11.8286],[13.1952,11.8253],[13.2001,11.8259],[13.2023,11.8294],[13.2149,11.83],[13.2268,11.8273],[13.2474,11.8111],[13.2662,11.8059],[13.2717,11.7982],[13.3082,11.7823],[13.3132,11.7849],[13.316,11.7767],[13.3157,11.7694],[13.3206,11.7605],[13.3109,11.7475],[13.3133,11.7458],[13.3182,11.7469],[13.324,11.7381],[13.3356,11.7256],[13.3934,11.7372],[13.4411,11.776],[13.5055,11.7974],[13.5537,11.7711],[13.5632,11.7415],[13.5855,11.6507],[13.6288,11.6802],[13.7092,11.7479],[13.7356,11.7515],[13.7864,11.7493],[13.8045,11.791],[13.8073,11.8183],[13.8174,11.841],[13.8306,11.8525],[13.8355,11.8595],[13.8365,11.8668],[13.8332,11.8745],[13.8335,11.8782],[13.8414,11.8916],[13.8521,11.9016],[13.8498,11.9268],[13.8504,11.9418],[13.8671,11.9789],[13.8597,12.0188],[13.8874,12.0809],[13.8979,12.0803],[13.9098,12.1212]]]}},{"type":"Feature","properties":{"name":"Magumeri","state":"Borno","scode":"BO","centroid":[12.1937,12.6476]},"geometry":{"type":"Polygon","coordinates":[[[12.4188,12.5244],[12.401,12.5243],[12.3862,12.5267],[12.377,12.5199],[12.3737,12.5063],[12.3674,12.4923],[12.3606,12.4814],[12.3531,12.4598],[12.3244,12.4434],[12.3005,12.4351],[12.2868,12.4246],[12.2832,12.4095],[12.2873,12.344],[12.2862,12.3299],[12.27,12.3325],[12.2684,12.3235],[12.2846,12.3152],[12.2831,12.2872],[12.2849,12.2662],[12.2503,12.2127],[12.2636,12.1785],[12.2364,12.1373],[12.238,12.0896],[12.2516,12.0491],[12.2687,12.0048],[12.2806,11.9954],[12.2741,11.9774],[12.3141,11.9614],[12.3501,11.9542],[12.3991,11.9351],[12.4677,11.9162],[12.4913,11.9222],[12.5334,11.9625],[12.5443,11.9629],[12.5532,11.9723],[12.5618,11.9897],[12.5759,11.9843],[12.5895,11.984],[12.6023,11.9905],[12.6837,11.9977],[12.6943,12.0048],[12.7149,12.0108],[12.726,12.0051],[12.752,12.0016],[12.7755,11.9662],[12.7705,11.9502],[12.7808,11.9399],[12.8255,11.9189],[12.8398,11.9101],[12.8724,11.9],[12.9082,11.8916],[12.9309,11.8964],[12.9549,11.9049],[12.9586,11.9133],[12.9786,11.9363],[12.9842,11.97],[12.9637,11.9858],[12.965,11.9884],[12.9614,11.995],[12.9532,12.0026],[12.956,12.0064],[12.9683,12.0149],[12.98,12.0409],[12.9854,12.0376],[12.9964,12.0525],[12.9897,12.0574],[12.9969,12.068],[13.0509,12.0461],[13.055,12.0428],[13.067,12.0393],[13.0706,12.0423],[13.0718,12.0492],[13.0703,12.0624],[13.0634,12.0736],[13.0634,12.086],[13.0596,12.0911],[13.0652,12.0973],[13.0731,12.1008],[13.0841,12.1346],[13.0913,12.1491],[13.1096,12.1766],[13.1546,12.1893],[13.1411,12.2182],[13.1379,12.2427],[13.1222,12.2578],[13.1122,12.2532],[13.1108,12.255],[13.1339,12.2892],[13.1298,12.308],[13.1291,12.33],[13.1349,12.3421],[13.1366,12.3533],[13.1405,12.3617],[13.1357,12.3664],[13.1044,12.3617],[13.0929,12.361],[13.0879,12.3622],[13.0533,12.3383],[13.013,12.338],[12.9799,12.3418],[12.9327,12.3229],[12.8698,12.3081],[12.8181,12.3545],[12.8031,12.3663],[12.7835,12.3868],[12.7532,12.4126],[12.7073,12.4186],[12.6334,12.4165],[12.6025,12.4449],[12.5753,12.4388],[12.5742,12.4563],[12.5621,12.4769],[12.5468,12.5183],[12.5211,12.5102],[12.499,12.5055],[12.495,12.5097],[12.4671,12.5115],[12.4611,12.5156],[12.4657,12.5178],[12.4652,12.5205],[12.4568,12.5197],[12.4558,12.5234],[12.4663,12.5305],[12.4642,12.5396],[12.44,12.5357],[12.4188,12.5244]]]}},{"type":"Feature","properties":{"name":"Maiduguri","state":"Borno","scode":"BO","centroid":[11.8363,13.1276]},"geometry":{"type":"Polygon","coordinates":[[[13.092,11.835],[13.0932,11.8286],[13.0921,11.8278],[13.0961,11.8219],[13.0976,11.8135],[13.0994,11.8113],[13.1016,11.8127],[13.1019,11.8072],[13.0762,11.7872],[13.0823,11.7805],[13.0813,11.7755],[13.0853,11.7684],[13.0898,11.7664],[13.0948,11.7666],[13.1036,11.7535],[13.116,11.7738],[13.122,11.7713],[13.1252,11.7854],[13.1245,11.788],[13.1275,11.7929],[13.1341,11.7891],[13.1354,11.793],[13.1387,11.7925],[13.14,11.7954],[13.1421,11.7955],[13.1426,11.7983],[13.1457,11.8005],[13.1463,11.7995],[13.1534,11.7997],[13.1535,11.7975],[13.1562,11.7977],[13.1648,11.802],[13.163,11.8053],[13.1692,11.8102],[13.1767,11.8104],[13.1801,11.8079],[13.1808,11.8045],[13.1841,11.8065],[13.1817,11.8104],[13.1733,11.8487],[13.1722,11.8495],[13.1801,11.8569],[13.1787,11.8598],[13.1751,11.8588],[13.1651,11.8628],[13.1619,11.8768],[13.154,11.8986],[13.1521,11.9006],[13.1493,11.8986],[13.1477,11.9014],[13.1131,11.8846],[13.1024,11.8967],[13.0912,11.9142],[13.0833,11.9115],[13.085,11.9022],[13.0774,11.903],[13.0773,11.8951],[13.1024,11.8713],[13.105,11.8683],[13.1045,11.8655],[13.1081,11.8622],[13.1041,11.8571],[13.1075,11.8542],[13.1028,11.8493],[13.0965,11.8456],[13.0963,11.8346],[13.092,11.835]]]}},{"type":"Feature","properties":{"name":"Marte","state":"Borno","scode":"BO","centroid":[12.4054,13.8407]},"geometry":{"type":"Polygon","coordinates":[[[13.9563,12.1664],[13.94,12.1934],[13.9947,12.2352],[13.9896,12.2892],[13.9956,12.3224],[13.9923,12.3389],[13.947,12.3524],[13.9525,12.3863],[13.9808,12.4261],[14.0323,12.4705],[14.045,12.6111],[14.1725,12.6783],[14.1525,12.7703],[14.0634,12.7305],[13.9854,12.6899],[13.9495,12.6759],[13.89,12.6486],[13.774,12.548],[13.7161,12.4196],[13.6703,12.3691],[13.6749,12.3454],[13.5813,12.3369],[13.5411,12.3386],[13.4788,12.3235],[13.4414,12.2933],[13.4703,12.257],[13.5166,12.23],[13.5671,12.2031],[13.5885,12.1696],[13.5978,12.1623],[13.6536,12.1371],[13.6546,12.1392],[13.6539,12.2102],[13.6787,12.2408],[13.7015,12.2146],[13.7861,12.2024],[13.847,12.1763],[13.8699,12.1739],[13.9098,12.1212],[13.9174,12.1318],[13.9318,12.1263],[13.9369,12.1154],[13.9526,12.1119],[13.9652,12.1264],[13.95,12.1586],[13.9563,12.1664]]]}},{"type":"Feature","properties":{"name":"Mobbar","state":"Borno","scode":"BO","centroid":[13.0975,12.703]},"geometry":{"type":"Polygon","coordinates":[[[12.8557,13.0319],[12.8745,13.0631],[12.9143,13.1734],[12.9409,13.1488],[12.9685,13.1368],[12.9993,13.1266],[13.046,13.1167],[13.0842,13.1126],[13.0661,13.1479],[13.0513,13.171],[13.0221,13.23],[12.995,13.3107],[12.974,13.3479],[12.9388,13.3929],[12.9183,13.4069],[12.876,13.4105],[12.8465,13.4234],[12.8303,13.4242],[12.8189,13.4217],[12.7988,13.4036],[12.7926,13.4025],[12.7729,13.3937],[12.7581,13.3673],[12.7512,13.3597],[12.7482,13.3542],[12.7364,13.3481],[12.7371,13.3455],[12.7332,13.3414],[12.7326,13.3374],[12.7337,13.3361],[12.7376,13.338],[12.7408,13.3349],[12.7392,13.3264],[12.7299,13.3266],[12.7257,13.3238],[12.7196,13.3227],[12.7129,13.3248],[12.7083,13.3235],[12.7079,13.3214],[12.7105,13.3169],[12.72,13.3141],[12.7189,13.3089],[12.7147,13.3067],[12.7088,13.3077],[12.7062,13.3107],[12.7064,13.3155],[12.7013,13.3206],[12.6986,13.321],[12.6933,13.3184],[12.687,13.3207],[12.6875,13.3189],[12.6854,13.3178],[12.6838,13.3211],[12.6818,13.3206],[12.6843,13.3133],[12.6917,13.3028],[12.689,13.2972],[12.6852,13.2961],[12.6849,13.2942],[12.6871,13.295],[12.687,13.2924],[12.6845,13.2912],[12.677,13.2824],[12.6769,13.2773],[12.6756,13.2755],[12.6727,13.2775],[12.6729,13.2747],[12.6693,13.273],[12.6681,13.2738],[12.6657,13.2772],[12.6651,13.2853],[12.6566,13.291],[12.6541,13.2908],[12.6514,13.287],[12.6437,13.2886],[12.6424,13.2931],[12.6447,13.2942],[12.6424,13.301],[12.6479,13.3054],[12.6461,13.3077],[12.6441,13.3076],[12.6402,13.3022],[12.64,13.2973],[12.6337,13.2895],[12.6327,13.2854],[12.6255,13.2786],[12.623,13.278],[12.619,13.2799],[12.611,13.279],[12.604,13.2809],[12.601,13.2869],[12.598,13.287],[12.591,13.283],[12.589,13.2779],[12.59,13.274],[12.588,13.2719],[12.589,13.268],[12.588,13.266],[12.59,13.265],[12.59,13.258],[12.594,13.257],[12.593,13.255],[12.587,13.254],[12.582,13.251],[12.5778,13.2461],[12.5749,13.2459],[12.5731,13.2415],[12.5691,13.2439],[12.5647,13.2441],[12.5647,13.2396],[12.5658,13.2383],[12.5684,13.2386],[12.5701,13.234],[12.566,13.2281],[12.5511,13.227],[12.555,13.2228],[12.5558,13.2199],[12.554,13.2122],[12.5382,13.2153],[12.5342,13.207],[12.5505,13.2024],[12.5558,13.2035],[12.5591,13.2012],[12.5601,13.1963],[12.5552,13.1924],[12.55,13.185],[12.5494,13.1804],[12.5498,13.1722],[12.5521,13.1687],[12.5492,13.1628],[12.5555,13.1632],[12.5569,13.1624],[12.5563,13.1613],[12.5435,13.1564],[12.54,13.1519],[12.533,13.154],[12.527,13.154],[12.5246,13.1493],[12.52,13.148],[12.52,13.1464],[12.5085,13.1397],[12.4967,13.1127],[12.4786,13.0918],[12.4592,13.0661],[12.4296,13.073],[12.4254,13.0549],[12.4192,13.0459],[12.4085,13.0235],[12.4076,13.0071],[12.4095,12.9957],[12.4149,12.9844],[12.4126,12.9668],[12.4055,12.9431],[12.3945,12.9164],[12.3984,12.9044],[12.4051,12.8968],[12.4083,12.8878],[12.4092,12.8596],[12.4313,12.8521],[12.4602,12.8142],[12.4738,12.807],[12.4767,12.8034],[12.476,12.8013],[12.4775,12.8006],[12.4812,12.8036],[12.485,12.8016],[12.4907,12.774],[12.4974,12.7652],[12.4992,12.7098],[12.5363,12.7211],[12.5283,12.7387],[12.532,12.7452],[12.5518,12.7493],[12.5619,12.7598],[12.5751,12.7669],[12.5908,12.7809],[12.6076,12.7878],[12.6274,12.8119],[12.6281,12.8102],[12.6366,12.8119],[12.6403,12.8151],[12.6385,12.8267],[12.6478,12.8354],[12.6634,12.842],[12.6744,12.8388],[12.6772,12.8498],[12.6752,12.8527],[12.6961,12.8685],[12.7144,12.888],[12.7373,12.8982],[12.7551,12.9166],[12.7637,12.9386],[12.7848,12.9571],[12.812,12.9961],[12.8248,13.035],[12.8381,13.0322],[12.8557,13.0319]]]}},{"type":"Feature","properties":{"name":"Monguno","state":"Borno","scode":"BO","centroid":[12.5515,13.6505]},"geometry":{"type":"Polygon","coordinates":[[[13.4703,12.257],[13.4414,12.2933],[13.4788,12.3235],[13.5411,12.3386],[13.5813,12.3369],[13.6749,12.3454],[13.6703,12.3691],[13.7161,12.4196],[13.774,12.548],[13.89,12.6486],[13.9495,12.6759],[13.9854,12.6899],[14.0634,12.7305],[14.1525,12.7703],[14.1157,12.9363],[13.9421,12.7545],[13.9196,12.7439],[13.9016,12.7386],[13.8848,12.7128],[13.8676,12.7251],[13.8555,12.7373],[13.8354,12.7463],[13.6828,12.7367],[13.6766,12.7212],[13.667,12.7052],[13.6555,12.6929],[13.6331,12.7052],[13.6199,12.7178],[13.6063,12.7209],[13.5889,12.7305],[13.5769,12.7296],[13.5651,12.7269],[13.5576,12.7172],[13.5579,12.698],[13.5534,12.6848],[13.5443,12.6869],[13.4928,12.6555],[13.4963,12.6417],[13.4966,12.6292],[13.4945,12.6074],[13.4696,12.6105],[13.4687,12.6031],[13.4288,12.5519],[13.4019,12.5468],[13.3838,12.5394],[13.3471,12.5187],[13.3521,12.489],[13.3551,12.4576],[13.3686,12.4117],[13.3671,12.3946],[13.3499,12.3866],[13.297,12.3805],[13.2869,12.3732],[13.3038,12.3371],[13.3097,12.3195],[13.3028,12.3088],[13.2641,12.2988],[13.2506,12.293],[13.2714,12.2518],[13.2815,12.2576],[13.2959,12.2624],[13.3062,12.2653],[13.3227,12.2665],[13.3591,12.2578],[13.384,12.2335],[13.4025,12.2189],[13.4262,12.2414],[13.4357,12.2455],[13.4553,12.2466],[13.4703,12.257]]]}},{"type":"Feature","properties":{"name":"Ngala","state":"Borno","scode":"BO","centroid":[12.2931,14.1573]},"geometry":{"type":"Polygon","coordinates":[[[14.3159,12.0909],[14.3219,12.096],[14.3639,12.1153],[14.3774,12.1272],[14.3973,12.1348],[14.4197,12.1846],[14.4137,12.1915],[14.4143,12.1967],[14.4267,12.2003],[14.4269,12.206],[14.4206,12.2104],[14.4031,12.2321],[14.3765,12.2414],[14.3787,12.2587],[14.3962,12.2698],[14.3944,12.2748],[14.382,12.2891],[14.3693,12.2886],[14.3476,12.292],[14.3227,12.3129],[14.321,12.3711],[14.3137,12.3606],[14.3087,12.3594],[14.303,12.3603],[14.3018,12.3664],[14.2982,12.3706],[14.2923,12.3718],[14.2915,12.3702],[14.2973,12.3632],[14.2966,12.359],[14.292,12.357],[14.2882,12.3597],[14.2834,12.3687],[14.2786,12.3713],[14.2707,12.3717],[14.2659,12.3693],[14.2516,12.3684],[14.2283,12.3623],[14.2224,12.3641],[14.2213,12.3682],[14.223,12.3718],[14.222,12.3741],[14.2017,12.3843],[14.1875,12.4062],[14.1758,12.4095],[14.1753,12.4125],[14.1798,12.4185],[14.176,12.4252],[14.1766,12.4281],[14.183,12.4271],[14.185,12.4283],[14.1855,12.4355],[14.1866,12.4362],[14.193,12.433],[14.1947,12.4345],[14.1881,12.4412],[14.1887,12.4441],[14.196,12.4471],[14.197,12.449],[14.1942,12.4515],[14.1907,12.4516],[14.1843,12.4468],[14.1823,12.447],[14.1838,12.4522],[14.1814,12.4651],[14.1778,12.4718],[14.1761,12.4791],[14.1777,12.4809],[14.1855,12.4806],[14.1882,12.4819],[14.1902,12.4856],[14.1903,12.4934],[14.1929,12.4999],[14.1967,12.5021],[14.2001,12.5015],[14.2033,12.5381],[14.1725,12.6783],[14.045,12.6111],[14.0323,12.4705],[13.9808,12.4261],[13.9525,12.3863],[13.947,12.3524],[13.9923,12.3389],[13.9956,12.3224],[13.9896,12.2892],[13.9947,12.2352],[13.94,12.1934],[13.9563,12.1664],[13.9724,12.1554],[13.9846,12.1543],[14.007,12.1551],[14.0458,12.1457],[14.0566,12.1337],[14.0386,12.1248],[14.0303,12.104],[14.0713,12.037],[14.101,12.0236],[14.1291,12.0259],[14.1447,12.0243],[14.1814,12.0257],[14.2,12.0237],[14.2793,12.0759],[14.2747,12.0811],[14.2751,12.0923],[14.2792,12.0998],[14.2925,12.1044],[14.3159,12.0909]]]}},{"type":"Feature","properties":{"name":"Nganzai","state":"Borno","scode":"BO","centroid":[12.4732,13.1471]},"geometry":{"type":"Polygon","coordinates":[[[13.4019,12.5468],[13.3871,12.5829],[13.3681,12.5649],[13.3513,12.5586],[13.3368,12.5462],[13.3239,12.5572],[13.3304,12.5647],[13.3437,12.5975],[13.341,12.6071],[13.3421,12.6157],[13.3521,12.6219],[13.3585,12.6519],[13.3537,12.6549],[13.3523,12.6476],[13.3534,12.6462],[13.35,12.6434],[13.3453,12.6445],[13.3363,12.6499],[13.321,12.6436],[13.3101,12.6279],[13.2966,12.6301],[13.283,12.6302],[13.2664,12.6259],[13.2557,12.6326],[13.2472,12.6342],[13.2326,12.6213],[13.224,12.6223],[13.2221,12.6297],[13.2135,12.6347],[13.2101,12.6562],[13.2253,12.662],[13.2503,12.7127],[13.2352,12.7284],[13.2058,12.7324],[13.1981,12.7728],[13.1887,12.7742],[13.1577,12.7932],[13.1424,12.7979],[13.127,12.7905],[13.0828,12.7926],[13.0616,12.7216],[13.0507,12.6683],[13.0204,12.6101],[12.9999,12.6043],[12.9866,12.5875],[12.9759,12.5678],[12.9559,12.546],[12.9504,12.5422],[12.945,12.531],[12.9441,12.516],[12.9345,12.509],[12.9082,12.4972],[12.9122,12.4871],[12.9303,12.4806],[12.9038,12.4578],[12.8832,12.4609],[12.8828,12.4539],[12.9026,12.4448],[12.886,12.4083],[12.8734,12.3876],[12.8686,12.3661],[12.8698,12.3081],[12.9327,12.3229],[12.9799,12.3418],[13.013,12.338],[13.0533,12.3383],[13.0879,12.3622],[13.0929,12.361],[13.1044,12.3617],[13.1357,12.3664],[13.1405,12.3617],[13.1366,12.3533],[13.1349,12.3421],[13.1291,12.33],[13.1298,12.308],[13.1339,12.2892],[13.1108,12.255],[13.1122,12.2532],[13.1222,12.2578],[13.1379,12.2427],[13.1411,12.2182],[13.1546,12.1893],[13.168,12.1831],[13.1993,12.1545],[13.2247,12.1279],[13.2391,12.1145],[13.2634,12.0866],[13.2863,12.0946],[13.2667,12.1981],[13.268,12.2233],[13.2714,12.2254],[13.2732,12.2296],[13.2714,12.2518],[13.2506,12.293],[13.2641,12.2988],[13.3028,12.3088],[13.3097,12.3195],[13.3038,12.3371],[13.2869,12.3732],[13.297,12.3805],[13.3499,12.3866],[13.3671,12.3946],[13.3686,12.4117],[13.3551,12.4576],[13.3521,12.489],[13.3471,12.5187],[13.3838,12.5394],[13.4019,12.5468]]]}},{"type":"Feature","properties":{"name":"Shani","state":"Borno","scode":"BO","centroid":[10.1824,11.9416]},"geometry":{"type":"Polygon","coordinates":[[[12.0092,10.3471],[12.0036,10.3505],[12.0009,10.3541],[11.9931,10.3555],[11.9524,10.3435],[11.9496,10.3469],[11.9444,10.3439],[11.9412,10.3398],[11.9286,10.3361],[11.9234,10.3326],[11.918,10.3325],[11.9109,10.327],[11.9076,10.3289],[11.8987,10.327],[11.8874,10.318],[11.8842,10.318],[11.871,10.3108],[11.8606,10.3101],[11.8556,10.3063],[11.8398,10.304],[11.8365,10.3024],[11.8323,10.2951],[11.8303,10.2854],[11.8264,10.2836],[11.8226,10.2845],[11.8174,10.28],[11.811,10.2774],[11.8086,10.2731],[11.805,10.2736],[11.8015,10.2718],[11.8025,10.2683],[11.7993,10.265],[11.7983,10.258],[11.7999,10.2537],[11.7996,10.2393],[11.799,10.2356],[11.7949,10.2295],[11.7798,10.2322],[11.7734,10.2355],[11.7662,10.2416],[11.7624,10.2419],[11.7562,10.2395],[11.7413,10.2209],[11.7358,10.2233],[11.7335,10.2221],[11.7284,10.2151],[11.7192,10.21],[11.7107,10.208],[11.7015,10.2079],[11.7006,10.2069],[11.7017,10.1952],[11.6868,10.1899],[11.6957,10.1878],[11.7109,10.1733],[11.7275,10.1462],[11.7314,10.1431],[11.736,10.1178],[11.7501,10.1041],[11.7538,10.0968],[11.7546,10.0916],[11.7562,10.0834],[11.7607,10.079],[11.7667,10.0769],[11.7803,10.0595],[11.7851,10.0458],[11.7899,10.0393],[11.8018,10.0358],[11.8358,10.0339],[11.8551,10.0322],[11.883,10.0257],[11.9207,10.0247],[11.9311,10.0259],[11.9542,10.0322],[11.9605,10.0358],[11.9705,10.0349],[11.9892,10.0376],[11.9912,10.0353],[12.0043,10.0474],[12.0112,10.0599],[12.0188,10.0669],[12.0235,10.0628],[12.0343,10.0578],[12.0472,10.0568],[12.0554,10.0588],[12.0752,10.0586],[12.0868,10.0605],[12.0966,10.0679],[12.1013,10.0744],[12.1028,10.0934],[12.0913,10.1013],[12.0938,10.1173],[12.0887,10.1344],[12.089,10.1425],[12.1025,10.1638],[12.1089,10.1868],[12.1265,10.2036],[12.1297,10.2108],[12.1301,10.2171],[12.1333,10.2206],[12.1349,10.2276],[12.1374,10.2295],[12.135,10.2333],[12.136,10.2367],[12.1502,10.2502],[12.1609,10.257],[12.1633,10.2622],[12.1689,10.2623],[12.1746,10.2644],[12.1732,10.2687],[12.1791,10.2717],[12.1938,10.2729],[12.2008,10.2779],[12.2127,10.2808],[12.215,10.2871],[12.2292,10.2988],[12.2423,10.3193],[12.2537,10.3475],[12.2572,10.3598],[12.2481,10.3675],[12.2456,10.368],[12.2347,10.3639],[12.2295,10.3596],[12.2302,10.3563],[12.2263,10.3507],[12.2222,10.35],[12.2225,10.3428],[12.2175,10.338],[12.2146,10.3377],[12.2057,10.3325],[12.2003,10.3331],[12.1905,10.3402],[12.1802,10.3402],[12.1705,10.3332],[12.1696,10.3274],[12.1651,10.3186],[12.1646,10.3155],[12.1663,10.3108],[12.1612,10.3054],[12.1608,10.3021],[12.1502,10.2999],[12.1488,10.2974],[12.1419,10.2945],[12.136,10.2888],[12.1341,10.2893],[12.1312,10.2823],[12.113,10.2775],[12.102,10.2718],[12.0907,10.2621],[12.0821,10.251],[12.0696,10.2535],[12.035,10.277],[12.0159,10.2733],[11.9834,10.2722],[12.0012,10.2884],[12.001,10.3144],[12.0043,10.3166],[12.0092,10.3471]]]}}]}