{"type":"FeatureCollection","features":[{"type":"Feature","properties":{"name":"Brass","state":"Bayelsa","scode":"BY","centroid":[4.4955,6.4492]},"geometry":{"type":"MultiPolygon","coordinates":[[[[5.843,4.4024],[5.9101,4.3599],[5.9639,4.3344],[5.9781,4.3207],[5.9773,4.3122],[6.009,4.3015],[6.0578,4.2881],[6.0726,4.2866],[6.084,4.2794],[6.0844,4.2723],[6.0879,4.2702],[6.1184,4.2722],[6.1365,4.2749],[6.2205,4.2791],[6.2225,4.2843],[6.221,4.2926],[6.215,4.3058],[6.215,4.3362],[6.2214,4.3565],[6.2311,4.3773],[6.237,4.3849],[6.239,4.3913],[6.2393,4.3997],[6.2355,4.4114],[6.216,4.4238],[6.2011,4.4279],[6.1983,4.4367],[6.1875,4.4388],[6.1612,4.4546],[6.1508,4.4627],[6.1457,4.4851],[6.1467,4.5111],[6.1581,4.5318],[6.1649,4.5526],[6.1597,4.5666],[6.1385,4.5382],[6.1264,4.5296],[6.1159,4.5293],[6.0757,4.4877],[6.0474,4.4706],[6.0188,4.459],[5.9949,4.4529],[5.9825,4.4307],[5.9785,4.4128],[5.9714,4.4035],[5.9733,4.3785],[5.9645,4.3712],[5.9535,4.3695],[5.9421,4.3753],[5.9043,4.3871],[5.8766,4.3988],[5.843,4.4024]]],[[[6.54,4.5009],[6.5499,4.5102],[6.5426,4.5219],[6.545,4.5335],[6.56,4.5412],[6.5663,4.5538],[6.56,4.5543],[6.5513,4.5582],[6.5431,4.5684],[6.5402,4.5766],[6.5455,4.581],[6.5489,4.5863],[6.5381,4.5962],[6.5351,4.6088],[6.5166,4.6226],[6.5154,4.6329],[6.512,4.6431],[6.5466,4.682],[6.5536,4.6884],[6.5624,4.6924],[6.5605,4.6977],[6.5676,4.7016],[6.5731,4.7016],[6.5735,4.7049],[6.5741,4.7094],[6.5789,4.7152],[6.5935,4.7225],[6.6072,4.7464],[6.5983,4.7527],[6.5792,4.7581],[6.5526,4.7586],[6.5273,4.753],[6.5176,4.7471],[6.499,4.7326],[6.4785,4.7139],[6.4611,4.7133],[6.4506,4.6935],[6.4394,4.6793],[6.3865,4.6198],[6.3931,4.5839],[6.3966,4.5745],[6.4081,4.5534],[6.4102,4.5383],[6.4194,4.5345],[6.4176,4.5313],[6.4186,4.5297],[6.4178,4.5139],[6.4245,4.5172],[6.4284,4.5111],[6.427,4.5078],[6.4382,4.5001],[6.4349,4.4857],[6.4354,4.4824],[6.4438,4.4776],[6.4393,4.4704],[6.4426,4.4585],[6.4374,4.4516],[6.4389,4.442],[6.4454,4.4262],[6.4449,4.4045],[6.4393,4.3958],[6.4274,4.3857],[6.4152,4.3953],[6.4077,4.3843],[6.392,4.3781],[6.3796,4.3778],[6.3644,4.3725],[6.3544,4.3657],[6.3235,4.363],[6.3038,4.3634],[6.2819,4.3753],[6.2706,4.3681],[6.26,4.3581],[6.2523,4.3352],[6.2416,4.3191],[6.2357,4.3062],[6.2335,4.2988],[6.2392,4.2926],[6.2549,4.2898],[6.2737,4.2911],[6.4118,4.3055],[6.4181,4.3084],[6.4307,4.3102],[6.4409,4.3011],[6.4526,4.299],[6.4586,4.3102],[6.4646,4.3152],[6.4727,4.316],[6.4936,4.3222],[6.5492,4.3253],[6.548,4.3437],[6.5446,4.3549],[6.5204,4.3609],[6.5141,4.3689],[6.5121,4.3801],[6.5126,4.4317],[6.5252,4.4696],[6.5193,4.4738],[6.5062,4.476],[6.5021,4.4804],[6.4968,4.4968],[6.494,4.5093],[6.4943,4.516],[6.4912,4.5268],[6.4924,4.5329],[6.491,4.5337],[6.4904,4.5429],[6.4921,4.551],[6.4907,4.554],[6.4846,4.5593],[6.4812,4.5676],[6.4807,4.5754],[6.4751,4.5771],[6.4693,4.5862],[6.4553,4.5881],[6.4398,4.5847],[6.4316,4.5891],[6.433,4.5979],[6.4497,4.6068],[6.474,4.6126],[6.4791,4.6007],[6.4804,4.5926],[6.4882,4.5766],[6.4927,4.5735],[6.4979,4.5654],[6.5025,4.5619],[6.5066,4.5604],[6.5085,4.5615],[6.5134,4.5534],[6.5229,4.5314],[6.5218,4.5257],[6.5185,4.5257],[6.5137,4.5282],[6.5182,4.5249],[6.5221,4.5251],[6.5235,4.5265],[6.5235,4.5303],[6.5314,4.5137],[6.54,4.5009]]]]}},{"type":"Feature","properties":{"name":"Ekeremor","state":"Bayelsa","scode":"BY","centroid":[4.9444,5.6999]},"geometry":{"type":"Polygon","coordinates":[[[5.9926,4.893],[5.9882,4.9043],[5.9825,4.9141],[5.9802,4.9383],[5.9898,4.9656],[5.9925,4.986],[5.9923,5.025],[5.9935,5.0389],[5.9923,5.0482],[5.9788,5.0615],[5.9713,5.0737],[5.9629,5.091],[5.9599,5.1008],[5.9665,5.11],[5.9703,5.1282],[5.9749,5.1375],[5.9642,5.1491],[5.9605,5.1572],[5.9461,5.1642],[5.9332,5.1647],[5.9278,5.1607],[5.9269,5.1399],[5.9218,5.135],[5.9175,5.1341],[5.9164,5.1315],[5.9145,5.1082],[5.9094,5.1049],[5.8965,5.1044],[5.8853,5.1],[5.8827,5.1018],[5.8814,5.1095],[5.8776,5.1053],[5.8776,5.0914],[5.8717,5.0812],[5.8677,5.0681],[5.8651,5.0695],[5.8631,5.0744],[5.8574,5.0774],[5.8531,5.0755],[5.852,5.0702],[5.8483,5.0665],[5.8409,5.0676],[5.8395,5.0745],[5.8401,5.0831],[5.8353,5.0825],[5.8203,5.0752],[5.8173,5.0774],[5.8141,5.0845],[5.809,5.0864],[5.8036,5.0819],[5.7913,5.0858],[5.7891,5.0844],[5.7899,5.0787],[5.7881,5.0725],[5.7804,5.065],[5.779,5.058],[5.7756,5.0575],[5.7735,5.0612],[5.7642,5.0642],[5.7584,5.061],[5.752,5.0537],[5.7486,5.0532],[5.7431,5.0557],[5.7365,5.0566],[5.7306,5.0545],[5.7194,5.0309],[5.7103,5.0238],[5.7021,5.0229],[5.6912,5.0242],[5.6756,5.0299],[5.6667,5.0283],[5.6635,5.024],[5.6636,5.0151],[5.6618,5.0129],[5.6479,5.0118],[5.6423,5.0156],[5.6329,5.0184],[5.6253,5.026],[5.6197,5.0347],[5.611,5.0389],[5.5909,5.0434],[5.5856,5.0479],[5.5846,5.0552],[5.5509,5.0556],[5.5331,5.0629],[5.5241,5.0688],[5.5116,5.0883],[5.5029,5.0925],[5.4761,5.0909],[5.4679,5.0932],[5.4646,5.0976],[5.4692,5.1168],[5.466,5.1216],[5.4616,5.1247],[5.4547,5.1267],[5.4484,5.1337],[5.4378,5.1322],[5.4315,5.1393],[5.4144,5.1361],[5.4017,5.1372],[5.3955,5.1332],[5.3752,5.1262],[5.3771,5.1194],[5.3904,5.0956],[5.4237,5.0244],[5.4417,4.9758],[5.4383,4.9706],[5.4363,4.9597],[5.4437,4.933],[5.4438,4.9233],[5.4835,4.8449],[5.5273,4.7725],[5.5321,4.7516],[5.5456,4.7496],[5.5599,4.7412],[5.5648,4.7374],[5.5667,4.7272],[5.5696,4.7226],[5.578,4.7273],[5.5835,4.7275],[5.5957,4.7351],[5.5976,4.7448],[5.6021,4.7444],[5.605,4.7396],[5.6102,4.7389],[5.6102,4.7304],[5.6187,4.7302],[5.6181,4.7345],[5.6195,4.7361],[5.6266,4.7301],[5.6296,4.7338],[5.6231,4.741],[5.6253,4.7437],[5.6448,4.7379],[5.6477,4.7476],[5.6442,4.7561],[5.6425,4.7654],[5.6471,4.7688],[5.6487,4.7746],[5.6633,4.7801],[5.6744,4.7818],[5.6846,4.7766],[5.6877,4.7758],[5.6899,4.7773],[5.6929,4.7855],[5.6966,4.8105],[5.7014,4.8123],[5.711,4.8046],[5.7449,4.7949],[5.7553,4.7961],[5.766,4.8005],[5.7679,4.8123],[5.7716,4.8146],[5.7856,4.8035],[5.7972,4.8059],[5.8276,4.8165],[5.8951,4.846],[5.9177,4.8581],[5.9778,4.8845],[5.9926,4.893]]]}},{"type":"Feature","properties":{"name":"Kolokuma/Opokuma","state":"Bayelsa","scode":"BY","centroid":[5.0861,6.2633]},"geometry":{"type":"Polygon","coordinates":[[[6.1474,4.9406],[6.1598,4.9398],[6.2071,4.9738],[6.2486,5.0098],[6.2612,5.023],[6.2676,5.0471],[6.2736,5.056],[6.2831,5.0612],[6.2925,5.0552],[6.2919,5.0457],[6.3052,5.0497],[6.3118,5.0565],[6.3169,5.0677],[6.3172,5.0761],[6.3219,5.0856],[6.3422,5.0913],[6.3583,5.0938],[6.3957,5.1373],[6.3995,5.1456],[6.4011,5.1549],[6.3977,5.1707],[6.3885,5.1936],[6.3793,5.1887],[6.3389,5.1862],[6.311,5.1876],[6.3004,5.1859],[6.265,5.1786],[6.2544,5.1709],[6.2384,5.1508],[6.2192,5.1302],[6.2135,5.1177],[6.2031,5.1026],[6.1806,5.0742],[6.1646,5.0494],[6.1609,5.0293],[6.1478,5.0154],[6.1416,4.9985],[6.1474,4.9406]]]}},{"type":"Feature","properties":{"name":"Nembe","state":"Bayelsa","scode":"BY","centroid":[4.5068,6.2972]},"geometry":{"type":"MultiPolygon","coordinates":[[[[6.54,4.5009],[6.5314,4.5137],[6.5235,4.5303],[6.5235,4.5265],[6.5221,4.5251],[6.5182,4.5249],[6.5137,4.5282],[6.5185,4.5257],[6.5218,4.5257],[6.5229,4.5314],[6.5134,4.5534],[6.5085,4.5615],[6.5066,4.5604],[6.5025,4.5619],[6.4979,4.5654],[6.4927,4.5735],[6.4882,4.5766],[6.4804,4.5926],[6.4791,4.6007],[6.474,4.6126],[6.4497,4.6068],[6.433,4.5979],[6.4316,4.5891],[6.4398,4.5847],[6.4553,4.5881],[6.4693,4.5862],[6.4751,4.5771],[6.4807,4.5754],[6.4812,4.5676],[6.4846,4.5593],[6.4907,4.554],[6.4921,4.551],[6.4904,4.5429],[6.491,4.5337],[6.4924,4.5329],[6.4912,4.5268],[6.4943,4.516],[6.494,4.5093],[6.4968,4.4968],[6.5021,4.4804],[6.5062,4.476],[6.5193,4.4738],[6.5252,4.4696],[6.5318,4.4788],[6.5343,4.4885],[6.54,4.5009]]],[[[6.1597,4.5666],[6.1649,4.5526],[6.1581,4.5318],[6.1467,4.5111],[6.1457,4.4851],[6.1508,4.4627],[6.1612,4.4546],[6.1875,4.4388],[6.1983,4.4367],[6.2011,4.4279],[6.216,4.4238],[6.2355,4.4114],[6.2393,4.3997],[6.2465,4.4005],[6.2408,4.3605],[6.2471,4.3593],[6.2522,4.3637],[6.2547,4.378],[6.2705,4.3914],[6.2819,4.3753],[6.3038,4.3634],[6.3235,4.363],[6.3544,4.3657],[6.3644,4.3725],[6.3796,4.3778],[6.392,4.3781],[6.4077,4.3843],[6.4152,4.3953],[6.4274,4.3857],[6.4393,4.3958],[6.4449,4.4045],[6.4454,4.4262],[6.4389,4.442],[6.4374,4.4516],[6.4426,4.4585],[6.4393,4.4704],[6.4438,4.4776],[6.4354,4.4824],[6.4349,4.4857],[6.4382,4.5001],[6.427,4.5078],[6.4284,4.5111],[6.4245,4.5172],[6.4178,4.5139],[6.4186,4.5297],[6.4176,4.5313],[6.4194,4.5345],[6.4102,4.5383],[6.4081,4.5534],[6.3966,4.5745],[6.3931,4.5839],[6.3865,4.6198],[6.3384,4.6207],[6.3267,4.6302],[6.3214,4.6419],[6.3147,4.6522],[6.3052,4.6589],[6.2929,4.6623],[6.2687,4.6646],[6.2512,4.6598],[6.2242,4.6408],[6.2018,4.6421],[6.1931,4.6176],[6.169,4.579],[6.1597,4.5666]]]]}},{"type":"Feature","properties":{"name":"Ogbia","state":"Bayelsa","scode":"BY","centroid":[4.7694,6.3301]},"geometry":{"type":"Polygon","coordinates":[[[6.2018,4.6421],[6.2242,4.6408],[6.2512,4.6598],[6.2687,4.6646],[6.2929,4.6623],[6.3052,4.6589],[6.3147,4.6522],[6.3214,4.6419],[6.3267,4.6302],[6.3384,4.6207],[6.3865,4.6198],[6.4394,4.6793],[6.4506,4.6935],[6.4611,4.7133],[6.4594,4.724],[6.4459,4.73],[6.4414,4.7453],[6.4441,4.761],[6.4447,4.7756],[6.43,4.7659],[6.4229,4.7772],[6.4023,4.8272],[6.3993,4.8384],[6.3984,4.8645],[6.4009,4.8751],[6.4066,4.8871],[6.4146,4.8963],[6.4207,4.9068],[6.4256,4.9207],[6.434,4.9303],[6.4406,4.9432],[6.4404,4.9548],[6.4374,4.9665],[6.4217,4.9816],[6.4183,4.9724],[6.3733,4.9351],[6.3713,4.9389],[6.3587,4.9237],[6.3398,4.9076],[6.3325,4.9073],[6.3235,4.9025],[6.2959,4.8814],[6.2931,4.8757],[6.2771,4.8688],[6.28,4.8745],[6.2579,4.8739],[6.2427,4.8686],[6.2383,4.852],[6.2353,4.8386],[6.231,4.8289],[6.2244,4.8202],[6.214,4.8008],[6.2081,4.7814],[6.207,4.7721],[6.207,4.7201],[6.2049,4.709],[6.2006,4.6979],[6.1963,4.6668],[6.2018,4.6421]]]}},{"type":"Feature","properties":{"name":"Sagbama","state":"Bayelsa","scode":"BY","centroid":[5.127,6.2164]},"geometry":{"type":"Polygon","coordinates":[[[5.9926,4.893],[5.9985,4.8757],[5.9999,4.8669],[5.9893,4.8373],[5.9882,4.828],[5.9893,4.8141],[6.0094,4.8133],[6.0415,4.8155],[6.0613,4.8175],[6.0728,4.8224],[6.0755,4.8418],[6.0722,4.8879],[6.0733,4.8981],[6.0773,4.9162],[6.0855,4.9383],[6.0906,4.9661],[6.0899,4.9773],[6.0799,5.0039],[6.0549,5.0392],[6.0546,5.049],[6.0657,5.0539],[6.075,5.0602],[6.0937,5.0328],[6.106,5.0089],[6.1165,4.9923],[6.1309,4.9936],[6.1416,4.9985],[6.1478,5.0154],[6.1609,5.0293],[6.1646,5.0494],[6.1806,5.0742],[6.2031,5.1026],[6.2135,5.1177],[6.2192,5.1302],[6.2384,5.1508],[6.2544,5.1709],[6.265,5.1786],[6.3004,5.1859],[6.311,5.1876],[6.3389,5.1862],[6.3793,5.1887],[6.3885,5.1936],[6.4009,5.1948],[6.4393,5.2137],[6.487,5.2407],[6.5197,5.2764],[6.5309,5.2845],[6.5486,5.3023],[6.5632,5.3202],[6.5671,5.3336],[6.5696,5.3721],[6.562,5.3792],[6.54,5.3806],[6.4855,5.3792],[6.4959,5.3697],[6.5026,5.3389],[6.493,5.3283],[6.4935,5.326],[6.4902,5.324],[6.4731,5.3219],[6.4502,5.3276],[6.4345,5.3233],[6.426,5.3112],[6.4089,5.3048],[6.3804,5.309],[6.3625,5.314],[6.3476,5.3205],[6.3388,5.3198],[6.3335,5.3176],[6.3254,5.3065],[6.3106,5.3035],[6.3064,5.303],[6.2972,5.2963],[6.285,5.2791],[6.2835,5.2706],[6.2838,5.2665],[6.2923,5.2454],[6.293,5.2388],[6.2905,5.2341],[6.279,5.2289],[6.2594,5.2279],[6.2335,5.2382],[6.22,5.2387],[6.2133,5.2387],[6.2021,5.2318],[6.196,5.223],[6.1943,5.2167],[6.1981,5.2038],[6.2023,5.1793],[6.2007,5.1695],[6.1909,5.1586],[6.1788,5.1611],[6.1659,5.1611],[6.1547,5.1517],[6.1503,5.1412],[6.1437,5.1348],[6.1297,5.1293],[6.1207,5.1337],[6.0979,5.1499],[6.0858,5.1508],[6.0696,5.1413],[6.0634,5.1232],[6.0637,5.1118],[6.0623,5.103],[6.055,5.0972],[6.0444,5.0957],[6.0272,5.0957],[6.0045,5.1037],[5.9809,5.1306],[5.9749,5.1375],[5.9703,5.1282],[5.9665,5.11],[5.9599,5.1008],[5.9629,5.091],[5.9713,5.0737],[5.9788,5.0615],[5.9923,5.0482],[5.9935,5.0389],[5.9923,5.025],[5.9925,4.986],[5.9898,4.9656],[5.9802,4.9383],[5.9825,4.9141],[5.9882,4.9043],[5.9926,4.893]]]}},{"type":"Feature","properties":{"name":"Southern Ijaw","state":"Bayelsa","scode":"BY","centroid":[4.6639,5.9258]},"geometry":{"type":"Polygon","coordinates":[[[5.5321,4.7516],[5.5418,4.7305],[5.6358,4.5982],[5.6594,4.5672],[5.6874,4.5347],[5.7001,4.5172],[5.8341,4.4148],[5.843,4.4024],[5.8766,4.3988],[5.9043,4.3871],[5.9421,4.3753],[5.9535,4.3695],[5.9645,4.3712],[5.9733,4.3785],[5.9714,4.4035],[5.9785,4.4128],[5.9825,4.4307],[5.9949,4.4529],[6.0188,4.459],[6.0474,4.4706],[6.0757,4.4877],[6.1159,4.5293],[6.1264,4.5296],[6.1385,4.5382],[6.1597,4.5666],[6.169,4.579],[6.1931,4.6176],[6.2018,4.6421],[6.1963,4.6668],[6.2006,4.6979],[6.2049,4.709],[6.207,4.7201],[6.207,4.7721],[6.2081,4.7814],[6.214,4.8008],[6.2244,4.8202],[6.231,4.8289],[6.2353,4.8386],[6.2383,4.852],[6.197,4.8467],[6.18,4.846],[6.1567,4.8492],[6.1523,4.8591],[6.1531,4.8772],[6.1474,4.9406],[6.1416,4.9985],[6.1309,4.9936],[6.1165,4.9923],[6.106,5.0089],[6.0937,5.0328],[6.075,5.0602],[6.0657,5.0539],[6.0546,5.049],[6.0549,5.0392],[6.0799,5.0039],[6.0899,4.9773],[6.0906,4.9661],[6.0855,4.9383],[6.0773,4.9162],[6.0733,4.8981],[6.0722,4.8879],[6.0755,4.8418],[6.0728,4.8224],[6.0613,4.8175],[6.0415,4.8155],[6.0094,4.8133],[5.9893,4.8141],[5.9882,4.828],[5.9893,4.8373],[5.9999,4.8669],[5.9985,4.8757],[5.9926,4.893],[5.9778,4.8845],[5.9177,4.8581],[5.8951,4.846],[5.8276,4.8165],[5.7972,4.8059],[5.7856,4.8035],[5.7716,4.8146],[5.7679,4.8123],[5.766,4.8005],[5.7553,4.7961],[5.7449,4.7949],[5.711,4.8046],[5.7014,4.8123],[5.6966,4.8105],[5.6929,4.7855],[5.6899,4.7773],[5.6877,4.7758],[5.6846,4.7766],[5.6744,4.7818],[5.6633,4.7801],[5.6487,4.7746],[5.6471,4.7688],[5.6425,4.7654],[5.6442,4.7561],[5.6477,4.7476],[5.6448,4.7379],[5.6253,4.7437],[5.6231,4.741],[5.6296,4.7338],[5.6266,4.7301],[5.6195,4.7361],[5.6181,4.7345],[5.6187,4.7302],[5.6102,4.7304],[5.6102,4.7389],[5.605,4.7396],[5.6021,4.7444],[5.5976,4.7448],[5.5957,4.7351],[5.5835,4.7275],[5.578,4.7273],[5.5696,4.7226],[5.5667,4.7272],[5.5648,4.7374],[5.5599,4.7412],[5.5456,4.7496],[5.5321,4.7516]]]}},{"type":"Feature","properties":{"name":"Yenegoa","state":"Bayelsa","scode":"BY","centroid":[5.0322,6.3475]},"geometry":{"type":"Polygon","coordinates":[[[6.2383,4.852],[6.2427,4.8686],[6.2579,4.8739],[6.28,4.8745],[6.2771,4.8688],[6.2931,4.8757],[6.2959,4.8814],[6.3235,4.9025],[6.3325,4.9073],[6.3398,4.9076],[6.3587,4.9237],[6.3713,4.9389],[6.3733,4.9351],[6.4183,4.9724],[6.4217,4.9816],[6.4104,4.9911],[6.4116,5.0046],[6.4258,5.0294],[6.4296,5.0387],[6.439,5.0529],[6.4439,5.0681],[6.4605,5.098],[6.473,5.1285],[6.4858,5.1534],[6.4933,5.1635],[6.5114,5.172],[6.5263,5.1742],[6.5346,5.1868],[6.5445,5.1863],[6.5534,5.1898],[6.5588,5.1984],[6.5492,5.2127],[6.5528,5.2265],[6.5666,5.237],[6.5478,5.2578],[6.5374,5.2649],[6.5325,5.2738],[6.5309,5.2845],[6.5197,5.2764],[6.487,5.2407],[6.4393,5.2137],[6.4009,5.1948],[6.3885,5.1936],[6.3977,5.1707],[6.4011,5.1549],[6.3995,5.1456],[6.3957,5.1373],[6.3583,5.0938],[6.3422,5.0913],[6.3219,5.0856],[6.3172,5.0761],[6.3169,5.0677],[6.3118,5.0565],[6.3052,5.0497],[6.2919,5.0457],[6.2925,5.0552],[6.2831,5.0612],[6.2736,5.056],[6.2676,5.0471],[6.2612,5.023],[6.2486,5.0098],[6.2071,4.9738],[6.1598,4.9398],[6.1474,4.9406],[6.1531,4.8772],[6.1523,4.8591],[6.1567,4.8492],[6.18,4.846],[6.197,4.8467],[6.2383,4.852]]]}}]}