{"type":"FeatureCollection","features":[{"type":"Feature","properties":{"name":"Abi","state":"Cross River","scode":"CR","centroid":[5.887,8.0192]},"geometry":{"type":"Polygon","coordinates":[[[7.9701,5.7683],[7.9733,5.7685],[7.994,5.7843],[7.9992,5.7857],[8.0009,5.7945],[7.9997,5.8003],[8.0006,5.813],[8.0132,5.8132],[8.0319,5.7984],[8.0422,5.8181],[8.0434,5.8264],[8.0472,5.8365],[8.0578,5.8455],[8.0715,5.865],[8.0762,5.866],[8.0839,5.883],[8.0809,5.8952],[8.0827,5.9014],[8.0892,5.9112],[8.1009,5.9221],[8.1022,5.9293],[8.1069,5.9341],[8.1138,5.9381],[8.1091,5.9453],[8.1058,5.9591],[8.1009,5.9609],[8.0735,5.946],[8.0647,5.9438],[8.0504,5.9509],[8.0474,5.9557],[8.049,5.9739],[8.0528,5.9861],[8.052,5.9903],[8.0492,5.9945],[8.041,5.9985],[8.0239,5.9975],[8.0136,5.9937],[7.993,5.984],[7.9862,5.9817],[7.9804,5.9749],[7.9792,5.9703],[7.9792,5.9657],[7.9882,5.9484],[7.9893,5.9427],[7.9824,5.9358],[7.9823,5.9266],[7.9857,5.922],[8.0005,5.9127],[8.0061,5.9035],[8.005,5.9001],[8.001,5.8955],[7.9965,5.8996],[7.989,5.9021],[7.9868,5.8992],[7.9893,5.8933],[7.9876,5.8853],[7.9693,5.8743],[7.9664,5.8688],[7.9621,5.8503],[7.959,5.8433],[7.9548,5.8409],[7.9441,5.8395],[7.9372,5.8361],[7.9322,5.8295],[7.932,5.822],[7.9424,5.8051],[7.9701,5.7683]]]}},{"type":"Feature","properties":{"name":"Akamkpa","state":"Cross River","scode":"CR","centroid":[5.3983,8.542]},"geometry":{"type":"Polygon","coordinates":[[[8.7006,5.0143],[8.7163,5.0295],[8.7252,5.0438],[8.7207,5.057],[8.7288,5.0746],[8.7432,5.0847],[8.7469,5.0977],[8.81,5.1517],[8.8156,5.1597],[8.8247,5.1886],[8.8433,5.3017],[8.8419,5.3072],[8.8333,5.3189],[8.8314,5.3306],[8.8328,5.3497],[8.8372,5.3797],[8.86,5.4975],[8.8678,5.5172],[8.8789,5.5333],[8.8894,5.5442],[8.9081,5.5597],[8.9108,5.5639],[8.9158,5.5728],[8.9217,5.5953],[8.9203,5.6075],[8.9164,5.6169],[8.9083,5.6294],[8.8803,5.6572],[8.8508,5.7225],[8.8531,5.7449],[8.8086,5.7454],[8.753,5.7013],[8.6772,5.653],[8.5982,5.6382],[8.5744,5.6427],[8.4896,5.61],[8.4676,5.6197],[8.3716,5.6804],[8.3391,5.7226],[8.3282,5.7292],[8.2963,5.7369],[8.2024,5.6858],[8.1626,5.6741],[8.1445,5.6669],[8.144,5.661],[8.1632,5.6118],[8.1825,5.5846],[8.1815,5.5819],[8.1908,5.5435],[8.2296,5.4836],[8.2338,5.4811],[8.2394,5.4679],[8.2511,5.4613],[8.2546,5.4579],[8.2602,5.4458],[8.2447,5.3916],[8.2259,5.3836],[8.2196,5.3776],[8.1713,5.3527],[8.1722,5.3458],[8.1646,5.312],[8.1621,5.3079],[8.1753,5.2602],[8.1737,5.2417],[8.1815,5.2281],[8.1921,5.2177],[8.2268,5.2116],[8.2652,5.2443],[8.2909,5.2358],[8.3342,5.2072],[8.4133,5.1962],[8.398,5.1443],[8.3968,5.1265],[8.4025,5.1191],[8.4237,5.106],[8.4419,5.0915],[8.4511,5.0758],[8.4664,5.0644],[8.4707,5.0583],[8.4743,5.0403],[8.4719,5.0345],[8.5144,5.0225],[8.5214,5.0259],[8.527,5.0236],[8.5801,5.0265],[8.6037,5.0418],[8.7006,5.0143]]]}},{"type":"Feature","properties":{"name":"Akpabuyo","state":"Cross River","scode":"CR","centroid":[4.9434,8.4844]},"geometry":{"type":"Polygon","coordinates":[[[8.3966,4.7806],[8.4009,4.7888],[8.4097,4.8184],[8.4104,4.8257],[8.4344,4.8432],[8.4559,4.8428],[8.4591,4.8461],[8.4675,4.8471],[8.4748,4.8503],[8.4897,4.847],[8.4998,4.8474],[8.5043,4.8419],[8.5842,4.8549],[8.584,4.8868],[8.6146,4.8965],[8.6192,4.9051],[8.6252,4.9081],[8.6446,4.9087],[8.6521,4.9151],[8.6543,4.9247],[8.649,4.9361],[8.6507,4.943],[8.6534,4.9466],[8.6593,4.9444],[8.6689,4.9521],[8.6666,4.9584],[8.6683,4.9639],[8.6817,4.9722],[8.6814,4.9795],[8.6855,4.9831],[8.6977,4.9847],[8.6984,4.9882],[8.6947,4.9968],[8.6902,4.9958],[8.6854,5.0003],[8.7006,5.0143],[8.6037,5.0418],[8.5801,5.0265],[8.527,5.0236],[8.5214,5.0259],[8.5144,5.0225],[8.4719,5.0345],[8.4743,5.0403],[8.4707,5.0583],[8.4664,5.0644],[8.4511,5.0758],[8.4419,5.0915],[8.4237,5.106],[8.4025,5.1191],[8.3968,5.1265],[8.3938,5.1244],[8.3885,5.1129],[8.3681,5.079],[8.3891,5.0739],[8.3949,5.0706],[8.3923,5.0603],[8.3936,5.0498],[8.3872,5.0366],[8.3754,5.0346],[8.3739,5.0335],[8.3735,5.0293],[8.3624,5.0346],[8.3659,5.027],[8.3644,5.0212],[8.3671,5.0118],[8.364,4.9987],[8.3558,4.9867],[8.3618,4.9887],[8.3658,4.9877],[8.3773,4.9835],[8.3808,4.979],[8.3979,4.9763],[8.4015,4.9711],[8.4,4.9646],[8.3942,4.9495],[8.3889,4.944],[8.3822,4.9448],[8.3737,4.9554],[8.366,4.9559],[8.3627,4.9535],[8.3568,4.9426],[8.356,4.9278],[8.3512,4.9116],[8.3463,4.9037],[8.3466,4.8926],[8.3377,4.8706],[8.3278,4.8636],[8.3127,4.8577],[8.3024,4.8443],[8.3227,4.8246],[8.3322,4.8216],[8.3317,4.8046],[8.3443,4.7932],[8.3634,4.7798],[8.3722,4.7749],[8.3966,4.7806]]]}},{"type":"Feature","properties":{"name":"Bakassi","state":"Cross River","scode":"CR","centroid":[4.791,8.4973]},"geometry":{"type":"Polygon","coordinates":[[[8.3966,4.7806],[8.3963,4.7751],[8.3995,4.7685],[8.3974,4.7646],[8.3849,4.7531],[8.3864,4.7449],[8.3971,4.7351],[8.4043,4.7326],[8.4088,4.7346],[8.418,4.726],[8.4232,4.7254],[8.4309,4.7268],[8.4371,4.7338],[8.4375,4.7361],[8.4424,4.7368],[8.4449,4.7351],[8.449,4.7363],[8.4576,4.7465],[8.4588,4.7539],[8.4608,4.7546],[8.464,4.7524],[8.4704,4.7396],[8.4785,4.734],[8.4818,4.7296],[8.4656,4.7282],[8.463,4.7244],[8.4542,4.6994],[8.4599,4.694],[8.4699,4.6948],[8.4759,4.6927],[8.481,4.6887],[8.4846,4.6904],[8.4901,4.6896],[8.4932,4.6929],[8.5093,4.694],[8.5079,4.7046],[8.5035,4.7082],[8.5115,4.7043],[8.5168,4.7035],[8.5212,4.7046],[8.526,4.7088],[8.5318,4.7104],[8.5307,4.7188],[8.5224,4.7338],[8.5269,4.7349],[8.5253,4.7463],[8.5283,4.7698],[8.5388,4.7922],[8.5454,4.8025],[8.5512,4.8012],[8.5557,4.7974],[8.561,4.7978],[8.5741,4.8027],[8.5877,4.8014],[8.6283,4.8225],[8.6312,4.8268],[8.6295,4.8406],[8.6242,4.8494],[8.6185,4.8556],[8.6114,4.8605],[8.6042,4.8688],[8.6035,4.8829],[8.6146,4.8965],[8.584,4.8868],[8.5842,4.8549],[8.5043,4.8419],[8.4998,4.8474],[8.4897,4.847],[8.4748,4.8503],[8.4675,4.8471],[8.4591,4.8461],[8.4559,4.8428],[8.4344,4.8432],[8.4104,4.8257],[8.4097,4.8184],[8.4009,4.7888],[8.3966,4.7806]]]}},{"type":"Feature","properties":{"name":"Bekwarra","state":"Cross River","scode":"CR","centroid":[6.6968,8.904]},"geometry":{"type":"Polygon","coordinates":[[[8.9563,6.6365],[8.9525,6.6418],[8.9864,6.6898],[8.9902,6.6924],[8.9852,6.6936],[8.9703,6.6914],[8.9681,6.6971],[8.9871,6.7362],[8.9948,6.7543],[8.9948,6.7601],[8.9914,6.7693],[8.9745,6.7889],[8.9608,6.7971],[8.9234,6.8249],[8.9019,6.7969],[8.8876,6.7995],[8.8652,6.78],[8.877,6.7567],[8.8652,6.7407],[8.8605,6.74],[8.8504,6.7349],[8.8454,6.73],[8.8393,6.7292],[8.8302,6.7233],[8.8209,6.7319],[8.8087,6.7378],[8.8078,6.7361],[8.81,6.692],[8.8186,6.691],[8.8257,6.6846],[8.8375,6.652],[8.8365,6.6413],[8.8388,6.6392],[8.8358,6.6006],[8.8463,6.5922],[8.8486,6.5924],[8.8545,6.5705],[8.8856,6.575],[8.9031,6.5817],[8.9106,6.5888],[8.9238,6.592],[8.9404,6.6074],[8.9192,6.6203],[8.9563,6.6365]]]}},{"type":"Feature","properties":{"name":"Biase","state":"Cross River","scode":"CR","centroid":[5.5398,8.0686]},"geometry":{"type":"Polygon","coordinates":[[[7.9162,5.7481],[7.9116,5.7255],[7.9082,5.7197],[7.9048,5.7151],[7.8866,5.7001],[7.8901,5.692],[7.8901,5.6848],[7.9154,5.6554],[7.9177,5.6496],[7.9143,5.6358],[7.91,5.5875],[7.9061,5.5706],[7.9046,5.5687],[7.9067,5.5599],[7.9079,5.5358],[7.9129,5.5251],[7.9135,5.5238],[7.9692,5.5476],[7.993,5.5551],[7.9966,5.4956],[7.9955,5.4633],[8.0067,5.3997],[8.0422,5.3461],[8.0369,5.3341],[8.0519,5.2994],[8.0545,5.281],[8.0586,5.2734],[8.1002,5.2729],[8.1406,5.3026],[8.1621,5.3079],[8.1646,5.312],[8.1722,5.3458],[8.1713,5.3527],[8.2196,5.3776],[8.2259,5.3836],[8.2447,5.3916],[8.2602,5.4458],[8.2546,5.4579],[8.2511,5.4613],[8.2394,5.4679],[8.2338,5.4811],[8.2296,5.4836],[8.1908,5.5435],[8.1815,5.5819],[8.1825,5.5846],[8.1632,5.6118],[8.144,5.661],[8.1445,5.6669],[8.1201,5.6901],[8.1152,5.7032],[8.071,5.7228],[8.0652,5.7392],[8.0643,5.7456],[8.0535,5.7681],[8.0393,5.7747],[8.0314,5.7934],[8.0319,5.7984],[8.0132,5.8132],[8.0006,5.813],[7.9997,5.8003],[8.0009,5.7945],[7.9992,5.7857],[7.994,5.7843],[7.9733,5.7685],[7.9701,5.7683],[7.9514,5.7751],[7.9423,5.7704],[7.9366,5.7692],[7.9218,5.76],[7.9172,5.7531],[7.9162,5.7481]]]}},{"type":"Feature","properties":{"name":"Boki","state":"Cross River","scode":"CR","centroid":[6.2791,9.0073]},"geometry":{"type":"Polygon","coordinates":[[[8.7989,6.0647],[8.8424,6.0579],[8.8516,6.0475],[8.8729,6.0369],[8.9226,6.026],[8.9322,6.0192],[8.9479,6.0185],[8.9766,5.9561],[8.9916,5.935],[9.0717,6.0136],[9.2233,6.1506],[9.2823,6.2199],[9.2471,6.3328],[9.2531,6.3409],[9.2971,6.3743],[9.3463,6.4654],[9.293,6.5017],[9.2902,6.4993],[9.2781,6.4953],[9.2415,6.4849],[9.2321,6.4846],[9.2203,6.4901],[9.2159,6.4945],[9.2166,6.4985],[9.1933,6.5098],[9.174,6.4901],[9.1512,6.4997],[9.1272,6.4931],[9.1079,6.5077],[9.0893,6.4917],[9.0771,6.474],[9.0827,6.444],[9.0792,6.4279],[9.0797,6.4164],[9.0725,6.3961],[8.9865,6.3972],[8.9904,6.4106],[9.0002,6.4216],[9.0088,6.4379],[9.0144,6.46],[9.0018,6.537],[8.9684,6.5376],[8.9586,6.5304],[8.9492,6.5273],[8.9242,6.5285],[8.9194,6.5262],[8.9128,6.5184],[8.9229,6.5019],[8.9349,6.4963],[8.9377,6.4844],[8.9301,6.4815],[8.9193,6.4883],[8.9105,6.4874],[8.8946,6.4905],[8.8815,6.4971],[8.8775,6.5041],[8.8725,6.5203],[8.8671,6.5211],[8.8424,6.532],[8.8261,6.5306],[8.8219,6.5523],[8.8005,6.5623],[8.7837,6.5471],[8.7833,6.5153],[8.7811,6.5106],[8.781,6.5016],[8.7682,6.4831],[8.7635,6.4654],[8.7583,6.4587],[8.7478,6.4496],[8.7389,6.4457],[8.7243,6.4333],[8.7234,6.4162],[8.7244,6.4036],[8.717,6.3772],[8.7355,6.3514],[8.7375,6.3224],[8.7779,6.3078],[8.7965,6.2822],[8.7801,6.2541],[8.7707,6.2303],[8.759,6.2088],[8.7532,6.2012],[8.7534,6.1846],[8.7875,6.1537],[8.7792,6.0909],[8.7839,6.0915],[8.7989,6.0647]]]}},{"type":"Feature","properties":{"name":"Calabar Municipal","state":"Cross River","scode":"CR","centroid":[5.0064,8.33]},"geometry":{"type":"Polygon","coordinates":[[[8.3624,5.0346],[8.3628,5.0432],[8.3606,5.0458],[8.3515,5.0444],[8.3352,5.0492],[8.3272,5.0473],[8.324,5.0486],[8.294,5.0406],[8.2939,5.0184],[8.2957,5.017],[8.3016,4.9871],[8.3142,4.9741],[8.314,4.969],[8.3089,4.9603],[8.308,4.9519],[8.3164,4.9506],[8.3325,4.9563],[8.3361,4.9631],[8.3485,4.9623],[8.3525,4.9804],[8.3558,4.9867],[8.364,4.9987],[8.3671,5.0118],[8.3644,5.0212],[8.3659,5.027],[8.3624,5.0346]]]}},{"type":"Feature","properties":{"name":"Calabar South","state":"Cross River","scode":"CR","centroid":[4.9206,8.3058]},"geometry":{"type":"Polygon","coordinates":[[[8.3558,4.9867],[8.3525,4.9804],[8.3485,4.9623],[8.3361,4.9631],[8.3325,4.9563],[8.3164,4.9506],[8.308,4.9519],[8.3089,4.9603],[8.314,4.969],[8.3142,4.9741],[8.3016,4.9871],[8.2969,4.9811],[8.2704,4.9584],[8.2224,4.9345],[8.23,4.9305],[8.2359,4.919],[8.2387,4.9005],[8.2448,4.8872],[8.2514,4.8821],[8.2629,4.8771],[8.2743,4.8547],[8.3024,4.8443],[8.3127,4.8577],[8.3278,4.8636],[8.3377,4.8706],[8.3466,4.8926],[8.3463,4.9037],[8.3512,4.9116],[8.356,4.9278],[8.3568,4.9426],[8.3627,4.9535],[8.366,4.9559],[8.3737,4.9554],[8.3822,4.9448],[8.3889,4.944],[8.3942,4.9495],[8.4,4.9646],[8.4015,4.9711],[8.3979,4.9763],[8.3808,4.979],[8.3773,4.9835],[8.3658,4.9877],[8.3618,4.9887],[8.3558,4.9867]]]}},{"type":"Feature","properties":{"name":"Etung","state":"Cross River","scode":"CR","centroid":[5.8447,8.7726]},"geometry":{"type":"Polygon","coordinates":[[[8.5989,5.8264],[8.5966,5.801],[8.5744,5.6427],[8.5982,5.6382],[8.6772,5.653],[8.753,5.7013],[8.8086,5.7454],[8.8531,5.7449],[8.8611,5.8256],[8.8633,5.8369],[8.8681,5.8458],[8.93,5.9006],[8.9439,5.9072],[8.9631,5.9069],[8.9916,5.935],[8.9766,5.9561],[8.9479,6.0185],[8.9322,6.0192],[8.9226,6.026],[8.8729,6.0369],[8.8516,6.0475],[8.8424,6.0579],[8.7989,6.0647],[8.7903,6.0307],[8.7878,6.0013],[8.7914,5.9984],[8.7795,5.934],[8.76,5.9282],[8.7361,5.9292],[8.7143,5.9275],[8.7075,5.8985],[8.7122,5.8951],[8.7126,5.8881],[8.716,5.8815],[8.7152,5.8666],[8.703,5.8479],[8.6361,5.8338],[8.6026,5.8299],[8.5989,5.8264]]]}},{"type":"Feature","properties":{"name":"Ikom","state":"Cross River","scode":"CR","centroid":[6.116,8.6221]},"geometry":{"type":"Polygon","coordinates":[[[8.5989,5.8264],[8.6026,5.8299],[8.6361,5.8338],[8.703,5.8479],[8.7152,5.8666],[8.716,5.8815],[8.7126,5.8881],[8.7122,5.8951],[8.7075,5.8985],[8.7143,5.9275],[8.7361,5.9292],[8.76,5.9282],[8.7795,5.934],[8.7914,5.9984],[8.7878,6.0013],[8.7903,6.0307],[8.7989,6.0647],[8.7839,6.0915],[8.7792,6.0909],[8.7875,6.1537],[8.7534,6.1846],[8.7532,6.2012],[8.759,6.2088],[8.7707,6.2303],[8.7801,6.2541],[8.7965,6.2822],[8.7779,6.3078],[8.7375,6.3224],[8.7355,6.3514],[8.717,6.3772],[8.706,6.3774],[8.6861,6.3709],[8.6658,6.3698],[8.6365,6.385],[8.6265,6.3602],[8.5995,6.3591],[8.5858,6.3567],[8.5705,6.3597],[8.5626,6.363],[8.5444,6.3781],[8.5427,6.3824],[8.5276,6.3855],[8.5114,6.3556],[8.5138,6.3541],[8.511,6.3463],[8.4963,6.34],[8.4953,6.3382],[8.5087,6.3216],[8.5075,6.3208],[8.4974,6.3233],[8.4933,6.3224],[8.491,6.3192],[8.4905,6.2997],[8.4894,6.2971],[8.4833,6.2929],[8.4827,6.29],[8.4857,6.2877],[8.4856,6.2859],[8.4727,6.2854],[8.4684,6.2834],[8.4616,6.2752],[8.458,6.2735],[8.4571,6.2685],[8.4601,6.2635],[8.4731,6.2628],[8.4768,6.2569],[8.4746,6.2541],[8.4445,6.2511],[8.4418,6.2492],[8.4455,6.2358],[8.4448,6.2319],[8.4422,6.2298],[8.4375,6.2292],[8.4326,6.2308],[8.4261,6.2193],[8.4254,6.2049],[8.4283,6.2047],[8.4327,6.2068],[8.4321,6.2021],[8.4446,6.1813],[8.447,6.171],[8.4454,6.1658],[8.4396,6.1611],[8.4335,6.1615],[8.4207,6.1434],[8.422,6.1411],[8.4333,6.1424],[8.4446,6.1517],[8.4556,6.1498],[8.4664,6.1369],[8.4602,6.1227],[8.4512,6.1114],[8.455,6.1031],[8.4771,6.0901],[8.4855,6.0631],[8.4951,6.0542],[8.4875,6.0372],[8.4882,5.9977],[8.4794,5.9924],[8.4771,5.9561],[8.4718,5.9441],[8.4733,5.9329],[8.4975,5.8944],[8.523,5.8874],[8.5349,5.8819],[8.5646,5.8611],[8.5989,5.8264]]]}},{"type":"Feature","properties":{"name":"Obanliku","state":"Cross River","scode":"CR","centroid":[6.5035,9.3148]},"geometry":{"type":"Polygon","coordinates":[[[9.1848,6.6933],[9.1711,6.6877],[9.1801,6.6812],[9.1811,6.6784],[9.1796,6.6721],[9.1836,6.6706],[9.1864,6.6671],[9.1931,6.6666],[9.2044,6.6589],[9.2079,6.6356],[9.2055,6.626],[9.1966,6.6029],[9.1681,6.5838],[9.1609,6.5834],[9.1581,6.5812],[9.1487,6.5587],[9.1119,6.5614],[9.1075,6.5522],[9.1061,6.5305],[9.1084,6.5194],[9.1079,6.5077],[9.1272,6.4931],[9.1512,6.4997],[9.174,6.4901],[9.1933,6.5098],[9.2166,6.4985],[9.2159,6.4945],[9.2203,6.4901],[9.2321,6.4846],[9.2415,6.4849],[9.2781,6.4953],[9.2902,6.4993],[9.293,6.5017],[9.3463,6.4654],[9.2971,6.3743],[9.2531,6.3409],[9.2471,6.3328],[9.2823,6.2199],[9.3331,6.2797],[9.3633,6.3258],[9.3739,6.3292],[9.3806,6.3292],[9.4069,6.3275],[9.4247,6.3244],[9.4308,6.325],[9.435,6.3278],[9.4556,6.3692],[9.4674,6.4013],[9.458,6.4047],[9.4673,6.4732],[9.4743,6.4996],[9.4744,6.5111],[9.4711,6.5249],[9.4495,6.5388],[9.4325,6.5573],[9.4168,6.5827],[9.4054,6.5954],[9.4021,6.6011],[9.3862,6.6127],[9.3817,6.6185],[9.3612,6.6359],[9.3579,6.6428],[9.3477,6.6555],[9.3432,6.6647],[9.3183,6.6936],[9.3037,6.7178],[9.3003,6.7201],[9.2911,6.7213],[9.2797,6.7191],[9.2558,6.7181],[9.2157,6.7057],[9.1928,6.6944],[9.1848,6.6933]]]}},{"type":"Feature","properties":{"name":"Obubra","state":"Cross River","scode":"CR","centroid":[5.9275,8.4143]},"geometry":{"type":"Polygon","coordinates":[[[8.4007,6.2166],[8.3712,6.1966],[8.3635,6.178],[8.359,6.1712],[8.3394,6.153],[8.3313,6.1353],[8.3208,6.129],[8.3149,6.1163],[8.302,6.1081],[8.302,6.1024],[8.2985,6.0909],[8.2982,6.0675],[8.2915,6.0554],[8.2888,6.0457],[8.2866,6.0166],[8.2822,6.0047],[8.2743,5.999],[8.2637,5.9968],[8.2584,5.9981],[8.254,6.0052],[8.2527,6.0122],[8.2448,6.018],[8.2303,6.0127],[8.2228,6.0144],[8.2148,6.0122],[8.2043,6.0043],[8.1937,5.992],[8.1733,5.974],[8.1761,5.9706],[8.18,5.97],[8.1779,5.965],[8.1828,5.9653],[8.1734,5.9593],[8.1773,5.9552],[8.1743,5.9493],[8.1752,5.9483],[8.1823,5.9523],[8.1831,5.9485],[8.1898,5.9509],[8.1919,5.9477],[8.1954,5.9496],[8.1982,5.9479],[8.2022,5.9482],[8.2033,5.9463],[8.2043,5.9478],[8.2055,5.9471],[8.2087,5.9488],[8.2102,5.9476],[8.2136,5.9497],[8.2144,5.9461],[8.2171,5.9438],[8.2262,5.9393],[8.2354,5.9298],[8.2375,5.9296],[8.242,5.9254],[8.2419,5.8928],[8.2559,5.8858],[8.2603,5.8753],[8.2981,5.8553],[8.3282,5.7292],[8.3391,5.7226],[8.3716,5.6804],[8.4676,5.6197],[8.4896,5.61],[8.5744,5.6427],[8.5966,5.801],[8.5989,5.8264],[8.5646,5.8611],[8.5349,5.8819],[8.523,5.8874],[8.4975,5.8944],[8.4733,5.9329],[8.4718,5.9441],[8.4771,5.9561],[8.4794,5.9924],[8.4882,5.9977],[8.4875,6.0372],[8.4951,6.0542],[8.4855,6.0631],[8.4771,6.0901],[8.455,6.1031],[8.4512,6.1114],[8.4602,6.1227],[8.4664,6.1369],[8.4556,6.1498],[8.4446,6.1517],[8.4333,6.1424],[8.422,6.1411],[8.4207,6.1434],[8.4335,6.1615],[8.4396,6.1611],[8.4454,6.1658],[8.447,6.171],[8.4446,6.1813],[8.4321,6.2021],[8.4327,6.2068],[8.4283,6.2047],[8.4254,6.2049],[8.4261,6.2193],[8.4326,6.2308],[8.4375,6.2292],[8.4422,6.2298],[8.4448,6.2319],[8.4455,6.2358],[8.4418,6.2492],[8.4445,6.2511],[8.4746,6.2541],[8.4768,6.2569],[8.4731,6.2628],[8.4601,6.2635],[8.4571,6.2685],[8.458,6.2735],[8.4616,6.2752],[8.4684,6.2834],[8.4727,6.2854],[8.4856,6.2859],[8.4857,6.2877],[8.4827,6.29],[8.4833,6.2929],[8.4894,6.2971],[8.4905,6.2997],[8.491,6.3192],[8.4933,6.3224],[8.4974,6.3233],[8.5075,6.3208],[8.5087,6.3216],[8.4953,6.3382],[8.4963,6.34],[8.511,6.3463],[8.5138,6.3541],[8.5114,6.3556],[8.5075,6.3545],[8.5062,6.3526],[8.5002,6.3533],[8.5008,6.3595],[8.4996,6.3633],[8.4916,6.3682],[8.4944,6.3784],[8.4937,6.3832],[8.4918,6.3858],[8.4862,6.3877],[8.4811,6.3803],[8.4718,6.3741],[8.4588,6.3818],[8.4649,6.3879],[8.4646,6.3909],[8.4628,6.3926],[8.4545,6.3903],[8.4531,6.3929],[8.446,6.389],[8.4442,6.3893],[8.445,6.3855],[8.4309,6.381],[8.4232,6.3712],[8.4037,6.366],[8.3992,6.3538],[8.3917,6.3065],[8.3944,6.297],[8.4109,6.2821],[8.4166,6.2734],[8.418,6.2611],[8.4112,6.2461],[8.4053,6.2371],[8.4007,6.2166]]]}},{"type":"Feature","properties":{"name":"Obudu","state":"Cross River","scode":"CR","centroid":[6.5675,9.0717]},"geometry":{"type":"Polygon","coordinates":[[[9.0018,6.537],[9.0144,6.46],[9.0088,6.4379],[9.0002,6.4216],[8.9904,6.4106],[8.9865,6.3972],[9.0725,6.3961],[9.0797,6.4164],[9.0792,6.4279],[9.0827,6.444],[9.0771,6.474],[9.0893,6.4917],[9.1079,6.5077],[9.1084,6.5194],[9.1061,6.5305],[9.1075,6.5522],[9.1119,6.5614],[9.1487,6.5587],[9.1581,6.5812],[9.1609,6.5834],[9.1681,6.5838],[9.1966,6.6029],[9.2055,6.626],[9.2079,6.6356],[9.2044,6.6589],[9.1931,6.6666],[9.1864,6.6671],[9.1836,6.6706],[9.1796,6.6721],[9.1811,6.6784],[9.1801,6.6812],[9.1711,6.6877],[9.1585,6.6843],[9.1494,6.6844],[9.1357,6.6799],[9.1231,6.6731],[9.1173,6.6674],[9.1059,6.6606],[9.0853,6.6515],[9.0704,6.6425],[9.059,6.6425],[9.0476,6.6438],[9.0271,6.6508],[9.018,6.6623],[8.9977,6.6831],[8.992,6.6924],[8.9902,6.6924],[8.9864,6.6898],[8.9525,6.6418],[8.9563,6.6365],[8.9608,6.6326],[8.9642,6.6262],[8.9734,6.6167],[8.9776,6.6071],[9.0161,6.5527],[9.0129,6.5454],[9.0018,6.537]]]}},{"type":"Feature","properties":{"name":"Odukpani","state":"Cross River","scode":"CR","centroid":[5.1829,8.1543]},"geometry":{"type":"Polygon","coordinates":[[[8.3968,5.1265],[8.398,5.1443],[8.4133,5.1962],[8.3342,5.2072],[8.2909,5.2358],[8.2652,5.2443],[8.2268,5.2116],[8.1921,5.2177],[8.1815,5.2281],[8.1737,5.2417],[8.1753,5.2602],[8.1621,5.3079],[8.1406,5.3026],[8.1002,5.2729],[8.0586,5.2734],[8.0545,5.281],[8.0519,5.2994],[8.0369,5.3341],[8.0422,5.3461],[8.0067,5.3997],[7.9955,5.4633],[7.9966,5.4956],[7.993,5.5551],[7.9692,5.5476],[7.9135,5.5238],[7.9206,5.5094],[7.9345,5.4692],[7.9391,5.4612],[7.9506,5.4475],[7.9563,5.4372],[7.9598,5.4257],[7.9725,5.3993],[7.9737,5.3936],[7.9782,5.389],[7.984,5.3764],[7.9875,5.3626],[7.983,5.3557],[7.9727,5.3545],[7.9578,5.3567],[7.9339,5.3577],[7.9202,5.3611],[7.9122,5.3611],[7.8804,5.3668],[7.8813,5.3626],[7.8848,5.3586],[7.9033,5.3431],[7.9045,5.3414],[7.9039,5.3385],[7.9017,5.3356],[7.8965,5.3333],[7.8759,5.3372],[7.8683,5.3429],[7.8488,5.3444],[7.842,5.3409],[7.8409,5.3375],[7.8422,5.3358],[7.8542,5.3254],[7.8577,5.3185],[7.8629,5.3151],[7.8652,5.3146],[7.8749,5.3181],[7.8921,5.3165],[7.9129,5.304],[7.9297,5.2851],[7.935,5.2736],[7.9378,5.2543],[7.9401,5.2497],[7.9481,5.2417],[7.9538,5.2383],[7.9618,5.236],[7.9664,5.2315],[7.9733,5.2119],[7.9761,5.2083],[7.9798,5.2072],[7.9844,5.2058],[7.9927,5.2067],[8.0033,5.2192],[8.0066,5.2257],[8.0098,5.2382],[8.0168,5.247],[8.0281,5.2438],[8.0416,5.2346],[8.0552,5.2173],[8.0653,5.1988],[8.0667,5.1817],[8.063,5.1581],[8.0649,5.1452],[8.0697,5.136],[8.0839,5.1255],[8.0952,5.1152],[8.0993,5.1071],[8.1003,5.0628],[8.0982,5.043],[8.1026,5.0238],[8.1222,4.9942],[8.1256,4.982],[8.1348,4.9728],[8.1421,4.9683],[8.1613,4.9693],[8.1839,4.9654],[8.187,4.9588],[8.1959,4.9544],[8.2006,4.952],[8.209,4.9415],[8.2224,4.9345],[8.2704,4.9584],[8.2969,4.9811],[8.3016,4.9871],[8.2957,5.017],[8.2939,5.0184],[8.294,5.0406],[8.324,5.0486],[8.3272,5.0473],[8.3352,5.0492],[8.3515,5.0444],[8.3606,5.0458],[8.3628,5.0432],[8.3624,5.0346],[8.3735,5.0293],[8.3739,5.0335],[8.3754,5.0346],[8.3872,5.0366],[8.3936,5.0498],[8.3923,5.0603],[8.3949,5.0706],[8.3891,5.0739],[8.3681,5.079],[8.3885,5.1129],[8.3938,5.1244],[8.3968,5.1265]]]}},{"type":"Feature","properties":{"name":"Ogoja","state":"Cross River","scode":"CR","centroid":[6.5076,8.7076]},"geometry":{"type":"Polygon","coordinates":[[[8.717,6.3772],[8.7244,6.4036],[8.7234,6.4162],[8.7243,6.4333],[8.7389,6.4457],[8.7478,6.4496],[8.7583,6.4587],[8.7635,6.4654],[8.7682,6.4831],[8.781,6.5016],[8.7811,6.5106],[8.7833,6.5153],[8.7837,6.5471],[8.8005,6.5623],[8.8219,6.5523],[8.8261,6.5306],[8.8424,6.532],[8.8671,6.5211],[8.8725,6.5203],[8.8775,6.5041],[8.8815,6.4971],[8.8946,6.4905],[8.9105,6.4874],[8.9193,6.4883],[8.9301,6.4815],[8.9377,6.4844],[8.9349,6.4963],[8.9229,6.5019],[8.9128,6.5184],[8.9194,6.5262],[8.9242,6.5285],[8.9492,6.5273],[8.9586,6.5304],[8.9684,6.5376],[9.0018,6.537],[9.0129,6.5454],[9.0161,6.5527],[8.9776,6.6071],[8.9734,6.6167],[8.9642,6.6262],[8.9608,6.6326],[8.9563,6.6365],[8.9192,6.6203],[8.9404,6.6074],[8.9238,6.592],[8.9106,6.5888],[8.9031,6.5817],[8.8856,6.575],[8.8545,6.5705],[8.8486,6.5924],[8.8463,6.5922],[8.8358,6.6006],[8.8388,6.6392],[8.8365,6.6413],[8.8375,6.652],[8.8257,6.6846],[8.8186,6.691],[8.81,6.692],[8.7841,6.688],[8.7664,6.6725],[8.7619,6.6502],[8.7261,6.6305],[8.7209,6.6301],[8.7119,6.6086],[8.6848,6.6037],[8.6693,6.5952],[8.6668,6.5958],[8.6449,6.5739],[8.6468,6.5656],[8.6405,6.5528],[8.6275,6.5347],[8.6249,6.5333],[8.6221,6.5265],[8.6117,6.5287],[8.6128,6.5244],[8.6059,6.5225],[8.6023,6.524],[8.6024,6.5194],[8.6001,6.5178],[8.596,6.5199],[8.5915,6.5198],[8.583,6.5251],[8.576,6.5321],[8.56,6.5439],[8.5528,6.5432],[8.5379,6.5358],[8.5337,6.5389],[8.5278,6.5376],[8.5235,6.5433],[8.5189,6.5418],[8.5218,6.5378],[8.5201,6.5342],[8.5242,6.5322],[8.5233,6.5234],[8.5185,6.5196],[8.5137,6.521],[8.5137,6.5189],[8.5271,6.5111],[8.5278,6.506],[8.5311,6.5049],[8.5398,6.5073],[8.544,6.5069],[8.5445,6.5056],[8.5438,6.5035],[8.5386,6.5004],[8.5361,6.4937],[8.5341,6.4878],[8.536,6.4844],[8.5336,6.4809],[8.5351,6.4782],[8.5323,6.476],[8.5283,6.4765],[8.5277,6.4751],[8.5286,6.4717],[8.5343,6.4684],[8.5338,6.4669],[8.5306,6.4647],[8.5265,6.4652],[8.5249,6.4641],[8.5252,6.4586],[8.5285,6.4541],[8.534,6.4516],[8.5442,6.4527],[8.5451,6.45],[8.5404,6.4472],[8.5274,6.4432],[8.5203,6.437],[8.4926,6.4478],[8.4833,6.4528],[8.4375,6.4598],[8.4312,6.4568],[8.4387,6.4468],[8.4319,6.4396],[8.4323,6.4332],[8.4423,6.4328],[8.4441,6.4309],[8.4568,6.4282],[8.4568,6.4178],[8.455,6.4146],[8.4536,6.406],[8.4427,6.4047],[8.4416,6.4031],[8.4442,6.3893],[8.446,6.389],[8.4531,6.3929],[8.4545,6.3903],[8.4628,6.3926],[8.4646,6.3909],[8.4649,6.3879],[8.4588,6.3818],[8.4718,6.3741],[8.4811,6.3803],[8.4862,6.3877],[8.4918,6.3858],[8.4937,6.3832],[8.4944,6.3784],[8.4916,6.3682],[8.4996,6.3633],[8.5008,6.3595],[8.5002,6.3533],[8.5062,6.3526],[8.5075,6.3545],[8.5114,6.3556],[8.5276,6.3855],[8.5427,6.3824],[8.5444,6.3781],[8.5626,6.363],[8.5705,6.3597],[8.5858,6.3567],[8.5995,6.3591],[8.6265,6.3602],[8.6365,6.385],[8.6658,6.3698],[8.6861,6.3709],[8.706,6.3774],[8.717,6.3772]]]}},{"type":"Feature","properties":{"name":"Yakurr","state":"Cross River","scode":"CR","centroid":[5.8116,8.1759]},"geometry":{"type":"Polygon","coordinates":[[[8.1445,5.6669],[8.1626,5.6741],[8.2024,5.6858],[8.2963,5.7369],[8.3282,5.7292],[8.2981,5.8553],[8.2603,5.8753],[8.2559,5.8858],[8.2419,5.8928],[8.242,5.9254],[8.2375,5.9296],[8.2354,5.9298],[8.2262,5.9393],[8.2171,5.9438],[8.2144,5.9461],[8.2136,5.9497],[8.2102,5.9476],[8.2087,5.9488],[8.2055,5.9471],[8.2043,5.9478],[8.2033,5.9463],[8.2022,5.9482],[8.1982,5.9479],[8.1954,5.9496],[8.1919,5.9477],[8.1898,5.9509],[8.1831,5.9485],[8.1823,5.9523],[8.1752,5.9483],[8.1743,5.9493],[8.1773,5.9552],[8.1734,5.9593],[8.1828,5.9653],[8.1779,5.965],[8.18,5.97],[8.1761,5.9706],[8.1733,5.974],[8.1677,5.9695],[8.1532,5.9673],[8.1138,5.9381],[8.1069,5.9341],[8.1022,5.9293],[8.1009,5.9221],[8.0892,5.9112],[8.0827,5.9014],[8.0809,5.8952],[8.0839,5.883],[8.0762,5.866],[8.0715,5.865],[8.0578,5.8455],[8.0472,5.8365],[8.0434,5.8264],[8.0422,5.8181],[8.0319,5.7984],[8.0314,5.7934],[8.0393,5.7747],[8.0535,5.7681],[8.0643,5.7456],[8.0652,5.7392],[8.071,5.7228],[8.1152,5.7032],[8.1201,5.6901],[8.1445,5.6669]]]}},{"type":"Feature","properties":{"name":"Yala","state":"Cross River","scode":"CR","centroid":[6.6844,8.596]},"geometry":{"type":"Polygon","coordinates":[[[8.81,6.692],[8.8078,6.7361],[8.8087,6.7378],[8.8209,6.7319],[8.8302,6.7233],[8.8393,6.7292],[8.8454,6.73],[8.8504,6.7349],[8.8605,6.74],[8.8652,6.7407],[8.877,6.7567],[8.8652,6.78],[8.8876,6.7995],[8.9019,6.7969],[8.9234,6.8249],[8.8973,6.8377],[8.8791,6.8493],[8.8677,6.854],[8.8598,6.8597],[8.8393,6.8691],[8.8177,6.8761],[8.7904,6.8832],[8.7858,6.8832],[8.7767,6.8879],[8.7596,6.8914],[8.7414,6.8927],[8.7209,6.8963],[8.7037,6.8964],[8.6693,6.8702],[8.6544,6.8646],[8.6362,6.8624],[8.6236,6.8625],[8.6065,6.8592],[8.6008,6.8558],[8.6024,6.8495],[8.62,6.835],[8.637,6.8257],[8.6416,6.8188],[8.6403,6.805],[8.6368,6.7981],[8.6207,6.781],[8.5784,6.7652],[8.5441,6.7586],[8.535,6.7598],[8.5088,6.7588],[8.4962,6.7543],[8.4802,6.751],[8.4687,6.7465],[8.4505,6.7478],[8.4437,6.7547],[8.4357,6.7582],[8.4198,6.7572],[8.4083,6.7526],[8.3934,6.7424],[8.3749,6.7069],[8.3611,6.6933],[8.3405,6.6842],[8.3211,6.6786],[8.3074,6.6776],[8.2994,6.6799],[8.2945,6.6787],[8.302,6.6698],[8.3065,6.6607],[8.3047,6.6507],[8.3092,6.6394],[8.3156,6.6344],[8.3224,6.6344],[8.3251,6.6258],[8.3242,6.6212],[8.3215,6.6185],[8.3211,6.6139],[8.3142,6.6121],[8.3142,6.6071],[8.322,6.603],[8.3248,6.5895],[8.3301,6.5917],[8.3401,6.5753],[8.3519,6.5744],[8.3587,6.564],[8.3637,6.5622],[8.3742,6.5635],[8.3715,6.5481],[8.3751,6.5458],[8.3796,6.5486],[8.3914,6.5504],[8.3933,6.5445],[8.4001,6.5363],[8.3992,6.5322],[8.3937,6.5313],[8.391,6.5263],[8.391,6.5231],[8.396,6.5195],[8.4101,6.5172],[8.4155,6.5186],[8.4191,6.5145],[8.4205,6.5054],[8.4123,6.5004],[8.4087,6.4886],[8.406,6.485],[8.4087,6.4777],[8.4228,6.4777],[8.4237,6.4664],[8.4312,6.4568],[8.4375,6.4598],[8.4833,6.4528],[8.4926,6.4478],[8.5203,6.437],[8.5274,6.4432],[8.5404,6.4472],[8.5451,6.45],[8.5442,6.4527],[8.534,6.4516],[8.5285,6.4541],[8.5252,6.4586],[8.5249,6.4641],[8.5265,6.4652],[8.5306,6.4647],[8.5338,6.4669],[8.5343,6.4684],[8.5286,6.4717],[8.5277,6.4751],[8.5283,6.4765],[8.5323,6.476],[8.5351,6.4782],[8.5336,6.4809],[8.536,6.4844],[8.5341,6.4878],[8.5361,6.4937],[8.5386,6.5004],[8.5438,6.5035],[8.5445,6.5056],[8.544,6.5069],[8.5398,6.5073],[8.5311,6.5049],[8.5278,6.506],[8.5271,6.5111],[8.5137,6.5189],[8.5137,6.521],[8.5185,6.5196],[8.5233,6.5234],[8.5242,6.5322],[8.5201,6.5342],[8.5218,6.5378],[8.5189,6.5418],[8.5235,6.5433],[8.5278,6.5376],[8.5337,6.5389],[8.5379,6.5358],[8.5528,6.5432],[8.56,6.5439],[8.576,6.5321],[8.583,6.5251],[8.5915,6.5198],[8.596,6.5199],[8.6001,6.5178],[8.6024,6.5194],[8.6023,6.524],[8.6059,6.5225],[8.6128,6.5244],[8.6117,6.5287],[8.6221,6.5265],[8.6249,6.5333],[8.6275,6.5347],[8.6405,6.5528],[8.6468,6.5656],[8.6449,6.5739],[8.6668,6.5958],[8.6693,6.5952],[8.6848,6.6037],[8.7119,6.6086],[8.7209,6.6301],[8.7261,6.6305],[8.7619,6.6502],[8.7664,6.6725],[8.7841,6.688],[8.81,6.692]]]}}]}