{"type":"FeatureCollection","features":[{"type":"Feature","properties":{"name":"Aniocha North","state":"Delta","scode":"DE","centroid":[6.3627,6.4813]},"geometry":{"type":"Polygon","coordinates":[[[6.3623,6.3844],[6.3639,6.3761],[6.3783,6.3471],[6.3914,6.3098],[6.3894,6.2945],[6.3732,6.2645],[6.3712,6.2541],[6.3753,6.2396],[6.3991,6.2426],[6.4195,6.2476],[6.4473,6.2596],[6.4629,6.2674],[6.4758,6.2772],[6.4982,6.2899],[6.507,6.2989],[6.5172,6.3039],[6.5342,6.3054],[6.5567,6.2931],[6.5669,6.2904],[6.5815,6.2912],[6.5736,6.3106],[6.5668,6.3182],[6.566,6.3279],[6.5727,6.3529],[6.5746,6.3938],[6.5793,6.4147],[6.5709,6.4527],[6.5708,6.4819],[6.5755,6.4951],[6.5402,6.492],[6.5233,6.4875],[6.52,6.483],[6.5096,6.4758],[6.5022,6.464],[6.4805,6.4478],[6.4662,6.4409],[6.4454,6.4252],[6.4366,6.4161],[6.4313,6.4068],[6.4127,6.396],[6.3914,6.3888],[6.3702,6.3833],[6.3623,6.3844]]]}},{"type":"Feature","properties":{"name":"Aniocha South","state":"Delta","scode":"DE","centroid":[6.1342,6.4844]},"geometry":{"type":"Polygon","coordinates":[[[6.5815,6.2912],[6.5669,6.2904],[6.5567,6.2931],[6.5342,6.3054],[6.5172,6.3039],[6.507,6.2989],[6.4982,6.2899],[6.4758,6.2772],[6.4629,6.2674],[6.4473,6.2596],[6.4195,6.2476],[6.3991,6.2426],[6.3753,6.2396],[6.3898,6.1953],[6.3858,6.1842],[6.377,6.1765],[6.3539,6.1576],[6.3438,6.1554],[6.3438,6.1464],[6.3476,6.1207],[6.348,6.1152],[6.3447,6.1041],[6.3359,6.0929],[6.3272,6.0575],[6.3232,6.0318],[6.3192,6.0186],[6.3376,5.9986],[6.3458,5.9918],[6.3608,5.9891],[6.3662,5.9989],[6.3743,6.0191],[6.3831,6.0302],[6.394,6.0248],[6.4008,6.0089],[6.4036,5.9985],[6.4118,5.9875],[6.4445,5.9843],[6.456,5.9865],[6.4792,5.9853],[6.4886,5.9909],[6.5165,5.9925],[6.5274,5.9961],[6.5668,5.9964],[6.5728,6.0283],[6.5721,6.038],[6.5645,6.0595],[6.5672,6.0685],[6.5726,6.0762],[6.5814,6.079],[6.5937,6.0798],[6.629,6.0746],[6.6466,6.0983],[6.6452,6.1012],[6.6411,6.1094],[6.6316,6.1183],[6.62,6.1244],[6.6104,6.1375],[6.6104,6.1465],[6.6069,6.1646],[6.6102,6.193],[6.625,6.2119],[6.6345,6.2362],[6.6262,6.2465],[6.6078,6.2644],[6.5941,6.283],[6.5815,6.2912]]]}},{"type":"Feature","properties":{"name":"Bomadi","state":"Delta","scode":"DE","centroid":[5.2372,5.8217]},"geometry":{"type":"Polygon","coordinates":[[[5.9278,5.1607],[5.9243,5.1658],[5.9114,5.177],[5.9032,5.1914],[5.8897,5.1952],[5.8837,5.1986],[5.8869,5.2091],[5.8566,5.2183],[5.8587,5.2203],[5.8602,5.2255],[5.8559,5.2249],[5.8486,5.2298],[5.8483,5.2361],[5.8387,5.2429],[5.8391,5.2481],[5.8458,5.2552],[5.8468,5.2598],[5.8434,5.266],[5.8464,5.2846],[5.8446,5.2881],[5.839,5.2898],[5.836,5.2926],[5.8344,5.3021],[5.8314,5.3075],[5.8252,5.31],[5.8098,5.3034],[5.7998,5.306],[5.7947,5.3148],[5.7968,5.3215],[5.8113,5.3316],[5.8163,5.3369],[5.8182,5.3421],[5.8129,5.3507],[5.805,5.3588],[5.7875,5.3545],[5.7783,5.3413],[5.7729,5.3405],[5.761,5.347],[5.7562,5.3456],[5.7509,5.3343],[5.7284,5.3283],[5.7254,5.3213],[5.7253,5.3154],[5.7358,5.3091],[5.7366,5.3032],[5.7397,5.3056],[5.7407,5.303],[5.7438,5.3038],[5.7449,5.3028],[5.7433,5.2903],[5.7459,5.2874],[5.7483,5.2759],[5.7473,5.2738],[5.7379,5.2713],[5.737,5.2667],[5.7401,5.2601],[5.7461,5.2594],[5.7481,5.2603],[5.7497,5.264],[5.757,5.2679],[5.7615,5.2604],[5.7667,5.2589],[5.7721,5.2597],[5.7813,5.2618],[5.7874,5.2684],[5.8016,5.2719],[5.8083,5.2649],[5.8121,5.2473],[5.801,5.2398],[5.782,5.231],[5.771,5.2231],[5.7647,5.217],[5.7633,5.2131],[5.7584,5.2097],[5.761,5.1991],[5.7689,5.1872],[5.7786,5.1764],[5.8004,5.1872],[5.8186,5.1894],[5.8282,5.1868],[5.8327,5.1802],[5.8387,5.1762],[5.8638,5.1848],[5.8791,5.1762],[5.8814,5.1095],[5.8827,5.1018],[5.8853,5.1],[5.8965,5.1044],[5.9094,5.1049],[5.9145,5.1082],[5.9164,5.1315],[5.9175,5.1341],[5.9218,5.135],[5.9269,5.1399],[5.9278,5.1607]]]}},{"type":"Feature","properties":{"name":"Burutu","state":"Delta","scode":"DE","centroid":[5.216,5.5923]},"geometry":{"type":"MultiPolygon","coordinates":[[[[5.8814,5.1095],[5.8791,5.1762],[5.8638,5.1848],[5.8387,5.1762],[5.8327,5.1802],[5.8282,5.1868],[5.8186,5.1894],[5.8004,5.1872],[5.7786,5.1764],[5.7689,5.1872],[5.761,5.1991],[5.7584,5.2097],[5.7633,5.2131],[5.7647,5.217],[5.771,5.2231],[5.782,5.231],[5.801,5.2398],[5.8121,5.2473],[5.8083,5.2649],[5.8016,5.2719],[5.7874,5.2684],[5.7813,5.2618],[5.7721,5.2597],[5.7667,5.2589],[5.7615,5.2604],[5.757,5.2679],[5.7497,5.264],[5.7481,5.2603],[5.7461,5.2594],[5.7401,5.2601],[5.737,5.2667],[5.7379,5.2713],[5.7473,5.2738],[5.7483,5.2759],[5.7459,5.2874],[5.7433,5.2903],[5.7449,5.3028],[5.7438,5.3038],[5.7407,5.303],[5.7397,5.3056],[5.7366,5.3032],[5.7358,5.3091],[5.7253,5.3154],[5.7254,5.3213],[5.7284,5.3283],[5.722,5.3349],[5.7195,5.3429],[5.7232,5.3575],[5.7231,5.3685],[5.7192,5.3734],[5.7149,5.3741],[5.7184,5.3861],[5.7126,5.3906],[5.7029,5.395],[5.6985,5.4009],[5.7025,5.4102],[5.7042,5.4139],[5.692,5.4148],[5.6823,5.4131],[5.6732,5.4056],[5.6598,5.3897],[5.6398,5.3829],[5.6135,5.3801],[5.6061,5.3776],[5.5948,5.3776],[5.5813,5.3811],[5.5725,5.3864],[5.5579,5.3899],[5.5481,5.3943],[5.5269,5.4071],[5.5194,5.4054],[5.5128,5.3987],[5.4671,5.3717],[5.4318,5.3661],[5.3855,5.3608],[5.3705,5.3566],[5.3517,5.3633],[5.3369,5.3612],[5.3247,5.3665],[5.3206,5.3644],[5.32,5.3548],[5.3304,5.3001],[5.3457,5.2314],[5.3527,5.1679],[5.3726,5.1456],[5.388,5.139],[5.4216,5.1525],[5.4316,5.1517],[5.4439,5.1467],[5.4477,5.1387],[5.4484,5.1337],[5.4547,5.1267],[5.4616,5.1247],[5.466,5.1216],[5.4692,5.1168],[5.4646,5.0976],[5.4679,5.0932],[5.4761,5.0909],[5.5029,5.0925],[5.5116,5.0883],[5.5241,5.0688],[5.5331,5.0629],[5.5509,5.0556],[5.5846,5.0552],[5.5856,5.0479],[5.5909,5.0434],[5.611,5.0389],[5.6197,5.0347],[5.6253,5.026],[5.6329,5.0184],[5.6423,5.0156],[5.6479,5.0118],[5.6618,5.0129],[5.6636,5.0151],[5.6635,5.024],[5.6667,5.0283],[5.6756,5.0299],[5.6912,5.0242],[5.7021,5.0229],[5.7103,5.0238],[5.7194,5.0309],[5.7306,5.0545],[5.7365,5.0566],[5.7431,5.0557],[5.7486,5.0532],[5.752,5.0537],[5.7584,5.061],[5.7642,5.0642],[5.7735,5.0612],[5.7756,5.0575],[5.779,5.058],[5.7804,5.065],[5.7881,5.0725],[5.7899,5.0787],[5.7891,5.0844],[5.7913,5.0858],[5.8036,5.0819],[5.809,5.0864],[5.8141,5.0845],[5.8173,5.0774],[5.8203,5.0752],[5.8353,5.0825],[5.8401,5.0831],[5.8395,5.0745],[5.8409,5.0676],[5.8483,5.0665],[5.852,5.0702],[5.8531,5.0755],[5.8574,5.0774],[5.8631,5.0744],[5.8651,5.0695],[5.8677,5.0681],[5.8717,5.0812],[5.8776,5.0914],[5.8776,5.1053],[5.8814,5.1095]]],[[[5.431,5.3855],[5.434,5.3949],[5.4312,5.4006],[5.414,5.4084],[5.3777,5.4201],[5.3681,5.4276],[5.3498,5.4372],[5.3002,5.467],[5.2679,5.4611],[5.2566,5.4625],[5.2434,5.4597],[5.2271,5.4512],[5.2398,5.4402],[5.2602,5.4285],[5.318,5.4039],[5.3549,5.3898],[5.3794,5.39],[5.431,5.3855]]]]}},{"type":"Feature","properties":{"name":"Ethiope East","state":"Delta","scode":"DE","centroid":[5.689,5.9934]},"geometry":{"type":"Polygon","coordinates":[[[6.1497,5.7557],[6.1557,5.7688],[6.156,5.773],[6.1536,5.7791],[6.1537,5.7857],[6.1513,5.7899],[6.153,5.7989],[6.1518,5.8049],[6.1444,5.8178],[6.1379,5.8146],[6.1235,5.8235],[6.1209,5.8397],[6.1019,5.8032],[6.0937,5.7941],[6.0759,5.7861],[6.0736,5.7865],[6.0619,5.7751],[6.0398,5.7646],[6.0157,5.7643],[6.0045,5.7606],[5.9817,5.7481],[5.9586,5.7507],[5.9409,5.7464],[5.9246,5.7483],[5.9061,5.7704],[5.8905,5.7633],[5.8879,5.753],[5.8682,5.7479],[5.8601,5.7277],[5.8581,5.7159],[5.8529,5.7031],[5.8567,5.6981],[5.8596,5.6902],[5.8747,5.6883],[5.8783,5.6804],[5.8893,5.6721],[5.8995,5.6619],[5.9068,5.6572],[5.9104,5.6407],[5.9183,5.629],[5.9009,5.6019],[5.9014,5.5991],[5.9113,5.6011],[5.916,5.5964],[5.9158,5.5912],[5.9179,5.5887],[5.9174,5.5806],[5.9195,5.5793],[5.9214,5.574],[5.9198,5.5656],[5.9226,5.563],[5.934,5.5637],[5.9415,5.5621],[5.9546,5.5664],[5.9549,5.5498],[5.969,5.5494],[5.9785,5.5547],[5.99,5.5574],[5.9977,5.5694],[6.0073,5.5732],[6.0114,5.5785],[6.0162,5.5918],[6.0286,5.5952],[6.0409,5.603],[6.0585,5.6218],[6.0591,5.6323],[6.0577,5.6468],[6.0542,5.6593],[6.0446,5.6758],[6.0412,5.6855],[6.0505,5.6862],[6.0601,5.6889],[6.0651,5.698],[6.0697,5.7159],[6.0742,5.719],[6.0803,5.7195],[6.0921,5.7169],[6.0974,5.7224],[6.1063,5.7433],[6.1134,5.7516],[6.1438,5.7514],[6.1497,5.7557]]]}},{"type":"Feature","properties":{"name":"Ethiope West","state":"Delta","scode":"DE","centroid":[5.9197,5.7521]},"geometry":{"type":"Polygon","coordinates":[[[5.8942,5.7986],[5.9024,5.8111],[5.9064,5.826],[5.9065,5.8439],[5.9213,5.8773],[5.8333,5.9411],[5.8353,5.9515],[5.8305,5.9598],[5.823,5.9666],[5.812,5.9839],[5.7951,5.9796],[5.7642,5.9978],[5.6989,6.0336],[5.6689,6.052],[5.6575,6.0332],[5.6262,6.0288],[5.616,6.0245],[5.6051,6.0231],[5.5936,6.0181],[5.5834,6.0111],[5.5713,5.9909],[5.572,5.9777],[5.5672,5.9598],[5.5742,5.9566],[5.579,5.947],[5.5751,5.932],[5.5793,5.9255],[5.5894,5.9191],[5.6103,5.914],[5.6169,5.9173],[5.6204,5.9295],[5.626,5.9398],[5.6341,5.9442],[5.6407,5.9458],[5.6644,5.9241],[5.6818,5.9038],[5.6919,5.9022],[5.6957,5.8918],[5.6988,5.8908],[5.7161,5.893],[5.7212,5.8948],[5.7257,5.8987],[5.728,5.8985],[5.7289,5.8966],[5.7261,5.8923],[5.7253,5.8853],[5.7196,5.8678],[5.7211,5.8631],[5.7251,5.8597],[5.7316,5.861],[5.7364,5.865],[5.7461,5.865],[5.7517,5.8609],[5.7531,5.8552],[5.7577,5.8525],[5.7653,5.854],[5.7723,5.8528],[5.7793,5.839],[5.7766,5.8339],[5.7737,5.8339],[5.7716,5.8317],[5.7706,5.8278],[5.7716,5.8239],[5.7775,5.8186],[5.777,5.8149],[5.7781,5.8119],[5.7879,5.8081],[5.7923,5.8088],[5.7949,5.8065],[5.7963,5.8004],[5.7942,5.7959],[5.7956,5.7918],[5.7985,5.7908],[5.8025,5.7869],[5.8046,5.7906],[5.8084,5.7918],[5.8125,5.7889],[5.8112,5.7834],[5.8126,5.78],[5.8189,5.7765],[5.8197,5.7739],[5.8222,5.7721],[5.8256,5.771],[5.828,5.7753],[5.8261,5.7768],[5.8258,5.7807],[5.8304,5.7844],[5.8345,5.7818],[5.8378,5.7817],[5.8393,5.7835],[5.8392,5.7874],[5.8434,5.7925],[5.8525,5.7872],[5.8571,5.7896],[5.8628,5.7888],[5.8645,5.7834],[5.8696,5.7813],[5.8717,5.7828],[5.872,5.7885],[5.8744,5.7914],[5.8873,5.7892],[5.89,5.7908],[5.8893,5.7953],[5.8942,5.7986]]]}},{"type":"Feature","properties":{"name":"Ika North East","state":"Delta","scode":"DE","centroid":[6.2271,6.2937]},"geometry":{"type":"Polygon","coordinates":[[[6.2903,6.3619],[6.2817,6.3574],[6.2614,6.3323],[6.2539,6.319],[6.2466,6.3127],[6.2547,6.3066],[6.2622,6.2983],[6.2806,6.2846],[6.2841,6.2728],[6.2814,6.2582],[6.2591,6.2289],[6.251,6.2226],[6.2461,6.2462],[6.242,6.2544],[6.2339,6.2509],[6.2352,6.2635],[6.2082,6.2538],[6.1951,6.2535],[6.1883,6.2556],[6.1883,6.251],[6.1803,6.2316],[6.1769,6.2109],[6.1643,6.1829],[6.1636,6.1708],[6.1743,6.1672],[6.178,6.1589],[6.1802,6.157],[6.184,6.1568],[6.204,6.1616],[6.2244,6.1571],[6.216,6.1221],[6.217,6.111],[6.2313,6.0923],[6.2365,6.0885],[6.2459,6.0853],[6.2626,6.0927],[6.2704,6.1001],[6.2871,6.1054],[6.3016,6.1058],[6.3146,6.1084],[6.3476,6.1207],[6.3438,6.1464],[6.3438,6.1554],[6.3539,6.1576],[6.377,6.1765],[6.3858,6.1842],[6.3898,6.1953],[6.3753,6.2396],[6.3712,6.2541],[6.3732,6.2645],[6.3894,6.2945],[6.3914,6.3098],[6.3783,6.3471],[6.3639,6.3761],[6.3623,6.3844],[6.3576,6.3843],[6.3496,6.3788],[6.3363,6.3782],[6.3224,6.373],[6.3128,6.3673],[6.2903,6.3619]]]}},{"type":"Feature","properties":{"name":"Ika South","state":"Delta","scode":"DE","centroid":[6.1846,6.1976]},"geometry":{"type":"Polygon","coordinates":[[[6.2566,6.0167],[6.2702,6.0161],[6.2831,6.0197],[6.2934,6.0191],[6.2995,6.0108],[6.3097,6.0102],[6.3192,6.0186],[6.3232,6.0318],[6.3272,6.0575],[6.3359,6.0929],[6.3447,6.1041],[6.348,6.1152],[6.3476,6.1207],[6.3146,6.1084],[6.3016,6.1058],[6.2871,6.1054],[6.2704,6.1001],[6.2626,6.0927],[6.2459,6.0853],[6.2365,6.0885],[6.2313,6.0923],[6.217,6.111],[6.216,6.1221],[6.2244,6.1571],[6.204,6.1616],[6.184,6.1568],[6.1802,6.157],[6.178,6.1589],[6.1743,6.1672],[6.1636,6.1708],[6.1643,6.1829],[6.1769,6.2109],[6.1803,6.2316],[6.1883,6.251],[6.1883,6.2556],[6.1951,6.2535],[6.2082,6.2538],[6.2352,6.2635],[6.2339,6.2509],[6.242,6.2544],[6.2461,6.2462],[6.251,6.2226],[6.2591,6.2289],[6.2814,6.2582],[6.2841,6.2728],[6.2806,6.2846],[6.2622,6.2983],[6.2547,6.3066],[6.2466,6.3127],[6.2126,6.2792],[6.1976,6.2827],[6.1935,6.2984],[6.1887,6.3095],[6.1805,6.3212],[6.1675,6.3315],[6.1409,6.3486],[6.1266,6.3561],[6.113,6.3491],[6.088,6.3183],[6.086,6.3038],[6.0861,6.2892],[6.0766,6.2787],[6.0849,6.2635],[6.1122,6.2409],[6.1157,6.2],[6.1344,6.1357],[6.1481,6.1143],[6.1638,6.0943],[6.1693,6.0825],[6.1955,6.0545],[6.2205,6.0531],[6.2409,6.0558],[6.2449,6.0537],[6.2433,6.053],[6.2328,6.0338],[6.241,6.0263],[6.2566,6.0167]]]}},{"type":"Feature","properties":{"name":"Isoko North","state":"Delta","scode":"DE","centroid":[5.5309,6.2356]},"geometry":{"type":"Polygon","coordinates":[[[6.088,5.4043],[6.0954,5.4099],[6.1144,5.4316],[6.1262,5.4423],[6.143,5.4743],[6.1518,5.4848],[6.1617,5.4923],[6.1719,5.5028],[6.1954,5.5428],[6.218,5.5219],[6.2364,5.5089],[6.246,5.509],[6.2532,5.5164],[6.2649,5.5244],[6.2758,5.5342],[6.286,5.5511],[6.3302,5.5312],[6.3305,5.5263],[6.3237,5.5121],[6.3186,5.4934],[6.3218,5.4829],[6.3352,5.4673],[6.3405,5.4573],[6.3502,5.4321],[6.3568,5.4344],[6.3636,5.4325],[6.3658,5.4331],[6.3671,5.4355],[6.3633,5.4428],[6.3648,5.4451],[6.3679,5.4454],[6.3716,5.444],[6.3764,5.4394],[6.3823,5.4422],[6.3872,5.4392],[6.391,5.4393],[6.411,5.4312],[6.4328,5.43],[6.4462,5.4327],[6.4535,5.4394],[6.4562,5.4461],[6.4565,5.4533],[6.4547,5.4564],[6.4459,5.463],[6.431,5.4652],[6.3896,5.4637],[6.3868,5.4645],[6.3846,5.4715],[6.3767,5.4759],[6.3725,5.4855],[6.3734,5.4879],[6.3823,5.4916],[6.3852,5.4962],[6.3841,5.5148],[6.3648,5.5695],[6.356,5.5877],[6.3496,5.5951],[6.3352,5.6214],[6.3277,5.6269],[6.3256,5.6379],[6.3121,5.6323],[6.2774,5.623],[6.2366,5.6192],[6.221,5.6197],[6.2115,5.6217],[6.1945,5.6147],[6.1742,5.5985],[6.1633,5.5943],[6.1361,5.5954],[6.1239,5.5926],[6.1151,5.5849],[6.1124,5.5751],[6.1159,5.5599],[6.1166,5.5481],[6.1112,5.5377],[6.1024,5.5314],[6.0868,5.5271],[6.0779,5.5208],[6.0725,5.5131],[6.0577,5.4818],[6.0557,5.4686],[6.0565,5.4533],[6.062,5.4388],[6.0804,5.4168],[6.088,5.4043]]]}},{"type":"Feature","properties":{"name":"Isoko South","state":"Delta","scode":"DE","centroid":[5.3855,6.2219]},"geometry":{"type":"Polygon","coordinates":[[[6.2594,5.2279],[6.262,5.2466],[6.269,5.2617],[6.2732,5.2747],[6.277,5.2764],[6.2835,5.2706],[6.285,5.2791],[6.2972,5.2963],[6.3064,5.303],[6.3106,5.3035],[6.3178,5.3221],[6.325,5.332],[6.3395,5.3465],[6.3434,5.357],[6.3445,5.3681],[6.3428,5.3721],[6.342,5.3942],[6.3438,5.3987],[6.3453,5.4245],[6.3502,5.4321],[6.3405,5.4573],[6.3352,5.4673],[6.3218,5.4829],[6.3186,5.4934],[6.3237,5.5121],[6.3305,5.5263],[6.3302,5.5312],[6.286,5.5511],[6.2758,5.5342],[6.2649,5.5244],[6.2532,5.5164],[6.246,5.509],[6.2364,5.5089],[6.218,5.5219],[6.1954,5.5428],[6.1719,5.5028],[6.1617,5.4923],[6.1518,5.4848],[6.143,5.4743],[6.1262,5.4423],[6.1144,5.4316],[6.0954,5.4099],[6.088,5.4043],[6.088,5.3946],[6.0963,5.3642],[6.0943,5.3331],[6.095,5.3186],[6.1178,5.2811],[6.1444,5.2474],[6.1513,5.2398],[6.1615,5.2357],[6.176,5.2344],[6.1874,5.2304],[6.197,5.2466],[6.2003,5.2474],[6.2031,5.2515],[6.2074,5.2521],[6.2185,5.2503],[6.22,5.2387],[6.2335,5.2382],[6.2594,5.2279]]]}},{"type":"Feature","properties":{"name":"Ndokwa East","state":"Delta","scode":"DE","centroid":[5.6859,6.5105]},"geometry":{"type":"Polygon","coordinates":[[[6.4855,5.3792],[6.4766,5.4041],[6.4831,5.4206],[6.4997,5.4265],[6.5088,5.4257],[6.5176,5.4344],[6.5245,5.4387],[6.5348,5.459],[6.5382,5.4758],[6.5308,5.532],[6.5426,5.5492],[6.5554,5.5524],[6.5689,5.5534],[6.5848,5.5617],[6.5917,5.5745],[6.601,5.5969],[6.6038,5.6149],[6.6176,5.6315],[6.6213,5.6426],[6.6065,5.6702],[6.5997,5.6789],[6.6019,5.6875],[6.6006,5.7066],[6.6391,5.7395],[6.6436,5.7473],[6.6483,5.7717],[6.6472,5.7853],[6.6508,5.8171],[6.6579,5.8404],[6.6609,5.8565],[6.6735,5.8891],[6.686,5.9048],[6.7001,5.9293],[6.7094,5.9593],[6.7159,5.9699],[6.7165,5.981],[6.7197,5.9962],[6.7062,5.9969],[6.6994,6.003],[6.6831,6.005],[6.6715,6.0035],[6.6586,6.0041],[6.6436,6.0074],[6.6327,6.0136],[6.6171,5.9968],[6.6076,5.994],[6.5832,5.9938],[6.5668,5.9964],[6.5274,5.9961],[6.5165,5.9925],[6.4886,5.9909],[6.4792,5.9853],[6.4751,5.9721],[6.459,5.9338],[6.4475,5.9122],[6.4428,5.9004],[6.4497,5.8879],[6.4715,5.877],[6.4776,5.8694],[6.477,5.8604],[6.4729,5.8507],[6.4615,5.8312],[6.4534,5.8207],[6.4432,5.8123],[6.4385,5.8039],[6.4365,5.7914],[6.438,5.7672],[6.4366,5.7547],[6.4387,5.7429],[6.4495,5.7272],[6.4732,5.7143],[6.4752,5.7029],[6.4705,5.6914],[6.4601,5.6869],[6.4495,5.6867],[6.4347,5.684],[6.4266,5.6705],[6.418,5.6664],[6.4051,5.6677],[6.3915,5.6655],[6.3752,5.6564],[6.3644,5.6473],[6.3535,5.6423],[6.3406,5.6415],[6.3256,5.6379],[6.3277,5.6269],[6.3352,5.6214],[6.3496,5.5951],[6.356,5.5877],[6.3648,5.5695],[6.3841,5.5148],[6.3852,5.4962],[6.3823,5.4916],[6.3734,5.4879],[6.3725,5.4855],[6.3767,5.4759],[6.3846,5.4715],[6.3868,5.4645],[6.3896,5.4637],[6.431,5.4652],[6.4459,5.463],[6.4547,5.4564],[6.4565,5.4533],[6.4562,5.4461],[6.4535,5.4394],[6.4462,5.4327],[6.4328,5.43],[6.411,5.4312],[6.391,5.4393],[6.3872,5.4392],[6.3823,5.4422],[6.3764,5.4394],[6.3716,5.444],[6.3679,5.4454],[6.3648,5.4451],[6.3633,5.4428],[6.3671,5.4355],[6.3658,5.4331],[6.3636,5.4325],[6.3568,5.4344],[6.3502,5.4321],[6.3453,5.4245],[6.3438,5.3987],[6.342,5.3942],[6.3428,5.3721],[6.3445,5.3681],[6.3434,5.357],[6.3395,5.3465],[6.325,5.332],[6.3178,5.3221],[6.3106,5.3035],[6.3254,5.3065],[6.3335,5.3176],[6.3388,5.3198],[6.3476,5.3205],[6.3625,5.314],[6.3804,5.309],[6.4089,5.3048],[6.426,5.3112],[6.4345,5.3233],[6.4502,5.3276],[6.4731,5.3219],[6.4902,5.324],[6.4935,5.326],[6.493,5.3283],[6.5026,5.3389],[6.4959,5.3697],[6.4855,5.3792]]]}},{"type":"Feature","properties":{"name":"Ndokwa West","state":"Delta","scode":"DE","centroid":[5.8017,6.3424]},"geometry":{"type":"Polygon","coordinates":[[[6.2115,5.6217],[6.221,5.6197],[6.2366,5.6192],[6.2774,5.623],[6.3121,5.6323],[6.3256,5.6379],[6.3406,5.6415],[6.3535,5.6423],[6.3644,5.6473],[6.3752,5.6564],[6.3915,5.6655],[6.4051,5.6677],[6.418,5.6664],[6.4266,5.6705],[6.4347,5.684],[6.4495,5.6867],[6.4601,5.6869],[6.4705,5.6914],[6.4752,5.7029],[6.4732,5.7143],[6.4495,5.7272],[6.4387,5.7429],[6.4366,5.7547],[6.438,5.7672],[6.4365,5.7914],[6.4385,5.8039],[6.4432,5.8123],[6.4534,5.8207],[6.4615,5.8312],[6.4729,5.8507],[6.477,5.8604],[6.4776,5.8694],[6.4715,5.877],[6.4497,5.8879],[6.4428,5.9004],[6.4475,5.9122],[6.459,5.9338],[6.4751,5.9721],[6.4792,5.9853],[6.456,5.9865],[6.4445,5.9843],[6.4118,5.9875],[6.4036,5.9985],[6.4008,6.0089],[6.394,6.0248],[6.3831,6.0302],[6.3743,6.0191],[6.3662,5.9989],[6.3608,5.9891],[6.3458,5.9918],[6.3376,5.9986],[6.3192,6.0186],[6.3097,6.0102],[6.2995,6.0108],[6.2934,6.0191],[6.2831,6.0197],[6.2702,6.0161],[6.2566,6.0167],[6.2479,5.984],[6.246,5.9715],[6.2438,5.9674],[6.271,5.9601],[6.2979,5.9426],[6.3213,5.9225],[6.3288,5.9139],[6.3335,5.9068],[6.3382,5.8956],[6.3443,5.8885],[6.3619,5.8595],[6.3679,5.8461],[6.3765,5.8216],[6.377,5.8153],[6.3746,5.8015],[6.3486,5.7947],[6.3274,5.7871],[6.3048,5.7753],[6.2969,5.7672],[6.2747,5.7763],[6.2656,5.7772],[6.2431,5.7732],[6.2165,5.7634],[6.2085,5.7624],[6.2054,5.7517],[6.2036,5.7499],[6.1975,5.7469],[6.1869,5.7368],[6.1776,5.7356],[6.1726,5.7329],[6.1668,5.7265],[6.1737,5.7067],[6.1744,5.6949],[6.18,5.6652],[6.191,5.6444],[6.2115,5.6217]]]}},{"type":"Feature","properties":{"name":"Okpe","state":"Delta","scode":"DE","centroid":[5.6853,5.7899]},"geometry":{"type":"Polygon","coordinates":[[[5.7059,5.5818],[5.7583,5.618],[5.764,5.6192],[5.7703,5.6231],[5.7774,5.6243],[5.7831,5.622],[5.7912,5.6144],[5.7975,5.6059],[5.8186,5.5897],[5.8235,5.5875],[5.8339,5.5864],[5.8461,5.5872],[5.853,5.5955],[5.8581,5.6152],[5.8612,5.6209],[5.8667,5.6189],[5.8787,5.6093],[5.8824,5.6088],[5.8869,5.6058],[5.8924,5.609],[5.8955,5.609],[5.9009,5.6019],[5.9183,5.629],[5.9104,5.6407],[5.9068,5.6572],[5.8995,5.6619],[5.8893,5.6721],[5.8783,5.6804],[5.8747,5.6883],[5.8596,5.6902],[5.8567,5.6981],[5.8529,5.7031],[5.8581,5.7159],[5.8601,5.7277],[5.8682,5.7479],[5.8879,5.753],[5.8905,5.7633],[5.9061,5.7704],[5.9068,5.7815],[5.9026,5.7946],[5.8942,5.7986],[5.8893,5.7953],[5.89,5.7908],[5.8873,5.7892],[5.8744,5.7914],[5.872,5.7885],[5.8717,5.7828],[5.8696,5.7813],[5.8645,5.7834],[5.8628,5.7888],[5.8571,5.7896],[5.8525,5.7872],[5.8434,5.7925],[5.8392,5.7874],[5.8393,5.7835],[5.8378,5.7817],[5.8345,5.7818],[5.8304,5.7844],[5.8258,5.7807],[5.8261,5.7768],[5.828,5.7753],[5.8256,5.771],[5.8222,5.7721],[5.8197,5.7739],[5.8189,5.7765],[5.8126,5.78],[5.8112,5.7834],[5.8125,5.7889],[5.8084,5.7918],[5.8046,5.7906],[5.8025,5.7869],[5.7985,5.7908],[5.7956,5.7918],[5.7942,5.7959],[5.7963,5.8004],[5.7949,5.8065],[5.7923,5.8088],[5.7879,5.8081],[5.7781,5.8119],[5.777,5.8149],[5.7525,5.7712],[5.7464,5.7642],[5.7329,5.7405],[5.7254,5.7314],[5.726,5.7199],[5.7157,5.714],[5.7076,5.7143],[5.6852,5.7089],[5.6691,5.7067],[5.6506,5.7007],[5.676,5.6748],[5.6924,5.6618],[5.6965,5.647],[5.6802,5.6513],[5.6559,5.6143],[5.675,5.6027],[5.6921,5.5897],[5.7059,5.5818]]]}},{"type":"Feature","properties":{"name":"Oshimili North","state":"Delta","scode":"DE","centroid":[6.3152,6.6452]},"geometry":{"type":"Polygon","coordinates":[[[6.5755,6.4951],[6.5708,6.4819],[6.5709,6.4527],[6.5793,6.4147],[6.5746,6.3938],[6.5727,6.3529],[6.566,6.3279],[6.5668,6.3182],[6.5736,6.3106],[6.5815,6.2912],[6.5941,6.283],[6.6078,6.2644],[6.6262,6.2465],[6.6345,6.2362],[6.625,6.2119],[6.6102,6.193],[6.6069,6.1646],[6.6104,6.1465],[6.6104,6.1375],[6.62,6.1244],[6.6316,6.1183],[6.6411,6.1094],[6.6452,6.1012],[6.6563,6.1067],[6.6885,6.1084],[6.6999,6.1191],[6.714,6.1561],[6.7093,6.1625],[6.6935,6.1776],[6.6874,6.1889],[6.7058,6.2618],[6.7231,6.2656],[6.7221,6.2827],[6.7128,6.3534],[6.7073,6.3686],[6.6998,6.3817],[6.6921,6.4184],[6.6818,6.4557],[6.6739,6.4683],[6.6689,6.5012],[6.6598,6.4986],[6.6463,6.4887],[6.6327,6.4893],[6.6224,6.4955],[6.6088,6.4995],[6.5857,6.4979],[6.5755,6.4951]]]}},{"type":"Feature","properties":{"name":"Oshimili South","state":"Delta","scode":"DE","centroid":[6.0947,6.6766]},"geometry":{"type":"Polygon","coordinates":[[[6.6452,6.1012],[6.6466,6.0983],[6.629,6.0746],[6.5937,6.0798],[6.5814,6.079],[6.5726,6.0762],[6.5672,6.0685],[6.5645,6.0595],[6.5721,6.038],[6.5728,6.0283],[6.5668,5.9964],[6.5832,5.9938],[6.6076,5.994],[6.6171,5.9968],[6.6327,6.0136],[6.6436,6.0074],[6.6586,6.0041],[6.6715,6.0035],[6.6831,6.005],[6.6994,6.003],[6.7062,5.9969],[6.7197,5.9962],[6.7245,6.0123],[6.7265,6.0289],[6.7255,6.0407],[6.7202,6.0457],[6.7032,6.0512],[6.6991,6.061],[6.7045,6.0811],[6.7133,6.0871],[6.7221,6.0975],[6.7492,6.1137],[6.7553,6.1207],[6.7579,6.1349],[6.7607,6.1478],[6.7648,6.1558],[6.7694,6.168],[6.7673,6.1818],[6.7626,6.1856],[6.7537,6.1928],[6.7427,6.2094],[6.731,6.2391],[6.7262,6.2599],[6.7231,6.2656],[6.7058,6.2618],[6.6874,6.1889],[6.6935,6.1776],[6.7093,6.1625],[6.714,6.1561],[6.6999,6.1191],[6.6885,6.1084],[6.6563,6.1067],[6.6452,6.1012]]]}},{"type":"Feature","properties":{"name":"Patani","state":"Delta","scode":"DE","centroid":[5.1704,6.0917]},"geometry":{"type":"MultiPolygon","coordinates":[[[[5.9809,5.1306],[6.0045,5.1037],[6.0272,5.0957],[6.0444,5.0957],[6.055,5.0972],[6.0623,5.103],[6.0637,5.1118],[6.0634,5.1232],[6.0696,5.1413],[6.0858,5.1508],[6.0979,5.1499],[6.1207,5.1337],[6.1297,5.1293],[6.1437,5.1348],[6.1503,5.1412],[6.1547,5.1517],[6.1659,5.1611],[6.1788,5.1611],[6.1909,5.1586],[6.2007,5.1695],[6.2023,5.1793],[6.1981,5.2038],[6.1943,5.2167],[6.196,5.223],[6.2021,5.2318],[6.2133,5.2387],[6.22,5.2387],[6.2185,5.2503],[6.2074,5.2521],[6.2031,5.2515],[6.2003,5.2474],[6.197,5.2466],[6.1874,5.2304],[6.176,5.2344],[6.1615,5.2357],[6.1547,5.226],[6.1343,5.2223],[6.1119,5.2152],[6.0895,5.213],[6.0712,5.2079],[6.0626,5.206],[6.0491,5.1995],[6.0297,5.193],[6.0021,5.1892],[5.9899,5.186],[5.9884,5.1841],[5.9843,5.1594],[5.9869,5.1544],[5.9867,5.144],[5.9809,5.1306]]],[[[6.2835,5.2706],[6.277,5.2764],[6.2732,5.2747],[6.269,5.2617],[6.262,5.2466],[6.2594,5.2279],[6.279,5.2289],[6.2905,5.2341],[6.293,5.2388],[6.2923,5.2454],[6.2838,5.2665],[6.2835,5.2706]]]]}},{"type":"Feature","properties":{"name":"Sapele","state":"Delta","scode":"DE","centroid":[5.852,5.6263]},"geometry":{"type":"Polygon","coordinates":[[[5.5707,5.7783],[5.5766,5.781],[5.589,5.7794],[5.5983,5.7811],[5.6042,5.7732],[5.6013,5.7663],[5.6005,5.7573],[5.6014,5.7324],[5.6331,5.7065],[5.6394,5.698],[5.6506,5.7007],[5.6691,5.7067],[5.6852,5.7089],[5.7076,5.7143],[5.7157,5.714],[5.726,5.7199],[5.7254,5.7314],[5.7329,5.7405],[5.7464,5.7642],[5.7525,5.7712],[5.777,5.8149],[5.7775,5.8186],[5.7716,5.8239],[5.7706,5.8278],[5.7716,5.8317],[5.7737,5.8339],[5.7766,5.8339],[5.7793,5.839],[5.7723,5.8528],[5.7653,5.854],[5.7577,5.8525],[5.7531,5.8552],[5.7517,5.8609],[5.7461,5.865],[5.7364,5.865],[5.7316,5.861],[5.7251,5.8597],[5.7211,5.8631],[5.7196,5.8678],[5.7253,5.8853],[5.7261,5.8923],[5.7289,5.8966],[5.728,5.8985],[5.7257,5.8987],[5.7212,5.8948],[5.7161,5.893],[5.6988,5.8908],[5.6957,5.8918],[5.6919,5.9022],[5.6818,5.9038],[5.6644,5.9241],[5.6407,5.9458],[5.6341,5.9442],[5.626,5.9398],[5.6204,5.9295],[5.6169,5.9173],[5.6103,5.914],[5.5894,5.9191],[5.5793,5.9255],[5.5751,5.932],[5.579,5.947],[5.5742,5.9566],[5.5672,5.9598],[5.572,5.9777],[5.5713,5.9909],[5.5463,5.9854],[5.5366,5.9899],[5.5323,6.0042],[5.5346,6.0097],[5.5326,6.0117],[5.5235,6.0127],[5.5192,6.0163],[5.5153,6.0219],[5.5189,6.0274],[5.513,6.0353],[5.5009,6.0366],[5.4973,6.0425],[5.4943,6.0418],[5.4914,6.0386],[5.4897,6.03],[5.4842,6.0278],[5.4737,6.0274],[5.4736,6.0015],[5.4716,5.9784],[5.475,5.9478],[5.4696,5.9315],[5.5002,5.9314],[5.498,5.9289],[5.5004,5.9194],[5.5086,5.9112],[5.5124,5.9044],[5.5261,5.8927],[5.5481,5.8866],[5.5501,5.8824],[5.5475,5.876],[5.5469,5.8698],[5.5383,5.8625],[5.5494,5.8557],[5.546,5.844],[5.5434,5.8406],[5.5456,5.8334],[5.5525,5.8298],[5.5556,5.8254],[5.5667,5.7987],[5.5707,5.7783]]]}},{"type":"Feature","properties":{"name":"Udu","state":"Delta","scode":"DE","centroid":[5.4762,5.8241]},"geometry":{"type":"Polygon","coordinates":[[[5.7885,5.4423],[5.8029,5.4311],[5.8098,5.4235],[5.8146,5.4152],[5.8275,5.4105],[5.8411,5.4085],[5.8547,5.4135],[5.8655,5.4212],[5.8856,5.4312],[5.8877,5.4363],[5.8895,5.4443],[5.8888,5.4508],[5.8911,5.4734],[5.8904,5.4831],[5.8795,5.4865],[5.8673,5.4933],[5.8618,5.5009],[5.8583,5.5127],[5.851,5.5221],[5.8501,5.5265],[5.838,5.5369],[5.8264,5.5421],[5.8253,5.5512],[5.8196,5.562],[5.8132,5.5548],[5.8105,5.5484],[5.808,5.5483],[5.8032,5.5509],[5.7986,5.5484],[5.7954,5.5485],[5.7913,5.5526],[5.7854,5.5514],[5.7842,5.5489],[5.7894,5.5415],[5.7933,5.5397],[5.7979,5.5405],[5.7993,5.5396],[5.796,5.5347],[5.7899,5.5352],[5.7897,5.5327],[5.7969,5.5266],[5.801,5.5209],[5.8005,5.5183],[5.795,5.5163],[5.784,5.516],[5.7715,5.5237],[5.7693,5.523],[5.769,5.5194],[5.7744,5.5066],[5.779,5.5018],[5.7803,5.4941],[5.779,5.4906],[5.7716,5.488],[5.7669,5.488],[5.7558,5.4958],[5.7503,5.491],[5.7437,5.4829],[5.7459,5.4782],[5.7505,5.4743],[5.749,5.4686],[5.7591,5.4662],[5.7673,5.4482],[5.777,5.4438],[5.7885,5.4423]]]}},{"type":"Feature","properties":{"name":"Ughelli North","state":"Delta","scode":"DE","centroid":[5.4954,6.0552]},"geometry":{"type":"Polygon","coordinates":[[[6.0712,5.2079],[6.0895,5.213],[6.1119,5.2152],[6.1343,5.2223],[6.1547,5.226],[6.1615,5.2357],[6.1513,5.2398],[6.1444,5.2474],[6.1178,5.2811],[6.095,5.3186],[6.0943,5.3331],[6.0963,5.3642],[6.088,5.3946],[6.088,5.4043],[6.0804,5.4168],[6.062,5.4388],[6.0565,5.4533],[6.0557,5.4686],[6.0577,5.4818],[6.0725,5.5131],[6.0779,5.5208],[6.0868,5.5271],[6.1024,5.5314],[6.1112,5.5377],[6.1166,5.5481],[6.1159,5.5599],[6.1124,5.5751],[6.1151,5.5849],[6.1239,5.5926],[6.1361,5.5954],[6.1633,5.5943],[6.1742,5.5985],[6.1945,5.6147],[6.2115,5.6217],[6.191,5.6444],[6.18,5.6652],[6.1744,5.6949],[6.1737,5.7067],[6.1668,5.7265],[6.1627,5.7406],[6.1497,5.7557],[6.1438,5.7514],[6.1134,5.7516],[6.1063,5.7433],[6.0974,5.7224],[6.0921,5.7169],[6.0803,5.7195],[6.0742,5.719],[6.0697,5.7159],[6.0651,5.698],[6.0601,5.6889],[6.0505,5.6862],[6.0412,5.6855],[6.0446,5.6758],[6.0542,5.6593],[6.0577,5.6468],[6.0591,5.6323],[6.0585,5.6218],[6.0409,5.603],[6.0286,5.5952],[6.0162,5.5918],[6.0114,5.5785],[6.0073,5.5732],[5.9977,5.5694],[5.99,5.5574],[5.9785,5.5547],[5.969,5.5494],[5.9549,5.5498],[5.9546,5.5664],[5.9415,5.5621],[5.934,5.5637],[5.9226,5.563],[5.9198,5.5656],[5.9214,5.574],[5.9195,5.5793],[5.9174,5.5806],[5.9179,5.5887],[5.9158,5.5912],[5.916,5.5964],[5.9113,5.6011],[5.9014,5.5991],[5.9009,5.6019],[5.8955,5.609],[5.8924,5.609],[5.8869,5.6058],[5.8824,5.6088],[5.8787,5.6093],[5.8667,5.6189],[5.8612,5.6209],[5.8581,5.6152],[5.853,5.5955],[5.8461,5.5872],[5.8481,5.5615],[5.8504,5.5564],[5.8643,5.553],[5.884,5.5538],[5.9173,5.5465],[5.9275,5.5342],[5.9066,5.5145],[5.9087,5.5041],[5.9189,5.5014],[5.9515,5.5065],[5.9651,5.5046],[5.9685,5.4952],[5.9593,5.4918],[5.9687,5.4822],[5.9878,5.4745],[5.9927,5.4765],[5.9939,5.4754],[5.9928,5.4729],[5.9952,5.4618],[5.9872,5.4403],[5.9811,5.4312],[5.9942,5.3973],[5.9972,5.3957],[6.0057,5.3811],[6.0116,5.3757],[6.0182,5.355],[6.0219,5.3521],[6.0285,5.3269],[6.0262,5.3167],[6.0181,5.2998],[6.0101,5.2871],[6.0047,5.2671],[6.0068,5.2459],[6.013,5.2339],[6.0283,5.2212],[6.0432,5.2121],[6.0523,5.2092],[6.0712,5.2079]]]}},{"type":"Feature","properties":{"name":"Ughelli South","state":"Delta","scode":"DE","centroid":[5.3451,5.9034]},"geometry":{"type":"Polygon","coordinates":[[[5.9749,5.1375],[5.9809,5.1306],[5.9867,5.144],[5.9869,5.1544],[5.9843,5.1594],[5.9884,5.1841],[5.9899,5.186],[6.0021,5.1892],[6.0297,5.193],[6.0491,5.1995],[6.0626,5.206],[6.0712,5.2079],[6.0523,5.2092],[6.0432,5.2121],[6.0283,5.2212],[6.013,5.2339],[6.0068,5.2459],[6.0047,5.2671],[6.0101,5.2871],[6.0181,5.2998],[6.0262,5.3167],[6.0285,5.3269],[6.0219,5.3521],[6.0182,5.355],[6.0116,5.3757],[6.0057,5.3811],[5.9972,5.3957],[5.9942,5.3973],[5.9811,5.4312],[5.9872,5.4403],[5.9952,5.4618],[5.9928,5.4729],[5.9939,5.4754],[5.9927,5.4765],[5.9878,5.4745],[5.9687,5.4822],[5.9593,5.4918],[5.9685,5.4952],[5.9651,5.5046],[5.9515,5.5065],[5.9189,5.5014],[5.9087,5.5041],[5.9066,5.5145],[5.9275,5.5342],[5.9173,5.5465],[5.884,5.5538],[5.8643,5.553],[5.8504,5.5564],[5.8421,5.5577],[5.8403,5.559],[5.8405,5.5638],[5.8376,5.5642],[5.8349,5.5619],[5.8343,5.5548],[5.8313,5.5531],[5.8278,5.5604],[5.8196,5.562],[5.8253,5.5512],[5.8264,5.5421],[5.838,5.5369],[5.8501,5.5265],[5.851,5.5221],[5.8583,5.5127],[5.8618,5.5009],[5.8673,5.4933],[5.8795,5.4865],[5.8904,5.4831],[5.8911,5.4734],[5.8888,5.4508],[5.8895,5.4443],[5.8877,5.4363],[5.8856,5.4312],[5.8655,5.4212],[5.8547,5.4135],[5.8411,5.4085],[5.8275,5.4105],[5.8146,5.4152],[5.8098,5.4235],[5.8029,5.4311],[5.7885,5.4423],[5.7523,5.4209],[5.7289,5.4145],[5.7025,5.4102],[5.6985,5.4009],[5.7029,5.395],[5.7126,5.3906],[5.7184,5.3861],[5.7149,5.3741],[5.7192,5.3734],[5.7231,5.3685],[5.7232,5.3575],[5.7195,5.3429],[5.722,5.3349],[5.7284,5.3283],[5.7509,5.3343],[5.7562,5.3456],[5.761,5.347],[5.7729,5.3405],[5.7783,5.3413],[5.7875,5.3545],[5.805,5.3588],[5.8129,5.3507],[5.8182,5.3421],[5.8163,5.3369],[5.8113,5.3316],[5.7968,5.3215],[5.7947,5.3148],[5.7998,5.306],[5.8098,5.3034],[5.8252,5.31],[5.8314,5.3075],[5.8344,5.3021],[5.836,5.2926],[5.839,5.2898],[5.8446,5.2881],[5.8464,5.2846],[5.8434,5.266],[5.8468,5.2598],[5.8458,5.2552],[5.8391,5.2481],[5.8387,5.2429],[5.8483,5.2361],[5.8486,5.2298],[5.8559,5.2249],[5.8602,5.2255],[5.8587,5.2203],[5.8566,5.2183],[5.8869,5.2091],[5.8837,5.1986],[5.8897,5.1952],[5.9032,5.1914],[5.9114,5.177],[5.9243,5.1658],[5.9278,5.1607],[5.9332,5.1647],[5.9461,5.1642],[5.9605,5.1572],[5.9642,5.1491],[5.9749,5.1375]]]}},{"type":"Feature","properties":{"name":"Ukwuani","state":"Delta","scode":"DE","centroid":[5.8447,6.2521]},"geometry":{"type":"Polygon","coordinates":[[[6.1668,5.7265],[6.1726,5.7329],[6.1776,5.7356],[6.1869,5.7368],[6.1975,5.7469],[6.2036,5.7499],[6.2054,5.7517],[6.2085,5.7624],[6.2165,5.7634],[6.2431,5.7732],[6.2656,5.7772],[6.2747,5.7763],[6.2969,5.7672],[6.3048,5.7753],[6.3274,5.7871],[6.3486,5.7947],[6.3746,5.8015],[6.377,5.8153],[6.3765,5.8216],[6.3679,5.8461],[6.3619,5.8595],[6.3443,5.8885],[6.3382,5.8956],[6.3335,5.9068],[6.3288,5.9139],[6.3213,5.9225],[6.2979,5.9426],[6.271,5.9601],[6.2438,5.9674],[6.2338,5.9485],[6.2291,5.936],[6.2176,5.9165],[6.2075,5.906],[6.2014,5.897],[6.1797,5.8822],[6.1519,5.8577],[6.1209,5.8397],[6.1235,5.8235],[6.1379,5.8146],[6.1444,5.8178],[6.1518,5.8049],[6.153,5.7989],[6.1513,5.7899],[6.1537,5.7857],[6.1536,5.7791],[6.156,5.773],[6.1557,5.7688],[6.1497,5.7557],[6.1627,5.7406],[6.1668,5.7265]]]}},{"type":"Feature","properties":{"name":"Uvwie","state":"Delta","scode":"DE","centroid":[5.5774,5.7788]},"geometry":{"type":"Polygon","coordinates":[[[5.784,5.516],[5.795,5.5163],[5.8005,5.5183],[5.801,5.5209],[5.7969,5.5266],[5.7897,5.5327],[5.7899,5.5352],[5.796,5.5347],[5.7993,5.5396],[5.7979,5.5405],[5.7933,5.5397],[5.7894,5.5415],[5.7842,5.5489],[5.7854,5.5514],[5.7913,5.5526],[5.7954,5.5485],[5.7986,5.5484],[5.8032,5.5509],[5.808,5.5483],[5.8105,5.5484],[5.8132,5.5548],[5.8196,5.562],[5.8278,5.5604],[5.8313,5.5531],[5.8343,5.5548],[5.8349,5.5619],[5.8376,5.5642],[5.8405,5.5638],[5.8403,5.559],[5.8421,5.5577],[5.8504,5.5564],[5.8481,5.5615],[5.8461,5.5872],[5.8339,5.5864],[5.8235,5.5875],[5.8186,5.5897],[5.7975,5.6059],[5.7912,5.6144],[5.7831,5.622],[5.7774,5.6243],[5.7703,5.6231],[5.764,5.6192],[5.7583,5.618],[5.7059,5.5818],[5.7305,5.5669],[5.7317,5.557],[5.7348,5.5573],[5.743,5.5529],[5.7441,5.5548],[5.7481,5.5564],[5.7511,5.5502],[5.7538,5.5514],[5.7534,5.5551],[5.7573,5.5562],[5.7628,5.5525],[5.77,5.5502],[5.7706,5.5475],[5.773,5.546],[5.7799,5.5474],[5.7774,5.5419],[5.7784,5.5384],[5.7774,5.5336],[5.7734,5.5278],[5.784,5.525],[5.784,5.516]]]}},{"type":"Feature","properties":{"name":"Warri North","state":"Delta","scode":"DE","centroid":[5.859,5.2438]},"geometry":{"type":"Polygon","coordinates":[[[4.9768,5.8877],[5.0092,5.8447],[5.026,5.8179],[5.0408,5.7827],[5.0678,5.7667],[5.0798,5.7468],[5.0811,5.7364],[5.0806,5.7244],[5.0841,5.7176],[5.0845,5.713],[5.1215,5.6432],[5.1497,5.6092],[5.1701,5.5938],[5.181,5.592],[5.1913,5.5958],[5.2053,5.606],[5.2282,5.6193],[5.2472,5.622],[5.3013,5.614],[5.3512,5.5961],[5.3735,5.5985],[5.3878,5.608],[5.3992,5.6373],[5.4128,5.647],[5.435,5.6523],[5.4324,5.6633],[5.4336,5.6688],[5.4516,5.6784],[5.4568,5.6853],[5.434,5.7089],[5.386,5.7208],[5.3382,5.7231],[5.3244,5.7294],[5.3396,5.7417],[5.341,5.7453],[5.3327,5.7601],[5.3342,5.7758],[5.3317,5.7869],[5.3339,5.7911],[5.3465,5.8012],[5.3539,5.8047],[5.3644,5.8019],[5.3663,5.805],[5.3668,5.8114],[5.3746,5.8165],[5.3812,5.8234],[5.4002,5.8231],[5.408,5.8197],[5.4107,5.8202],[5.4137,5.8281],[5.4164,5.8299],[5.4248,5.8239],[5.4333,5.826],[5.4387,5.8228],[5.4429,5.8222],[5.4471,5.8225],[5.4508,5.825],[5.4548,5.825],[5.4608,5.815],[5.4637,5.8054],[5.467,5.8045],[5.4722,5.8003],[5.4848,5.7964],[5.4954,5.7962],[5.5052,5.7877],[5.5085,5.7865],[5.5234,5.7877],[5.5329,5.7762],[5.5415,5.7708],[5.549,5.7732],[5.5562,5.7728],[5.5691,5.7756],[5.5707,5.7783],[5.5667,5.7987],[5.5556,5.8254],[5.5525,5.8298],[5.5456,5.8334],[5.5434,5.8406],[5.546,5.844],[5.5494,5.8557],[5.5383,5.8625],[5.5469,5.8698],[5.5475,5.876],[5.5501,5.8824],[5.5481,5.8866],[5.5261,5.8927],[5.5124,5.9044],[5.5086,5.9112],[5.5004,5.9194],[5.498,5.9289],[5.5002,5.9314],[5.4696,5.9315],[5.475,5.9478],[5.4716,5.9784],[5.4736,6.0015],[5.4737,6.0274],[5.4655,6.0278],[5.4562,6.0224],[5.4534,6.0251],[5.4521,6.0343],[5.4428,6.0414],[5.4297,6.0319],[5.4294,6.0247],[5.4333,6.0192],[5.4337,6.0142],[5.4333,6.01],[5.4281,6.007],[5.4176,6.0094],[5.418,6.0116],[5.4134,6.0215],[5.4019,6.0231],[5.3904,6.019],[5.3678,6.0209],[5.3444,6.0174],[5.3404,6.02],[5.3343,6.0214],[5.3274,6.0183],[5.323,6.0053],[5.327,5.9944],[5.327,5.9827],[5.3365,5.9844],[5.34,5.9827],[5.3452,5.9753],[5.3587,5.9696],[5.35,5.9609],[5.3413,5.9562],[5.3159,5.9323],[5.3051,5.9173],[5.2921,5.9099],[5.276,5.9068],[5.2705,5.9165],[5.269,5.9368],[5.2568,5.9477],[5.2542,5.9547],[5.2499,5.9677],[5.2486,5.9842],[5.2557,6.0108],[5.2631,6.031],[5.2683,6.0525],[5.2702,6.0543],[5.2576,6.0644],[5.24,6.0616],[5.234,6.0648],[5.2348,6.0727],[5.2324,6.1003],[5.2337,6.1124],[5.2305,6.1188],[5.2172,6.1356],[5.2184,6.1408],[5.2228,6.144],[5.2224,6.1479],[5.2104,6.1531],[5.2062,6.1516],[5.206,6.1478],[5.2026,6.1454],[5.1988,6.147],[5.1937,6.1518],[5.1897,6.1519],[5.184,6.1474],[5.1806,6.1494],[5.1824,6.1544],[5.1819,6.1569],[5.1687,6.1636],[5.1643,6.1591],[5.1629,6.1479],[5.164,6.146],[5.1615,6.1427],[5.1579,6.1467],[5.1546,6.1442],[5.1455,6.1416],[5.143,6.1433],[5.1435,6.1512],[5.1418,6.155],[5.1331,6.1647],[5.1344,6.1694],[5.127,6.1639],[5.119,6.15],[5.1011,6.1249],[5.0759,6.078],[5.0469,6.0145],[5.0342,5.9887],[5.0181,5.9505],[4.9844,5.8993],[4.9855,5.896],[4.9828,5.8957],[4.9768,5.8877]]]}},{"type":"Feature","properties":{"name":"Warri South","state":"Delta","scode":"DE","centroid":[5.6102,5.6195]},"geometry":{"type":"Polygon","coordinates":[[[5.5415,5.7708],[5.5492,5.7563],[5.5404,5.7521],[5.5285,5.752],[5.5194,5.7554],[5.5064,5.7627],[5.5015,5.7521],[5.5043,5.739],[5.5151,5.7278],[5.525,5.7021],[5.5266,5.6947],[5.5172,5.6706],[5.5172,5.661],[5.507,5.6474],[5.4857,5.6312],[5.4978,5.6242],[5.5011,5.6206],[5.5075,5.6067],[5.5106,5.5961],[5.5343,5.5773],[5.5425,5.569],[5.5453,5.5579],[5.5501,5.5497],[5.559,5.5407],[5.5678,5.5352],[5.5822,5.5145],[5.5958,5.5191],[5.6,5.5167],[5.5998,5.5132],[5.6087,5.5118],[5.6201,5.5145],[5.6207,5.5116],[5.6173,5.5072],[5.6184,5.505],[5.6247,5.5055],[5.6278,5.5009],[5.6312,5.5033],[5.6352,5.5014],[5.6387,5.5029],[5.6465,5.4926],[5.6432,5.4891],[5.6479,5.4812],[5.6588,5.4734],[5.673,5.4667],[5.6996,5.4665],[5.7001,5.4718],[5.7079,5.4779],[5.7285,5.486],[5.7343,5.4899],[5.7503,5.491],[5.7558,5.4958],[5.7669,5.488],[5.7716,5.488],[5.779,5.4906],[5.7803,5.4941],[5.779,5.5018],[5.7744,5.5066],[5.769,5.5194],[5.7693,5.523],[5.7715,5.5237],[5.784,5.516],[5.784,5.525],[5.7734,5.5278],[5.7774,5.5336],[5.7784,5.5384],[5.7774,5.5419],[5.7799,5.5474],[5.773,5.546],[5.7706,5.5475],[5.77,5.5502],[5.7628,5.5525],[5.7573,5.5562],[5.7534,5.5551],[5.7538,5.5514],[5.7511,5.5502],[5.7481,5.5564],[5.7441,5.5548],[5.743,5.5529],[5.7348,5.5573],[5.7317,5.557],[5.7305,5.5669],[5.7059,5.5818],[5.6921,5.5897],[5.675,5.6027],[5.6559,5.6143],[5.6802,5.6513],[5.6965,5.647],[5.6924,5.6618],[5.676,5.6748],[5.6506,5.7007],[5.6394,5.698],[5.6331,5.7065],[5.6014,5.7324],[5.6005,5.7573],[5.6013,5.7663],[5.6042,5.7732],[5.5983,5.7811],[5.589,5.7794],[5.5766,5.781],[5.5707,5.7783],[5.5691,5.7756],[5.5562,5.7728],[5.549,5.7732],[5.5415,5.7708]]]}},{"type":"Feature","properties":{"name":"Warri South-West","state":"Delta","scode":"DE","centroid":[5.5222,5.3701]},"geometry":{"type":"MultiPolygon","coordinates":[[[[5.7025,5.4102],[5.7289,5.4145],[5.7523,5.4209],[5.7885,5.4423],[5.777,5.4438],[5.7673,5.4482],[5.7591,5.4662],[5.749,5.4686],[5.7505,5.4743],[5.7459,5.4782],[5.7437,5.4829],[5.7503,5.491],[5.7343,5.4899],[5.7285,5.486],[5.7079,5.4779],[5.7001,5.4718],[5.6996,5.4665],[5.673,5.4667],[5.6588,5.4734],[5.6479,5.4812],[5.6432,5.4891],[5.6465,5.4926],[5.6387,5.5029],[5.6352,5.5014],[5.6312,5.5033],[5.6278,5.5009],[5.6247,5.5055],[5.6184,5.505],[5.6173,5.5072],[5.6207,5.5116],[5.6201,5.5145],[5.6087,5.5118],[5.5998,5.5132],[5.5849,5.5059],[5.5689,5.5038],[5.5528,5.5065],[5.5311,5.5053],[5.5195,5.5011],[5.5085,5.4681],[5.5073,5.4437],[5.5145,5.4265],[5.525,5.4171],[5.5269,5.4071],[5.5481,5.3943],[5.5579,5.3899],[5.5725,5.3864],[5.5813,5.3811],[5.5948,5.3776],[5.6061,5.3776],[5.6135,5.3801],[5.6398,5.3829],[5.6598,5.3897],[5.6732,5.4056],[5.6823,5.4131],[5.692,5.4148],[5.7042,5.4139],[5.7025,5.4102]]],[[[5.431,5.3855],[5.4723,5.3994],[5.491,5.4328],[5.5002,5.4807],[5.5098,5.5009],[5.5243,5.5134],[5.5407,5.5187],[5.5556,5.5187],[5.5822,5.5145],[5.5678,5.5352],[5.559,5.5407],[5.5501,5.5497],[5.5453,5.5579],[5.5425,5.569],[5.5343,5.5773],[5.5106,5.5961],[5.4945,5.6078],[5.4804,5.6218],[5.4669,5.6311],[5.4357,5.6352],[5.4179,5.6399],[5.4079,5.6368],[5.4021,5.6299],[5.4029,5.6133],[5.3936,5.5883],[5.3873,5.5857],[5.3766,5.5866],[5.3486,5.5851],[5.3266,5.588],[5.2873,5.5999],[5.2314,5.6021],[5.2141,5.6012],[5.2074,5.5988],[5.1958,5.5805],[5.1796,5.5705],[5.1704,5.5571],[5.1637,5.5547],[5.1597,5.5471],[5.1571,5.5371],[5.2083,5.4675],[5.2271,5.4512],[5.2434,5.4597],[5.2566,5.4625],[5.2679,5.4611],[5.3002,5.467],[5.3498,5.4372],[5.3681,5.4276],[5.3777,5.4201],[5.414,5.4084],[5.4312,5.4006],[5.434,5.3949],[5.431,5.3855]]],[[[5.435,5.6523],[5.445,5.6544],[5.4857,5.6312],[5.507,5.6474],[5.5172,5.661],[5.5172,5.6706],[5.5266,5.6947],[5.525,5.7021],[5.5151,5.7278],[5.5043,5.739],[5.5015,5.7521],[5.5064,5.7627],[5.5194,5.7554],[5.5285,5.752],[5.5404,5.7521],[5.5492,5.7563],[5.5415,5.7708],[5.5329,5.7762],[5.5234,5.7877],[5.5085,5.7865],[5.5052,5.7877],[5.4954,5.7962],[5.4848,5.7964],[5.4722,5.8003],[5.467,5.8045],[5.4637,5.8054],[5.4608,5.815],[5.4548,5.825],[5.4508,5.825],[5.4471,5.8225],[5.4429,5.8222],[5.4387,5.8228],[5.4333,5.826],[5.4248,5.8239],[5.4164,5.8299],[5.4137,5.8281],[5.4107,5.8202],[5.408,5.8197],[5.4002,5.8231],[5.3812,5.8234],[5.3746,5.8165],[5.3668,5.8114],[5.3663,5.805],[5.3644,5.8019],[5.3539,5.8047],[5.3465,5.8012],[5.3339,5.7911],[5.3317,5.7869],[5.3342,5.7758],[5.3327,5.7601],[5.341,5.7453],[5.3396,5.7417],[5.3244,5.7294],[5.3382,5.7231],[5.386,5.7208],[5.434,5.7089],[5.4568,5.6853],[5.4516,5.6784],[5.4336,5.6688],[5.4324,5.6633],[5.435,5.6523]]]]}}]}