{"type":"FeatureCollection","features":[{"type":"Feature","properties":{"name":"Abakaliki","state":"Ebonyi","scode":"EB","centroid":[6.2564,8.2142]},"geometry":{"type":"Polygon","coordinates":[[[8.0333,6.2035],[8.0327,6.1917],[8.0344,6.1825],[8.0398,6.1693],[8.0456,6.1737],[8.0546,6.1763],[8.071,6.1767],[8.0751,6.1966],[8.0797,6.1955],[8.0827,6.1991],[8.0845,6.2048],[8.0957,6.205],[8.1003,6.2032],[8.1089,6.1952],[8.1154,6.1929],[8.119,6.1949],[8.1211,6.1936],[8.1265,6.1834],[8.1284,6.1813],[8.1397,6.1923],[8.147,6.1921],[8.1471,6.1945],[8.1601,6.2011],[8.1714,6.2092],[8.1824,6.2109],[8.1883,6.2148],[8.1979,6.2064],[8.2199,6.1824],[8.224,6.1862],[8.2356,6.1897],[8.2439,6.1884],[8.2615,6.1911],[8.2709,6.1992],[8.2799,6.2046],[8.2853,6.2102],[8.3016,6.2176],[8.3069,6.2159],[8.3172,6.2092],[8.3132,6.2312],[8.3246,6.2563],[8.3402,6.2617],[8.3539,6.2458],[8.3719,6.2293],[8.3883,6.2249],[8.4007,6.2166],[8.4053,6.2371],[8.4112,6.2461],[8.418,6.2611],[8.4166,6.2734],[8.4109,6.2821],[8.3944,6.297],[8.3917,6.3065],[8.3811,6.3137],[8.3714,6.3134],[8.3541,6.3091],[8.3208,6.3177],[8.302,6.3143],[8.2971,6.3089],[8.2895,6.3075],[8.2769,6.31],[8.2607,6.3091],[8.2613,6.3135],[8.2258,6.3069],[8.2049,6.2974],[8.1935,6.2782],[8.1731,6.2792],[8.1645,6.2828],[8.158,6.2822],[8.1586,6.2852],[8.1538,6.2891],[8.1555,6.2948],[8.1588,6.2949],[8.158,6.2985],[8.1613,6.3155],[8.1699,6.3207],[8.171,6.3267],[8.1491,6.3305],[8.1443,6.3332],[8.1397,6.3439],[8.1446,6.3496],[8.1441,6.3512],[8.141,6.3561],[8.1368,6.3571],[8.1297,6.3451],[8.127,6.3435],[8.1242,6.3371],[8.1209,6.3373],[8.1182,6.3333],[8.1159,6.3335],[8.1178,6.3293],[8.1174,6.3255],[8.1108,6.3248],[8.1142,6.3219],[8.1139,6.3206],[8.1023,6.3096],[8.0856,6.324],[8.0801,6.3219],[8.0776,6.3232],[8.0754,6.3209],[8.0728,6.3134],[8.0741,6.3123],[8.0724,6.3117],[8.0729,6.3093],[8.071,6.3047],[8.0744,6.2941],[8.0759,6.2803],[8.0752,6.2758],[8.0762,6.2736],[8.0803,6.2717],[8.0829,6.2659],[8.0782,6.2615],[8.0673,6.2557],[8.0626,6.2438],[8.0638,6.2352],[8.0579,6.2309],[8.0469,6.2268],[8.0397,6.2186],[8.0374,6.219],[8.0333,6.2035]]]}},{"type":"Feature","properties":{"name":"Afikpo North","state":"Ebonyi","scode":"EB","centroid":[5.8913,7.922]},"geometry":{"type":"Polygon","coordinates":[[[7.9701,5.7683],[7.9424,5.8051],[7.932,5.822],[7.9322,5.8295],[7.9372,5.8361],[7.9441,5.8395],[7.9548,5.8409],[7.959,5.8433],[7.9621,5.8503],[7.9664,5.8688],[7.9693,5.8743],[7.9876,5.8853],[7.9893,5.8933],[7.9868,5.8992],[7.989,5.9021],[7.9965,5.8996],[8.001,5.8955],[8.005,5.9001],[8.0061,5.9035],[8.0005,5.9127],[7.9857,5.922],[7.9823,5.9266],[7.9824,5.9358],[7.9893,5.9427],[7.9882,5.9484],[7.9792,5.9657],[7.9792,5.9703],[7.9804,5.9749],[7.9862,5.9817],[7.993,5.984],[7.9926,5.9947],[7.9911,5.9979],[7.9631,5.9881],[7.9589,5.9927],[7.957,5.9919],[7.9564,5.9886],[7.9504,5.9868],[7.9505,5.9827],[7.9479,5.9793],[7.9422,5.9761],[7.9303,5.9731],[7.9272,5.9808],[7.9213,5.9817],[7.9182,5.9775],[7.9141,5.9755],[7.913,5.9693],[7.9023,5.9698],[7.9014,5.9752],[7.8931,5.9765],[7.8951,5.9798],[7.8908,5.9795],[7.8898,5.9728],[7.8866,5.971],[7.8846,5.9762],[7.8771,5.977],[7.8739,5.9735],[7.8747,5.9674],[7.8725,5.9658],[7.8687,5.9717],[7.8635,5.9638],[7.8578,5.9611],[7.8531,5.9676],[7.8377,5.9489],[7.8382,5.9448],[7.8558,5.9271],[7.8519,5.9077],[7.8532,5.9025],[7.8633,5.8857],[7.8694,5.8769],[7.8804,5.871],[7.8873,5.869],[7.8857,5.8633],[7.8905,5.8501],[7.8852,5.8384],[7.885,5.814],[7.8886,5.8076],[7.8843,5.7972],[7.89,5.7696],[7.9002,5.7602],[7.9112,5.7546],[7.9095,5.7504],[7.9162,5.7481],[7.9172,5.7531],[7.9218,5.76],[7.9366,5.7692],[7.9423,5.7704],[7.9514,5.7751],[7.9701,5.7683]]]}},{"type":"Feature","properties":{"name":"Afikpo South","state":"Ebonyi","scode":"EB","centroid":[5.8417,7.813]},"geometry":{"type":"Polygon","coordinates":[[[7.8531,5.9676],[7.8484,5.9724],[7.8444,5.9713],[7.8383,5.9749],[7.831,5.9764],[7.8295,5.9802],[7.8271,5.98],[7.8263,5.9772],[7.8225,5.9781],[7.82,5.9804],[7.8155,5.9804],[7.8147,5.9795],[7.8183,5.9746],[7.8147,5.9735],[7.8069,5.9805],[7.8057,5.9743],[7.8117,5.9708],[7.8128,5.9678],[7.8072,5.9657],[7.8032,5.9714],[7.8022,5.9711],[7.8005,5.9673],[7.8041,5.9619],[7.8031,5.9561],[7.7977,5.9622],[7.7917,5.9648],[7.7884,5.9653],[7.7845,5.9621],[7.7843,5.9667],[7.7779,5.9692],[7.7771,5.9616],[7.7716,5.9554],[7.7688,5.955],[7.7648,5.943],[7.7605,5.9404],[7.7574,5.9406],[7.76,5.9281],[7.7556,5.9227],[7.7484,5.9152],[7.7374,5.9094],[7.7274,5.9077],[7.7139,5.8807],[7.7088,5.8626],[7.6873,5.8453],[7.6836,5.8324],[7.684,5.8223],[7.7072,5.8213],[7.725,5.8164],[7.7694,5.8137],[7.7804,5.8068],[7.7863,5.8049],[7.793,5.7916],[7.7968,5.7616],[7.8039,5.745],[7.8234,5.7402],[7.8305,5.7353],[7.8408,5.7241],[7.8538,5.7179],[7.8631,5.7083],[7.8699,5.6999],[7.8706,5.6936],[7.8863,5.6878],[7.8901,5.6848],[7.8901,5.692],[7.8866,5.7001],[7.9048,5.7151],[7.9082,5.7197],[7.9116,5.7255],[7.9162,5.7481],[7.9095,5.7504],[7.9112,5.7546],[7.9002,5.7602],[7.89,5.7696],[7.8843,5.7972],[7.8886,5.8076],[7.885,5.814],[7.8852,5.8384],[7.8905,5.8501],[7.8857,5.8633],[7.8873,5.869],[7.8804,5.871],[7.8694,5.8769],[7.8633,5.8857],[7.8532,5.9025],[7.8519,5.9077],[7.8558,5.9271],[7.8382,5.9448],[7.8377,5.9489],[7.8531,5.9676]]]}},{"type":"Feature","properties":{"name":"Ebonyi","state":"Ebonyi","scode":"EB","centroid":[6.533,8.1187]},"geometry":{"type":"Polygon","coordinates":[[[8.1368,6.3571],[8.1371,6.363],[8.1416,6.3626],[8.1395,6.3608],[8.1399,6.3598],[8.1428,6.3609],[8.1409,6.3668],[8.1363,6.3684],[8.1351,6.3709],[8.1363,6.3748],[8.139,6.3722],[8.1407,6.373],[8.138,6.3777],[8.1395,6.3788],[8.1386,6.384],[8.143,6.3846],[8.1459,6.379],[8.1478,6.3779],[8.1509,6.3781],[8.1522,6.3799],[8.1509,6.3856],[8.148,6.3881],[8.1499,6.39],[8.1499,6.3932],[8.1518,6.3934],[8.1524,6.3963],[8.1538,6.3968],[8.1517,6.3985],[8.1547,6.3993],[8.1522,6.4003],[8.1461,6.3976],[8.1461,6.401],[8.1477,6.4028],[8.1467,6.4048],[8.1513,6.405],[8.1493,6.411],[8.1501,6.4134],[8.1538,6.4136],[8.1546,6.4152],[8.1521,6.4149],[8.1496,6.4174],[8.1508,6.4202],[8.1456,6.4221],[8.1473,6.4237],[8.1429,6.4223],[8.1427,6.424],[8.1394,6.4238],[8.1408,6.4281],[8.1394,6.4287],[8.1397,6.4306],[8.138,6.4327],[8.1363,6.4313],[8.1359,6.4356],[8.1322,6.435],[8.1305,6.438],[8.1309,6.4414],[8.1343,6.4451],[8.1491,6.4442],[8.1482,6.4467],[8.1493,6.4503],[8.1473,6.451],[8.1482,6.458],[8.1439,6.4607],[8.1447,6.4639],[8.143,6.4656],[8.1445,6.4672],[8.1435,6.4688],[8.1444,6.4715],[8.1418,6.4768],[8.1402,6.4775],[8.1532,6.4826],[8.1614,6.496],[8.1678,6.5005],[8.1672,6.5025],[8.1698,6.5085],[8.1665,6.5162],[8.1627,6.5188],[8.1634,6.5236],[8.1585,6.524],[8.1595,6.5339],[8.1578,6.5398],[8.1552,6.5425],[8.1565,6.5453],[8.1556,6.5494],[8.1449,6.5506],[8.1482,6.5589],[8.1541,6.5586],[8.157,6.5679],[8.1546,6.5685],[8.1537,6.5772],[8.1525,6.5774],[8.1541,6.5863],[8.1593,6.5868],[8.159,6.5924],[8.1633,6.5935],[8.1639,6.5957],[8.1514,6.6013],[8.1514,6.6168],[8.1455,6.6213],[8.1508,6.6386],[8.1533,6.642],[8.1618,6.6469],[8.1808,6.6546],[8.1919,6.6636],[8.1923,6.7279],[8.173,6.7733],[8.1603,6.7611],[8.1526,6.7547],[8.1471,6.7429],[8.1444,6.7252],[8.1362,6.7161],[8.1276,6.7116],[8.1122,6.7093],[8.104,6.712],[8.0985,6.707],[8.089,6.7116],[8.0754,6.7138],[8.0625,6.7202],[8.0691,6.6993],[8.1097,6.6101],[8.0968,6.6016],[8.0952,6.5952],[8.0982,6.5635],[8.1001,6.5574],[8.0969,6.5329],[8.0946,6.5293],[8.0934,6.5158],[8.0942,6.5101],[8.0966,6.5103],[8.0979,6.5067],[8.0952,6.5069],[8.0961,6.5036],[8.0927,6.5016],[8.0932,6.4992],[8.0948,6.4989],[8.0983,6.4939],[8.1016,6.4937],[8.0995,6.4906],[8.096,6.4904],[8.0904,6.4861],[8.0861,6.4865],[8.0862,6.4814],[8.0751,6.4717],[8.0588,6.4514],[8.0537,6.4255],[8.0443,6.4097],[8.0424,6.4008],[8.039,6.394],[8.0373,6.3809],[8.0351,6.3781],[8.0345,6.3732],[8.0856,6.324],[8.1023,6.3096],[8.1139,6.3206],[8.1142,6.3219],[8.1108,6.3248],[8.1174,6.3255],[8.1178,6.3293],[8.1159,6.3335],[8.1182,6.3333],[8.1209,6.3373],[8.1242,6.3371],[8.127,6.3435],[8.1297,6.3451],[8.1368,6.3571]]]}},{"type":"Feature","properties":{"name":"Ezza North","state":"Ebonyi","scode":"EB","centroid":[6.2648,7.9723]},"geometry":{"type":"Polygon","coordinates":[[[8.0856,6.324],[8.0345,6.3732],[8.0337,6.37],[8.0259,6.362],[8.0107,6.3501],[8.0056,6.3479],[7.984,6.3457],[7.9749,6.3483],[7.9614,6.3479],[7.9568,6.3496],[7.9293,6.3455],[7.9199,6.348],[7.9105,6.3487],[7.9094,6.3377],[7.8827,6.3174],[7.8882,6.2868],[7.8938,6.2871],[7.903,6.2825],[7.8934,6.2674],[7.8798,6.2582],[7.8793,6.2512],[7.8677,6.2529],[7.8686,6.251],[7.8591,6.2472],[7.8518,6.2421],[7.8512,6.2315],[7.8548,6.2323],[7.8603,6.2287],[7.8629,6.2306],[7.8632,6.2328],[7.8659,6.2312],[7.8677,6.2278],[7.8696,6.2301],[7.8682,6.2325],[7.8696,6.2333],[7.8725,6.2292],[7.8774,6.227],[7.8778,6.2251],[7.8729,6.2162],[7.8773,6.2147],[7.8735,6.2104],[7.8744,6.2068],[7.8784,6.2034],[7.8767,6.1993],[7.8793,6.1975],[7.8844,6.2028],[7.8864,6.2018],[7.8859,6.1997],[7.8808,6.1957],[7.8812,6.1896],[7.8781,6.1822],[7.8785,6.1804],[7.8815,6.1809],[7.8851,6.1845],[7.8874,6.1841],[7.8892,6.1912],[7.8882,6.1936],[7.8949,6.1897],[7.8965,6.1905],[7.8974,6.1937],[7.8987,6.1938],[7.9,6.1924],[7.8972,6.1852],[7.9025,6.1851],[7.9061,6.1834],[7.9224,6.1536],[7.9463,6.1581],[7.9592,6.1525],[7.961,6.1556],[7.9678,6.159],[7.9672,6.1613],[7.983,6.1688],[7.9841,6.1761],[7.9798,6.1773],[7.9781,6.179],[7.9783,6.1812],[7.9807,6.1817],[7.9816,6.186],[7.9915,6.1919],[7.996,6.1974],[8.0009,6.1984],[8.0049,6.194],[8.0171,6.1938],[8.0276,6.1966],[8.0285,6.2029],[8.0333,6.2035],[8.0374,6.219],[8.0397,6.2186],[8.0469,6.2268],[8.0579,6.2309],[8.0638,6.2352],[8.0626,6.2438],[8.0673,6.2557],[8.0782,6.2615],[8.0829,6.2659],[8.0803,6.2717],[8.0762,6.2736],[8.0752,6.2758],[8.0759,6.2803],[8.0744,6.2941],[8.071,6.3047],[8.0729,6.3093],[8.0724,6.3117],[8.0741,6.3123],[8.0728,6.3134],[8.0754,6.3209],[8.0776,6.3232],[8.0801,6.3219],[8.0856,6.324]]]}},{"type":"Feature","properties":{"name":"Ezza South","state":"Ebonyi","scode":"EB","centroid":[6.1254,8.006]},"geometry":{"type":"Polygon","coordinates":[[[8.0333,6.2035],[8.0285,6.2029],[8.0276,6.1966],[8.0171,6.1938],[8.0049,6.194],[8.0009,6.1984],[7.996,6.1974],[7.9915,6.1919],[7.9816,6.186],[7.9807,6.1817],[7.9783,6.1812],[7.9781,6.179],[7.9798,6.1773],[7.9841,6.1761],[7.983,6.1688],[7.9672,6.1613],[7.9678,6.159],[7.961,6.1556],[7.9592,6.1525],[7.9463,6.1581],[7.9224,6.1536],[7.9061,6.1834],[7.9025,6.1851],[7.8972,6.1852],[7.9,6.1924],[7.8987,6.1938],[7.8974,6.1937],[7.8965,6.1905],[7.8949,6.1897],[7.8882,6.1936],[7.8892,6.1912],[7.8874,6.1841],[7.8851,6.1845],[7.8815,6.1809],[7.8785,6.1804],[7.8839,6.1679],[7.8858,6.1688],[7.8863,6.1679],[7.8864,6.1602],[7.8882,6.1539],[7.8977,6.1562],[7.8981,6.1536],[7.8944,6.1507],[7.895,6.1471],[7.8931,6.139],[7.893,6.1343],[7.8949,6.1343],[7.8959,6.1275],[7.8921,6.1269],[7.8927,6.1233],[7.8897,6.1197],[7.8847,6.1173],[7.893,6.1102],[7.9014,6.1098],[7.9029,6.1004],[7.8949,6.099],[7.8961,6.0902],[7.917,6.0907],[7.9366,6.0865],[7.9352,6.0819],[7.9478,6.0795],[7.9543,6.0691],[7.9528,6.064],[7.955,6.0596],[7.9518,6.0568],[7.9552,6.0464],[7.9586,6.0482],[7.9707,6.0482],[7.9784,6.0523],[7.9958,6.0587],[7.9993,6.0585],[8.012,6.0642],[8.0102,6.0582],[8.0065,6.0225],[8.0086,6.0228],[8.0186,6.0383],[8.045,6.0476],[8.0507,6.0532],[8.0629,6.0612],[8.0632,6.0707],[8.0759,6.0818],[8.0797,6.0953],[8.0941,6.0962],[8.0794,6.1149],[8.0847,6.1184],[8.0893,6.1243],[8.0994,6.1282],[8.1038,6.1349],[8.1102,6.1362],[8.1128,6.1386],[8.117,6.1475],[8.1145,6.1534],[8.1134,6.1617],[8.1179,6.163],[8.1139,6.1683],[8.1191,6.1731],[8.1265,6.1834],[8.1211,6.1936],[8.119,6.1949],[8.1154,6.1929],[8.1089,6.1952],[8.1003,6.2032],[8.0957,6.205],[8.0845,6.2048],[8.0827,6.1991],[8.0797,6.1955],[8.0751,6.1966],[8.071,6.1767],[8.0546,6.1763],[8.0456,6.1737],[8.0398,6.1693],[8.0344,6.1825],[8.0327,6.1917],[8.0333,6.2035]]]}},{"type":"Feature","properties":{"name":"Ikwo","state":"Ebonyi","scode":"EB","centroid":[6.0925,8.1937]},"geometry":{"type":"Polygon","coordinates":[[[8.1265,6.1834],[8.1191,6.1731],[8.1139,6.1683],[8.1179,6.163],[8.1134,6.1617],[8.1145,6.1534],[8.117,6.1475],[8.1128,6.1386],[8.1102,6.1362],[8.1038,6.1349],[8.0994,6.1282],[8.0893,6.1243],[8.0847,6.1184],[8.0794,6.1149],[8.0941,6.0962],[8.0797,6.0953],[8.0759,6.0818],[8.0632,6.0707],[8.0629,6.0612],[8.0507,6.0532],[8.045,6.0476],[8.0186,6.0383],[8.0086,6.0228],[8.0065,6.0225],[8.007,6.0096],[8.0048,6.0044],[8.0076,6.0028],[8.0136,5.9937],[8.0239,5.9975],[8.041,5.9985],[8.0492,5.9945],[8.052,5.9903],[8.0528,5.9861],[8.049,5.9739],[8.0474,5.9557],[8.0504,5.9509],[8.0647,5.9438],[8.0735,5.946],[8.1009,5.9609],[8.1058,5.9591],[8.1091,5.9453],[8.1138,5.9381],[8.1532,5.9673],[8.1677,5.9695],[8.1733,5.974],[8.1937,5.992],[8.2043,6.0043],[8.2148,6.0122],[8.2228,6.0144],[8.2303,6.0127],[8.2448,6.018],[8.2527,6.0122],[8.254,6.0052],[8.2584,5.9981],[8.2637,5.9968],[8.2743,5.999],[8.2822,6.0047],[8.2866,6.0166],[8.2888,6.0457],[8.2915,6.0554],[8.2982,6.0675],[8.2985,6.0909],[8.302,6.1024],[8.302,6.1081],[8.3149,6.1163],[8.3208,6.129],[8.3313,6.1353],[8.3394,6.153],[8.359,6.1712],[8.3635,6.178],[8.3712,6.1966],[8.4007,6.2166],[8.3883,6.2249],[8.3719,6.2293],[8.3539,6.2458],[8.3402,6.2617],[8.3246,6.2563],[8.3132,6.2312],[8.3172,6.2092],[8.3069,6.2159],[8.3016,6.2176],[8.2853,6.2102],[8.2799,6.2046],[8.2709,6.1992],[8.2615,6.1911],[8.2439,6.1884],[8.2356,6.1897],[8.224,6.1862],[8.2199,6.1824],[8.1979,6.2064],[8.1883,6.2148],[8.1824,6.2109],[8.1714,6.2092],[8.1601,6.2011],[8.1471,6.1945],[8.147,6.1921],[8.1397,6.1923],[8.1284,6.1813],[8.1265,6.1834]]]}},{"type":"Feature","properties":{"name":"Ishielu","state":"Ebonyi","scode":"EB","centroid":[6.4113,7.8022]},"geometry":{"type":"MultiPolygon","coordinates":[[[[7.8651,6.5572],[7.8563,6.5571],[7.8538,6.5544],[7.8506,6.5548],[7.8484,6.55],[7.8398,6.547],[7.8394,6.5406],[7.8364,6.5377],[7.8361,6.5344],[7.8385,6.5331],[7.8396,6.5297],[7.8487,6.5323],[7.8498,6.5293],[7.854,6.53],[7.8545,6.5279],[7.853,6.5259],[7.858,6.5229],[7.8558,6.5136],[7.8533,6.5136],[7.8529,6.5125],[7.8547,6.5053],[7.8519,6.4995],[7.8552,6.4988],[7.8531,6.4915],[7.8544,6.4892],[7.8622,6.4891],[7.8654,6.4947],[7.8694,6.4958],[7.8694,6.4968],[7.8717,6.4947],[7.874,6.4959],[7.8761,6.4997],[7.8805,6.4987],[7.8826,6.501],[7.8848,6.5007],[7.8853,6.5027],[7.8904,6.5033],[7.8977,6.5011],[7.8982,6.5021],[7.9058,6.4961],[7.9028,6.4925],[7.9162,6.4875],[7.9286,6.4792],[7.9295,6.4809],[7.9333,6.4803],[7.9415,6.4821],[7.9425,6.4806],[7.9456,6.4812],[7.9412,6.4859],[7.9374,6.495],[7.9255,6.5121],[7.9219,6.5129],[7.9192,6.5115],[7.9119,6.5189],[7.9102,6.5171],[7.9045,6.5229],[7.9023,6.5217],[7.8993,6.5264],[7.8883,6.5286],[7.8841,6.5278],[7.8834,6.53],[7.8794,6.5324],[7.8763,6.5367],[7.8739,6.5374],[7.8718,6.5426],[7.8689,6.5441],[7.8713,6.5491],[7.8687,6.5514],[7.8706,6.5525],[7.8677,6.5569],[7.8651,6.5572]]],[[[7.733,6.2266],[7.741,6.2316],[7.7556,6.2344],[7.7757,6.2359],[7.7964,6.2324],[7.7962,6.2256],[7.7925,6.2255],[7.7931,6.219],[7.7883,6.217],[7.7896,6.2064],[7.7917,6.1992],[7.7979,6.2014],[7.8016,6.1995],[7.8103,6.2008],[7.8116,6.21],[7.8106,6.212],[7.8149,6.2159],[7.8178,6.2229],[7.8324,6.2336],[7.8353,6.2315],[7.8417,6.2341],[7.8461,6.2333],[7.849,6.2308],[7.8512,6.2315],[7.8518,6.2421],[7.8591,6.2472],[7.8686,6.251],[7.8677,6.2529],[7.8793,6.2512],[7.8798,6.2582],[7.8934,6.2674],[7.903,6.2825],[7.8938,6.2871],[7.8882,6.2868],[7.8827,6.3174],[7.9094,6.3377],[7.9105,6.3487],[7.9199,6.348],[7.9248,6.38],[7.9237,6.3975],[7.9268,6.4087],[7.9255,6.4276],[7.9198,6.4394],[7.9162,6.4392],[7.9095,6.4486],[7.906,6.4467],[7.8998,6.4532],[7.8951,6.4486],[7.8927,6.4488],[7.8887,6.4462],[7.8857,6.452],[7.8688,6.4536],[7.8682,6.4441],[7.8583,6.4435],[7.8567,6.4402],[7.8549,6.44],[7.8471,6.444],[7.8056,6.4729],[7.8035,6.4695],[7.7985,6.473],[7.8031,6.485],[7.8071,6.4842],[7.8068,6.5032],[7.8084,6.5113],[7.8042,6.5137],[7.8055,6.5192],[7.8077,6.5204],[7.8097,6.5233],[7.8093,6.5258],[7.8136,6.5298],[7.8133,6.5345],[7.8167,6.5365],[7.8159,6.5383],[7.8182,6.542],[7.8147,6.5492],[7.8114,6.5508],[7.8072,6.5521],[7.8035,6.5455],[7.7943,6.552],[7.8101,6.5633],[7.8307,6.5863],[7.8462,6.5983],[7.844,6.6085],[7.8336,6.6194],[7.8318,6.6385],[7.8218,6.6389],[7.8177,6.6375],[7.8023,6.6321],[7.776,6.6337],[7.738,6.6447],[7.72,6.6469],[7.6912,6.6384],[7.6882,6.6293],[7.7039,6.6071],[7.7046,6.578],[7.7261,6.5601],[7.7418,6.494],[7.7491,6.4473],[7.7514,6.3855],[7.7387,6.3538],[7.721,6.331],[7.708,6.2984],[7.7089,6.2779],[7.733,6.2266]]]]}},{"type":"Feature","properties":{"name":"Ivo","state":"Ebonyi","scode":"EB","centroid":[5.8976,7.6061]},"geometry":{"type":"Polygon","coordinates":[[[7.5302,6.006],[7.5208,6.0003],[7.5236,5.9877],[7.5305,5.9721],[7.5291,5.952],[7.5132,5.9244],[7.5061,5.9119],[7.5035,5.9002],[7.5052,5.8828],[7.5273,5.869],[7.5259,5.8562],[7.5266,5.8444],[7.5346,5.8347],[7.5519,5.8435],[7.5667,5.8439],[7.571,5.8411],[7.6176,5.8273],[7.684,5.8223],[7.6836,5.8324],[7.6873,5.8453],[7.7088,5.8626],[7.7139,5.8807],[7.7274,5.9077],[7.7159,5.9271],[7.7074,5.9334],[7.7048,5.9292],[7.6919,5.9246],[7.679,5.9287],[7.6644,5.9301],[7.5732,5.9691],[7.5591,5.9855],[7.5302,6.006]]]}},{"type":"Feature","properties":{"name":"Izzi","state":"Ebonyi","scode":"EB","centroid":[6.4938,8.2692]},"geometry":{"type":"Polygon","coordinates":[[[8.3917,6.3065],[8.3992,6.3538],[8.4037,6.366],[8.4232,6.3712],[8.4309,6.381],[8.445,6.3855],[8.4442,6.3893],[8.4416,6.4031],[8.4427,6.4047],[8.4536,6.406],[8.455,6.4146],[8.4568,6.4178],[8.4568,6.4282],[8.4441,6.4309],[8.4423,6.4328],[8.4323,6.4332],[8.4319,6.4396],[8.4387,6.4468],[8.4312,6.4568],[8.4237,6.4664],[8.4228,6.4777],[8.4087,6.4777],[8.406,6.485],[8.4087,6.4886],[8.4123,6.5004],[8.4205,6.5054],[8.4191,6.5145],[8.4155,6.5186],[8.4101,6.5172],[8.396,6.5195],[8.391,6.5231],[8.391,6.5263],[8.3937,6.5313],[8.3992,6.5322],[8.4001,6.5363],[8.3933,6.5445],[8.3914,6.5504],[8.3796,6.5486],[8.3751,6.5458],[8.3715,6.5481],[8.3742,6.5635],[8.3637,6.5622],[8.3587,6.564],[8.3519,6.5744],[8.3401,6.5753],[8.3301,6.5917],[8.3248,6.5895],[8.322,6.603],[8.3142,6.6071],[8.3142,6.6121],[8.3211,6.6139],[8.3215,6.6185],[8.3242,6.6212],[8.3251,6.6258],[8.3224,6.6344],[8.3156,6.6344],[8.3092,6.6394],[8.3047,6.6507],[8.3065,6.6607],[8.302,6.6698],[8.2945,6.6787],[8.2788,6.698],[8.2802,6.7048],[8.2856,6.7102],[8.2802,6.7152],[8.2738,6.7129],[8.2738,6.7166],[8.2688,6.7279],[8.2516,6.7356],[8.2625,6.7379],[8.2661,6.7416],[8.2557,6.7661],[8.2498,6.7683],[8.2498,6.7756],[8.2407,6.7924],[8.2343,6.7992],[8.2293,6.8001],[8.2261,6.7897],[8.2202,6.7788],[8.213,6.7761],[8.1916,6.7783],[8.173,6.7733],[8.1923,6.7279],[8.1919,6.6636],[8.1808,6.6546],[8.1618,6.6469],[8.1533,6.642],[8.1508,6.6386],[8.1455,6.6213],[8.1514,6.6168],[8.1514,6.6013],[8.1639,6.5957],[8.1633,6.5935],[8.159,6.5924],[8.1593,6.5868],[8.1541,6.5863],[8.1525,6.5774],[8.1537,6.5772],[8.1546,6.5685],[8.157,6.5679],[8.1541,6.5586],[8.1482,6.5589],[8.1449,6.5506],[8.1556,6.5494],[8.1565,6.5453],[8.1552,6.5425],[8.1578,6.5398],[8.1595,6.5339],[8.1585,6.524],[8.1634,6.5236],[8.1627,6.5188],[8.1665,6.5162],[8.1698,6.5085],[8.1672,6.5025],[8.1678,6.5005],[8.1614,6.496],[8.1532,6.4826],[8.1402,6.4775],[8.1418,6.4768],[8.1444,6.4715],[8.1435,6.4688],[8.1445,6.4672],[8.143,6.4656],[8.1447,6.4639],[8.1439,6.4607],[8.1482,6.458],[8.1473,6.451],[8.1493,6.4503],[8.1482,6.4467],[8.1491,6.4442],[8.1343,6.4451],[8.1309,6.4414],[8.1305,6.438],[8.1322,6.435],[8.1359,6.4356],[8.1363,6.4313],[8.138,6.4327],[8.1397,6.4306],[8.1394,6.4287],[8.1408,6.4281],[8.1394,6.4238],[8.1427,6.424],[8.1429,6.4223],[8.1473,6.4237],[8.1456,6.4221],[8.1508,6.4202],[8.1496,6.4174],[8.1521,6.4149],[8.1546,6.4152],[8.1538,6.4136],[8.1501,6.4134],[8.1493,6.411],[8.1513,6.405],[8.1467,6.4048],[8.1477,6.4028],[8.1461,6.401],[8.1461,6.3976],[8.1522,6.4003],[8.1547,6.3993],[8.1517,6.3985],[8.1538,6.3968],[8.1524,6.3963],[8.1518,6.3934],[8.1499,6.3932],[8.1499,6.39],[8.148,6.3881],[8.1509,6.3856],[8.1522,6.3799],[8.1509,6.3781],[8.1478,6.3779],[8.1459,6.379],[8.143,6.3846],[8.1386,6.384],[8.1395,6.3788],[8.138,6.3777],[8.1407,6.373],[8.139,6.3722],[8.1363,6.3748],[8.1351,6.3709],[8.1363,6.3684],[8.1409,6.3668],[8.1428,6.3609],[8.1399,6.3598],[8.1395,6.3608],[8.1416,6.3626],[8.1371,6.363],[8.1368,6.3571],[8.141,6.3561],[8.1441,6.3512],[8.1446,6.3496],[8.1397,6.3439],[8.1443,6.3332],[8.1491,6.3305],[8.171,6.3267],[8.1699,6.3207],[8.1613,6.3155],[8.158,6.2985],[8.1588,6.2949],[8.1555,6.2948],[8.1538,6.2891],[8.1586,6.2852],[8.158,6.2822],[8.1645,6.2828],[8.1731,6.2792],[8.1935,6.2782],[8.2049,6.2974],[8.2258,6.3069],[8.2613,6.3135],[8.2607,6.3091],[8.2769,6.31],[8.2895,6.3075],[8.2971,6.3089],[8.302,6.3143],[8.3208,6.3177],[8.3541,6.3091],[8.3714,6.3134],[8.3811,6.3137],[8.3917,6.3065]]]}},{"type":"Feature","properties":{"name":"Ohaozara","state":"Ebonyi","scode":"EB","centroid":[6.0139,7.7711]},"geometry":{"type":"Polygon","coordinates":[[[7.6694,6.0636],[7.6637,6.0472],[7.6672,6.0304],[7.6758,6.01],[7.6971,5.9887],[7.7112,5.971],[7.7148,5.946],[7.7074,5.9334],[7.7159,5.9271],[7.7274,5.9077],[7.7374,5.9094],[7.7484,5.9152],[7.7556,5.9227],[7.76,5.9281],[7.7574,5.9406],[7.7605,5.9404],[7.7648,5.943],[7.7688,5.955],[7.7716,5.9554],[7.7771,5.9616],[7.7779,5.9692],[7.7843,5.9667],[7.7845,5.9621],[7.7884,5.9653],[7.7917,5.9648],[7.7977,5.9622],[7.8031,5.9561],[7.8041,5.9619],[7.8005,5.9673],[7.8022,5.9711],[7.8032,5.9714],[7.8072,5.9657],[7.8128,5.9678],[7.8117,5.9708],[7.8057,5.9743],[7.8069,5.9805],[7.8147,5.9735],[7.8183,5.9746],[7.8147,5.9795],[7.8155,5.9804],[7.82,5.9804],[7.8225,5.9781],[7.8263,5.9772],[7.8271,5.98],[7.8295,5.9802],[7.831,5.9764],[7.8383,5.9749],[7.8444,5.9713],[7.8484,5.9724],[7.8531,5.9676],[7.8578,5.9611],[7.8635,5.9638],[7.8687,5.9717],[7.8725,5.9658],[7.8747,5.9674],[7.8739,5.9735],[7.8771,5.977],[7.8846,5.9762],[7.8866,5.971],[7.8898,5.9728],[7.8908,5.9795],[7.8951,5.9798],[7.8931,5.9765],[7.9014,5.9752],[7.9023,5.9698],[7.913,5.9693],[7.9141,5.9755],[7.9077,5.9828],[7.9013,5.9873],[7.8949,5.9986],[7.8801,6.0115],[7.8688,6.0179],[7.8735,6.0214],[7.87,6.0341],[7.8628,6.0466],[7.8632,6.0508],[7.8599,6.0618],[7.845,6.0691],[7.8357,6.078],[7.8274,6.0729],[7.8263,6.0677],[7.822,6.0632],[7.8204,6.0541],[7.8185,6.0531],[7.8189,6.0479],[7.8157,6.0469],[7.8147,6.0499],[7.8114,6.0488],[7.8095,6.0522],[7.8105,6.0561],[7.8141,6.0582],[7.8123,6.0609],[7.8127,6.0628],[7.8113,6.0635],[7.7871,6.0673],[7.78,6.0626],[7.7735,6.0639],[7.7735,6.0758],[7.7666,6.0849],[7.7509,6.0848],[7.7339,6.1039],[7.7262,6.1149],[7.7138,6.0839],[7.6981,6.074],[7.6862,6.0713],[7.6694,6.0636]]]}},{"type":"Feature","properties":{"name":"Ohaukwu","state":"Ebonyi","scode":"EB","centroid":[6.526,7.9785]},"geometry":{"type":"Polygon","coordinates":[[[7.9199,6.348],[7.9293,6.3455],[7.9568,6.3496],[7.9614,6.3479],[7.9749,6.3483],[7.984,6.3457],[8.0056,6.3479],[8.0107,6.3501],[8.0259,6.362],[8.0337,6.37],[8.0345,6.3732],[8.0351,6.3781],[8.0373,6.3809],[8.039,6.394],[8.0424,6.4008],[8.0443,6.4097],[8.0537,6.4255],[8.0588,6.4514],[8.0751,6.4717],[8.0862,6.4814],[8.0861,6.4865],[8.0904,6.4861],[8.096,6.4904],[8.0995,6.4906],[8.1016,6.4937],[8.0983,6.4939],[8.0948,6.4989],[8.0932,6.4992],[8.0927,6.5016],[8.0961,6.5036],[8.0952,6.5069],[8.0979,6.5067],[8.0966,6.5103],[8.0942,6.5101],[8.0934,6.5158],[8.0946,6.5293],[8.0969,6.5329],[8.1001,6.5574],[8.0982,6.5635],[8.0952,6.5952],[8.0968,6.6016],[8.1097,6.6101],[8.0691,6.6993],[8.0625,6.7202],[8.032,6.7325],[8.02,6.7333],[8.0093,6.725],[7.9844,6.7205],[7.9745,6.7113],[7.9746,6.6903],[7.9788,6.6671],[7.9783,6.6479],[7.9871,6.6335],[7.9884,6.618],[7.9871,6.6112],[7.9732,6.5968],[7.9592,6.5908],[7.9552,6.5834],[7.9542,6.5518],[7.9508,6.5431],[7.9448,6.54],[7.9329,6.5415],[7.9253,6.5438],[7.8996,6.556],[7.8781,6.5617],[7.8558,6.5808],[7.8462,6.5983],[7.8307,6.5863],[7.8101,6.5633],[7.7943,6.552],[7.8035,6.5455],[7.8072,6.5521],[7.8114,6.5508],[7.8147,6.5492],[7.8182,6.542],[7.8159,6.5383],[7.8167,6.5365],[7.8133,6.5345],[7.8136,6.5298],[7.8093,6.5258],[7.8097,6.5233],[7.8077,6.5204],[7.8055,6.5192],[7.8042,6.5137],[7.8084,6.5113],[7.8068,6.5032],[7.8071,6.4842],[7.8031,6.485],[7.7985,6.473],[7.8035,6.4695],[7.8056,6.4729],[7.8471,6.444],[7.8549,6.44],[7.8567,6.4402],[7.8583,6.4435],[7.8682,6.4441],[7.8688,6.4536],[7.8857,6.452],[7.8887,6.4462],[7.8927,6.4488],[7.8951,6.4486],[7.8998,6.4532],[7.906,6.4467],[7.9095,6.4486],[7.9162,6.4392],[7.9198,6.4394],[7.9255,6.4276],[7.9268,6.4087],[7.9237,6.3975],[7.9248,6.38],[7.9199,6.348]],[[7.8651,6.5572],[7.8677,6.5569],[7.8706,6.5525],[7.8687,6.5514],[7.8713,6.5491],[7.8689,6.5441],[7.8718,6.5426],[7.8739,6.5374],[7.8763,6.5367],[7.8794,6.5324],[7.8834,6.53],[7.8841,6.5278],[7.8883,6.5286],[7.8993,6.5264],[7.9023,6.5217],[7.9045,6.5229],[7.9102,6.5171],[7.9119,6.5189],[7.9192,6.5115],[7.9219,6.5129],[7.9255,6.5121],[7.9374,6.495],[7.9412,6.4859],[7.9456,6.4812],[7.9425,6.4806],[7.9415,6.4821],[7.9333,6.4803],[7.9295,6.4809],[7.9286,6.4792],[7.9162,6.4875],[7.9028,6.4925],[7.9058,6.4961],[7.8982,6.5021],[7.8977,6.5011],[7.8904,6.5033],[7.8853,6.5027],[7.8848,6.5007],[7.8826,6.501],[7.8805,6.4987],[7.8761,6.4997],[7.874,6.4959],[7.8717,6.4947],[7.8694,6.4968],[7.8694,6.4958],[7.8654,6.4947],[7.8622,6.4891],[7.8544,6.4892],[7.8531,6.4915],[7.8552,6.4988],[7.8519,6.4995],[7.8547,6.5053],[7.8529,6.5125],[7.8533,6.5136],[7.8558,6.5136],[7.858,6.5229],[7.853,6.5259],[7.8545,6.5279],[7.854,6.53],[7.8498,6.5293],[7.8487,6.5323],[7.8396,6.5297],[7.8385,6.5331],[7.8361,6.5344],[7.8364,6.5377],[7.8394,6.5406],[7.8398,6.547],[7.8484,6.55],[7.8506,6.5548],[7.8538,6.5544],[7.8563,6.5571],[7.8651,6.5572]]]}},{"type":"Feature","properties":{"name":"Onicha","state":"Ebonyi","scode":"EB","centroid":[6.1109,7.8499]},"geometry":{"type":"Polygon","coordinates":[[[7.7262,6.1149],[7.7339,6.1039],[7.7509,6.0848],[7.7666,6.0849],[7.7735,6.0758],[7.7735,6.0639],[7.78,6.0626],[7.7871,6.0673],[7.8113,6.0635],[7.8127,6.0628],[7.8123,6.0609],[7.8141,6.0582],[7.8105,6.0561],[7.8095,6.0522],[7.8114,6.0488],[7.8147,6.0499],[7.8157,6.0469],[7.8189,6.0479],[7.8185,6.0531],[7.8204,6.0541],[7.822,6.0632],[7.8263,6.0677],[7.8274,6.0729],[7.8357,6.078],[7.845,6.0691],[7.8599,6.0618],[7.8632,6.0508],[7.8628,6.0466],[7.87,6.0341],[7.8735,6.0214],[7.8688,6.0179],[7.8801,6.0115],[7.8949,5.9986],[7.9013,5.9873],[7.9077,5.9828],[7.9141,5.9755],[7.9182,5.9775],[7.9213,5.9817],[7.9272,5.9808],[7.9303,5.9731],[7.9422,5.9761],[7.9479,5.9793],[7.9505,5.9827],[7.9504,5.9868],[7.9564,5.9886],[7.957,5.9919],[7.9589,5.9927],[7.9631,5.9881],[7.9911,5.9979],[7.9926,5.9947],[7.993,5.984],[8.0136,5.9937],[8.0076,6.0028],[8.0048,6.0044],[8.007,6.0096],[8.0065,6.0225],[8.0102,6.0582],[8.012,6.0642],[7.9993,6.0585],[7.9958,6.0587],[7.9784,6.0523],[7.9707,6.0482],[7.9586,6.0482],[7.9552,6.0464],[7.9518,6.0568],[7.955,6.0596],[7.9528,6.064],[7.9543,6.0691],[7.9478,6.0795],[7.9352,6.0819],[7.9366,6.0865],[7.917,6.0907],[7.8961,6.0902],[7.8949,6.099],[7.9029,6.1004],[7.9014,6.1098],[7.893,6.1102],[7.8847,6.1173],[7.8897,6.1197],[7.8927,6.1233],[7.8921,6.1269],[7.8959,6.1275],[7.8949,6.1343],[7.893,6.1343],[7.8931,6.139],[7.895,6.1471],[7.8944,6.1507],[7.8981,6.1536],[7.8977,6.1562],[7.8882,6.1539],[7.8864,6.1602],[7.8863,6.1679],[7.8858,6.1688],[7.8839,6.1679],[7.8785,6.1804],[7.8781,6.1822],[7.8812,6.1896],[7.8808,6.1957],[7.8859,6.1997],[7.8864,6.2018],[7.8844,6.2028],[7.8793,6.1975],[7.8767,6.1993],[7.8784,6.2034],[7.8744,6.2068],[7.8735,6.2104],[7.8773,6.2147],[7.8729,6.2162],[7.8778,6.2251],[7.8774,6.227],[7.8725,6.2292],[7.8696,6.2333],[7.8682,6.2325],[7.8696,6.2301],[7.8677,6.2278],[7.8659,6.2312],[7.8632,6.2328],[7.8629,6.2306],[7.8603,6.2287],[7.8548,6.2323],[7.8512,6.2315],[7.849,6.2308],[7.8461,6.2333],[7.8417,6.2341],[7.8353,6.2315],[7.8324,6.2336],[7.8178,6.2229],[7.8149,6.2159],[7.8106,6.212],[7.8116,6.21],[7.8103,6.2008],[7.8016,6.1995],[7.7979,6.2014],[7.7917,6.1992],[7.7896,6.2064],[7.7883,6.217],[7.7931,6.219],[7.7925,6.2255],[7.7962,6.2256],[7.7964,6.2324],[7.7757,6.2359],[7.7556,6.2344],[7.741,6.2316],[7.733,6.2266],[7.7287,6.1999],[7.7262,6.1149]]]}}]}