{"type":"FeatureCollection","features":[{"type":"Feature","properties":{"name":"Akoko-Edo","state":"Edo","scode":"ED","centroid":[7.3631,6.1339]},"geometry":{"type":"Polygon","coordinates":[[[6.2567,7.2077],[6.2603,7.2161],[6.2635,7.2455],[6.2582,7.2768],[6.2661,7.2848],[6.2709,7.3187],[6.2699,7.3316],[6.2663,7.3454],[6.268,7.3584],[6.2708,7.3612],[6.2762,7.3622],[6.2853,7.3595],[6.2952,7.3605],[6.3107,7.3496],[6.3234,7.3367],[6.328,7.3349],[6.3407,7.3258],[6.3452,7.3277],[6.3642,7.3501],[6.3687,7.3529],[6.3768,7.3687],[6.3814,7.3733],[6.3877,7.378],[6.3986,7.3809],[6.4058,7.3865],[6.413,7.3884],[6.4322,7.4023],[6.4277,7.4105],[6.4282,7.4153],[6.4239,7.4175],[6.3798,7.3982],[6.3569,7.4149],[6.2955,7.4992],[6.2921,7.5004],[6.2812,7.501],[6.2678,7.4818],[6.2592,7.4789],[6.2379,7.4756],[6.2269,7.471],[6.2253,7.4684],[6.2196,7.4578],[6.2089,7.4496],[6.1869,7.4387],[6.1863,7.4329],[6.1828,7.4294],[6.1799,7.43],[6.176,7.4341],[6.1709,7.4441],[6.1597,7.4476],[6.1428,7.4496],[6.1279,7.4462],[6.1187,7.4463],[6.1124,7.4487],[6.1101,7.4572],[6.1083,7.4842],[6.1083,7.4907],[6.1101,7.4941],[6.1148,7.4988],[6.1286,7.5051],[6.1465,7.516],[6.1541,7.5223],[6.1583,7.5283],[6.1646,7.5383],[6.167,7.5452],[6.1642,7.5502],[6.1383,7.5505],[6.1336,7.5521],[6.1299,7.5645],[6.1188,7.5914],[6.0987,7.5882],[6.0485,7.5801],[6.0434,7.5775],[6.0289,7.5653],[6.0254,7.559],[6.023,7.5496],[6.0235,7.5473],[6.013,7.5334],[6.0041,7.5292],[5.9945,7.5271],[5.9871,7.5295],[5.9756,7.5302],[5.9674,7.5157],[5.9651,7.514],[5.9628,7.5128],[5.9542,7.5152],[5.9512,7.5012],[5.9488,7.496],[5.9481,7.4873],[5.9533,7.4838],[5.9633,7.4604],[5.9713,7.4603],[5.9845,7.4561],[5.9867,7.4503],[5.9872,7.4415],[5.9814,7.4386],[5.9756,7.4323],[5.9714,7.4195],[5.9685,7.4149],[5.9701,7.4084],[5.9747,7.4037],[5.9741,7.4008],[5.9757,7.3956],[5.9797,7.3914],[5.975,7.3822],[5.9749,7.3752],[5.9782,7.3681],[5.9868,7.3634],[5.9873,7.3611],[5.9867,7.3552],[5.9786,7.3477],[5.9577,7.3443],[5.9504,7.3445],[5.9193,7.3371],[5.9175,7.3337],[5.9186,7.3237],[5.9162,7.3185],[5.9246,7.2992],[5.9216,7.2928],[5.917,7.2888],[5.9094,7.2778],[5.9256,7.2637],[5.9319,7.2601],[5.941,7.2555],[5.9673,7.2475],[5.9873,7.2264],[5.9919,7.2255],[5.9973,7.2265],[6.0055,7.2321],[6.01,7.2312],[6.0127,7.2285],[6.0191,7.2322],[6.0245,7.2406],[6.0335,7.2407],[6.0408,7.2389],[6.0553,7.2446],[6.0662,7.2466],[6.0753,7.2411],[6.1008,7.2025],[6.1244,7.1908],[6.138,7.1881],[6.1489,7.1836],[6.1616,7.1689],[6.1644,7.1625],[6.1671,7.1477],[6.1803,7.1128],[6.1845,7.1128],[6.199,7.1185],[6.2116,7.1343],[6.2261,7.1557],[6.2378,7.1807],[6.2495,7.1984],[6.254,7.2021],[6.2567,7.2077]]]}},{"type":"Feature","properties":{"name":"Egor","state":"Edo","scode":"ED","centroid":[6.3568,5.582]},"geometry":{"type":"Polygon","coordinates":[[[5.6416,6.4142],[5.6369,6.412],[5.629,6.4138],[5.6245,6.4119],[5.6127,6.4108],[5.5801,6.4022],[5.5746,6.4003],[5.5683,6.3938],[5.5638,6.3873],[5.5591,6.3754],[5.5466,6.3609],[5.5477,6.3601],[5.5449,6.3557],[5.5259,6.3389],[5.525,6.3333],[5.5277,6.3223],[5.5296,6.2964],[5.5288,6.2772],[5.5424,6.2827],[5.5514,6.2893],[5.5604,6.3041],[5.5695,6.3153],[5.5867,6.3275],[5.5903,6.334],[5.5927,6.3466],[5.5964,6.3504],[5.6061,6.3556],[5.6283,6.3546],[5.6374,6.3566],[5.6447,6.3702],[5.6445,6.3875],[5.6399,6.4102],[5.6416,6.4142]]]}},{"type":"Feature","properties":{"name":"Esan Central","state":"Edo","scode":"ED","centroid":[6.7245,6.2509]},"geometry":{"type":"Polygon","coordinates":[[[6.2507,6.8363],[6.2462,6.827],[6.2307,6.8048],[6.2163,6.7981],[6.2091,6.7888],[6.2119,6.7768],[6.2198,6.7682],[6.2205,6.7641],[6.2056,6.7444],[6.1933,6.7335],[6.1858,6.7333],[6.1703,6.7136],[6.1686,6.7053],[6.1722,6.6905],[6.1823,6.6721],[6.1859,6.662],[6.1932,6.6501],[6.1941,6.6418],[6.1915,6.6325],[6.1643,6.6054],[6.1354,6.5885],[6.1363,6.583],[6.1428,6.5781],[6.1699,6.575],[6.1826,6.5788],[6.2079,6.5929],[6.2106,6.605],[6.2178,6.6189],[6.2241,6.6254],[6.2449,6.6358],[6.2643,6.6484],[6.2575,6.6682],[6.2521,6.6765],[6.2493,6.6848],[6.2484,6.6903],[6.2493,6.6996],[6.2456,6.7078],[6.2411,6.7078],[6.242,6.7189],[6.2373,6.7348],[6.239,6.7376],[6.2443,6.7423],[6.2519,6.7458],[6.2654,6.7487],[6.2854,6.7553],[6.2962,6.7573],[6.3144,6.7565],[6.3244,6.7575],[6.347,6.7559],[6.3661,6.7598],[6.3751,6.7636],[6.3778,6.7673],[6.3778,6.7765],[6.3805,6.7876],[6.3786,6.8061],[6.3793,6.8137],[6.3396,6.8196],[6.3223,6.824],[6.3133,6.8249],[6.3033,6.8285],[6.2852,6.8043],[6.2807,6.7996],[6.2735,6.7959],[6.2717,6.7921],[6.2662,6.7949],[6.2662,6.8004],[6.2607,6.817],[6.2507,6.8363]]]}},{"type":"Feature","properties":{"name":"Esan North-East","state":"Edo","scode":"ED","centroid":[6.7724,6.3941]},"geometry":{"type":"Polygon","coordinates":[[[6.5301,6.7934],[6.5301,6.7992],[6.5227,6.8333],[6.5223,6.8416],[6.5254,6.8537],[6.5282,6.856],[6.5217,6.8823],[6.5053,6.9052],[6.4834,6.9253],[6.4645,6.9039],[6.4292,6.8537],[6.4247,6.8435],[6.4067,6.8193],[6.3985,6.8118],[6.3793,6.8137],[6.3786,6.8061],[6.3805,6.7876],[6.3778,6.7765],[6.3778,6.7673],[6.3751,6.7636],[6.3661,6.7598],[6.347,6.7559],[6.3244,6.7575],[6.3144,6.7565],[6.2962,6.7573],[6.2854,6.7553],[6.2654,6.7487],[6.2519,6.7458],[6.2443,6.7423],[6.239,6.7376],[6.2373,6.7348],[6.242,6.7189],[6.2411,6.7078],[6.2456,6.7078],[6.2493,6.6996],[6.2484,6.6903],[6.2493,6.6848],[6.2521,6.6765],[6.2575,6.6682],[6.2643,6.6484],[6.2848,6.6639],[6.3101,6.6678],[6.3245,6.6653],[6.3386,6.6677],[6.3727,6.6727],[6.3773,6.6758],[6.3788,6.6801],[6.3735,6.7044],[6.3852,6.7101],[6.397,6.713],[6.4297,6.7142],[6.4351,6.7198],[6.4342,6.7309],[6.4287,6.7521],[6.4313,6.7761],[6.5174,6.7935],[6.5301,6.7934]]]}},{"type":"Feature","properties":{"name":"Esan South-East","state":"Edo","scode":"ED","centroid":[6.5876,6.4725]},"geometry":{"type":"Polygon","coordinates":[[[6.6236,6.7936],[6.6163,6.7908],[6.5936,6.7915],[6.5846,6.7901],[6.5301,6.7934],[6.5174,6.7935],[6.4313,6.7761],[6.4287,6.7521],[6.4342,6.7309],[6.4351,6.7198],[6.4297,6.7142],[6.397,6.713],[6.3852,6.7101],[6.3735,6.7044],[6.3788,6.6801],[6.3773,6.6758],[6.3727,6.6727],[6.3386,6.6677],[6.3392,6.6588],[6.3437,6.6533],[6.3483,6.6404],[6.3502,6.6266],[6.3385,6.6034],[6.3349,6.5904],[6.3249,6.5802],[6.3023,6.5753],[6.2959,6.5725],[6.2851,6.5595],[6.2788,6.5446],[6.2616,6.5269],[6.2707,6.515],[6.2735,6.5049],[6.278,6.4984],[6.2844,6.4902],[6.2971,6.4792],[6.2945,6.4626],[6.281,6.432],[6.2855,6.4255],[6.3037,6.4183],[6.3064,6.4137],[6.2983,6.3933],[6.2866,6.3747],[6.2816,6.3603],[6.2903,6.3619],[6.3128,6.3673],[6.3224,6.373],[6.3363,6.3782],[6.3496,6.3788],[6.3576,6.3843],[6.3623,6.3844],[6.3702,6.3833],[6.3914,6.3888],[6.4127,6.396],[6.4313,6.4068],[6.4366,6.4161],[6.4454,6.4252],[6.4662,6.4409],[6.4805,6.4478],[6.5022,6.464],[6.5096,6.4758],[6.52,6.483],[6.5233,6.4875],[6.5402,6.492],[6.5755,6.4951],[6.5857,6.4979],[6.6088,6.4995],[6.6224,6.4955],[6.6327,6.4893],[6.6463,6.4887],[6.6598,6.4986],[6.6689,6.5012],[6.6617,6.5579],[6.6619,6.5729],[6.6592,6.6078],[6.6528,6.6343],[6.628,6.6746],[6.6179,6.7049],[6.6216,6.7223],[6.6262,6.7315],[6.6317,6.7691],[6.6235,6.7908],[6.6236,6.7936]]]}},{"type":"Feature","properties":{"name":"Esan West","state":"Edo","scode":"ED","centroid":[6.6664,6.1371]},"geometry":{"type":"Polygon","coordinates":[[[6.1674,6.8238],[6.1419,6.8251],[6.1138,6.8174],[6.1011,6.8109],[6.0568,6.7809],[6.0448,6.7768],[6.0229,6.7718],[6.012,6.7736],[6.0178,6.7685],[6.0251,6.7547],[6.0706,6.7053],[6.0724,6.7007],[6.0797,6.6933],[6.0848,6.6837],[6.095,6.6815],[6.0957,6.6752],[6.0885,6.672],[6.0889,6.6472],[6.0863,6.6333],[6.0872,6.6213],[6.0845,6.6047],[6.0791,6.5917],[6.0756,6.5769],[6.0728,6.5732],[6.0729,6.5492],[6.0793,6.5307],[6.0816,6.5133],[6.0903,6.5041],[6.0994,6.481],[6.104,6.4765],[6.106,6.4629],[6.1149,6.4665],[6.1155,6.4729],[6.1139,6.4812],[6.1293,6.4878],[6.1629,6.4974],[6.1692,6.4956],[6.191,6.4948],[6.1967,6.4964],[6.2231,6.4977],[6.2231,6.524],[6.2153,6.5339],[6.2125,6.5606],[6.2089,6.5726],[6.207,6.5855],[6.2079,6.5929],[6.1826,6.5788],[6.1699,6.575],[6.1428,6.5781],[6.1363,6.583],[6.1354,6.5885],[6.1643,6.6054],[6.1915,6.6325],[6.1941,6.6418],[6.1932,6.6501],[6.1859,6.662],[6.1823,6.6721],[6.1722,6.6905],[6.1686,6.7053],[6.1703,6.7136],[6.1858,6.7333],[6.1933,6.7335],[6.2056,6.7444],[6.2205,6.7641],[6.2198,6.7682],[6.2119,6.7768],[6.2091,6.7888],[6.2163,6.7981],[6.2307,6.8048],[6.2462,6.827],[6.2507,6.8363],[6.2416,6.8417],[6.2352,6.8408],[6.2289,6.837],[6.2144,6.8322],[6.1999,6.8303],[6.1954,6.8274],[6.1854,6.8246],[6.1674,6.8238]]]}},{"type":"Feature","properties":{"name":"Etsako Central","state":"Edo","scode":"ED","centroid":[6.9768,6.5102]},"geometry":{"type":"Polygon","coordinates":[[[6.6793,6.972],[6.6555,6.9815],[6.6419,6.9841],[6.6111,6.9866],[6.5911,6.9919],[6.5566,7.0036],[6.5321,7.0191],[6.5285,7.0237],[6.5275,7.0283],[6.5293,7.0412],[6.5365,7.0709],[6.5355,7.1013],[6.5318,7.1096],[6.5236,7.1206],[6.52,7.128],[6.5109,7.139],[6.5054,7.1509],[6.441,7.1651],[6.4246,7.1631],[6.4147,7.1667],[6.4156,7.1547],[6.422,7.1326],[6.4203,7.1012],[6.4176,7.0956],[6.4077,7.0844],[6.3932,7.0732],[6.3887,7.0713],[6.362,7.0484],[6.3689,7.0379],[6.3671,7.0293],[6.3631,7.0199],[6.3659,7.0133],[6.3515,6.9983],[6.3549,6.9718],[6.359,6.9616],[6.3682,6.9529],[6.3679,6.9401],[6.3728,6.9328],[6.3814,6.9296],[6.3962,6.9324],[6.412,6.9391],[6.4327,6.9328],[6.4459,6.9347],[6.4589,6.9342],[6.4777,6.9297],[6.4834,6.9253],[6.5053,6.9052],[6.5217,6.8823],[6.5282,6.856],[6.5254,6.8537],[6.5223,6.8416],[6.5227,6.8333],[6.5301,6.7992],[6.5301,6.7934],[6.5846,6.7901],[6.5936,6.7915],[6.6163,6.7908],[6.6236,6.7936],[6.6237,6.796],[6.6203,6.8001],[6.6108,6.8221],[6.6141,6.8308],[6.6216,6.8415],[6.6462,6.8854],[6.6527,6.9078],[6.673,6.9357],[6.6793,6.972]]]}},{"type":"Feature","properties":{"name":"Etsako East","state":"Edo","scode":"ED","centroid":[7.1985,6.5055]},"geometry":{"type":"Polygon","coordinates":[[[6.7158,7.1228],[6.7158,7.1357],[6.7008,7.1785],[6.6933,7.2165],[6.6902,7.2191],[6.6853,7.223],[6.6832,7.2299],[6.6747,7.2329],[6.6692,7.24],[6.6377,7.2942],[6.5695,7.2753],[6.5443,7.2749],[6.5299,7.2727],[6.5149,7.267],[6.5114,7.267],[6.508,7.27],[6.5081,7.2764],[6.4997,7.2922],[6.4999,7.3108],[6.4983,7.3184],[6.4996,7.3272],[6.4973,7.333],[6.4858,7.342],[6.473,7.3606],[6.4669,7.3653],[6.4505,7.3555],[6.4425,7.3568],[6.4357,7.3597],[6.4341,7.3767],[6.4325,7.3796],[6.4267,7.382],[6.4222,7.389],[6.4321,7.3977],[6.4322,7.4023],[6.413,7.3884],[6.4058,7.3865],[6.3986,7.3809],[6.3877,7.378],[6.3814,7.3733],[6.3768,7.3687],[6.3687,7.3529],[6.3642,7.3501],[6.3452,7.3277],[6.3407,7.3258],[6.328,7.3349],[6.3234,7.3367],[6.3107,7.3496],[6.2952,7.3605],[6.2853,7.3595],[6.2762,7.3622],[6.2708,7.3612],[6.268,7.3584],[6.2663,7.3454],[6.2699,7.3316],[6.2709,7.3187],[6.2661,7.2848],[6.2582,7.2768],[6.2635,7.2455],[6.2603,7.2161],[6.2567,7.2077],[6.264,7.2013],[6.2831,7.1941],[6.3293,7.189],[6.3366,7.1863],[6.3584,7.1837],[6.3656,7.1801],[6.3765,7.1802],[6.4147,7.1667],[6.4246,7.1631],[6.441,7.1651],[6.5054,7.1509],[6.5109,7.139],[6.52,7.128],[6.5236,7.1206],[6.5318,7.1096],[6.5355,7.1013],[6.5365,7.0709],[6.5293,7.0412],[6.5275,7.0283],[6.5285,7.0237],[6.5321,7.0191],[6.5566,7.0036],[6.5911,6.9919],[6.6111,6.9866],[6.6419,6.9841],[6.6555,6.9815],[6.6793,6.972],[6.6773,7.0341],[6.6901,7.0683],[6.7115,7.1047],[6.7158,7.1228]]]}},{"type":"Feature","properties":{"name":"Etsako West","state":"Edo","scode":"ED","centroid":[6.9937,6.3081]},"geometry":{"type":"Polygon","coordinates":[[[6.2507,6.8363],[6.2607,6.817],[6.2662,6.8004],[6.2662,6.7949],[6.2717,6.7921],[6.2735,6.7959],[6.2807,6.7996],[6.2852,6.8043],[6.3033,6.8285],[6.3133,6.8249],[6.3223,6.824],[6.3396,6.8196],[6.3793,6.8137],[6.3985,6.8118],[6.4067,6.8193],[6.4247,6.8435],[6.4292,6.8537],[6.4645,6.9039],[6.4834,6.9253],[6.4777,6.9297],[6.4589,6.9342],[6.4459,6.9347],[6.4327,6.9328],[6.412,6.9391],[6.3962,6.9324],[6.3814,6.9296],[6.3728,6.9328],[6.3679,6.9401],[6.3682,6.9529],[6.359,6.9616],[6.3549,6.9718],[6.3515,6.9983],[6.3659,7.0133],[6.3631,7.0199],[6.3671,7.0293],[6.3689,7.0379],[6.362,7.0484],[6.3887,7.0713],[6.3932,7.0732],[6.4077,7.0844],[6.4176,7.0956],[6.4203,7.1012],[6.422,7.1326],[6.4156,7.1547],[6.4147,7.1667],[6.3765,7.1802],[6.3656,7.1801],[6.3584,7.1837],[6.3366,7.1863],[6.3293,7.189],[6.2831,7.1941],[6.264,7.2013],[6.2567,7.2077],[6.254,7.2021],[6.2495,7.1984],[6.2378,7.1807],[6.2261,7.1557],[6.2116,7.1343],[6.199,7.1185],[6.1845,7.1128],[6.1803,7.1128],[6.1854,7.0999],[6.2027,7.0779],[6.2137,7.0576],[6.2192,7.0374],[6.2193,7.0124],[6.2157,6.9884],[6.215,6.9403],[6.2078,6.9227],[6.1879,6.8856],[6.1789,6.8652],[6.1772,6.8531],[6.1709,6.8383],[6.1674,6.8238],[6.1854,6.8246],[6.1954,6.8274],[6.1999,6.8303],[6.2144,6.8322],[6.2289,6.837],[6.2352,6.8408],[6.2416,6.8417],[6.2507,6.8363]]]}},{"type":"Feature","properties":{"name":"Iguegben","state":"Edo","scode":"ED","centroid":[6.5149,6.2423]},"geometry":{"type":"Polygon","coordinates":[[[6.3386,6.6677],[6.3245,6.6653],[6.3101,6.6678],[6.2848,6.6639],[6.2643,6.6484],[6.2449,6.6358],[6.2241,6.6254],[6.2178,6.6189],[6.2106,6.605],[6.2079,6.5929],[6.207,6.5855],[6.2089,6.5726],[6.2125,6.5606],[6.2153,6.5339],[6.2231,6.524],[6.2231,6.4977],[6.1967,6.4964],[6.191,6.4948],[6.1692,6.4956],[6.1629,6.4974],[6.1293,6.4878],[6.1139,6.4812],[6.1155,6.4729],[6.1149,6.4665],[6.106,6.4629],[6.1168,6.448],[6.1223,6.4341],[6.1259,6.4286],[6.1317,6.4045],[6.1329,6.4054],[6.1522,6.4169],[6.1686,6.4189],[6.1958,6.4182],[6.2157,6.4212],[6.2248,6.4176],[6.2457,6.3891],[6.2694,6.3616],[6.2761,6.3578],[6.2799,6.3585],[6.2816,6.3603],[6.2866,6.3747],[6.2983,6.3933],[6.3064,6.4137],[6.3037,6.4183],[6.2855,6.4255],[6.281,6.432],[6.2945,6.4626],[6.2971,6.4792],[6.2844,6.4902],[6.278,6.4984],[6.2735,6.5049],[6.2707,6.515],[6.2616,6.5269],[6.2788,6.5446],[6.2851,6.5595],[6.2959,6.5725],[6.3023,6.5753],[6.3249,6.5802],[6.3349,6.5904],[6.3385,6.6034],[6.3502,6.6266],[6.3483,6.6404],[6.3437,6.6533],[6.3392,6.6588],[6.3386,6.6677]]]}},{"type":"Feature","properties":{"name":"Ikpoba-Okha","state":"Edo","scode":"ED","centroid":[6.1593,5.6482]},"geometry":{"type":"Polygon","coordinates":[[[5.4737,6.0274],[5.4842,6.0278],[5.4897,6.03],[5.4914,6.0386],[5.4943,6.0418],[5.4973,6.0425],[5.5009,6.0366],[5.513,6.0353],[5.5189,6.0274],[5.5153,6.0219],[5.5192,6.0163],[5.5235,6.0127],[5.5326,6.0117],[5.5346,6.0097],[5.5323,6.0042],[5.5366,5.9899],[5.5463,5.9854],[5.5713,5.9909],[5.5834,6.0111],[5.5936,6.0181],[5.6051,6.0231],[5.616,6.0245],[5.6262,6.0288],[5.6575,6.0332],[5.6689,6.052],[5.6989,6.0336],[5.7642,5.9978],[5.7563,6.0242],[5.7472,6.0481],[5.7389,6.0629],[5.7344,6.0794],[5.7271,6.0951],[5.7307,6.0979],[5.7334,6.109],[5.7433,6.1276],[5.745,6.146],[5.754,6.1609],[5.7558,6.1702],[5.7539,6.1951],[5.7684,6.2165],[5.7847,6.2259],[5.8019,6.227],[5.8164,6.2308],[5.8191,6.2317],[5.8236,6.2364],[5.8254,6.2503],[5.8275,6.2528],[5.8171,6.2649],[5.8067,6.2827],[5.796,6.2894],[5.7801,6.3046],[5.7632,6.3151],[5.7621,6.3084],[5.7646,6.2823],[5.7563,6.2835],[5.6899,6.3232],[5.7052,6.341],[5.7027,6.3415],[5.7059,6.3702],[5.7018,6.3744],[5.6994,6.3746],[5.6976,6.3768],[5.6851,6.3693],[5.68,6.3711],[5.6718,6.3773],[5.6503,6.3777],[5.6447,6.3702],[5.6491,6.3595],[5.6482,6.3558],[5.6374,6.3446],[5.6338,6.3288],[5.6293,6.3186],[5.6284,6.3085],[5.6294,6.3011],[5.6276,6.29],[5.6322,6.2586],[5.6278,6.2373],[5.6214,6.2262],[5.6178,6.2224],[5.607,6.2196],[5.5906,6.2185],[5.5834,6.2166],[5.5761,6.2128],[5.5707,6.2072],[5.5569,6.1749],[5.5461,6.1591],[5.538,6.1406],[5.5317,6.1214],[5.5221,6.1061],[5.5203,6.0996],[5.5163,6.0926],[5.5126,6.0898],[5.509,6.0897],[5.499,6.0952],[5.4936,6.0961],[5.4809,6.0932],[5.4637,6.0985],[5.4605,6.0925],[5.4587,6.0842],[5.456,6.0805],[5.4428,6.0414],[5.4521,6.0343],[5.4534,6.0251],[5.4562,6.0224],[5.4655,6.0278],[5.4737,6.0274]]]}},{"type":"Feature","properties":{"name":"Oredo","state":"Edo","scode":"ED","centroid":[6.2251,5.5524]},"geometry":{"type":"Polygon","coordinates":[[[5.6447,6.3702],[5.6374,6.3566],[5.6283,6.3546],[5.6061,6.3556],[5.5964,6.3504],[5.5927,6.3466],[5.5903,6.334],[5.5867,6.3275],[5.5695,6.3153],[5.5604,6.3041],[5.5514,6.2893],[5.5424,6.2827],[5.5288,6.2772],[5.527,6.2705],[5.499,6.2278],[5.4909,6.2111],[5.4801,6.1796],[5.4685,6.124],[5.464,6.1083],[5.4637,6.0985],[5.4809,6.0932],[5.4936,6.0961],[5.499,6.0952],[5.509,6.0897],[5.5126,6.0898],[5.5163,6.0926],[5.5203,6.0996],[5.5221,6.1061],[5.5317,6.1214],[5.538,6.1406],[5.5461,6.1591],[5.5569,6.1749],[5.5707,6.2072],[5.5761,6.2128],[5.5834,6.2166],[5.5906,6.2185],[5.607,6.2196],[5.6178,6.2224],[5.6214,6.2262],[5.6278,6.2373],[5.6322,6.2586],[5.6276,6.29],[5.6294,6.3011],[5.6284,6.3085],[5.6293,6.3186],[5.6338,6.3288],[5.6374,6.3446],[5.6482,6.3558],[5.6491,6.3595],[5.6447,6.3702]]]}},{"type":"Feature","properties":{"name":"Orhionmwon","state":"Edo","scode":"ED","centroid":[6.0636,6.0057]},"geometry":{"type":"Polygon","coordinates":[[[6.2816,6.3603],[6.2799,6.3585],[6.2761,6.3578],[6.2694,6.3616],[6.2457,6.3891],[6.2248,6.4176],[6.2157,6.4212],[6.1958,6.4182],[6.1686,6.4189],[6.1522,6.4169],[6.1329,6.4054],[6.1324,6.399],[6.1387,6.3878],[6.1322,6.3766],[6.1201,6.3817],[6.1137,6.3819],[6.0922,6.3658],[6.0813,6.3526],[6.0737,6.3519],[6.0401,6.3362],[6.0243,6.3426],[6.0121,6.3339],[5.9993,6.3292],[5.9918,6.3232],[5.9837,6.3245],[5.9667,6.3083],[5.9622,6.2849],[5.9547,6.2778],[5.9457,6.2658],[5.9438,6.2589],[5.9402,6.2534],[5.9241,6.2419],[5.9132,6.2405],[5.9155,6.2044],[5.8997,6.2055],[5.8847,6.2222],[5.8236,6.2364],[5.8191,6.2317],[5.8164,6.2308],[5.8019,6.227],[5.7847,6.2259],[5.7684,6.2165],[5.7539,6.1951],[5.7558,6.1702],[5.754,6.1609],[5.745,6.146],[5.7433,6.1276],[5.7334,6.109],[5.7307,6.0979],[5.7271,6.0951],[5.7344,6.0794],[5.7389,6.0629],[5.7472,6.0481],[5.7563,6.0242],[5.7642,5.9978],[5.7951,5.9796],[5.812,5.9839],[5.823,5.9666],[5.8305,5.9598],[5.8353,5.9515],[5.8333,5.9411],[5.9213,5.8773],[5.9065,5.8439],[5.9064,5.826],[5.9024,5.8111],[5.8942,5.7986],[5.9026,5.7946],[5.9068,5.7815],[5.9061,5.7704],[5.9246,5.7483],[5.9409,5.7464],[5.9586,5.7507],[5.9817,5.7481],[6.0045,5.7606],[6.0157,5.7643],[6.0398,5.7646],[6.0619,5.7751],[6.0736,5.7865],[6.0759,5.7861],[6.0937,5.7941],[6.1019,5.8032],[6.1209,5.8397],[6.1519,5.8577],[6.1797,5.8822],[6.2014,5.897],[6.2075,5.906],[6.2176,5.9165],[6.2291,5.936],[6.2338,5.9485],[6.2438,5.9674],[6.246,5.9715],[6.2479,5.984],[6.2566,6.0167],[6.241,6.0263],[6.2328,6.0338],[6.2433,6.053],[6.2449,6.0537],[6.2409,6.0558],[6.2205,6.0531],[6.1955,6.0545],[6.1693,6.0825],[6.1638,6.0943],[6.1481,6.1143],[6.1344,6.1357],[6.1157,6.2],[6.1122,6.2409],[6.0849,6.2635],[6.0766,6.2787],[6.0861,6.2892],[6.086,6.3038],[6.088,6.3183],[6.113,6.3491],[6.1266,6.3561],[6.1409,6.3486],[6.1675,6.3315],[6.1805,6.3212],[6.1887,6.3095],[6.1935,6.2984],[6.1976,6.2827],[6.2126,6.2792],[6.2466,6.3127],[6.2539,6.319],[6.2614,6.3323],[6.2817,6.3574],[6.2903,6.3619],[6.2816,6.3603]]]}},{"type":"Feature","properties":{"name":"Ovia North-East","state":"Edo","scode":"ED","centroid":[6.4856,5.534]},"geometry":{"type":"Polygon","coordinates":[[[5.4428,6.0414],[5.456,6.0805],[5.4587,6.0842],[5.4605,6.0925],[5.4637,6.0985],[5.464,6.1083],[5.4685,6.124],[5.4801,6.1796],[5.4909,6.2111],[5.499,6.2278],[5.527,6.2705],[5.5288,6.2772],[5.5296,6.2964],[5.5277,6.3223],[5.525,6.3333],[5.5259,6.3389],[5.5449,6.3557],[5.5477,6.3601],[5.5466,6.3609],[5.5591,6.3754],[5.5638,6.3873],[5.5683,6.3938],[5.5746,6.4003],[5.5801,6.4022],[5.6127,6.4108],[5.6245,6.4119],[5.629,6.4138],[5.6369,6.412],[5.6416,6.4142],[5.6442,6.4158],[5.6451,6.4186],[5.6435,6.4241],[5.6389,6.4314],[5.6389,6.4388],[5.6443,6.4536],[5.6542,6.4657],[5.6868,6.5002],[5.7237,6.5307],[5.7572,6.5523],[5.7698,6.5662],[5.7761,6.5765],[5.7915,6.596],[5.796,6.6044],[5.7969,6.6127],[5.8132,6.6575],[5.8197,6.6673],[5.8215,6.6766],[5.829,6.6918],[5.8361,6.7179],[5.8397,6.7253],[5.8442,6.73],[5.8496,6.7476],[5.8531,6.7698],[5.8633,6.7825],[5.8701,6.7972],[5.8309,6.8046],[5.8019,6.8117],[5.7973,6.8117],[5.7928,6.8089],[5.7774,6.7912],[5.7575,6.7817],[5.7516,6.7816],[5.7265,6.7695],[5.7145,6.7574],[5.7026,6.7361],[5.6674,6.7276],[5.6543,6.7349],[5.6404,6.7469],[5.6293,6.7459],[5.62,6.7421],[5.6052,6.7291],[5.5896,6.7143],[5.5822,6.7041],[5.5766,6.704],[5.5645,6.7206],[5.5617,6.7298],[5.5625,6.7409],[5.5615,6.752],[5.5632,6.7624],[5.5614,6.7723],[5.5558,6.787],[5.5458,6.8043],[5.5436,6.8128],[5.5435,6.8248],[5.549,6.8331],[5.5536,6.8359],[5.5638,6.8378],[5.5712,6.8453],[5.5721,6.8545],[5.5702,6.8693],[5.5655,6.876],[5.5552,6.883],[5.5371,6.8848],[5.4597,6.8855],[5.4616,6.8754],[5.4562,6.8648],[5.4544,6.8528],[5.4472,6.8425],[5.4436,6.8342],[5.4328,6.8064],[5.4283,6.7897],[5.4229,6.7786],[5.4229,6.773],[5.4121,6.7591],[5.3994,6.7497],[5.3949,6.7441],[5.3868,6.733],[5.3814,6.7163],[5.3869,6.696],[5.4097,6.6648],[5.4234,6.6234],[5.4308,6.5939],[5.4335,6.5893],[5.438,6.5838],[5.4426,6.5811],[5.4671,6.5702],[5.4771,6.5481],[5.4862,6.539],[5.4935,6.5354],[5.4962,6.5298],[5.49,6.5122],[5.4863,6.5131],[5.4809,6.5121],[5.4782,6.4983],[5.4728,6.488],[5.4701,6.4779],[5.4665,6.4741],[5.4665,6.4667],[5.4693,6.4603],[5.4602,6.451],[5.4494,6.4361],[5.4485,6.4305],[5.4449,6.424],[5.4404,6.4037],[5.438,6.3995],[5.4352,6.3988],[5.4359,6.3912],[5.4425,6.3886],[5.4418,6.3796],[5.413,6.3819],[5.409,6.3845],[5.4072,6.3765],[5.4097,6.37],[5.4091,6.3661],[5.413,6.3469],[5.4168,6.339],[5.4327,6.3252],[5.4682,6.3175],[5.4667,6.3027],[5.4588,6.2972],[5.45,6.2831],[5.4365,6.2798],[5.4346,6.2772],[5.4312,6.2781],[5.4281,6.2817],[5.4158,6.285],[5.4132,6.2831],[5.4105,6.2848],[5.4036,6.2817],[5.4013,6.2827],[5.3977,6.277],[5.3936,6.276],[5.3932,6.2722],[5.3898,6.2679],[5.3746,6.2608],[5.3665,6.2522],[5.3527,6.2413],[5.3501,6.2344],[5.3568,6.2194],[5.3579,6.2129],[5.3684,6.2001],[5.367,6.1891],[5.3633,6.1838],[5.3611,6.1771],[5.3512,6.1636],[5.3442,6.1577],[5.3396,6.1565],[5.332,6.1495],[5.3305,6.1447],[5.3276,6.1426],[5.3143,6.1457],[5.3067,6.1444],[5.2869,6.1447],[5.2821,6.139],[5.2816,6.1225],[5.2829,6.1143],[5.2806,6.1084],[5.2711,6.0985],[5.2691,6.087],[5.2739,6.0808],[5.2816,6.0783],[5.2899,6.0777],[5.2913,6.0724],[5.2905,6.0654],[5.2861,6.0615],[5.2776,6.0591],[5.2702,6.0543],[5.2683,6.0525],[5.2631,6.031],[5.2557,6.0108],[5.2486,5.9842],[5.2499,5.9677],[5.2542,5.9547],[5.2568,5.9477],[5.269,5.9368],[5.2705,5.9165],[5.276,5.9068],[5.2921,5.9099],[5.3051,5.9173],[5.3159,5.9323],[5.3413,5.9562],[5.35,5.9609],[5.3587,5.9696],[5.3452,5.9753],[5.34,5.9827],[5.3365,5.9844],[5.327,5.9827],[5.327,5.9944],[5.323,6.0053],[5.3274,6.0183],[5.3343,6.0214],[5.3404,6.02],[5.3444,6.0174],[5.3678,6.0209],[5.3904,6.019],[5.4019,6.0231],[5.4134,6.0215],[5.418,6.0116],[5.4176,6.0094],[5.4281,6.007],[5.4333,6.01],[5.4337,6.0142],[5.4333,6.0192],[5.4294,6.0247],[5.4297,6.0319],[5.4428,6.0414]]]}},{"type":"Feature","properties":{"name":"Ovia South-West","state":"Edo","scode":"ED","centroid":[6.4881,5.2704]},"geometry":{"type":"Polygon","coordinates":[[[5.2702,6.0543],[5.2776,6.0591],[5.2861,6.0615],[5.2905,6.0654],[5.2913,6.0724],[5.2899,6.0777],[5.2816,6.0783],[5.2739,6.0808],[5.2691,6.087],[5.2711,6.0985],[5.2806,6.1084],[5.2829,6.1143],[5.2816,6.1225],[5.2821,6.139],[5.2869,6.1447],[5.3067,6.1444],[5.3143,6.1457],[5.3276,6.1426],[5.3305,6.1447],[5.332,6.1495],[5.3396,6.1565],[5.3442,6.1577],[5.3512,6.1636],[5.3611,6.1771],[5.3633,6.1838],[5.367,6.1891],[5.3684,6.2001],[5.3579,6.2129],[5.3568,6.2194],[5.3501,6.2344],[5.3527,6.2413],[5.3665,6.2522],[5.3746,6.2608],[5.3898,6.2679],[5.3932,6.2722],[5.3936,6.276],[5.3977,6.277],[5.4013,6.2827],[5.4036,6.2817],[5.4105,6.2848],[5.4132,6.2831],[5.4158,6.285],[5.4281,6.2817],[5.4312,6.2781],[5.4346,6.2772],[5.4365,6.2798],[5.45,6.2831],[5.4588,6.2972],[5.4667,6.3027],[5.4682,6.3175],[5.4327,6.3252],[5.4168,6.339],[5.413,6.3469],[5.4091,6.3661],[5.4097,6.37],[5.4072,6.3765],[5.409,6.3845],[5.413,6.3819],[5.4418,6.3796],[5.4425,6.3886],[5.4359,6.3912],[5.4352,6.3988],[5.438,6.3995],[5.4404,6.4037],[5.4449,6.424],[5.4485,6.4305],[5.4494,6.4361],[5.4602,6.451],[5.4693,6.4603],[5.4665,6.4667],[5.4665,6.4741],[5.4701,6.4779],[5.4728,6.488],[5.4782,6.4983],[5.4809,6.5121],[5.4863,6.5131],[5.49,6.5122],[5.4962,6.5298],[5.4935,6.5354],[5.4862,6.539],[5.4771,6.5481],[5.4671,6.5702],[5.4426,6.5811],[5.438,6.5838],[5.4335,6.5893],[5.4308,6.5939],[5.4234,6.6234],[5.4097,6.6648],[5.3869,6.696],[5.3814,6.7163],[5.3868,6.733],[5.3949,6.7441],[5.3994,6.7497],[5.4121,6.7591],[5.4229,6.773],[5.4229,6.7786],[5.4283,6.7897],[5.4328,6.8064],[5.4436,6.8342],[5.4472,6.8425],[5.4544,6.8528],[5.4562,6.8648],[5.4616,6.8754],[5.4597,6.8855],[5.2724,6.8883],[5.2548,6.8827],[5.2089,6.8108],[5.2025,6.7887],[5.2025,6.7832],[5.197,6.7739],[5.1905,6.7721],[5.173,6.7627],[5.1508,6.746],[5.1379,6.7265],[5.126,6.7015],[5.1223,6.6987],[5.1224,6.695],[5.1178,6.6839],[5.1141,6.6691],[5.1124,6.6562],[5.1116,6.6304],[5.1144,6.6211],[5.1276,6.5935],[5.1281,6.5882],[5.1322,6.5861],[5.1369,6.5779],[5.1406,6.5742],[5.1472,6.5696],[5.1546,6.5678],[5.1621,6.562],[5.1619,6.5593],[5.1642,6.5545],[5.1607,6.5499],[5.1623,6.5465],[5.1603,6.5392],[5.1552,6.5331],[5.1548,6.5189],[5.1504,6.5117],[5.1502,6.5046],[5.1537,6.5011],[5.1534,6.498],[5.1473,6.4893],[5.1454,6.4888],[5.1395,6.48],[5.1358,6.477],[5.1336,6.4726],[5.1235,6.4628],[5.1174,6.459],[5.114,6.4533],[5.1028,6.4414],[5.1026,6.4378],[5.1076,6.435],[5.1074,6.4325],[5.1044,6.4309],[5.1037,6.4213],[5.1095,6.4138],[5.1037,6.4022],[5.0989,6.3974],[5.086,6.3892],[5.0757,6.3773],[5.0661,6.3766],[5.0528,6.3842],[5.0492,6.3824],[5.0472,6.3721],[5.0438,6.3666],[5.0392,6.3641],[5.0324,6.3649],[5.0292,6.3636],[5.0278,6.3452],[5.0287,6.3418],[5.0349,6.3329],[5.0353,6.3285],[5.0301,6.3231],[5.0215,6.3187],[5.0154,6.309],[5.0129,6.3021],[5.0156,6.2924],[5.0215,6.2854],[5.0296,6.2792],[5.0377,6.2774],[5.041,6.2743],[5.048,6.2649],[5.0497,6.2514],[5.0534,6.2468],[5.0635,6.2483],[5.0733,6.2395],[5.0729,6.2312],[5.0788,6.2226],[5.0779,6.2201],[5.0745,6.2177],[5.0756,6.2134],[5.0818,6.218],[5.0872,6.2145],[5.0861,6.2078],[5.0892,6.2011],[5.0924,6.1983],[5.0958,6.1971],[5.0982,6.1981],[5.0998,6.2022],[5.1032,6.2022],[5.1099,6.1954],[5.1128,6.1955],[5.1155,6.2061],[5.1199,6.207],[5.1225,6.2059],[5.1224,6.2013],[5.1271,6.197],[5.1287,6.1897],[5.1359,6.1867],[5.1357,6.1823],[5.132,6.1808],[5.1371,6.1763],[5.1377,6.1731],[5.1334,6.1722],[5.1344,6.1694],[5.1331,6.1647],[5.1418,6.155],[5.1435,6.1512],[5.143,6.1433],[5.1455,6.1416],[5.1546,6.1442],[5.1579,6.1467],[5.1615,6.1427],[5.164,6.146],[5.1629,6.1479],[5.1643,6.1591],[5.1687,6.1636],[5.1819,6.1569],[5.1824,6.1544],[5.1806,6.1494],[5.184,6.1474],[5.1897,6.1519],[5.1937,6.1518],[5.1988,6.147],[5.2026,6.1454],[5.206,6.1478],[5.2062,6.1516],[5.2104,6.1531],[5.2224,6.1479],[5.2228,6.144],[5.2184,6.1408],[5.2172,6.1356],[5.2305,6.1188],[5.2337,6.1124],[5.2324,6.1003],[5.2348,6.0727],[5.234,6.0648],[5.24,6.0616],[5.2576,6.0644],[5.2702,6.0543]]]}},{"type":"Feature","properties":{"name":"Owan East","state":"Edo","scode":"ED","centroid":[7.0451,6.0578]},"geometry":{"type":"Polygon","coordinates":[[[6.1803,7.1128],[6.1671,7.1477],[6.1644,7.1625],[6.1616,7.1689],[6.1489,7.1836],[6.138,7.1881],[6.1244,7.1908],[6.1008,7.2025],[6.0753,7.2411],[6.0662,7.2466],[6.0553,7.2446],[6.0408,7.2389],[6.0335,7.2407],[6.0245,7.2406],[6.0191,7.2322],[6.0127,7.2285],[6.01,7.2312],[6.0055,7.2321],[5.9973,7.2265],[5.9919,7.2255],[5.9873,7.2264],[5.9673,7.2475],[5.941,7.2555],[5.9319,7.2601],[5.9256,7.2637],[5.9094,7.2778],[5.9053,7.2708],[5.9047,7.2656],[5.8965,7.2581],[5.8959,7.2534],[5.8987,7.2452],[5.8973,7.2312],[5.9041,7.2207],[5.9035,7.2172],[5.8843,7.1999],[5.8837,7.1929],[5.8939,7.1858],[5.8939,7.1829],[5.8823,7.176],[5.873,7.1626],[5.8717,7.1533],[5.8682,7.1469],[5.8675,7.1411],[5.8628,7.1283],[5.8605,7.126],[5.8443,7.1203],[5.8426,7.118],[5.843,7.1098],[5.851,7.1022],[5.8549,7.0963],[5.8526,7.094],[5.869,7.0839],[5.8772,7.0831],[5.8817,7.0841],[5.898,7.0805],[5.9062,7.0806],[5.9416,7.0698],[5.9816,7.049],[5.9843,7.0462],[5.987,7.0398],[5.9916,7.0352],[5.9925,7.026],[5.9853,7.0167],[5.9754,6.9981],[5.9691,6.9805],[5.9728,6.9473],[5.9965,6.9179],[6.0011,6.9069],[6.0011,6.9014],[6.0057,6.8802],[6.0157,6.8535],[6.0194,6.848],[6.0239,6.8508],[6.0375,6.8537],[6.042,6.8537],[6.0448,6.85],[6.0457,6.8334],[6.0431,6.8186],[6.0465,6.7813],[6.0448,6.7768],[6.0568,6.7809],[6.1011,6.8109],[6.1138,6.8174],[6.1419,6.8251],[6.1674,6.8238],[6.1709,6.8383],[6.1772,6.8531],[6.1789,6.8652],[6.1879,6.8856],[6.2078,6.9227],[6.215,6.9403],[6.2157,6.9884],[6.2193,7.0124],[6.2192,7.0374],[6.2137,7.0576],[6.2027,7.0779],[6.1854,7.0999],[6.1803,7.1128]]]}},{"type":"Feature","properties":{"name":"Owan West","state":"Edo","scode":"ED","centroid":[6.9211,5.8984]},"geometry":{"type":"Polygon","coordinates":[[[6.0448,6.7768],[6.0465,6.7813],[6.0431,6.8186],[6.0457,6.8334],[6.0448,6.85],[6.042,6.8537],[6.0375,6.8537],[6.0239,6.8508],[6.0194,6.848],[6.0157,6.8535],[6.0057,6.8802],[6.0011,6.9014],[6.0011,6.9069],[5.9965,6.9179],[5.9728,6.9473],[5.9691,6.9805],[5.9754,6.9981],[5.9853,7.0167],[5.9925,7.026],[5.9916,7.0352],[5.987,7.0398],[5.9843,7.0462],[5.9816,7.049],[5.9416,7.0698],[5.9062,7.0806],[5.898,7.0805],[5.8817,7.0841],[5.8772,7.0831],[5.869,7.0839],[5.8526,7.094],[5.8295,7.082],[5.8237,7.0814],[5.8156,7.0716],[5.8096,7.0512],[5.8043,7.0485],[5.7962,7.0243],[5.7926,7.0217],[5.794,7.0156],[5.7938,7.0053],[5.7892,6.9924],[5.7884,6.9804],[5.7856,6.9683],[5.7922,6.9555],[5.7998,6.9213],[5.798,6.9149],[5.7897,6.901],[5.7879,6.8945],[5.7871,6.8714],[5.7788,6.8584],[5.7742,6.8538],[5.7697,6.8399],[5.7772,6.8233],[5.7781,6.8178],[5.7708,6.7965],[5.7579,6.7844],[5.7516,6.7816],[5.7575,6.7817],[5.7774,6.7912],[5.7928,6.8089],[5.7973,6.8117],[5.8019,6.8117],[5.8309,6.8046],[5.8701,6.7972],[5.8846,6.7937],[5.9515,6.7886],[5.966,6.7859],[5.9815,6.7805],[5.9903,6.7817],[6.012,6.7736],[6.0229,6.7718],[6.0448,6.7768]]]}},{"type":"Feature","properties":{"name":"Uhunmwonde","state":"Edo","scode":"ED","centroid":[6.4982,5.9032]},"geometry":{"type":"Polygon","coordinates":[[[5.8701,6.7972],[5.8633,6.7825],[5.8531,6.7698],[5.8496,6.7476],[5.8442,6.73],[5.8397,6.7253],[5.8361,6.7179],[5.829,6.6918],[5.8215,6.6766],[5.8197,6.6673],[5.8132,6.6575],[5.7969,6.6127],[5.796,6.6044],[5.7915,6.596],[5.7761,6.5765],[5.7698,6.5662],[5.7572,6.5523],[5.7237,6.5307],[5.6868,6.5002],[5.6542,6.4657],[5.6443,6.4536],[5.6389,6.4388],[5.6389,6.4314],[5.6435,6.4241],[5.6451,6.4186],[5.6442,6.4158],[5.6416,6.4142],[5.6399,6.4102],[5.6445,6.3875],[5.6447,6.3702],[5.6503,6.3777],[5.6718,6.3773],[5.68,6.3711],[5.6851,6.3693],[5.6976,6.3768],[5.6994,6.3746],[5.7018,6.3744],[5.7059,6.3702],[5.7027,6.3415],[5.7052,6.341],[5.6899,6.3232],[5.7563,6.2835],[5.7646,6.2823],[5.7621,6.3084],[5.7632,6.3151],[5.7801,6.3046],[5.796,6.2894],[5.8067,6.2827],[5.8171,6.2649],[5.8275,6.2528],[5.8254,6.2503],[5.8236,6.2364],[5.8847,6.2222],[5.8997,6.2055],[5.9155,6.2044],[5.9132,6.2405],[5.9241,6.2419],[5.9402,6.2534],[5.9438,6.2589],[5.9457,6.2658],[5.9547,6.2778],[5.9622,6.2849],[5.9667,6.3083],[5.9837,6.3245],[5.9918,6.3232],[5.9993,6.3292],[6.0121,6.3339],[6.0243,6.3426],[6.0401,6.3362],[6.0737,6.3519],[6.0813,6.3526],[6.0922,6.3658],[6.1137,6.3819],[6.1201,6.3817],[6.1322,6.3766],[6.1387,6.3878],[6.1324,6.399],[6.1329,6.4054],[6.1317,6.4045],[6.1259,6.4286],[6.1223,6.4341],[6.1168,6.448],[6.106,6.4629],[6.104,6.4765],[6.0994,6.481],[6.0903,6.5041],[6.0816,6.5133],[6.0793,6.5307],[6.0729,6.5492],[6.0728,6.5732],[6.0756,6.5769],[6.0791,6.5917],[6.0845,6.6047],[6.0872,6.6213],[6.0863,6.6333],[6.0889,6.6472],[6.0885,6.672],[6.0957,6.6752],[6.095,6.6815],[6.0848,6.6837],[6.0797,6.6933],[6.0724,6.7007],[6.0706,6.7053],[6.0251,6.7547],[6.0178,6.7685],[6.012,6.7736],[5.9903,6.7817],[5.9815,6.7805],[5.966,6.7859],[5.9515,6.7886],[5.8846,6.7937],[5.8701,6.7972]]]}}]}