{"type":"FeatureCollection","features":[{"type":"Feature","properties":{"name":"Ado-Ekiti","state":"Ekiti","scode":"EK","centroid":[7.616,5.2488]},"geometry":{"type":"Polygon","coordinates":[[[5.1719,7.5402],[5.1805,7.5463],[5.1829,7.5532],[5.1883,7.56],[5.1934,7.5622],[5.2001,7.5606],[5.2028,7.5621],[5.2029,7.5655],[5.2071,7.5669],[5.2109,7.567],[5.2174,7.5461],[5.2194,7.5415],[5.2213,7.5421],[5.2226,7.5463],[5.2267,7.5465],[5.2265,7.5479],[5.2377,7.5541],[5.2407,7.5621],[5.2465,7.5699],[5.248,7.5784],[5.2508,7.5828],[5.2501,7.5884],[5.2674,7.5881],[5.2718,7.5854],[5.299,7.5858],[5.3022,7.5832],[5.3197,7.5765],[5.3263,7.5705],[5.3279,7.567],[5.3323,7.5592],[5.3522,7.547],[5.3659,7.5485],[5.3645,7.5745],[5.3692,7.5755],[5.3651,7.5931],[5.3557,7.6115],[5.3527,7.6213],[5.3526,7.6356],[5.349,7.6444],[5.3515,7.6517],[5.3471,7.6582],[5.3538,7.6649],[5.3566,7.6701],[5.3627,7.6733],[5.3672,7.6788],[5.3162,7.67],[5.308,7.6695],[5.285,7.6731],[5.2831,7.668],[5.2783,7.6685],[5.2755,7.6735],[5.2762,7.6759],[5.2748,7.6785],[5.2702,7.6812],[5.2644,7.6732],[5.2617,7.6762],[5.2567,7.6672],[5.2544,7.6667],[5.2498,7.6718],[5.2425,7.6732],[5.2433,7.677],[5.2471,7.6822],[5.2389,7.6921],[5.235,7.7009],[5.2247,7.6985],[5.2269,7.6925],[5.2239,7.6844],[5.2249,7.6826],[5.2236,7.6744],[5.2125,7.6736],[5.2103,7.6691],[5.2095,7.6623],[5.207,7.6594],[5.206,7.6608],[5.2027,7.6603],[5.1881,7.6551],[5.1734,7.6401],[5.162,7.6392],[5.1521,7.6362],[5.1478,7.636],[5.1329,7.6397],[5.1133,7.6367],[5.1132,7.6266],[5.1193,7.6063],[5.1349,7.5864],[5.1455,7.5777],[5.1603,7.5719],[5.1719,7.5402]]]}},{"type":"Feature","properties":{"name":"Efon","state":"Ekiti","scode":"EK","centroid":[7.6801,4.9355]},"geometry":{"type":"Polygon","coordinates":[[[4.8872,7.6896],[4.8808,7.6678],[4.8733,7.6513],[4.8639,7.6227],[4.868,7.6163],[4.8831,7.6114],[4.8876,7.6046],[4.9022,7.5764],[4.9126,7.5466],[4.9165,7.5658],[4.9277,7.5681],[4.9262,7.5828],[4.9274,7.5857],[4.9269,7.5906],[4.9378,7.6175],[4.9421,7.6171],[4.9641,7.6031],[4.9852,7.6095],[4.9978,7.6347],[5.0014,7.6383],[5.0057,7.6381],[5.0097,7.6413],[5.0166,7.6663],[5.008,7.6705],[5.006,7.6757],[5.0021,7.6789],[4.9913,7.6832],[4.9855,7.6884],[4.9741,7.7074],[4.9782,7.739],[4.9773,7.753],[4.9724,7.7632],[4.9562,7.781],[4.9401,7.8056],[4.9323,7.8105],[4.9158,7.8027],[4.9143,7.783],[4.9094,7.7664],[4.9042,7.7574],[4.903,7.7499],[4.8932,7.7303],[4.8872,7.6896]]]}},{"type":"Feature","properties":{"name":"Ekiti East","state":"Ekiti","scode":"EK","centroid":[7.7332,5.6766]},"geometry":{"type":"Polygon","coordinates":[[[5.6582,7.8279],[5.6467,7.8044],[5.6244,7.7741],[5.6142,7.7464],[5.5996,7.7445],[5.5914,7.732],[5.5883,7.7305],[5.5822,7.7198],[5.5666,7.7211],[5.5617,7.7016],[5.5959,7.6973],[5.6025,7.6938],[5.6013,7.674],[5.6052,7.6718],[5.6169,7.6588],[5.6228,7.6427],[5.624,7.6315],[5.6386,7.605],[5.6551,7.6287],[5.6594,7.629],[5.6757,7.6237],[5.681,7.6237],[5.6886,7.6324],[5.6914,7.638],[5.6949,7.6718],[5.6994,7.6829],[5.7165,7.701],[5.7676,7.7372],[5.773,7.7473],[5.7916,7.7821],[5.768,7.7876],[5.7558,7.7956],[5.746,7.805],[5.7373,7.8211],[5.729,7.8283],[5.7102,7.8301],[5.6582,7.8279]]]}},{"type":"Feature","properties":{"name":"Ekiti South-West","state":"Ekiti","scode":"EK","centroid":[7.515,5.043]},"geometry":{"type":"Polygon","coordinates":[[[5.0862,7.4563],[5.1105,7.4985],[5.1188,7.5003],[5.1374,7.5203],[5.1719,7.5402],[5.1603,7.5719],[5.1455,7.5777],[5.1349,7.5864],[5.1193,7.6063],[5.1132,7.6266],[5.1133,7.6367],[5.1019,7.636],[5.0954,7.6269],[5.0828,7.6158],[5.0797,7.5949],[5.0771,7.5891],[5.0736,7.5601],[5.0766,7.5435],[5.0755,7.5405],[5.0577,7.5356],[5.0349,7.5366],[5.0019,7.5469],[5.0023,7.5501],[4.9749,7.5609],[4.9676,7.5422],[4.9476,7.5481],[4.9194,7.5215],[4.9202,7.5172],[4.9389,7.4787],[4.9478,7.4547],[4.9524,7.4478],[4.9757,7.4337],[4.9848,7.4265],[4.9871,7.4192],[4.997,7.415],[5.0046,7.4139],[5.0089,7.4256],[5.02,7.4332],[5.0486,7.4573],[5.0708,7.4602],[5.0782,7.4593],[5.0862,7.4563]]]}},{"type":"Feature","properties":{"name":"Ekiti West","state":"Ekiti","scode":"EK","centroid":[7.6713,5.0139]},"geometry":{"type":"Polygon","coordinates":[[[4.9463,7.9018],[4.942,7.8999],[4.9371,7.8892],[4.9273,7.8804],[4.9245,7.8744],[4.9238,7.8635],[4.9219,7.8619],[4.9164,7.8572],[4.9141,7.8504],[4.9111,7.8501],[4.9086,7.8298],[4.9158,7.8221],[4.9158,7.8027],[4.9323,7.8105],[4.9401,7.8056],[4.9562,7.781],[4.9724,7.7632],[4.9773,7.753],[4.9782,7.739],[4.9741,7.7074],[4.9855,7.6884],[4.9913,7.6832],[5.0021,7.6789],[5.006,7.6757],[5.008,7.6705],[5.0166,7.6663],[5.0097,7.6413],[5.0057,7.6381],[5.0014,7.6383],[4.9978,7.6347],[4.9852,7.6095],[4.9641,7.6031],[4.9421,7.6171],[4.9378,7.6175],[4.9269,7.5906],[4.9274,7.5857],[4.9262,7.5828],[4.9277,7.5681],[4.9165,7.5658],[4.9126,7.5466],[4.9194,7.5215],[4.9476,7.5481],[4.9676,7.5422],[4.9749,7.5609],[5.0023,7.5501],[5.0019,7.5469],[5.0349,7.5366],[5.0577,7.5356],[5.0755,7.5405],[5.0766,7.5435],[5.0736,7.5601],[5.0771,7.5891],[5.0797,7.5949],[5.0828,7.6158],[5.0954,7.6269],[5.1019,7.636],[5.0978,7.6509],[5.1071,7.6731],[5.1092,7.6825],[5.1155,7.6983],[5.1149,7.7094],[5.1028,7.7369],[5.0911,7.7368],[5.0791,7.7398],[5.062,7.7506],[5.0472,7.7537],[5.0469,7.747],[5.0293,7.7292],[5.0047,7.7449],[4.9925,7.7605],[4.9953,7.7652],[4.9877,7.7711],[4.9677,7.7986],[4.968,7.8052],[4.9767,7.8074],[4.9835,7.8037],[4.9898,7.8075],[4.9899,7.8112],[4.9861,7.8153],[4.9826,7.8315],[4.9771,7.8381],[4.9618,7.8425],[4.9423,7.8596],[4.9585,7.8725],[4.9562,7.8866],[4.947,7.9022],[4.9463,7.9018]]]}},{"type":"Feature","properties":{"name":"Emure","state":"Ekiti","scode":"EK","centroid":[7.4147,5.5121]},"geometry":{"type":"Polygon","coordinates":[[[5.5405,7.5152],[5.5213,7.4981],[5.4985,7.4702],[5.4851,7.4789],[5.4778,7.4739],[5.4722,7.4671],[5.4599,7.4632],[5.4602,7.4505],[5.4616,7.4454],[5.459,7.4373],[5.4557,7.4367],[5.4508,7.4448],[5.4385,7.4397],[5.439,7.4255],[5.437,7.4147],[5.4342,7.4114],[5.4371,7.4009],[5.4322,7.3842],[5.4414,7.3669],[5.4419,7.353],[5.4565,7.3304],[5.4675,7.3018],[5.4732,7.3018],[5.4815,7.3046],[5.5044,7.3162],[5.5212,7.3325],[5.5331,7.3538],[5.5368,7.3575],[5.5466,7.3736],[5.5525,7.3798],[5.5754,7.4178],[5.5883,7.4317],[5.5994,7.4502],[5.6055,7.4732],[5.5891,7.4831],[5.5807,7.5066],[5.5465,7.5126],[5.5436,7.5151],[5.5405,7.5152]]]}},{"type":"Feature","properties":{"name":"Gbonyin","state":"Ekiti","scode":"EK","centroid":[7.6008,5.5026]},"geometry":{"type":"Polygon","coordinates":[[[5.4318,7.6937],[5.4216,7.6878],[5.4155,7.6619],[5.395,7.6532],[5.3873,7.664],[5.3797,7.6717],[5.3672,7.6788],[5.3627,7.6733],[5.3566,7.6701],[5.3538,7.6649],[5.3471,7.6582],[5.3515,7.6517],[5.349,7.6444],[5.3526,7.6356],[5.3527,7.6213],[5.3557,7.6115],[5.3651,7.5931],[5.3692,7.5755],[5.3645,7.5745],[5.3659,7.5485],[5.3699,7.5476],[5.3975,7.5485],[5.4084,7.541],[5.4301,7.5361],[5.4326,7.5495],[5.4512,7.5496],[5.4535,7.5471],[5.4569,7.5466],[5.4592,7.5415],[5.4661,7.5404],[5.4898,7.5528],[5.4985,7.5319],[5.5186,7.5347],[5.5405,7.5152],[5.5436,7.5151],[5.5465,7.5126],[5.5807,7.5066],[5.5891,7.4831],[5.6055,7.4732],[5.6075,7.4802],[5.6103,7.4845],[5.6138,7.5288],[5.6128,7.5371],[5.6182,7.5639],[5.6246,7.5824],[5.6386,7.605],[5.624,7.6315],[5.6228,7.6427],[5.6169,7.6588],[5.6052,7.6718],[5.6013,7.674],[5.6025,7.6938],[5.5959,7.6973],[5.5617,7.7016],[5.56,7.6882],[5.5569,7.6808],[5.551,7.6779],[5.5335,7.6617],[5.5167,7.65],[5.5008,7.6544],[5.4894,7.6503],[5.4844,7.654],[5.4806,7.6627],[5.4721,7.6632],[5.4597,7.669],[5.4437,7.6723],[5.4318,7.6937]]]}},{"type":"Feature","properties":{"name":"Ido-Osi","state":"Ekiti","scode":"EK","centroid":[7.8492,5.1739]},"geometry":{"type":"Polygon","coordinates":[[[5.25,7.8824],[5.2412,7.8777],[5.2283,7.88],[5.2222,7.8834],[5.2247,7.8903],[5.224,7.8975],[5.2184,7.9064],[5.196,7.9001],[5.1775,7.8982],[5.1767,7.9039],[5.1612,7.9394],[5.1555,7.9423],[5.1432,7.9345],[5.1396,7.9285],[5.1212,7.9391],[5.1099,7.9399],[5.1002,7.9376],[5.1069,7.9271],[5.1096,7.9184],[5.1103,7.9087],[5.1183,7.9057],[5.1152,7.9016],[5.1237,7.8992],[5.1138,7.8935],[5.1087,7.8939],[5.1085,7.8978],[5.1046,7.8997],[5.1011,7.9048],[5.1028,7.9091],[5.1009,7.9117],[5.0951,7.9184],[5.0848,7.9255],[5.0772,7.9215],[5.0694,7.9099],[5.0782,7.899],[5.0842,7.8955],[5.0844,7.8923],[5.0906,7.8892],[5.0926,7.8913],[5.099,7.8907],[5.1035,7.8882],[5.1089,7.8883],[5.1119,7.8861],[5.1223,7.8844],[5.1296,7.8851],[5.137,7.8824],[5.1291,7.8617],[5.1076,7.8638],[5.1029,7.8623],[5.0976,7.8483],[5.1032,7.8429],[5.1104,7.8281],[5.1144,7.8242],[5.1401,7.822],[5.135,7.8068],[5.1395,7.7846],[5.1487,7.7707],[5.1522,7.7694],[5.1734,7.7699],[5.1785,7.7642],[5.1954,7.7642],[5.2113,7.7705],[5.2214,7.7712],[5.2217,7.7742],[5.2262,7.7723],[5.2405,7.7816],[5.2432,7.7851],[5.2429,7.7886],[5.2486,7.7892],[5.2524,7.7925],[5.2584,7.7924],[5.2534,7.8142],[5.2487,7.8151],[5.25,7.8241],[5.2474,7.8348],[5.2414,7.8439],[5.247,7.8638],[5.25,7.8824]]]}},{"type":"Feature","properties":{"name":"Ijero","state":"Ekiti","scode":"EK","centroid":[7.842,5.0459]},"geometry":{"type":"Polygon","coordinates":[[[4.947,7.9022],[4.9562,7.8866],[4.9585,7.8725],[4.9423,7.8596],[4.9618,7.8425],[4.9771,7.8381],[4.9826,7.8315],[4.9861,7.8153],[4.9899,7.8112],[4.9898,7.8075],[4.9835,7.8037],[4.9767,7.8074],[4.968,7.8052],[4.9677,7.7986],[4.9877,7.7711],[4.9953,7.7652],[4.9925,7.7605],[5.0047,7.7449],[5.0293,7.7292],[5.0469,7.747],[5.0472,7.7537],[5.062,7.7506],[5.0791,7.7398],[5.0911,7.7368],[5.1028,7.7369],[5.1096,7.7436],[5.1267,7.7538],[5.1487,7.7707],[5.1395,7.7846],[5.135,7.8068],[5.1401,7.822],[5.1144,7.8242],[5.1104,7.8281],[5.1032,7.8429],[5.0976,7.8483],[5.1029,7.8623],[5.1076,7.8638],[5.1291,7.8617],[5.137,7.8824],[5.1296,7.8851],[5.1223,7.8844],[5.1119,7.8861],[5.1089,7.8883],[5.1035,7.8882],[5.099,7.8907],[5.0926,7.8913],[5.0906,7.8892],[5.0844,7.8923],[5.0842,7.8955],[5.0782,7.899],[5.0694,7.9099],[5.0772,7.9215],[5.0848,7.9255],[5.0951,7.9184],[5.1009,7.9117],[5.1028,7.9091],[5.1011,7.9048],[5.1046,7.8997],[5.1085,7.8978],[5.1087,7.8939],[5.1138,7.8935],[5.1237,7.8992],[5.1152,7.9016],[5.1183,7.9057],[5.1103,7.9087],[5.1096,7.9184],[5.1069,7.9271],[5.1002,7.9376],[5.0948,7.9371],[5.0747,7.9529],[5.0526,7.9487],[5.0456,7.9433],[5.0203,7.9609],[5.0165,7.9552],[5.0012,7.9461],[4.9905,7.9312],[4.947,7.9022]]]}},{"type":"Feature","properties":{"name":"Ikere","state":"Ekiti","scode":"EK","centroid":[7.4996,5.2237]},"geometry":{"type":"Polygon","coordinates":[[[5.3222,7.4364],[5.3249,7.4383],[5.323,7.4423],[5.3246,7.4503],[5.317,7.457],[5.3155,7.4635],[5.3121,7.4635],[5.3092,7.4617],[5.3075,7.4631],[5.3103,7.4691],[5.3092,7.4698],[5.3093,7.475],[5.3062,7.4766],[5.3089,7.48],[5.3042,7.4845],[5.3066,7.4997],[5.3073,7.5248],[5.3122,7.5271],[5.3135,7.5325],[5.3158,7.5339],[5.3152,7.536],[5.3166,7.537],[5.3173,7.5428],[5.3153,7.5468],[5.3194,7.5486],[5.3211,7.5509],[5.3211,7.5558],[5.3245,7.5602],[5.3242,7.565],[5.3279,7.567],[5.3263,7.5705],[5.3197,7.5765],[5.3022,7.5832],[5.299,7.5858],[5.2718,7.5854],[5.2674,7.5881],[5.2501,7.5884],[5.2508,7.5828],[5.248,7.5784],[5.2465,7.5699],[5.2407,7.5621],[5.2377,7.5541],[5.2265,7.5479],[5.2267,7.5465],[5.2226,7.5463],[5.2213,7.5421],[5.2194,7.5415],[5.2174,7.5461],[5.2109,7.567],[5.2071,7.5669],[5.2029,7.5655],[5.2028,7.5621],[5.2001,7.5606],[5.1934,7.5622],[5.1883,7.56],[5.1829,7.5532],[5.1805,7.5463],[5.1719,7.5402],[5.1374,7.5203],[5.1188,7.5003],[5.1105,7.4985],[5.0862,7.4563],[5.1024,7.4502],[5.1265,7.4458],[5.1673,7.4404],[5.1812,7.4414],[5.1877,7.4406],[5.1924,7.4369],[5.1991,7.4374],[5.2174,7.4343],[5.2453,7.4335],[5.2647,7.4384],[5.2796,7.4355],[5.2944,7.4365],[5.3148,7.4431],[5.3203,7.4413],[5.3222,7.4364]]]}},{"type":"Feature","properties":{"name":"Ikole","state":"Ekiti","scode":"EK","centroid":[7.8909,5.5165]},"geometry":{"type":"Polygon","coordinates":[[[5.6436,8.074],[5.6246,8.0726],[5.5992,8.0737],[5.5766,8.0712],[5.5508,8.051],[5.5453,8.0441],[5.5376,8.0406],[5.516,8.0222],[5.5087,8.0176],[5.5059,8.0187],[5.5038,8.0236],[5.5073,8.0371],[5.5073,8.0455],[5.5136,8.0838],[5.5139,8.1112],[5.498,8.1107],[5.4491,8.1059],[5.4212,8.1055],[5.3873,8.1021],[5.3712,8.0965],[5.3658,8.0919],[5.3894,8.0683],[5.4119,8.0417],[5.4191,8.0273],[5.4169,8.0018],[5.4128,7.9894],[5.4102,7.9869],[5.4236,7.9517],[5.4273,7.9383],[5.4209,7.9152],[5.4298,7.8981],[5.4445,7.8825],[5.4455,7.8737],[5.4081,7.8564],[5.3982,7.8382],[5.4044,7.8277],[5.4171,7.8157],[5.4199,7.7826],[5.4092,7.7661],[5.4025,7.7621],[5.3988,7.7384],[5.4013,7.7205],[5.4362,7.7298],[5.4398,7.7262],[5.4383,7.7008],[5.4318,7.6937],[5.4437,7.6723],[5.4597,7.669],[5.4721,7.6632],[5.4806,7.6627],[5.4844,7.654],[5.4894,7.6503],[5.5008,7.6544],[5.5167,7.65],[5.5335,7.6617],[5.551,7.6779],[5.5569,7.6808],[5.56,7.6882],[5.5617,7.7016],[5.5666,7.7211],[5.5822,7.7198],[5.5883,7.7305],[5.5914,7.732],[5.5996,7.7445],[5.6142,7.7464],[5.6244,7.7741],[5.6467,7.8044],[5.6582,7.8279],[5.6427,7.8287],[5.6305,7.835],[5.6232,7.843],[5.6142,7.8656],[5.6086,7.9108],[5.6041,7.9265],[5.602,7.9428],[5.5988,7.9519],[5.5988,7.9585],[5.6016,7.9637],[5.6096,7.9661],[5.6142,7.9623],[5.627,7.9571],[5.6343,7.9585],[5.6455,7.963],[5.6472,7.9661],[5.6476,7.9862],[5.6507,7.9907],[5.657,7.9943],[5.6632,8.0002],[5.6681,8.0023],[5.6674,8.0086],[5.6625,8.0152],[5.6507,8.0236],[5.6472,8.041],[5.6399,8.0538],[5.643,8.0591],[5.6538,8.0643],[5.6597,8.0698],[5.6563,8.0747],[5.6436,8.074]]]}},{"type":"Feature","properties":{"name":"Ilejemeje","state":"Ekiti","scode":"EK","centroid":[7.9342,5.2246]},"geometry":{"type":"Polygon","coordinates":[[[5.2502,8.0024],[5.2397,7.9787],[5.2289,7.9716],[5.1973,7.9731],[5.1961,7.9678],[5.1896,7.9611],[5.1817,7.9608],[5.1742,7.9544],[5.1722,7.947],[5.1612,7.9394],[5.1767,7.9039],[5.1775,7.8982],[5.196,7.9001],[5.2184,7.9064],[5.224,7.8975],[5.2247,7.8903],[5.2222,7.8834],[5.2283,7.88],[5.2412,7.8777],[5.25,7.8824],[5.2664,7.8832],[5.2671,7.8993],[5.2626,7.9397],[5.2638,7.9432],[5.2717,7.9515],[5.2652,7.9837],[5.2502,8.0024]]]}},{"type":"Feature","properties":{"name":"Irepodun/Ifelodun","state":"Ekiti","scode":"EK","centroid":[7.7081,5.2407]},"geometry":{"type":"Polygon","coordinates":[[[5.2584,7.7924],[5.2524,7.7925],[5.2486,7.7892],[5.2429,7.7886],[5.2432,7.7851],[5.2405,7.7816],[5.2262,7.7723],[5.2217,7.7742],[5.2214,7.7712],[5.2113,7.7705],[5.1954,7.7642],[5.1785,7.7642],[5.1734,7.7699],[5.1522,7.7694],[5.1487,7.7707],[5.1267,7.7538],[5.1096,7.7436],[5.1028,7.7369],[5.1149,7.7094],[5.1155,7.6983],[5.1092,7.6825],[5.1071,7.6731],[5.0978,7.6509],[5.1019,7.636],[5.1133,7.6367],[5.1329,7.6397],[5.1478,7.636],[5.1521,7.6362],[5.162,7.6392],[5.1734,7.6401],[5.1881,7.6551],[5.2027,7.6603],[5.206,7.6608],[5.207,7.6594],[5.2095,7.6623],[5.2103,7.6691],[5.2125,7.6736],[5.2236,7.6744],[5.2249,7.6826],[5.2239,7.6844],[5.2269,7.6925],[5.2247,7.6985],[5.235,7.7009],[5.2389,7.6921],[5.2471,7.6822],[5.2433,7.677],[5.2425,7.6732],[5.2498,7.6718],[5.2544,7.6667],[5.2567,7.6672],[5.2617,7.6762],[5.2644,7.6732],[5.2702,7.6812],[5.2748,7.6785],[5.2762,7.6759],[5.2755,7.6735],[5.2783,7.6685],[5.2831,7.668],[5.285,7.6731],[5.308,7.6695],[5.3162,7.67],[5.3672,7.6788],[5.3797,7.6717],[5.3873,7.664],[5.395,7.6532],[5.4155,7.6619],[5.4216,7.6878],[5.4318,7.6937],[5.4383,7.7008],[5.4398,7.7262],[5.4362,7.7298],[5.4013,7.7205],[5.3876,7.7172],[5.3683,7.7201],[5.3578,7.7155],[5.3358,7.7204],[5.3216,7.7277],[5.311,7.7367],[5.2969,7.7535],[5.2749,7.7659],[5.2689,7.7657],[5.2633,7.7687],[5.2606,7.776],[5.2584,7.7924]]]}},{"type":"Feature","properties":{"name":"Ise/Orun","state":"Ekiti","scode":"EK","centroid":[7.4423,5.4016]},"geometry":{"type":"Polygon","coordinates":[[[5.3882,7.2832],[5.4046,7.2903],[5.413,7.2904],[5.4269,7.2932],[5.4583,7.3017],[5.4675,7.3018],[5.4565,7.3304],[5.4419,7.353],[5.4414,7.3669],[5.4322,7.3842],[5.4371,7.4009],[5.4342,7.4114],[5.437,7.4147],[5.439,7.4255],[5.4385,7.4397],[5.4508,7.4448],[5.4557,7.4367],[5.459,7.4373],[5.4616,7.4454],[5.4602,7.4505],[5.4599,7.4632],[5.4722,7.4671],[5.4778,7.4739],[5.4851,7.4789],[5.4985,7.4702],[5.5213,7.4981],[5.5405,7.5152],[5.5186,7.5347],[5.4985,7.5319],[5.4898,7.5528],[5.4661,7.5404],[5.4592,7.5415],[5.4569,7.5466],[5.4535,7.5471],[5.4512,7.5496],[5.4326,7.5495],[5.4301,7.5361],[5.4084,7.541],[5.3975,7.5485],[5.3699,7.5476],[5.3659,7.5485],[5.3522,7.547],[5.3323,7.5592],[5.3279,7.567],[5.3242,7.565],[5.3245,7.5602],[5.3211,7.5558],[5.3211,7.5509],[5.3194,7.5486],[5.3153,7.5468],[5.3173,7.5428],[5.3166,7.537],[5.3152,7.536],[5.3158,7.5339],[5.3135,7.5325],[5.3122,7.5271],[5.3073,7.5248],[5.3066,7.4997],[5.3042,7.4845],[5.3089,7.48],[5.3062,7.4766],[5.3093,7.475],[5.3092,7.4698],[5.3103,7.4691],[5.3075,7.4631],[5.3092,7.4617],[5.3121,7.4635],[5.3155,7.4635],[5.317,7.457],[5.3246,7.4503],[5.323,7.4423],[5.3249,7.4383],[5.3222,7.4364],[5.3288,7.4173],[5.34,7.3971],[5.3485,7.374],[5.3542,7.3445],[5.3552,7.3344],[5.3544,7.3104],[5.3582,7.2956],[5.3882,7.2832]]]}},{"type":"Feature","properties":{"name":"Moba","state":"Ekiti","scode":"EK","centroid":[7.9937,5.1306]},"geometry":{"type":"Polygon","coordinates":[[[5.0203,7.9609],[5.0456,7.9433],[5.0526,7.9487],[5.0747,7.9529],[5.0948,7.9371],[5.1002,7.9376],[5.1099,7.9399],[5.1212,7.9391],[5.1396,7.9285],[5.1432,7.9345],[5.1555,7.9423],[5.1612,7.9394],[5.1722,7.947],[5.1742,7.9544],[5.1817,7.9608],[5.1896,7.9611],[5.1961,7.9678],[5.1973,7.9731],[5.2289,7.9716],[5.2397,7.9787],[5.2502,8.0024],[5.2482,8.0198],[5.2308,8.022],[5.2029,8.0171],[5.1958,8.0182],[5.1916,8.0224],[5.1883,8.0295],[5.1819,8.0363],[5.1626,8.0495],[5.1423,8.0619],[5.1179,8.0626],[5.0844,8.0242],[5.0757,8.025],[5.0724,8.031],[5.0618,8.0382],[5.0576,8.0395],[5.0565,8.0311],[5.0531,8.0235],[5.0355,8.0052],[5.0329,7.9968],[5.0332,7.9823],[5.0313,7.9769],[5.0203,7.9609]]]}},{"type":"Feature","properties":{"name":"Oye","state":"Ekiti","scode":"EK","centroid":[7.8854,5.3433]},"geometry":{"type":"Polygon","coordinates":[[[5.4013,7.7205],[5.3988,7.7384],[5.4025,7.7621],[5.4092,7.7661],[5.4199,7.7826],[5.4171,7.8157],[5.4044,7.8277],[5.3982,7.8382],[5.4081,7.8564],[5.4455,7.8737],[5.4445,7.8825],[5.4298,7.8981],[5.4209,7.9152],[5.4273,7.9383],[5.4236,7.9517],[5.4102,7.9869],[5.4128,7.9894],[5.4169,8.0018],[5.4191,8.0273],[5.4119,8.0417],[5.3894,8.0683],[5.3658,8.0919],[5.3606,8.0829],[5.3587,8.0739],[5.3587,8.0634],[5.3614,8.0434],[5.3606,8.0385],[5.352,8.0257],[5.3324,8.0096],[5.3177,8.0077],[5.2829,8.0085],[5.2624,8.0129],[5.2568,8.0182],[5.2482,8.0198],[5.2502,8.0024],[5.2652,7.9837],[5.2717,7.9515],[5.2638,7.9432],[5.2626,7.9397],[5.2671,7.8993],[5.2664,7.8832],[5.25,7.8824],[5.247,7.8638],[5.2414,7.8439],[5.2474,7.8348],[5.25,7.8241],[5.2487,7.8151],[5.2534,7.8142],[5.2584,7.7924],[5.2606,7.776],[5.2633,7.7687],[5.2689,7.7657],[5.2749,7.7659],[5.2969,7.7535],[5.311,7.7367],[5.3216,7.7277],[5.3358,7.7204],[5.3578,7.7155],[5.3683,7.7201],[5.3876,7.7172],[5.4013,7.7205]]]}}]}