{"type":"FeatureCollection","features":[{"type":"Feature","properties":{"name":"Aninri","state":"Enugu","scode":"EN","centroid":[6.0388,7.6053]},"geometry":{"type":"Polygon","coordinates":[[[7.5347,6.1741],[7.5303,6.1796],[7.5127,6.1809],[7.5122,6.1712],[7.5012,6.1455],[7.4998,6.1373],[7.5095,6.1332],[7.5201,6.1198],[7.532,6.112],[7.5428,6.0982],[7.5477,6.095],[7.5491,6.0902],[7.5488,6.083],[7.5521,6.082],[7.5543,6.0783],[7.5372,6.0613],[7.5175,6.0357],[7.5128,6.0211],[7.5201,6.02],[7.5334,6.011],[7.5302,6.006],[7.5591,5.9855],[7.5732,5.9691],[7.6644,5.9301],[7.679,5.9287],[7.6919,5.9246],[7.7048,5.9292],[7.7074,5.9334],[7.7148,5.946],[7.7112,5.971],[7.6971,5.9887],[7.6758,6.01],[7.6672,6.0304],[7.6637,6.0472],[7.6694,6.0636],[7.6619,6.061],[7.658,6.0758],[7.6517,6.0829],[7.646,6.0854],[7.6379,6.0933],[7.6338,6.1008],[7.6351,6.1114],[7.6325,6.1184],[7.6273,6.123],[7.624,6.1306],[7.6252,6.1408],[7.6147,6.1438],[7.6115,6.1425],[7.6085,6.1389],[7.6071,6.1336],[7.5914,6.1375],[7.5681,6.1353],[7.5551,6.1288],[7.5392,6.1504],[7.5347,6.1741]]]}},{"type":"Feature","properties":{"name":"Awgu","state":"Enugu","scode":"EN","centroid":[6.1487,7.4613]},"geometry":{"type":"Polygon","coordinates":[[[7.5387,6.2172],[7.5221,6.2244],[7.505,6.2372],[7.5062,6.2559],[7.5058,6.2642],[7.5037,6.272],[7.483,6.2697],[7.4705,6.274],[7.4674,6.2917],[7.4637,6.2946],[7.4576,6.294],[7.4415,6.2888],[7.4321,6.3115],[7.4304,6.311],[7.4236,6.2855],[7.404,6.2612],[7.403,6.2557],[7.3672,6.2184],[7.3646,6.2137],[7.3743,6.2051],[7.3757,6.1998],[7.398,6.1629],[7.3979,6.1598],[7.4053,6.1423],[7.4106,6.1406],[7.413,6.1341],[7.4095,6.1324],[7.4164,6.1005],[7.4023,6.0779],[7.3984,6.069],[7.4022,6.0398],[7.4028,6.0147],[7.4044,6.0124],[7.4158,6.0062],[7.4306,6.0062],[7.4515,6.0138],[7.4615,6.0148],[7.4758,6.0124],[7.5128,6.0211],[7.5175,6.0357],[7.5372,6.0613],[7.5543,6.0783],[7.5521,6.082],[7.5488,6.083],[7.5491,6.0902],[7.5477,6.095],[7.5428,6.0982],[7.532,6.112],[7.5201,6.1198],[7.5095,6.1332],[7.4998,6.1373],[7.5012,6.1455],[7.5122,6.1712],[7.5127,6.1809],[7.5303,6.1796],[7.5347,6.1741],[7.55,6.1733],[7.5587,6.2079],[7.5387,6.2172]]]}},{"type":"Feature","properties":{"name":"Enugu East","state":"Enugu","scode":"EN","centroid":[6.5363,7.5245]},"geometry":{"type":"Polygon","coordinates":[[[7.5926,6.4316],[7.5959,6.4259],[7.6041,6.4591],[7.6016,6.4603],[7.6006,6.4644],[7.6056,6.4778],[7.6124,6.482],[7.622,6.4833],[7.6299,6.4881],[7.6482,6.5091],[7.6509,6.5177],[7.6581,6.5249],[7.656,6.5267],[7.6506,6.5273],[7.649,6.538],[7.6526,6.5491],[7.6465,6.5605],[7.6338,6.5675],[7.6463,6.5699],[7.6341,6.5794],[7.6207,6.5732],[7.6076,6.5706],[7.5892,6.5623],[7.567,6.5817],[7.5578,6.5924],[7.5538,6.5936],[7.5403,6.6035],[7.5287,6.608],[7.5208,6.6081],[7.5096,6.6157],[7.5062,6.6284],[7.4954,6.6396],[7.4792,6.6386],[7.4726,6.628],[7.4544,6.6236],[7.4264,6.6127],[7.4216,6.6051],[7.4138,6.5701],[7.4134,6.5284],[7.415,6.5245],[7.4154,6.5087],[7.4229,6.5044],[7.4311,6.5044],[7.4326,6.5031],[7.4371,6.504],[7.4505,6.5001],[7.4515,6.4982],[7.45,6.4951],[7.4519,6.4927],[7.4446,6.4885],[7.4392,6.4814],[7.4417,6.4785],[7.4418,6.4762],[7.4617,6.4655],[7.4782,6.4699],[7.4984,6.4723],[7.5106,6.4767],[7.5182,6.4733],[7.5217,6.465],[7.5311,6.4612],[7.538,6.4611],[7.5404,6.4584],[7.5399,6.4545],[7.5433,6.4554],[7.557,6.4516],[7.5584,6.4476],[7.5653,6.4432],[7.5678,6.4449],[7.5697,6.4409],[7.5774,6.4403],[7.5792,6.4441],[7.5839,6.446],[7.5844,6.4439],[7.5872,6.443],[7.5874,6.4397],[7.5937,6.4376],[7.5926,6.4316]]]}},{"type":"Feature","properties":{"name":"Enugu North","state":"Enugu","scode":"EN","centroid":[6.4469,7.488]},"geometry":{"type":"Polygon","coordinates":[[[7.5399,6.4545],[7.5404,6.4584],[7.538,6.4611],[7.5311,6.4612],[7.5217,6.465],[7.5182,6.4733],[7.5106,6.4767],[7.4984,6.4723],[7.4782,6.4699],[7.4617,6.4655],[7.4418,6.4762],[7.4324,6.464],[7.4292,6.4558],[7.4267,6.4423],[7.4333,6.4415],[7.4448,6.4351],[7.4531,6.4338],[7.4539,6.4273],[7.4551,6.429],[7.4602,6.4274],[7.465,6.4233],[7.4692,6.4216],[7.468,6.4171],[7.4693,6.4168],[7.4768,6.4181],[7.4809,6.4227],[7.4843,6.4306],[7.4908,6.4338],[7.4972,6.4325],[7.4968,6.4264],[7.5042,6.415],[7.5151,6.4184],[7.5309,6.4151],[7.5374,6.423],[7.5399,6.4545]]]}},{"type":"Feature","properties":{"name":"Enugu South","state":"Enugu","scode":"EN","centroid":[6.4017,7.5256]},"geometry":{"type":"Polygon","coordinates":[[[7.5791,6.3939],[7.5769,6.4054],[7.5751,6.4062],[7.5748,6.4116],[7.5725,6.4134],[7.5765,6.4196],[7.5821,6.4247],[7.5845,6.4261],[7.5875,6.4244],[7.5926,6.4316],[7.5937,6.4376],[7.5874,6.4397],[7.5872,6.443],[7.5844,6.4439],[7.5839,6.446],[7.5792,6.4441],[7.5774,6.4403],[7.5697,6.4409],[7.5678,6.4449],[7.5653,6.4432],[7.5584,6.4476],[7.557,6.4516],[7.5433,6.4554],[7.5399,6.4545],[7.5374,6.423],[7.5309,6.4151],[7.5151,6.4184],[7.5042,6.415],[7.4968,6.4264],[7.4972,6.4325],[7.4908,6.4338],[7.4843,6.4306],[7.4809,6.4227],[7.4768,6.4181],[7.4693,6.4168],[7.4636,6.4114],[7.4597,6.4133],[7.4518,6.4002],[7.4594,6.3862],[7.461,6.3793],[7.4692,6.3755],[7.4839,6.374],[7.492,6.3669],[7.5071,6.3648],[7.5167,6.3682],[7.5228,6.3657],[7.5262,6.3663],[7.5353,6.3638],[7.5379,6.3594],[7.5493,6.3586],[7.5563,6.3611],[7.5579,6.3666],[7.5605,6.366],[7.5637,6.3735],[7.5661,6.3754],[7.5673,6.3819],[7.5728,6.3836],[7.5747,6.389],[7.5791,6.3939]]]}},{"type":"Feature","properties":{"name":"Ezeagu","state":"Enugu","scode":"EN","centroid":[6.4072,7.2283]},"geometry":{"type":"Polygon","coordinates":[[[7.29,6.2783],[7.296,6.2817],[7.3222,6.3123],[7.3278,6.31],[7.3352,6.3094],[7.3438,6.3055],[7.349,6.3283],[7.3609,6.3556],[7.361,6.3607],[7.3751,6.3628],[7.3861,6.3691],[7.3873,6.3807],[7.3761,6.4193],[7.3725,6.4217],[7.3482,6.4183],[7.3392,6.4498],[7.3282,6.461],[7.3231,6.4921],[7.2897,6.4684],[7.2889,6.474],[7.2836,6.4784],[7.2786,6.4811],[7.2747,6.4808],[7.2683,6.5258],[7.263,6.5485],[7.2465,6.5557],[7.2358,6.5733],[7.2234,6.5668],[7.213,6.5506],[7.1879,6.5028],[7.1388,6.5198],[7.1355,6.5086],[7.1306,6.5028],[7.1152,6.4997],[7.1072,6.4933],[7.0783,6.4752],[7.0568,6.4645],[7.0331,6.4637],[7.0318,6.4508],[7.0322,6.4424],[7.0387,6.4402],[7.0648,6.4372],[7.0635,6.4279],[7.0706,6.4288],[7.0894,6.4263],[7.1,6.4187],[7.1154,6.4015],[7.1307,6.3994],[7.1439,6.3883],[7.1418,6.3799],[7.1419,6.3597],[7.1523,6.3289],[7.1589,6.323],[7.1618,6.3156],[7.1602,6.3034],[7.1963,6.2799],[7.2066,6.2717],[7.2439,6.2629],[7.2558,6.2633],[7.2635,6.2703],[7.29,6.2783]]]}},{"type":"Feature","properties":{"name":"Igbo-Etiti","state":"Enugu","scode":"EN","centroid":[6.682,7.4427]},"geometry":{"type":"Polygon","coordinates":[[[7.3017,6.7367],[7.2968,6.729],[7.2957,6.71],[7.2982,6.6869],[7.2976,6.6787],[7.3112,6.6692],[7.3199,6.6598],[7.3413,6.6261],[7.3704,6.6426],[7.3824,6.6431],[7.3879,6.6453],[7.3877,6.6487],[7.3918,6.6612],[7.3964,6.6592],[7.4059,6.6529],[7.4114,6.6511],[7.4123,6.6436],[7.4264,6.6127],[7.4544,6.6236],[7.4726,6.628],[7.4792,6.6386],[7.4954,6.6396],[7.5062,6.6284],[7.5096,6.6157],[7.5208,6.6081],[7.5287,6.608],[7.5403,6.6035],[7.5538,6.5936],[7.5559,6.6007],[7.5659,6.5991],[7.5844,6.6333],[7.5955,6.6439],[7.5981,6.6559],[7.5757,6.6737],[7.5661,6.674],[7.5554,6.682],[7.5516,6.6932],[7.5304,6.716],[7.5064,6.7265],[7.4903,6.7392],[7.4618,6.7392],[7.451,6.7467],[7.4365,6.7491],[7.4332,6.7512],[7.4259,6.7631],[7.4145,6.769],[7.3962,6.7697],[7.3838,6.7734],[7.3827,6.7541],[7.3807,6.7466],[7.3743,6.7384],[7.3638,6.7318],[7.3616,6.7283],[7.3525,6.7258],[7.3495,6.7228],[7.3369,6.7274],[7.3304,6.7264],[7.3017,6.7367]]]}},{"type":"Feature","properties":{"name":"Igbo-Eze North","state":"Enugu","scode":"EN","centroid":[7.0095,7.4577]},"geometry":{"type":"Polygon","coordinates":[[[7.5552,6.9806],[7.5493,6.991],[7.5383,7.0202],[7.5305,7.0323],[7.5257,7.0359],[7.502,7.069],[7.491,7.0737],[7.4825,7.0819],[7.4702,7.0868],[7.4704,7.0939],[7.4647,7.0892],[7.4574,7.0959],[7.4424,7.0959],[7.4355,7.0978],[7.4319,7.1016],[7.3944,7.0929],[7.3868,7.0861],[7.3894,7.0651],[7.3847,7.0517],[7.3668,7.0399],[7.3514,7.0334],[7.3717,7.0221],[7.3893,7.0336],[7.3951,7.0306],[7.4059,7.0197],[7.4045,7.0164],[7.3954,7.0132],[7.3926,7.01],[7.3844,7.0099],[7.3752,7.0129],[7.3729,6.9993],[7.3814,6.9889],[7.3757,6.9803],[7.3856,6.9624],[7.4065,6.9636],[7.424,6.9521],[7.4303,6.9421],[7.4281,6.9344],[7.4403,6.9338],[7.4434,6.9159],[7.4502,6.9194],[7.4581,6.9297],[7.4601,6.9292],[7.4664,6.9166],[7.473,6.9154],[7.4778,6.9212],[7.4845,6.92],[7.4876,6.9194],[7.4925,6.9251],[7.5021,6.9262],[7.5034,6.9303],[7.5196,6.9386],[7.5221,6.9477],[7.5203,6.9543],[7.5199,6.9649],[7.5312,6.9619],[7.5347,6.9589],[7.5435,6.9607],[7.5487,6.9647],[7.549,6.9689],[7.5552,6.9806]]]}},{"type":"Feature","properties":{"name":"Igbo-Eze-South","state":"Enugu","scode":"EN","centroid":[6.943,7.3855]},"geometry":{"type":"Polygon","coordinates":[[[7.4845,6.92],[7.4778,6.9212],[7.473,6.9154],[7.4664,6.9166],[7.4601,6.9292],[7.4581,6.9297],[7.4502,6.9194],[7.4434,6.9159],[7.4403,6.9338],[7.4281,6.9344],[7.4303,6.9421],[7.424,6.9521],[7.4065,6.9636],[7.3856,6.9624],[7.3757,6.9803],[7.3814,6.9889],[7.3729,6.9993],[7.3752,7.0129],[7.3844,7.0099],[7.3926,7.01],[7.3954,7.0132],[7.4045,7.0164],[7.4059,7.0197],[7.3951,7.0306],[7.3893,7.0336],[7.3717,7.0221],[7.3514,7.0334],[7.3272,7.0241],[7.3164,7.0105],[7.3295,6.9849],[7.3299,6.9747],[7.3241,6.9648],[7.3001,6.9459],[7.3003,6.9412],[7.3158,6.9292],[7.3256,6.9282],[7.3386,6.9232],[7.3509,6.9207],[7.3575,6.9149],[7.3686,6.9098],[7.3616,6.8948],[7.3625,6.889],[7.3802,6.8965],[7.3832,6.8891],[7.3898,6.8846],[7.4039,6.8796],[7.4079,6.8744],[7.4227,6.8635],[7.4329,6.8715],[7.4348,6.8694],[7.4388,6.8722],[7.4373,6.8746],[7.4417,6.8773],[7.4414,6.8802],[7.4494,6.8812],[7.4581,6.8765],[7.4812,6.8849],[7.4824,6.8872],[7.4802,6.9031],[7.4756,6.911],[7.4845,6.92]]]}},{"type":"Feature","properties":{"name":"Isi-Uzo","state":"Enugu","scode":"EN","centroid":[6.7369,7.7313]},"geometry":{"type":"Polygon","coordinates":[[[7.6044,6.781],[7.5984,6.7693],[7.6018,6.7572],[7.6006,6.7503],[7.595,6.7432],[7.5966,6.737],[7.5961,6.7228],[7.6017,6.7093],[7.6045,6.6927],[7.616,6.6891],[7.6085,6.6797],[7.609,6.6726],[7.5981,6.6559],[7.5955,6.6439],[7.5844,6.6333],[7.5659,6.5991],[7.5559,6.6007],[7.5538,6.5936],[7.5578,6.5924],[7.567,6.5817],[7.5892,6.5623],[7.6076,6.5706],[7.6207,6.5732],[7.6341,6.5794],[7.6463,6.5699],[7.6555,6.5662],[7.6953,6.5773],[7.7046,6.578],[7.7039,6.6071],[7.6882,6.6293],[7.6912,6.6384],[7.72,6.6469],[7.738,6.6447],[7.776,6.6337],[7.8023,6.6321],[7.8177,6.6375],[7.811,6.6457],[7.814,6.6501],[7.8308,6.6619],[7.856,6.7001],[7.8685,6.7249],[7.8749,6.741],[7.8782,6.7602],[7.8884,6.7665],[7.8947,6.7744],[7.9034,6.7815],[7.9002,6.7862],[7.89,6.7854],[7.8876,6.7893],[7.8865,6.8051],[7.8897,6.8345],[7.8904,6.8437],[7.888,6.8539],[7.8762,6.8634],[7.8746,6.8689],[7.8636,6.8799],[7.8396,6.8807],[7.8335,6.8864],[7.8186,6.8919],[7.7918,6.8893],[7.7856,6.8728],[7.7628,6.8799],[7.7502,6.8784],[7.7376,6.8704],[7.7191,6.8725],[7.7138,6.871],[7.7119,6.8609],[7.6917,6.8516],[7.6881,6.8527],[7.6697,6.8163],[7.6619,6.8179],[7.6535,6.817],[7.6369,6.8294],[7.6338,6.8304],[7.6309,6.8345],[7.6211,6.8418],[7.6165,6.8423],[7.6204,6.8312],[7.6185,6.8134],[7.6125,6.803],[7.6038,6.7824],[7.6044,6.781]]]}},{"type":"Feature","properties":{"name":"Nkanu East","state":"Enugu","scode":"EN","centroid":[6.3137,7.6595]},"geometry":{"type":"Polygon","coordinates":[[[7.5791,6.3939],[7.5824,6.3921],[7.5792,6.3738],[7.5805,6.3644],[7.5759,6.3607],[7.57,6.3593],[7.5665,6.3495],[7.5658,6.3408],[7.5552,6.3404],[7.5611,6.3314],[7.571,6.3317],[7.5811,6.3264],[7.5891,6.3261],[7.5928,6.3375],[7.5951,6.3391],[7.6011,6.3365],[7.6048,6.3373],[7.619,6.3505],[7.6241,6.3501],[7.6303,6.3444],[7.6392,6.3326],[7.6391,6.3277],[7.6281,6.3001],[7.6226,6.2903],[7.6041,6.2919],[7.5933,6.2774],[7.5942,6.2739],[7.5597,6.2669],[7.559,6.2454],[7.5563,6.2333],[7.552,6.2257],[7.5387,6.2172],[7.5587,6.2079],[7.55,6.1733],[7.5347,6.1741],[7.5392,6.1504],[7.5551,6.1288],[7.5681,6.1353],[7.5914,6.1375],[7.6071,6.1336],[7.6085,6.1389],[7.6115,6.1425],[7.6147,6.1438],[7.6252,6.1408],[7.624,6.1306],[7.6273,6.123],[7.6325,6.1184],[7.6351,6.1114],[7.6338,6.1008],[7.6379,6.0933],[7.646,6.0854],[7.6517,6.0829],[7.658,6.0758],[7.6619,6.061],[7.6694,6.0636],[7.6862,6.0713],[7.6981,6.074],[7.7138,6.0839],[7.7262,6.1149],[7.7287,6.1999],[7.733,6.2266],[7.7089,6.2779],[7.708,6.2984],[7.721,6.331],[7.7387,6.3538],[7.7514,6.3855],[7.7491,6.4473],[7.7418,6.494],[7.7261,6.5601],[7.7046,6.578],[7.6953,6.5773],[7.6555,6.5662],[7.6463,6.5699],[7.6338,6.5675],[7.6465,6.5605],[7.6526,6.5491],[7.649,6.538],[7.6506,6.5273],[7.656,6.5267],[7.6581,6.5249],[7.6509,6.5177],[7.6482,6.5091],[7.6299,6.4881],[7.622,6.4833],[7.6124,6.482],[7.6056,6.4778],[7.6006,6.4644],[7.6016,6.4603],[7.6041,6.4591],[7.5959,6.4259],[7.5926,6.4316],[7.5875,6.4244],[7.5845,6.4261],[7.5821,6.4247],[7.5765,6.4196],[7.5725,6.4134],[7.5748,6.4116],[7.5751,6.4062],[7.5769,6.4054],[7.5791,6.3939]]]}},{"type":"Feature","properties":{"name":"Nkanu West","state":"Enugu","scode":"EN","centroid":[6.3117,7.5246]},"geometry":{"type":"Polygon","coordinates":[[[7.461,6.3793],[7.4558,6.3741],[7.4476,6.3709],[7.4453,6.3713],[7.4373,6.3628],[7.4329,6.3618],[7.4234,6.3557],[7.4213,6.342],[7.4242,6.3288],[7.4321,6.3115],[7.4415,6.2888],[7.4576,6.294],[7.4637,6.2946],[7.4674,6.2917],[7.4705,6.274],[7.483,6.2697],[7.5037,6.272],[7.5058,6.2642],[7.5062,6.2559],[7.505,6.2372],[7.5221,6.2244],[7.5387,6.2172],[7.552,6.2257],[7.5563,6.2333],[7.559,6.2454],[7.5597,6.2669],[7.5942,6.2739],[7.5933,6.2774],[7.6041,6.2919],[7.6226,6.2903],[7.6281,6.3001],[7.6391,6.3277],[7.6392,6.3326],[7.6303,6.3444],[7.6241,6.3501],[7.619,6.3505],[7.6048,6.3373],[7.6011,6.3365],[7.5951,6.3391],[7.5928,6.3375],[7.5891,6.3261],[7.5811,6.3264],[7.571,6.3317],[7.5611,6.3314],[7.5552,6.3404],[7.5658,6.3408],[7.5665,6.3495],[7.57,6.3593],[7.5759,6.3607],[7.5805,6.3644],[7.5792,6.3738],[7.5824,6.3921],[7.5791,6.3939],[7.5747,6.389],[7.5728,6.3836],[7.5673,6.3819],[7.5661,6.3754],[7.5637,6.3735],[7.5605,6.366],[7.5579,6.3666],[7.5563,6.3611],[7.5493,6.3586],[7.5379,6.3594],[7.5353,6.3638],[7.5262,6.3663],[7.5228,6.3657],[7.5167,6.3682],[7.5071,6.3648],[7.492,6.3669],[7.4839,6.374],[7.4692,6.3755],[7.461,6.3793]]]}},{"type":"Feature","properties":{"name":"Nsukka","state":"Enugu","scode":"EN","centroid":[6.8206,7.3993]},"geometry":{"type":"Polygon","coordinates":[[[7.4227,6.8635],[7.4079,6.8744],[7.4039,6.8796],[7.3898,6.8846],[7.3832,6.8891],[7.3802,6.8965],[7.3625,6.889],[7.3616,6.8948],[7.3686,6.9098],[7.3575,6.9149],[7.3509,6.9207],[7.3386,6.9232],[7.3256,6.9282],[7.3158,6.9292],[7.3003,6.9412],[7.3001,6.9459],[7.3241,6.9648],[7.3299,6.9747],[7.3295,6.9849],[7.3164,7.0105],[7.3122,7.0052],[7.2933,6.9942],[7.2578,6.9808],[7.2413,6.9713],[7.2381,6.9579],[7.2389,6.9414],[7.2352,6.9334],[7.2329,6.9297],[7.2178,6.9253],[7.2154,6.9155],[7.2101,6.9035],[7.2028,6.9023],[7.2285,6.9],[7.2656,6.8641],[7.2928,6.8622],[7.3037,6.8511],[7.3057,6.8474],[7.2933,6.8114],[7.2952,6.8068],[7.2761,6.7707],[7.276,6.7609],[7.3001,6.7487],[7.3017,6.7367],[7.3304,6.7264],[7.3369,6.7274],[7.3495,6.7228],[7.3525,6.7258],[7.3616,6.7283],[7.3638,6.7318],[7.3743,6.7384],[7.3807,6.7466],[7.3827,6.7541],[7.3838,6.7734],[7.3962,6.7697],[7.4145,6.769],[7.4259,6.7631],[7.4332,6.7512],[7.4365,6.7491],[7.451,6.7467],[7.4618,6.7392],[7.4903,6.7392],[7.5064,6.7265],[7.5304,6.716],[7.5516,6.6932],[7.5554,6.682],[7.5661,6.674],[7.5757,6.6737],[7.5981,6.6559],[7.609,6.6726],[7.6085,6.6797],[7.616,6.6891],[7.6045,6.6927],[7.6017,6.7093],[7.5961,6.7228],[7.5966,6.737],[7.595,6.7432],[7.6006,6.7503],[7.6018,6.7572],[7.5984,6.7693],[7.6044,6.781],[7.5945,6.7847],[7.5899,6.7897],[7.5786,6.7942],[7.5696,6.804],[7.5542,6.8091],[7.5453,6.8103],[7.5349,6.8089],[7.5282,6.8102],[7.5071,6.8098],[7.4925,6.8155],[7.4858,6.8202],[7.4634,6.825],[7.4583,6.8242],[7.4428,6.8392],[7.4281,6.8496],[7.4289,6.857],[7.4203,6.8633],[7.4227,6.8635]]]}},{"type":"Feature","properties":{"name":"Oji-River","state":"Enugu","scode":"EN","centroid":[6.1654,7.2974]},"geometry":{"type":"Polygon","coordinates":[[[7.29,6.2783],[7.2635,6.2703],[7.2558,6.2633],[7.2439,6.2629],[7.2066,6.2717],[7.1963,6.2799],[7.1602,6.3034],[7.1504,6.2969],[7.1426,6.2891],[7.1491,6.2625],[7.147,6.2558],[7.1484,6.251],[7.1455,6.25],[7.1448,6.246],[7.1423,6.2439],[7.1455,6.2404],[7.1453,6.2363],[7.1434,6.2356],[7.1507,6.23],[7.1506,6.2286],[7.1893,6.2395],[7.1995,6.2348],[7.2035,6.2182],[7.2043,6.2088],[7.209,6.2025],[7.224,6.1914],[7.2247,6.1788],[7.2216,6.1576],[7.224,6.1426],[7.2295,6.1276],[7.2397,6.1142],[7.2484,6.1087],[7.2497,6.1065],[7.2548,6.1047],[7.2613,6.0794],[7.2708,6.079],[7.2849,6.0777],[7.3095,6.079],[7.3096,6.0765],[7.3039,6.071],[7.3006,6.0656],[7.2973,6.0562],[7.2972,6.0526],[7.2995,6.0481],[7.3038,6.045],[7.3391,6.0421],[7.3763,6.04],[7.3868,6.0367],[7.4028,6.0147],[7.4022,6.0398],[7.3984,6.069],[7.4023,6.0779],[7.4164,6.1005],[7.4095,6.1324],[7.413,6.1341],[7.4106,6.1406],[7.4053,6.1423],[7.3979,6.1598],[7.398,6.1629],[7.3757,6.1998],[7.3743,6.2051],[7.3646,6.2137],[7.3561,6.2154],[7.3471,6.223],[7.3128,6.2618],[7.3052,6.2594],[7.2943,6.2606],[7.2983,6.2717],[7.29,6.2783]]]}},{"type":"Feature","properties":{"name":"Udenu","state":"Enugu","scode":"EN","centroid":[6.8693,7.5559]},"geometry":{"type":"Polygon","coordinates":[[[7.6881,6.8527],[7.6746,6.8555],[7.658,6.8681],[7.636,6.9036],[7.6202,6.9193],[7.5777,6.9327],[7.5714,6.9398],[7.5643,6.9524],[7.5572,6.9776],[7.5552,6.9806],[7.549,6.9689],[7.5487,6.9647],[7.5435,6.9607],[7.5347,6.9589],[7.5312,6.9619],[7.5199,6.9649],[7.5203,6.9543],[7.5221,6.9477],[7.5196,6.9386],[7.5034,6.9303],[7.5021,6.9262],[7.4925,6.9251],[7.4876,6.9194],[7.4845,6.92],[7.4756,6.911],[7.4802,6.9031],[7.4824,6.8872],[7.4812,6.8849],[7.4581,6.8765],[7.4494,6.8812],[7.4414,6.8802],[7.4417,6.8773],[7.4373,6.8746],[7.4388,6.8722],[7.4348,6.8694],[7.4329,6.8715],[7.4227,6.8635],[7.4203,6.8633],[7.4289,6.857],[7.4281,6.8496],[7.4428,6.8392],[7.4583,6.8242],[7.4634,6.825],[7.4858,6.8202],[7.4925,6.8155],[7.5071,6.8098],[7.5282,6.8102],[7.5349,6.8089],[7.5453,6.8103],[7.5542,6.8091],[7.5696,6.804],[7.5786,6.7942],[7.5899,6.7897],[7.5945,6.7847],[7.6044,6.781],[7.6038,6.7824],[7.6125,6.803],[7.6185,6.8134],[7.6204,6.8312],[7.6165,6.8423],[7.6211,6.8418],[7.6309,6.8345],[7.6338,6.8304],[7.6369,6.8294],[7.6535,6.817],[7.6619,6.8179],[7.6697,6.8163],[7.6881,6.8527]]]}},{"type":"Feature","properties":{"name":"Udi","state":"Enugu","scode":"EN","centroid":[6.4838,7.3515]},"geometry":{"type":"Polygon","coordinates":[[[7.4693,6.4168],[7.468,6.4171],[7.4692,6.4216],[7.465,6.4233],[7.4602,6.4274],[7.4551,6.429],[7.4539,6.4273],[7.4531,6.4338],[7.4448,6.4351],[7.4333,6.4415],[7.4267,6.4423],[7.4292,6.4558],[7.4324,6.464],[7.4418,6.4762],[7.4417,6.4785],[7.4392,6.4814],[7.4446,6.4885],[7.4519,6.4927],[7.45,6.4951],[7.4515,6.4982],[7.4505,6.5001],[7.4371,6.504],[7.4326,6.5031],[7.4311,6.5044],[7.4229,6.5044],[7.4154,6.5087],[7.415,6.5245],[7.4134,6.5284],[7.4138,6.5701],[7.4216,6.6051],[7.4264,6.6127],[7.4123,6.6436],[7.4114,6.6511],[7.4059,6.6529],[7.3964,6.6592],[7.3918,6.6612],[7.3877,6.6487],[7.3879,6.6453],[7.3824,6.6431],[7.3704,6.6426],[7.3413,6.6261],[7.3199,6.6598],[7.3112,6.6692],[7.2976,6.6787],[7.2884,6.6777],[7.2284,6.6823],[7.2215,6.6766],[7.2358,6.5733],[7.2465,6.5557],[7.263,6.5485],[7.2683,6.5258],[7.2747,6.4808],[7.2786,6.4811],[7.2836,6.4784],[7.2889,6.474],[7.2897,6.4684],[7.3231,6.4921],[7.3282,6.461],[7.3392,6.4498],[7.3482,6.4183],[7.3725,6.4217],[7.3761,6.4193],[7.3873,6.3807],[7.3861,6.3691],[7.3751,6.3628],[7.361,6.3607],[7.3609,6.3556],[7.349,6.3283],[7.3438,6.3055],[7.3352,6.3094],[7.3278,6.31],[7.3222,6.3123],[7.296,6.2817],[7.29,6.2783],[7.2983,6.2717],[7.2943,6.2606],[7.3052,6.2594],[7.3128,6.2618],[7.3471,6.223],[7.3561,6.2154],[7.3646,6.2137],[7.3672,6.2184],[7.403,6.2557],[7.404,6.2612],[7.4236,6.2855],[7.4304,6.311],[7.4321,6.3115],[7.4242,6.3288],[7.4213,6.342],[7.4234,6.3557],[7.4329,6.3618],[7.4373,6.3628],[7.4453,6.3713],[7.4476,6.3709],[7.4558,6.3741],[7.461,6.3793],[7.4594,6.3862],[7.4518,6.4002],[7.4597,6.4133],[7.4636,6.4114],[7.4693,6.4168]]]}},{"type":"Feature","properties":{"name":"Uzo-Uwani","state":"Enugu","scode":"EN","centroid":[6.7154,7.1303]},"geometry":{"type":"Polygon","coordinates":[[[7.2028,6.9023],[7.1877,6.9012],[7.1759,6.8965],[7.1701,6.8839],[7.1562,6.8831],[7.1468,6.8642],[7.1342,6.8547],[7.12,6.8484],[7.1129,6.8374],[7.1011,6.8287],[7.0932,6.8193],[7.0814,6.8004],[7.0601,6.7949],[7.0554,6.7862],[7.042,6.783],[7.0302,6.7854],[7.0207,6.7893],[7.005,6.7854],[6.9908,6.7854],[6.9861,6.7886],[6.9853,6.7988],[6.99,6.8232],[6.99,6.8335],[6.9868,6.8445],[6.9782,6.85],[6.9632,6.8445],[6.9608,6.8409],[6.9522,6.8279],[6.9524,6.8081],[6.9448,6.7987],[6.9299,6.7865],[6.9254,6.7925],[6.9234,6.802],[6.9121,6.8007],[6.8968,6.7924],[6.8783,6.7606],[6.8683,6.7553],[6.861,6.7534],[6.9098,6.6964],[6.9131,6.6954],[6.9187,6.6986],[6.9229,6.6991],[6.9269,6.6985],[6.9306,6.6957],[6.9356,6.6956],[6.9393,6.7033],[6.9439,6.7061],[6.9565,6.71],[6.9827,6.7131],[6.9909,6.7131],[7.0075,6.7087],[7.0166,6.7061],[7.0463,6.6874],[7.0506,6.6826],[7.0702,6.6856],[7.0903,6.6773],[7.1016,6.6756],[7.1291,6.6595],[7.1326,6.6521],[7.1317,6.6434],[7.1286,6.6355],[7.1247,6.6259],[7.1177,6.6155],[7.1156,6.6033],[7.1095,6.5932],[7.092,6.5758],[7.0842,6.5623],[7.0781,6.5575],[7.0633,6.5549],[7.0554,6.5453],[7.0485,6.5274],[7.0463,6.5122],[7.0463,6.5008],[7.0497,6.4744],[7.0454,6.4712],[7.0363,6.4738],[7.0331,6.4637],[7.0568,6.4645],[7.0783,6.4752],[7.1072,6.4933],[7.1152,6.4997],[7.1306,6.5028],[7.1355,6.5086],[7.1388,6.5198],[7.1879,6.5028],[7.213,6.5506],[7.2234,6.5668],[7.2358,6.5733],[7.2215,6.6766],[7.2284,6.6823],[7.2884,6.6777],[7.2976,6.6787],[7.2982,6.6869],[7.2957,6.71],[7.2968,6.729],[7.3017,6.7367],[7.3001,6.7487],[7.276,6.7609],[7.2761,6.7707],[7.2952,6.8068],[7.2933,6.8114],[7.3057,6.8474],[7.3037,6.8511],[7.2928,6.8622],[7.2656,6.8641],[7.2285,6.9],[7.2028,6.9023]]]}}]}