{"type":"FeatureCollection","features":[{"type":"Feature","properties":{"name":"Abaji","state":"Federal Capital Territory","scode":"FC","centroid":[8.8911,6.8513]},"geometry":{"type":"Polygon","coordinates":[[[6.9777,8.5198],[6.9648,8.5225],[6.9503,8.5277],[6.9199,8.5422],[6.9043,8.5634],[6.8696,8.5834],[6.8637,8.5792],[6.8562,8.5765],[6.8525,8.577],[6.8509,8.5797],[6.845,8.5818],[6.8359,8.5813],[6.8327,8.5824],[6.8365,8.5936],[6.8349,8.6],[6.8223,8.6074],[6.8133,8.6106],[6.8133,8.6144],[6.8159,8.6165],[6.8165,8.6213],[6.8143,8.6256],[6.8079,8.6261],[6.8031,8.6309],[6.8042,8.6352],[6.8111,8.6357],[6.8149,8.6389],[6.8122,8.6464],[6.8042,8.6464],[6.8031,8.6523],[6.8079,8.6571],[6.8031,8.6646],[6.7999,8.6731],[6.8036,8.6758],[6.8122,8.6774],[6.8229,8.6848],[6.8271,8.6934],[6.8239,8.6976],[6.8181,8.696],[6.8116,8.6918],[6.8084,8.6928],[6.8015,8.6987],[6.7988,8.7056],[6.8036,8.7115],[6.81,8.7153],[6.8106,8.7259],[6.8154,8.7281],[6.8165,8.7334],[6.8026,8.7409],[6.7946,8.7393],[6.793,8.7441],[6.7994,8.7462],[6.7999,8.7515],[6.8036,8.7553],[6.809,8.7531],[6.8143,8.7537],[6.8202,8.7612],[6.8143,8.7681],[6.801,8.7692],[6.7956,8.7772],[6.7972,8.7841],[6.802,8.7873],[6.8095,8.7878],[6.8154,8.7926],[6.8191,8.8017],[6.8234,8.8188],[6.8375,8.8263],[6.8402,8.8316],[6.8514,8.8353],[6.8551,8.8449],[6.8605,8.8476],[6.869,8.8439],[6.8722,8.8449],[6.8722,8.8514],[6.8744,8.8578],[6.8722,8.8722],[6.8749,8.8796],[6.8781,8.8828],[6.8802,8.8882],[6.8903,8.8966],[6.8825,8.9036],[6.884,8.9143],[6.8925,8.9271],[6.8984,8.9298],[6.8973,8.9442],[6.8989,8.9506],[6.9021,8.9549],[6.8968,8.973],[6.893,8.9752],[6.8925,8.9832],[6.8877,8.9896],[6.8818,8.9917],[6.8797,9.0051],[6.8738,9.0264],[6.8664,9.0414],[6.8674,9.0462],[6.8738,9.051],[6.8744,9.067],[6.877,9.0723],[6.8781,9.0787],[6.8813,9.0819],[6.8818,9.0921],[6.8866,9.0921],[6.8888,9.0979],[6.8893,9.1097],[6.8861,9.1198],[6.8925,9.1289],[6.8909,9.1337],[6.8808,9.1326],[6.877,9.1385],[6.8792,9.1497],[6.8776,9.1716],[6.8808,9.178],[6.8898,9.1897],[6.8888,9.1983],[6.8925,9.2052],[6.8978,9.2047],[6.9064,9.1967],[6.9128,9.1956],[6.9181,9.1983],[6.9245,9.1977],[6.9309,9.1999],[6.9373,9.1988],[6.9459,9.202],[6.9496,9.2052],[6.9582,9.2031],[6.9651,9.2105],[6.9662,9.2169],[6.9624,9.2191],[6.9598,9.2239],[6.9683,9.2319],[6.972,9.233],[6.9747,9.225],[6.9795,9.2239],[6.98,9.2298],[6.9838,9.2319],[6.9912,9.2319],[6.9939,9.2367],[7.0057,9.2463],[7.0137,9.2442],[7.0254,9.2479],[7.0301,9.2577],[7.0153,9.269],[6.7881,9.2702],[6.7831,8.8489],[6.7923,8.8403],[6.7901,8.7901],[6.7813,8.7439],[6.78,8.5803],[6.7825,8.5715],[6.7846,8.4576],[6.8279,8.4576],[6.9408,8.4589],[6.9774,8.4439],[6.9808,8.4437],[6.9835,8.4564],[6.9803,8.4766],[6.9858,8.4945],[6.9777,8.5198]]]}},{"type":"Feature","properties":{"name":"Bwari","state":"Federal Capital Territory","scode":"FC","centroid":[9.2434,7.487]},"geometry":{"type":"Polygon","coordinates":[[[7.5892,9.1009],[7.5887,9.1291],[7.6676,9.3037],[7.7241,9.3293],[7.693,9.3494],[7.6787,9.3684],[7.6707,9.3839],[7.6675,9.4014],[7.647,9.4087],[7.6141,9.4061],[7.5421,9.3874],[7.5091,9.355],[7.4969,9.3524],[7.4737,9.3503],[7.3897,9.3359],[7.3786,9.3365],[7.3591,9.309],[7.3567,9.3101],[7.3526,9.3069],[7.3308,9.2694],[7.221,9.1153],[7.223,9.1117],[7.2179,9.1011],[7.2181,9.0923],[7.2493,9.1025],[7.2777,9.1328],[7.2824,9.1356],[7.3435,9.1437],[7.3515,9.1401],[7.375,9.1236],[7.4146,9.1186],[7.4658,9.1174],[7.4715,9.116],[7.5048,9.0997],[7.5049,9.1121],[7.5481,9.1045],[7.5892,9.1009]]]}},{"type":"Feature","properties":{"name":"Gwagwalada","state":"Federal Capital Territory","scode":"FC","centroid":[9.0716,7.0271]},"geometry":{"type":"Polygon","coordinates":[[[7.2181,9.0923],[7.2179,9.1011],[7.223,9.1117],[7.221,9.1153],[7.2198,9.1135],[7.1793,9.1442],[7.0921,9.2106],[7.0301,9.2577],[7.0254,9.2479],[7.0137,9.2442],[7.0057,9.2463],[6.9939,9.2367],[6.9912,9.2319],[6.9838,9.2319],[6.98,9.2298],[6.9795,9.2239],[6.9747,9.225],[6.972,9.233],[6.9683,9.2319],[6.9598,9.2239],[6.9624,9.2191],[6.9662,9.2169],[6.9651,9.2105],[6.9582,9.2031],[6.9496,9.2052],[6.9459,9.202],[6.9373,9.1988],[6.9309,9.1999],[6.9245,9.1977],[6.9181,9.1983],[6.9128,9.1956],[6.9064,9.1967],[6.8978,9.2047],[6.8925,9.2052],[6.8888,9.1983],[6.8898,9.1897],[6.8808,9.178],[6.8776,9.1716],[6.8792,9.1497],[6.877,9.1385],[6.8808,9.1326],[6.8909,9.1337],[6.8925,9.1289],[6.8861,9.1198],[6.8893,9.1097],[6.8888,9.0979],[6.8866,9.0921],[6.8818,9.0921],[6.8813,9.0819],[6.8781,9.0787],[6.877,9.0723],[6.8744,9.067],[6.8738,9.051],[6.8674,9.0462],[6.8664,9.0414],[6.8738,9.0264],[6.8797,9.0051],[6.8818,8.9917],[6.8877,8.9896],[6.8925,8.9832],[6.893,8.9752],[6.8968,8.973],[6.9021,8.9549],[6.8989,8.9506],[6.8973,8.9442],[6.8984,8.9298],[6.8925,8.9271],[6.884,8.9143],[6.8825,8.9036],[6.8903,8.8966],[6.8933,8.8966],[6.8967,8.887],[6.9021,8.8873],[6.9048,8.8956],[6.9073,8.8976],[6.9097,8.8976],[6.914,8.903],[6.9285,8.9049],[6.9382,8.904],[6.9464,8.9129],[6.9606,8.9177],[6.9619,8.9204],[6.9689,8.9204],[6.9725,8.9286],[6.9763,8.9264],[6.9831,8.9355],[6.9863,8.932],[6.991,8.9339],[6.9983,8.9305],[7.002,8.9369],[7.0095,8.9401],[7.0141,8.9395],[7.0251,8.9322],[7.0213,8.9258],[7.0224,8.9242],[7.0342,8.9237],[7.0412,8.9258],[7.0458,8.9306],[7.0477,8.9296],[7.0493,8.9255],[7.0475,8.9233],[7.0471,8.9189],[7.0595,8.9095],[7.0614,8.9103],[7.0634,8.9087],[7.0658,8.9109],[7.0689,8.9099],[7.0732,8.9126],[7.0768,8.9129],[7.0801,8.917],[7.0851,8.9178],[7.1035,8.9176],[7.1055,8.9168],[7.1056,8.9132],[7.1159,8.9264],[7.1141,8.9277],[7.1135,8.933],[7.1092,8.9349],[7.1091,8.9371],[7.1122,8.9403],[7.1098,8.9484],[7.1065,8.9505],[7.1189,8.9567],[7.1231,8.9535],[7.1272,8.9472],[7.1289,8.9492],[7.1307,8.9479],[7.132,8.9487],[7.1304,8.9574],[7.1428,8.9613],[7.145,8.9689],[7.1516,8.9697],[7.1525,8.9903],[7.1562,8.9959],[7.1542,9.0008],[7.1599,9.0018],[7.1617,8.999],[7.1634,8.9993],[7.1639,9.0013],[7.1669,9.0019],[7.1696,9.0062],[7.1548,9.0157],[7.1672,9.0271],[7.1713,9.0258],[7.1783,9.0317],[7.1795,9.0306],[7.1811,9.0322],[7.1803,9.0335],[7.1907,9.0425],[7.196,9.0505],[7.2066,9.0426],[7.2081,9.0433],[7.217,9.0542],[7.2191,9.0631],[7.2098,9.0803],[7.2141,9.0878],[7.2167,9.0862],[7.2181,9.0923]]]}},{"type":"Feature","properties":{"name":"Kuje","state":"Federal Capital Territory","scode":"FC","centroid":[8.6671,7.2435]},"geometry":{"type":"Polygon","coordinates":[[[7.1159,8.9264],[7.1056,8.9132],[7.1029,8.9061],[7.1209,8.9009],[7.1321,8.885],[7.1503,8.8668],[7.1567,8.861],[7.1636,8.8588],[7.178,8.8481],[7.1871,8.838],[7.1914,8.8231],[7.1893,8.8087],[7.1802,8.7969],[7.1748,8.7926],[7.1546,8.7852],[7.1375,8.7814],[7.1284,8.7777],[7.1172,8.7676],[7.106,8.7542],[7.0996,8.7265],[7.1265,8.7054],[7.1253,8.6744],[7.1172,8.6656],[7.0582,8.6233],[7.0404,8.617],[7.0164,8.588],[6.9845,8.5439],[6.9875,8.5274],[6.9835,8.5215],[6.9777,8.5198],[6.9858,8.4945],[6.9803,8.4766],[6.9835,8.4564],[6.9808,8.4437],[7.0359,8.4397],[7.0799,8.4431],[7.0863,8.4327],[7.0835,8.4193],[7.1242,8.4228],[7.141,8.4353],[7.1397,8.4432],[7.1334,8.4495],[7.2705,8.4644],[7.3133,8.4736],[7.3653,8.4877],[7.3803,8.5215],[7.396,8.5384],[7.4181,8.5699],[7.4357,8.5864],[7.4776,8.6313],[7.4756,8.6325],[7.4569,8.6341],[7.4345,8.6304],[7.4297,8.6341],[7.3353,8.6396],[7.3428,8.6805],[7.3887,8.7292],[7.4527,8.7258],[7.4973,8.7301],[7.4996,8.7601],[7.4905,8.7654],[7.4852,8.7724],[7.4804,8.7841],[7.4788,8.7953],[7.4788,8.8374],[7.4819,8.868],[7.4096,8.8767],[7.4123,8.9087],[7.3347,8.9214],[7.3271,8.8837],[7.2922,8.8917],[7.2789,8.8969],[7.2728,8.9128],[7.2527,8.9122],[7.2468,8.9135],[7.2393,8.918],[7.2289,8.9199],[7.2172,8.918],[7.1907,8.9067],[7.165,8.909],[7.1468,8.9165],[7.1329,8.9255],[7.1299,8.925],[7.1267,8.9275],[7.1181,8.9248],[7.1159,8.9264]]]}},{"type":"Feature","properties":{"name":"Kwali","state":"Federal Capital Territory","scode":"FC","centroid":[8.745,6.9759]},"geometry":{"type":"Polygon","coordinates":[[[7.1056,8.9132],[7.1055,8.9168],[7.1035,8.9176],[7.0851,8.9178],[7.0801,8.917],[7.0768,8.9129],[7.0732,8.9126],[7.0689,8.9099],[7.0658,8.9109],[7.0634,8.9087],[7.0614,8.9103],[7.0595,8.9095],[7.0471,8.9189],[7.0475,8.9233],[7.0493,8.9255],[7.0477,8.9296],[7.0458,8.9306],[7.0412,8.9258],[7.0342,8.9237],[7.0224,8.9242],[7.0213,8.9258],[7.0251,8.9322],[7.0141,8.9395],[7.0095,8.9401],[7.002,8.9369],[6.9983,8.9305],[6.991,8.9339],[6.9863,8.932],[6.9831,8.9355],[6.9763,8.9264],[6.9725,8.9286],[6.9689,8.9204],[6.9619,8.9204],[6.9606,8.9177],[6.9464,8.9129],[6.9382,8.904],[6.9285,8.9049],[6.914,8.903],[6.9097,8.8976],[6.9073,8.8976],[6.9048,8.8956],[6.9021,8.8873],[6.8967,8.887],[6.8933,8.8966],[6.8903,8.8966],[6.8802,8.8882],[6.8781,8.8828],[6.8749,8.8796],[6.8722,8.8722],[6.8744,8.8578],[6.8722,8.8514],[6.8722,8.8449],[6.869,8.8439],[6.8605,8.8476],[6.8551,8.8449],[6.8514,8.8353],[6.8402,8.8316],[6.8375,8.8263],[6.8234,8.8188],[6.8191,8.8017],[6.8154,8.7926],[6.8095,8.7878],[6.802,8.7873],[6.7972,8.7841],[6.7956,8.7772],[6.801,8.7692],[6.8143,8.7681],[6.8202,8.7612],[6.8143,8.7537],[6.809,8.7531],[6.8036,8.7553],[6.7999,8.7515],[6.7994,8.7462],[6.793,8.7441],[6.7946,8.7393],[6.8026,8.7409],[6.8165,8.7334],[6.8154,8.7281],[6.8106,8.7259],[6.81,8.7153],[6.8036,8.7115],[6.7988,8.7056],[6.8015,8.6987],[6.8084,8.6928],[6.8116,8.6918],[6.8181,8.696],[6.8239,8.6976],[6.8271,8.6934],[6.8229,8.6848],[6.8122,8.6774],[6.8036,8.6758],[6.7999,8.6731],[6.8031,8.6646],[6.8079,8.6571],[6.8031,8.6523],[6.8042,8.6464],[6.8122,8.6464],[6.8149,8.6389],[6.8111,8.6357],[6.8042,8.6352],[6.8031,8.6309],[6.8079,8.6261],[6.8143,8.6256],[6.8165,8.6213],[6.8159,8.6165],[6.8133,8.6144],[6.8133,8.6106],[6.8223,8.6074],[6.8349,8.6],[6.8365,8.5936],[6.8327,8.5824],[6.8359,8.5813],[6.845,8.5818],[6.8509,8.5797],[6.8525,8.577],[6.8562,8.5765],[6.8637,8.5792],[6.8696,8.5834],[6.9043,8.5634],[6.9199,8.5422],[6.9503,8.5277],[6.9648,8.5225],[6.9777,8.5198],[6.9835,8.5215],[6.9875,8.5274],[6.9845,8.5439],[7.0164,8.588],[7.0404,8.617],[7.0582,8.6233],[7.1172,8.6656],[7.1253,8.6744],[7.1265,8.7054],[7.0996,8.7265],[7.106,8.7542],[7.1172,8.7676],[7.1284,8.7777],[7.1375,8.7814],[7.1546,8.7852],[7.1748,8.7926],[7.1802,8.7969],[7.1893,8.8087],[7.1914,8.8231],[7.1871,8.838],[7.178,8.8481],[7.1636,8.8588],[7.1567,8.861],[7.1503,8.8668],[7.1321,8.885],[7.1209,8.9009],[7.1029,8.9061],[7.1056,8.9132]]]}},{"type":"Feature","properties":{"name":"Municipal Area Council","state":"Federal Capital Territory","scode":"FC","centroid":[8.9429,7.4062]},"geometry":{"type":"Polygon","coordinates":[[[7.5531,8.7623],[7.5917,8.8349],[7.5947,8.8564],[7.5892,9.1009],[7.5481,9.1045],[7.5049,9.1121],[7.5048,9.0997],[7.4715,9.116],[7.4658,9.1174],[7.4146,9.1186],[7.375,9.1236],[7.3515,9.1401],[7.3435,9.1437],[7.2824,9.1356],[7.2777,9.1328],[7.2493,9.1025],[7.2181,9.0923],[7.2167,9.0862],[7.2141,9.0878],[7.2098,9.0803],[7.2191,9.0631],[7.217,9.0542],[7.2081,9.0433],[7.2066,9.0426],[7.196,9.0505],[7.1907,9.0425],[7.1803,9.0335],[7.1811,9.0322],[7.1795,9.0306],[7.1783,9.0317],[7.1713,9.0258],[7.1672,9.0271],[7.1548,9.0157],[7.1696,9.0062],[7.1669,9.0019],[7.1639,9.0013],[7.1634,8.9993],[7.1617,8.999],[7.1599,9.0018],[7.1542,9.0008],[7.1562,8.9959],[7.1525,8.9903],[7.1516,8.9697],[7.145,8.9689],[7.1428,8.9613],[7.1304,8.9574],[7.132,8.9487],[7.1307,8.9479],[7.1289,8.9492],[7.1272,8.9472],[7.1231,8.9535],[7.1189,8.9567],[7.1065,8.9505],[7.1098,8.9484],[7.1122,8.9403],[7.1091,8.9371],[7.1092,8.9349],[7.1135,8.933],[7.1141,8.9277],[7.1159,8.9264],[7.1181,8.9248],[7.1267,8.9275],[7.1299,8.925],[7.1329,8.9255],[7.1468,8.9165],[7.165,8.909],[7.1907,8.9067],[7.2172,8.918],[7.2289,8.9199],[7.2393,8.918],[7.2468,8.9135],[7.2527,8.9122],[7.2728,8.9128],[7.2789,8.8969],[7.2922,8.8917],[7.3271,8.8837],[7.3347,8.9214],[7.4123,8.9087],[7.4096,8.8767],[7.4819,8.868],[7.4788,8.8374],[7.4788,8.7953],[7.4804,8.7841],[7.4852,8.7724],[7.4905,8.7654],[7.4996,8.7601],[7.4973,8.7301],[7.4527,8.7258],[7.3887,8.7292],[7.3428,8.6805],[7.3353,8.6396],[7.4297,8.6341],[7.4345,8.6304],[7.4569,8.6341],[7.4756,8.6325],[7.4776,8.6313],[7.496,8.6543],[7.502,8.6687],[7.5531,8.7623]]]}}]}