{"type":"FeatureCollection","features":[{"type":"Feature","properties":{"name":"Akko","state":"Gombe","scode":"GO","centroid":[10.1077,11.0378]},"geometry":{"type":"Polygon","coordinates":[[[10.9776,9.8102],[10.9824,9.8075],[10.9963,9.814],[11.0132,9.8138],[11.0201,9.8163],[11.044,9.8366],[11.0501,9.8501],[11.0574,9.8903],[11.0618,9.9002],[11.0733,9.911],[11.0761,9.9207],[11.0758,9.9266],[11.0848,9.9379],[11.0969,9.944],[11.1067,9.9471],[11.1194,9.9497],[11.1298,9.9499],[11.1518,9.9539],[11.1651,9.9548],[11.1734,9.9666],[11.1773,9.9773],[11.1827,9.9838],[11.1863,9.986],[11.2062,9.9927],[11.2241,9.9898],[11.2269,9.9908],[11.2441,10.0046],[11.2504,10.0073],[11.2537,10.0022],[11.2566,10.0059],[11.2629,10.0098],[11.2729,10.0023],[11.2829,10.0052],[11.2983,10.02],[11.3038,10.0279],[11.3211,10.0279],[11.3586,10.0217],[11.3855,10.0122],[11.4185,10.0038],[11.4285,9.9938],[11.4491,9.9889],[11.4638,9.9873],[11.4726,9.9915],[11.4799,10.0012],[11.4866,10.0197],[11.5335,10.0063],[11.5394,10.0216],[11.5125,10.0389],[11.4927,10.043],[11.4718,10.0431],[11.4582,10.0482],[11.4172,10.0705],[11.3877,10.0741],[11.3634,10.072],[11.3307,10.0787],[11.304,10.1077],[11.2929,10.1598],[11.2882,10.174],[11.2858,10.1951],[11.2789,10.2105],[11.2658,10.225],[11.2,10.208],[11.1905,10.2254],[11.1908,10.2382],[11.1969,10.2517],[11.2099,10.2653],[11.2115,10.274],[11.2082,10.2931],[11.1987,10.2897],[11.1931,10.2817],[11.1972,10.2778],[11.19,10.2699],[11.1839,10.2685],[11.182,10.2661],[11.18,10.2667],[11.1771,10.2637],[11.1688,10.2636],[11.1626,10.2668],[11.1616,10.2689],[11.1603,10.2685],[11.1595,10.2704],[11.1578,10.2699],[11.1541,10.2761],[11.1497,10.2762],[11.1497,10.2776],[11.1464,10.2785],[11.1243,10.2797],[11.1202,10.286],[11.1213,10.311],[11.0919,10.3167],[11.0784,10.31],[11.0323,10.331],[11.0051,10.3346],[10.9948,10.3533],[10.9921,10.3674],[10.9711,10.372],[10.9312,10.3556],[10.8831,10.3743],[10.8729,10.3845],[10.8627,10.3844],[10.8374,10.3956],[10.8351,10.3951],[10.8339,10.365],[10.8283,10.351],[10.8222,10.343],[10.8234,10.3311],[10.8222,10.3208],[10.8192,10.313],[10.8473,10.2864],[10.8629,10.2683],[10.8553,10.2408],[10.8572,10.2357],[10.8512,10.2242],[10.8393,10.2152],[10.8356,10.2041],[10.8199,10.1811],[10.8172,10.1695],[10.8186,10.1573],[10.8074,10.138],[10.8003,10.1348],[10.7867,10.1348],[10.7746,10.1376],[10.7492,10.1199],[10.7384,10.121],[10.7265,10.1055],[10.7212,10.0951],[10.7159,10.0945],[10.7134,10.0888],[10.7115,10.0762],[10.7169,10.0635],[10.7175,10.0499],[10.7277,10.0415],[10.7753,10.0125],[10.7884,10.0061],[10.8122,9.9793],[10.825,9.97],[10.8577,9.9557],[10.8659,9.9499],[10.8752,9.9405],[10.8906,9.9307],[10.9185,9.8997],[10.9454,9.8804],[10.9449,9.8704],[10.9591,9.8522],[10.9577,9.8345],[10.9612,9.8234],[10.9657,9.8141],[10.9702,9.8117],[10.9773,9.8127],[10.9776,9.8102]]]}},{"type":"Feature","properties":{"name":"Balanga","state":"Gombe","scode":"GO","centroid":[9.838,11.6511]},"geometry":{"type":"Polygon","coordinates":[[[11.7761,9.7071],[11.7962,9.7309],[11.8172,9.7409],[11.8358,9.7727],[11.8509,9.7864],[11.8545,9.7935],[11.8518,9.814],[11.8444,9.8193],[11.8264,9.8229],[11.8034,9.8323],[11.8012,9.8407],[11.809,9.8764],[11.8165,9.8914],[11.8193,9.9028],[11.8293,9.9154],[11.8347,9.9297],[11.8332,9.949],[11.8237,9.9558],[11.8227,9.9699],[11.8253,9.9949],[11.8296,10.0164],[11.8355,10.0285],[11.8358,10.0339],[11.8018,10.0358],[11.7899,10.0393],[11.7851,10.0458],[11.7803,10.0595],[11.7667,10.0769],[11.7607,10.079],[11.7562,10.0834],[11.7546,10.0916],[11.7483,10.0892],[11.7442,10.0943],[11.7355,10.0959],[11.7199,10.0809],[11.7143,10.0827],[11.7052,10.0788],[11.6891,10.0853],[11.6817,10.0797],[11.679,10.075],[11.6739,10.0719],[11.6599,10.0772],[11.6513,10.0778],[11.6254,10.0675],[11.6244,10.071],[11.6216,10.0713],[11.6098,10.0658],[11.6057,10.0673],[11.5976,10.0672],[11.5912,10.065],[11.586,10.0606],[11.5854,10.0563],[11.58,10.0525],[11.5793,10.0498],[11.582,10.0449],[11.5775,10.038],[11.552,10.0336],[11.5492,10.0255],[11.5394,10.0216],[11.5335,10.0063],[11.5264,9.987],[11.5232,9.973],[11.5234,9.937],[11.5272,9.9311],[11.5359,9.9305],[11.5441,9.934],[11.5519,9.9333],[11.5548,9.9292],[11.5508,9.9241],[11.5446,9.9205],[11.5394,9.9205],[11.5367,9.917],[11.5348,9.9102],[11.5374,9.9056],[11.5385,9.8973],[11.5553,9.8774],[11.5659,9.8713],[11.5742,9.8628],[11.5699,9.842],[11.5699,9.8232],[11.5651,9.7979],[11.5685,9.7872],[11.568,9.7769],[11.5699,9.7641],[11.5669,9.7397],[11.5562,9.7249],[11.5482,9.7189],[11.5276,9.708],[11.5045,9.6994],[11.4883,9.6978],[11.4539,9.6997],[11.4466,9.6974],[11.4363,9.6908],[11.4187,9.6695],[11.412,9.6577],[11.4065,9.6465],[11.4005,9.625],[11.3938,9.6121],[11.3884,9.5952],[11.3822,9.5851],[11.3762,9.5682],[11.3739,9.5468],[11.4057,9.5445],[11.4202,9.546],[11.4296,9.5496],[11.4339,9.5521],[11.4419,9.5604],[11.4445,9.5762],[11.468,9.5985],[11.4843,9.6042],[11.4912,9.6041],[11.5017,9.6075],[11.5273,9.6082],[11.5456,9.6052],[11.563,9.6051],[11.5671,9.6108],[11.5764,9.6153],[11.5817,9.6198],[11.5862,9.6338],[11.5983,9.6493],[11.6136,9.6563],[11.6345,9.6275],[11.6546,9.6369],[11.6639,9.6484],[11.672,9.6552],[11.6836,9.6632],[11.6964,9.6689],[11.7009,9.6738],[11.7266,9.6906],[11.7359,9.6997],[11.7382,9.6997],[11.7463,9.7054],[11.7566,9.7187],[11.7761,9.7071]]]}},{"type":"Feature","properties":{"name":"Billiri","state":"Gombe","scode":"GO","centroid":[9.8308,11.1233]},"geometry":{"type":"Polygon","coordinates":[[[10.9601,9.6792],[11.0195,9.6986],[11.0569,9.6898],[11.0828,9.69],[11.1013,9.6804],[11.1121,9.6896],[11.126,9.6928],[11.1378,9.6996],[11.1422,9.7247],[11.1649,9.7512],[11.2132,9.7875],[11.2317,9.7922],[11.2365,9.8138],[11.2398,9.822],[11.2426,9.8667],[11.2447,9.8765],[11.2428,9.8998],[11.2388,9.9181],[11.2404,9.9295],[11.2475,9.9298],[11.2524,9.9423],[11.2569,9.9482],[11.2911,9.9683],[11.2873,9.98],[11.2796,9.9864],[11.2729,10.0023],[11.2629,10.0098],[11.2566,10.0059],[11.2537,10.0022],[11.2504,10.0073],[11.2441,10.0046],[11.2269,9.9908],[11.2241,9.9898],[11.2062,9.9927],[11.1863,9.986],[11.1827,9.9838],[11.1773,9.9773],[11.1734,9.9666],[11.1651,9.9548],[11.1518,9.9539],[11.1298,9.9499],[11.1194,9.9497],[11.1067,9.9471],[11.0969,9.944],[11.0848,9.9379],[11.0758,9.9266],[11.0761,9.9207],[11.0733,9.911],[11.0618,9.9002],[11.0574,9.8903],[11.0501,9.8501],[11.044,9.8366],[11.0201,9.8163],[11.0132,9.8138],[10.9963,9.814],[10.9824,9.8075],[10.9776,9.8102],[10.9816,9.7748],[10.9787,9.7722],[10.9785,9.7698],[10.9747,9.7669],[10.9655,9.7523],[10.9647,9.7455],[10.9664,9.7311],[10.9618,9.7168],[10.9567,9.7114],[10.9578,9.7033],[10.9608,9.6958],[10.9601,9.6792]]]}},{"type":"Feature","properties":{"name":"Dukku","state":"Gombe","scode":"GO","centroid":[10.7864,10.8613]},"geometry":{"type":"Polygon","coordinates":[[[10.4943,10.6883],[10.5253,10.6627],[10.5286,10.6497],[10.538,10.6494],[10.5626,10.6423],[10.5695,10.6279],[10.5582,10.6006],[10.57,10.5868],[10.5934,10.5714],[10.6124,10.5566],[10.6619,10.4914],[10.6655,10.4909],[10.6696,10.4931],[10.6894,10.4931],[10.7014,10.4874],[10.7054,10.4804],[10.7216,10.4901],[10.7302,10.4874],[10.7425,10.4736],[10.7907,10.4351],[10.7926,10.4407],[10.8004,10.4507],[10.8103,10.4478],[10.8135,10.4377],[10.8041,10.4245],[10.8354,10.3996],[10.8351,10.3951],[10.8374,10.3956],[10.8627,10.3844],[10.8729,10.3845],[10.9231,10.4238],[10.9125,10.475],[10.9116,10.5046],[10.9305,10.5486],[10.924,10.5861],[10.9231,10.5977],[10.9314,10.6205],[10.9708,10.6149],[10.9913,10.6387],[10.997,10.6482],[10.9961,10.6568],[11.0395,10.6648],[11.0778,10.6645],[11.0854,10.6624],[11.0923,10.6629],[11.1368,10.6723],[11.1467,10.6707],[11.1721,10.6604],[11.1907,10.6935],[11.2455,10.801],[11.2165,10.8035],[11.2053,10.8125],[11.2178,10.857],[11.19,10.8783],[11.1484,10.9028],[11.102,10.9333],[11.1068,10.9543],[11.1123,10.9707],[11.1207,10.986],[11.1214,11.0055],[11.0979,11.0312],[11.0869,11.0542],[11.064,11.0705],[11.0554,11.0896],[11.0287,11.099],[11.0157,11.108],[11.0359,11.1343],[11.0207,11.1572],[11.0085,11.1491],[10.9893,11.1363],[10.9374,11.0962],[10.9293,11.0945],[10.9296,11.0907],[10.9219,11.0921],[10.9103,11.0883],[10.8821,11.086],[10.8642,11.0884],[10.8534,11.085],[10.7991,11.0843],[10.789,11.0728],[10.7871,11.0641],[10.7724,11.0603],[10.7384,11.101],[10.7079,11.0848],[10.6899,11.0472],[10.679,11.0458],[10.6695,11.0398],[10.6647,11.0283],[10.6625,11.0107],[10.6647,10.9944],[10.6597,10.9849],[10.6427,10.977],[10.6411,10.9608],[10.6571,10.9517],[10.6627,10.9463],[10.6746,10.9386],[10.6772,10.9309],[10.6467,10.8932],[10.652,10.8814],[10.6427,10.876],[10.6365,10.8675],[10.6247,10.8587],[10.62,10.8513],[10.6098,10.8488],[10.5955,10.8269],[10.5765,10.8071],[10.5687,10.8108],[10.5267,10.737],[10.5214,10.7326],[10.5203,10.7269],[10.5186,10.7255],[10.5143,10.7255],[10.5109,10.7199],[10.5065,10.7178],[10.5054,10.7145],[10.4997,10.712],[10.5,10.6976],[10.4943,10.6883]]]}},{"type":"Feature","properties":{"name":"Funakaye","state":"Gombe","scode":"GO","centroid":[10.7862,11.3751]},"geometry":{"type":"Polygon","coordinates":[[[11.4734,11.0175],[11.4486,11.0467],[11.4349,11.0559],[11.4121,11.0802],[11.4025,11.0879],[11.3944,11.092],[11.3911,11.0902],[11.3806,11.0787],[11.3828,11.0618],[11.3785,11.0395],[11.331,11.0088],[11.3265,11.0],[11.3275,10.9857],[11.3221,10.965],[11.3255,10.9587],[11.3268,10.9516],[11.3433,10.9291],[11.3442,10.921],[11.3395,10.921],[11.3469,10.8996],[11.3472,10.8868],[11.3452,10.872],[11.3638,10.8397],[11.3631,10.8302],[11.3508,10.819],[11.3434,10.8071],[11.3401,10.7953],[11.3269,10.7909],[11.317,10.7895],[11.3089,10.7905],[11.2455,10.801],[11.1907,10.6935],[11.1721,10.6604],[11.1819,10.6565],[11.1797,10.6281],[11.1925,10.5789],[11.213,10.5659],[11.2332,10.5554],[11.2516,10.5315],[11.2656,10.5289],[11.2864,10.5277],[11.3143,10.5283],[11.3222,10.5397],[11.3288,10.5543],[11.3454,10.6162],[11.3763,10.6489],[11.4155,10.6658],[11.5227,10.6615],[11.5165,10.684],[11.5151,10.695],[11.5166,10.7321],[11.5198,10.7449],[11.5265,10.7579],[11.5287,10.7904],[11.5362,10.8231],[11.5364,10.8288],[11.5344,10.8335],[11.5381,10.8399],[11.5391,10.851],[11.5365,10.8637],[11.5287,10.8768],[11.5274,10.8916],[11.5289,10.8934],[11.531,10.9041],[11.5319,10.9181],[11.5304,10.9349],[11.515,10.9659],[11.495,10.9909],[11.4825,11.0028],[11.4734,11.0175]]]}},{"type":"Feature","properties":{"name":"Gombe","state":"Gombe","scode":"GO","centroid":[10.2942,11.1579]},"geometry":{"type":"MultiPolygon","coordinates":[[[[11.1987,10.2897],[11.196,10.2931],[11.1956,10.3016],[11.194,10.3042],[11.1908,10.3032],[11.1894,10.3044],[11.1898,10.3097],[11.1853,10.313],[11.1825,10.3142],[11.1825,10.313],[11.1758,10.3109],[11.1601,10.317],[11.1572,10.3114],[11.1461,10.3154],[11.1444,10.3118],[11.1377,10.3176],[11.1274,10.3321],[11.1236,10.3293],[11.1211,10.325],[11.1213,10.311],[11.1202,10.286],[11.1243,10.2797],[11.1464,10.2785],[11.1497,10.2776],[11.1497,10.2762],[11.1541,10.2761],[11.1578,10.2699],[11.1595,10.2704],[11.1603,10.2685],[11.1616,10.2689],[11.1626,10.2668],[11.1688,10.2636],[11.1771,10.2637],[11.18,10.2667],[11.182,10.2661],[11.1839,10.2685],[11.19,10.2699],[11.1972,10.2778],[11.1931,10.2817],[11.1987,10.2897]]],[[[11.2239,10.3408],[11.231,10.3161],[11.2387,10.3157],[11.2433,10.3094],[11.2416,10.3086],[11.2412,10.303],[11.2447,10.3021],[11.247,10.2938],[11.2596,10.2926],[11.2623,10.3056],[11.2615,10.3158],[11.2739,10.3403],[11.2239,10.3408]]]]}},{"type":"Feature","properties":{"name":"Kaltungo","state":"Gombe","scode":"GO","centroid":[9.8546,11.4188]},"geometry":{"type":"Polygon","coordinates":[[[11.412,9.6577],[11.4187,9.6695],[11.4363,9.6908],[11.4466,9.6974],[11.4539,9.6997],[11.4883,9.6978],[11.5045,9.6994],[11.5276,9.708],[11.5482,9.7189],[11.5562,9.7249],[11.5669,9.7397],[11.5699,9.7641],[11.568,9.7769],[11.5685,9.7872],[11.5651,9.7979],[11.5699,9.8232],[11.5699,9.842],[11.5742,9.8628],[11.5659,9.8713],[11.5553,9.8774],[11.5385,9.8973],[11.5374,9.9056],[11.5348,9.9102],[11.5367,9.917],[11.5394,9.9205],[11.5446,9.9205],[11.5508,9.9241],[11.5548,9.9292],[11.5519,9.9333],[11.5441,9.934],[11.5359,9.9305],[11.5272,9.9311],[11.5234,9.937],[11.5232,9.973],[11.5264,9.987],[11.5335,10.0063],[11.4866,10.0197],[11.4799,10.0012],[11.4726,9.9915],[11.4638,9.9873],[11.4491,9.9889],[11.4285,9.9938],[11.4185,10.0038],[11.3855,10.0122],[11.3586,10.0217],[11.3211,10.0279],[11.3038,10.0279],[11.2983,10.02],[11.2829,10.0052],[11.2729,10.0023],[11.2796,9.9864],[11.2873,9.98],[11.2911,9.9683],[11.2569,9.9482],[11.2524,9.9423],[11.2475,9.9298],[11.2564,9.9269],[11.2627,9.9187],[11.2658,9.9096],[11.2736,9.8964],[11.2797,9.8821],[11.2835,9.8682],[11.2951,9.8383],[11.2917,9.8075],[11.2883,9.7937],[11.2945,9.7923],[11.3003,9.7888],[11.299,9.7871],[11.2995,9.7819],[11.3025,9.7777],[11.2945,9.7767],[11.2924,9.7749],[11.3031,9.7642],[11.3344,9.7388],[11.3469,9.7194],[11.3506,9.7114],[11.3786,9.6749],[11.3857,9.6692],[11.4068,9.6587],[11.412,9.6577]]]}},{"type":"Feature","properties":{"name":"Kwami","state":"Gombe","scode":"GO","centroid":[10.4949,11.1835]},"geometry":{"type":"Polygon","coordinates":[[[11.5227,10.6615],[11.4155,10.6658],[11.3763,10.6489],[11.3454,10.6162],[11.3288,10.5543],[11.3222,10.5397],[11.3143,10.5283],[11.2864,10.5277],[11.2656,10.5289],[11.2516,10.5315],[11.2332,10.5554],[11.213,10.5659],[11.1925,10.5789],[11.1797,10.6281],[11.1819,10.6565],[11.1721,10.6604],[11.1467,10.6707],[11.1368,10.6723],[11.0923,10.6629],[11.0854,10.6624],[11.0778,10.6645],[11.0395,10.6648],[10.9961,10.6568],[10.997,10.6482],[10.9913,10.6387],[10.9708,10.6149],[10.9314,10.6205],[10.9231,10.5977],[10.924,10.5861],[10.9305,10.5486],[10.9116,10.5046],[10.9125,10.475],[10.9231,10.4238],[10.8729,10.3845],[10.8831,10.3743],[10.9312,10.3556],[10.9711,10.372],[10.9921,10.3674],[10.9948,10.3533],[11.0051,10.3346],[11.0323,10.331],[11.0784,10.31],[11.0919,10.3167],[11.1213,10.311],[11.1211,10.325],[11.1236,10.3293],[11.1274,10.3321],[11.1377,10.3176],[11.1444,10.3118],[11.1461,10.3154],[11.1572,10.3114],[11.1601,10.317],[11.1758,10.3109],[11.1825,10.313],[11.1825,10.3142],[11.1853,10.313],[11.1942,10.3188],[11.2146,10.3409],[11.2239,10.3408],[11.2739,10.3403],[11.2939,10.3603],[11.3043,10.3669],[11.3159,10.3707],[11.3253,10.3815],[11.3301,10.3811],[11.3517,10.3951],[11.3995,10.3901],[11.4063,10.4041],[11.4143,10.409],[11.4392,10.4403],[11.4557,10.4569],[11.4336,10.456],[11.4072,10.4653],[11.4146,10.4966],[11.425,10.513],[11.48,10.4836],[11.4909,10.4902],[11.5095,10.5197],[11.5109,10.5359],[11.5166,10.543],[11.5218,10.569],[11.5165,10.5703],[11.5127,10.5853],[11.5124,10.5998],[11.5215,10.6394],[11.5242,10.66],[11.5227,10.6615]]]}},{"type":"Feature","properties":{"name":"Nafada","state":"Gombe","scode":"GO","centroid":[11.0364,11.2091]},"geometry":{"type":"Polygon","coordinates":[[[10.9817,11.1788],[11.0085,11.1491],[11.0207,11.1572],[11.0359,11.1343],[11.0157,11.108],[11.0287,11.099],[11.0554,11.0896],[11.064,11.0705],[11.0869,11.0542],[11.0979,11.0312],[11.1214,11.0055],[11.1207,10.986],[11.1123,10.9707],[11.1068,10.9543],[11.102,10.9333],[11.1484,10.9028],[11.19,10.8783],[11.2178,10.857],[11.2053,10.8125],[11.2165,10.8035],[11.2455,10.801],[11.3089,10.7905],[11.317,10.7895],[11.3269,10.7909],[11.3401,10.7953],[11.3434,10.8071],[11.3508,10.819],[11.3631,10.8302],[11.3638,10.8397],[11.3452,10.872],[11.3472,10.8868],[11.3469,10.8996],[11.3395,10.921],[11.3442,10.921],[11.3433,10.9291],[11.3268,10.9516],[11.3255,10.9587],[11.3221,10.965],[11.3275,10.9857],[11.3265,11.0],[11.331,11.0088],[11.3785,11.0395],[11.3828,11.0618],[11.3806,11.0787],[11.3911,11.0902],[11.3781,11.0944],[11.3712,11.0984],[11.3743,11.1017],[11.3742,11.105],[11.3727,11.1061],[11.375,11.1101],[11.3732,11.114],[11.36,11.1275],[11.3549,11.1442],[11.3479,11.1527],[11.3416,11.1638],[11.3194,11.1862],[11.3114,11.1689],[11.2755,11.1723],[11.2486,11.1836],[11.2238,11.1648],[11.2009,11.1751],[11.1819,11.199],[11.1651,11.2012],[11.1338,11.2078],[11.0919,11.2261],[11.0774,11.2867],[10.9817,11.1788]]]}},{"type":"Feature","properties":{"name":"Shomgom","state":"Gombe","scode":"GO","centroid":[9.6604,11.2006]},"geometry":{"type":"Polygon","coordinates":[[[10.9691,9.6154],[10.9781,9.5746],[10.9847,9.5655],[10.9924,9.5593],[11.0082,9.5521],[11.0204,9.5495],[11.0355,9.5487],[11.0621,9.5522],[11.0764,9.5514],[11.0836,9.5467],[11.0945,9.5331],[11.1142,9.5256],[11.1509,9.5508],[11.1613,9.551],[11.1821,9.5556],[11.2225,9.5693],[11.2271,9.5694],[11.2441,9.5622],[11.2547,9.5543],[11.2693,9.5489],[11.278,9.5478],[11.3377,9.5487],[11.3739,9.5468],[11.3762,9.5682],[11.3822,9.5851],[11.3884,9.5952],[11.3938,9.6121],[11.4005,9.625],[11.4065,9.6465],[11.412,9.6577],[11.4068,9.6587],[11.3857,9.6692],[11.3786,9.6749],[11.3506,9.7114],[11.3469,9.7194],[11.3344,9.7388],[11.3031,9.7642],[11.2924,9.7749],[11.2945,9.7767],[11.3025,9.7777],[11.2995,9.7819],[11.299,9.7871],[11.3003,9.7888],[11.2945,9.7923],[11.2883,9.7937],[11.2917,9.8075],[11.2951,9.8383],[11.2835,9.8682],[11.2797,9.8821],[11.2736,9.8964],[11.2658,9.9096],[11.2627,9.9187],[11.2564,9.9269],[11.2475,9.9298],[11.2404,9.9295],[11.2388,9.9181],[11.2428,9.8998],[11.2447,9.8765],[11.2426,9.8667],[11.2398,9.822],[11.2365,9.8138],[11.2317,9.7922],[11.2132,9.7875],[11.1649,9.7512],[11.1422,9.7247],[11.1378,9.6996],[11.126,9.6928],[11.1121,9.6896],[11.1013,9.6804],[11.0828,9.69],[11.0569,9.6898],[11.0195,9.6986],[10.9601,9.6792],[10.9605,9.6754],[10.9563,9.6719],[10.9569,9.6686],[10.985,9.6418],[10.9899,9.6406],[10.9882,9.6302],[10.9691,9.6154]]]}},{"type":"Feature","properties":{"name":"Yamaltu/Deba","state":"Gombe","scode":"GO","centroid":[10.2626,11.4726]},"geometry":{"type":"Polygon","coordinates":[[[11.5218,10.569],[11.5166,10.543],[11.5109,10.5359],[11.5095,10.5197],[11.4909,10.4902],[11.48,10.4836],[11.425,10.513],[11.4146,10.4966],[11.4072,10.4653],[11.4336,10.456],[11.4557,10.4569],[11.4392,10.4403],[11.4143,10.409],[11.4063,10.4041],[11.3995,10.3901],[11.3517,10.3951],[11.3301,10.3811],[11.3253,10.3815],[11.3159,10.3707],[11.3043,10.3669],[11.2939,10.3603],[11.2739,10.3403],[11.2615,10.3158],[11.2623,10.3056],[11.2596,10.2926],[11.247,10.2938],[11.2447,10.3021],[11.2412,10.303],[11.2416,10.3086],[11.2433,10.3094],[11.2387,10.3157],[11.231,10.3161],[11.2239,10.3408],[11.2146,10.3409],[11.1942,10.3188],[11.1853,10.313],[11.1898,10.3097],[11.1894,10.3044],[11.1908,10.3032],[11.194,10.3042],[11.1956,10.3016],[11.196,10.2931],[11.1987,10.2897],[11.2082,10.2931],[11.2115,10.274],[11.2099,10.2653],[11.1969,10.2517],[11.1908,10.2382],[11.1905,10.2254],[11.2,10.208],[11.2658,10.225],[11.2789,10.2105],[11.2858,10.1951],[11.2882,10.174],[11.2929,10.1598],[11.304,10.1077],[11.3307,10.0787],[11.3634,10.072],[11.3877,10.0741],[11.4172,10.0705],[11.4582,10.0482],[11.4718,10.0431],[11.4927,10.043],[11.5125,10.0389],[11.5394,10.0216],[11.5492,10.0255],[11.552,10.0336],[11.5775,10.038],[11.582,10.0449],[11.5793,10.0498],[11.58,10.0525],[11.5854,10.0563],[11.586,10.0606],[11.5912,10.065],[11.5976,10.0672],[11.6057,10.0673],[11.6098,10.0658],[11.6216,10.0713],[11.6244,10.071],[11.6254,10.0675],[11.6513,10.0778],[11.6599,10.0772],[11.6739,10.0719],[11.679,10.075],[11.6817,10.0797],[11.6891,10.0853],[11.7052,10.0788],[11.7143,10.0827],[11.7199,10.0809],[11.7355,10.0959],[11.7442,10.0943],[11.7483,10.0892],[11.7546,10.0916],[11.7538,10.0968],[11.7501,10.1041],[11.736,10.1178],[11.7314,10.1431],[11.7275,10.1462],[11.7109,10.1733],[11.6957,10.1878],[11.6868,10.1899],[11.671,10.1973],[11.6565,10.2009],[11.6481,10.2012],[11.6463,10.2034],[11.6395,10.2031],[11.6337,10.2081],[11.6231,10.2097],[11.6212,10.2127],[11.6119,10.22],[11.61,10.2241],[11.6118,10.228],[11.6167,10.2286],[11.6179,10.23],[11.6139,10.2371],[11.6141,10.2448],[11.6124,10.2491],[11.5972,10.257],[11.5955,10.2604],[11.5945,10.2705],[11.5898,10.2826],[11.5867,10.2859],[11.5815,10.2867],[11.5751,10.2921],[11.57,10.2886],[11.5679,10.2933],[11.5642,10.2967],[11.5612,10.2974],[11.5565,10.2963],[11.5515,10.2901],[11.5496,10.2964],[11.5465,10.3008],[11.5448,10.3181],[11.5293,10.3136],[11.5307,10.3188],[11.5357,10.3271],[11.5463,10.3274],[11.5439,10.3343],[11.5435,10.3421],[11.5524,10.3685],[11.5609,10.3705],[11.5657,10.3812],[11.5687,10.3846],[11.5925,10.3914],[11.597,10.395],[11.5989,10.4064],[11.5982,10.4176],[11.6025,10.4273],[11.6197,10.4422],[11.6552,10.4564],[11.6565,10.4606],[11.6569,10.4732],[11.6611,10.4863],[11.6568,10.4897],[11.6628,10.4968],[11.6377,10.5186],[11.5998,10.5342],[11.5728,10.5726],[11.5833,10.5939],[11.5613,10.5916],[11.5515,10.5879],[11.5276,10.5676],[11.5218,10.569]]]}}]}