{"type":"FeatureCollection","features":[{"type":"Feature","properties":{"name":"Aboh-Mbaise","state":"Imo","scode":"IM","centroid":[5.429,7.2476]},"geometry":{"type":"Polygon","coordinates":[[[7.2102,5.5118],[7.2096,5.5096],[7.2049,5.5071],[7.1992,5.4955],[7.1976,5.4946],[7.1883,5.4913],[7.1865,5.4952],[7.1761,5.4933],[7.172,5.496],[7.1666,5.4888],[7.1581,5.4822],[7.1543,5.4769],[7.1582,5.4777],[7.1644,5.4765],[7.1713,5.4673],[7.1764,5.4604],[7.1774,5.4526],[7.1803,5.4462],[7.1934,5.4503],[7.2029,5.4507],[7.2089,5.4438],[7.2194,5.4481],[7.2233,5.4473],[7.2253,5.4484],[7.2374,5.4413],[7.2409,5.4366],[7.2314,5.435],[7.2282,5.4322],[7.225,5.4238],[7.2245,5.4182],[7.221,5.4212],[7.2139,5.4016],[7.2106,5.3976],[7.2044,5.3961],[7.1994,5.3744],[7.2217,5.3732],[7.2457,5.3615],[7.2517,5.3464],[7.2358,5.3371],[7.2483,5.3327],[7.2595,5.3246],[7.2848,5.3497],[7.3002,5.3412],[7.3006,5.3424],[7.3035,5.3482],[7.3057,5.3581],[7.3134,5.3634],[7.3219,5.3825],[7.3226,5.3955],[7.3164,5.3941],[7.3052,5.3979],[7.2996,5.4024],[7.2916,5.4028],[7.2936,5.4132],[7.2967,5.4206],[7.2843,5.4267],[7.2865,5.4278],[7.2886,5.4318],[7.2855,5.4483],[7.2788,5.4568],[7.2698,5.454],[7.2611,5.4587],[7.2675,5.4648],[7.2702,5.472],[7.2758,5.4758],[7.2764,5.4839],[7.278,5.4857],[7.2849,5.4881],[7.2844,5.4908],[7.2812,5.4989],[7.2745,5.5073],[7.271,5.5143],[7.2631,5.5224],[7.2545,5.5147],[7.2527,5.5201],[7.2455,5.5219],[7.2434,5.5198],[7.2369,5.5176],[7.2357,5.5103],[7.2314,5.5141],[7.2298,5.5094],[7.2262,5.5071],[7.2102,5.5118]]]}},{"type":"Feature","properties":{"name":"Ahiazu-Mbaise","state":"Imo","scode":"IM","centroid":[5.5509,7.2662]},"geometry":{"type":"Polygon","coordinates":[[[7.2102,5.5118],[7.2262,5.5071],[7.2298,5.5094],[7.2314,5.5141],[7.2357,5.5103],[7.2369,5.5176],[7.2434,5.5198],[7.2455,5.5219],[7.2527,5.5201],[7.2545,5.5147],[7.2631,5.5224],[7.271,5.5143],[7.2745,5.5073],[7.2812,5.4989],[7.2844,5.4908],[7.2869,5.4918],[7.2922,5.4981],[7.296,5.4996],[7.3027,5.5102],[7.3091,5.511],[7.3191,5.5217],[7.3226,5.5209],[7.3287,5.5259],[7.3289,5.5278],[7.3208,5.5251],[7.3143,5.5318],[7.3151,5.5348],[7.3191,5.5386],[7.3156,5.541],[7.3234,5.5433],[7.3245,5.5539],[7.3168,5.5522],[7.3123,5.5556],[7.3057,5.5653],[7.3012,5.5695],[7.2996,5.5768],[7.3035,5.5845],[7.3055,5.586],[7.3089,5.5915],[7.304,5.6009],[7.3027,5.601],[7.2897,5.6015],[7.2847,5.5991],[7.2734,5.5974],[7.2721,5.5994],[7.2637,5.5958],[7.2619,5.597],[7.2533,5.5969],[7.2528,5.5901],[7.2543,5.5872],[7.2495,5.5916],[7.2405,5.5922],[7.2354,5.5948],[7.2329,5.6062],[7.2293,5.6129],[7.2261,5.6127],[7.2197,5.6105],[7.2109,5.5999],[7.2133,5.5913],[7.2128,5.5877],[7.2228,5.5843],[7.243,5.5856],[7.2544,5.5706],[7.2416,5.5681],[7.2359,5.5612],[7.2245,5.5566],[7.2166,5.5516],[7.2076,5.5381],[7.2093,5.5363],[7.2079,5.5286],[7.2124,5.5234],[7.207,5.5214],[7.2033,5.5147],[7.2102,5.5118]]]}},{"type":"Feature","properties":{"name":"Ehime-Mbano","state":"Imo","scode":"IM","centroid":[5.6686,7.2922]},"geometry":{"type":"Polygon","coordinates":[[[7.3027,5.601],[7.3011,5.6038],[7.316,5.6177],[7.3225,5.6113],[7.329,5.6161],[7.3361,5.6157],[7.3405,5.623],[7.3365,5.6255],[7.3371,5.6291],[7.3403,5.6291],[7.3463,5.6324],[7.3474,5.6315],[7.3524,5.6364],[7.348,5.6434],[7.3573,5.6575],[7.3573,5.6677],[7.3593,5.6794],[7.3663,5.6848],[7.3685,5.6921],[7.364,5.7005],[7.3395,5.7214],[7.3311,5.731],[7.3246,5.7433],[7.3089,5.7551],[7.2776,5.7427],[7.2786,5.7393],[7.2727,5.7322],[7.2574,5.7305],[7.2547,5.7178],[7.2523,5.7139],[7.2544,5.7108],[7.2533,5.7063],[7.2479,5.6982],[7.2442,5.6877],[7.2478,5.6881],[7.2496,5.6839],[7.2485,5.682],[7.2436,5.6823],[7.2464,5.6706],[7.2404,5.6704],[7.2385,5.6689],[7.2371,5.675],[7.2304,5.6766],[7.2138,5.6713],[7.2247,5.6592],[7.2263,5.6497],[7.2242,5.6211],[7.2261,5.6127],[7.2293,5.6129],[7.2329,5.6062],[7.2354,5.5948],[7.2405,5.5922],[7.2495,5.5916],[7.2543,5.5872],[7.2528,5.5901],[7.2533,5.5969],[7.2619,5.597],[7.2637,5.5958],[7.2721,5.5994],[7.2734,5.5974],[7.2847,5.5991],[7.2897,5.6015],[7.3027,5.601]]]}},{"type":"Feature","properties":{"name":"Ezinihitte","state":"Imo","scode":"IM","centroid":[5.4734,7.325]},"geometry":{"type":"Polygon","coordinates":[[[7.3855,5.5034],[7.383,5.5056],[7.3717,5.506],[7.3729,5.5092],[7.3722,5.5167],[7.3575,5.52],[7.3589,5.5277],[7.3644,5.5339],[7.3589,5.5335],[7.3524,5.5361],[7.346,5.5364],[7.3323,5.5428],[7.3261,5.5442],[7.3234,5.5433],[7.3156,5.541],[7.3191,5.5386],[7.3151,5.5348],[7.3143,5.5318],[7.3208,5.5251],[7.3289,5.5278],[7.3287,5.5259],[7.3226,5.5209],[7.3191,5.5217],[7.3091,5.511],[7.3027,5.5102],[7.296,5.4996],[7.2922,5.4981],[7.2869,5.4918],[7.2844,5.4908],[7.2849,5.4881],[7.278,5.4857],[7.2764,5.4839],[7.2758,5.4758],[7.2702,5.472],[7.2675,5.4648],[7.2611,5.4587],[7.2698,5.454],[7.2788,5.4568],[7.2855,5.4483],[7.2886,5.4318],[7.2865,5.4278],[7.2843,5.4267],[7.2967,5.4206],[7.2936,5.4132],[7.2916,5.4028],[7.2996,5.4024],[7.3052,5.3979],[7.3164,5.3941],[7.3226,5.3955],[7.3219,5.4049],[7.3313,5.4244],[7.3363,5.4321],[7.3436,5.4395],[7.356,5.4463],[7.3604,5.4529],[7.3629,5.4602],[7.3642,5.4658],[7.375,5.4769],[7.3855,5.5034]]]}},{"type":"Feature","properties":{"name":"Ideato North","state":"Imo","scode":"IM","centroid":[5.8743,7.1407]},"geometry":{"type":"Polygon","coordinates":[[[7.2288,5.9328],[7.215,5.9303],[7.2028,5.921],[7.1952,5.9049],[7.1914,5.9004],[7.1888,5.8995],[7.1649,5.9112],[7.1492,5.9167],[7.1189,5.9218],[7.1077,5.9262],[7.0602,5.9314],[7.0478,5.9272],[7.0435,5.9235],[7.0468,5.9229],[7.0441,5.9119],[7.045,5.9083],[7.0425,5.905],[7.0353,5.9019],[7.0397,5.8951],[7.0462,5.8742],[7.0494,5.8685],[7.0489,5.8647],[7.0506,5.8585],[7.0476,5.8542],[7.0466,5.8462],[7.0535,5.8427],[7.0666,5.8393],[7.0714,5.8361],[7.0715,5.8342],[7.0766,5.8329],[7.0771,5.8315],[7.0791,5.8326],[7.0896,5.8175],[7.0922,5.8182],[7.0968,5.8242],[7.0989,5.8244],[7.1013,5.8273],[7.1085,5.8303],[7.1098,5.8297],[7.1171,5.8335],[7.1265,5.8346],[7.1297,5.8363],[7.1307,5.8396],[7.1325,5.8381],[7.1335,5.843],[7.1373,5.8491],[7.1431,5.8489],[7.1472,5.8472],[7.1537,5.8503],[7.1608,5.8515],[7.1781,5.8486],[7.1834,5.851],[7.1873,5.8539],[7.1902,5.8539],[7.1885,5.8565],[7.189,5.8619],[7.1869,5.8652],[7.187,5.8701],[7.189,5.8721],[7.1934,5.8723],[7.1966,5.863],[7.197,5.8576],[7.2026,5.8443],[7.2023,5.8417],[7.1981,5.8297],[7.1892,5.8294],[7.1848,5.8309],[7.1792,5.832],[7.1843,5.8137],[7.1883,5.8037],[7.1935,5.7981],[7.1929,5.7907],[7.1949,5.7854],[7.2003,5.7761],[7.2058,5.7717],[7.2121,5.8075],[7.2233,5.8287],[7.2234,5.8335],[7.234,5.8392],[7.2239,5.8381],[7.2352,5.8525],[7.2482,5.8527],[7.2593,5.8578],[7.255,5.8671],[7.2408,5.8691],[7.2393,5.8775],[7.2366,5.8835],[7.2345,5.8868],[7.2281,5.8898],[7.225,5.8941],[7.2248,5.8987],[7.2218,5.9041],[7.23,5.9082],[7.2332,5.9136],[7.232,5.9171],[7.2255,5.9222],[7.2288,5.9328]]]}},{"type":"Feature","properties":{"name":"Ideato South","state":"Imo","scode":"IM","centroid":[5.7961,7.1592]},"geometry":{"type":"MultiPolygon","coordinates":[[[[7.0466,5.8462],[7.0453,5.8458],[7.0441,5.8309],[7.0466,5.8212],[7.0537,5.816],[7.0611,5.814],[7.0687,5.8178],[7.0723,5.8228],[7.0743,5.8295],[7.0771,5.8315],[7.0766,5.8329],[7.0715,5.8342],[7.0714,5.8361],[7.0666,5.8393],[7.0535,5.8427],[7.0466,5.8462]]],[[[7.1624,5.746],[7.1641,5.7445],[7.1689,5.7485],[7.1738,5.749],[7.175,5.7475],[7.1736,5.7425],[7.1894,5.7324],[7.2006,5.7489],[7.2052,5.7647],[7.2058,5.7717],[7.2003,5.7761],[7.1949,5.7854],[7.1929,5.7907],[7.1935,5.7981],[7.1883,5.8037],[7.1843,5.8137],[7.1792,5.832],[7.1848,5.8309],[7.1827,5.838],[7.1851,5.8421],[7.1834,5.851],[7.1781,5.8486],[7.1608,5.8515],[7.1537,5.8503],[7.1472,5.8472],[7.1431,5.8489],[7.1373,5.8491],[7.1335,5.843],[7.1325,5.8381],[7.1307,5.8396],[7.1297,5.8363],[7.1265,5.8346],[7.1171,5.8335],[7.1098,5.8297],[7.1132,5.8242],[7.1135,5.8111],[7.1147,5.8065],[7.1171,5.805],[7.1183,5.802],[7.1231,5.7989],[7.1264,5.8011],[7.1298,5.7941],[7.1187,5.7893],[7.1212,5.7869],[7.1237,5.7866],[7.1169,5.7749],[7.1247,5.7651],[7.1367,5.7641],[7.1401,5.7615],[7.1439,5.7614],[7.1474,5.7577],[7.155,5.7565],[7.161,5.7513],[7.1624,5.746]]]]}},{"type":"Feature","properties":{"name":"Ihitte/Uboma","state":"Imo","scode":"IM","centroid":[5.6318,7.3786]},"geometry":{"type":"Polygon","coordinates":[[[7.3055,5.586],[7.3122,5.5822],[7.3172,5.5824],[7.3224,5.5834],[7.3323,5.592],[7.3461,5.589],[7.3475,5.5915],[7.344,5.5955],[7.3367,5.5975],[7.3368,5.5991],[7.34,5.6058],[7.3437,5.6049],[7.3487,5.6061],[7.3563,5.6056],[7.367,5.6017],[7.3714,5.5969],[7.3709,5.5932],[7.3883,5.5837],[7.4008,5.5907],[7.4026,5.5856],[7.4076,5.5875],[7.4249,5.5883],[7.4238,5.5865],[7.4259,5.5856],[7.4291,5.604],[7.4323,5.6094],[7.4276,5.6269],[7.4198,5.6422],[7.4176,5.6485],[7.4163,5.6615],[7.4102,5.6738],[7.4082,5.677],[7.3929,5.6888],[7.384,5.6988],[7.3816,5.7056],[7.372,5.7016],[7.364,5.7005],[7.3685,5.6921],[7.3663,5.6848],[7.3593,5.6794],[7.3573,5.6677],[7.3573,5.6575],[7.348,5.6434],[7.3524,5.6364],[7.3474,5.6315],[7.3463,5.6324],[7.3403,5.6291],[7.3371,5.6291],[7.3365,5.6255],[7.3405,5.623],[7.3361,5.6157],[7.329,5.6161],[7.3225,5.6113],[7.316,5.6177],[7.3011,5.6038],[7.3027,5.601],[7.304,5.6009],[7.3089,5.5915],[7.3055,5.586]]]}},{"type":"Feature","properties":{"name":"Ikeduru","state":"Imo","scode":"IM","centroid":[5.5552,7.1543]},"geometry":{"type":"Polygon","coordinates":[[[7.2109,5.5999],[7.2064,5.6024],[7.1997,5.6038],[7.1854,5.605],[7.1873,5.6188],[7.1827,5.6215],[7.18,5.615],[7.1751,5.611],[7.1703,5.5988],[7.1629,5.5985],[7.16,5.6073],[7.1609,5.6204],[7.1429,5.6188],[7.1338,5.6161],[7.1254,5.6105],[7.1174,5.6012],[7.1138,5.5914],[7.1112,5.5726],[7.1051,5.5793],[7.0966,5.584],[7.0936,5.5884],[7.0917,5.592],[7.0913,5.6058],[7.0878,5.605],[7.0817,5.6001],[7.0759,5.5928],[7.0831,5.5831],[7.0835,5.5788],[7.0755,5.5703],[7.0718,5.5556],[7.0738,5.5459],[7.083,5.539],[7.0866,5.5383],[7.0799,5.5344],[7.0785,5.524],[7.0881,5.518],[7.107,5.5162],[7.1216,5.5058],[7.1418,5.4967],[7.1449,5.49],[7.1512,5.4908],[7.162,5.4968],[7.1628,5.4918],[7.1666,5.4888],[7.172,5.496],[7.1761,5.4933],[7.1865,5.4952],[7.1883,5.4913],[7.1976,5.4946],[7.1992,5.4955],[7.2049,5.5071],[7.2096,5.5096],[7.2102,5.5118],[7.2033,5.5147],[7.207,5.5214],[7.2124,5.5234],[7.2079,5.5286],[7.2093,5.5363],[7.2076,5.5381],[7.2166,5.5516],[7.2245,5.5566],[7.2359,5.5612],[7.2416,5.5681],[7.2544,5.5706],[7.243,5.5856],[7.2228,5.5843],[7.2128,5.5877],[7.2133,5.5913],[7.2109,5.5999]]]}},{"type":"Feature","properties":{"name":"Isiala Mbano","state":"Imo","scode":"IM","centroid":[5.6619,7.18]},"geometry":{"type":"Polygon","coordinates":[[[7.2261,5.6127],[7.2242,5.6211],[7.2263,5.6497],[7.2247,5.6592],[7.2138,5.6713],[7.2304,5.6766],[7.2371,5.675],[7.2385,5.6689],[7.2404,5.6704],[7.2464,5.6706],[7.2436,5.6823],[7.2485,5.682],[7.2496,5.6839],[7.2478,5.6881],[7.2442,5.6877],[7.2479,5.6982],[7.2533,5.7063],[7.2544,5.7108],[7.2523,5.7139],[7.2547,5.7178],[7.2574,5.7305],[7.2473,5.736],[7.2462,5.7287],[7.2431,5.7254],[7.2444,5.7232],[7.2301,5.718],[7.2253,5.7113],[7.2192,5.7073],[7.2081,5.713],[7.2017,5.7122],[7.2012,5.7095],[7.1874,5.711],[7.1833,5.7133],[7.1646,5.7219],[7.1579,5.7178],[7.1599,5.7154],[7.1655,5.7154],[7.1692,5.7045],[7.167,5.6975],[7.161,5.6886],[7.1617,5.6833],[7.1598,5.6783],[7.1621,5.674],[7.1656,5.6727],[7.1659,5.6698],[7.1703,5.6687],[7.1612,5.6598],[7.1547,5.6662],[7.1484,5.6546],[7.1456,5.6597],[7.1388,5.6653],[7.1385,5.6681],[7.1237,5.6763],[7.1211,5.6801],[7.1152,5.6762],[7.1132,5.6718],[7.112,5.6744],[7.1082,5.6747],[7.1081,5.6792],[7.1039,5.6807],[7.0955,5.6786],[7.0964,5.6726],[7.0999,5.6677],[7.089,5.67],[7.0882,5.6631],[7.0834,5.6577],[7.0809,5.6484],[7.089,5.6488],[7.0884,5.6473],[7.0904,5.6473],[7.0966,5.6424],[7.1058,5.6297],[7.1105,5.6315],[7.1165,5.6309],[7.1163,5.6332],[7.1294,5.6342],[7.1352,5.6297],[7.143,5.6304],[7.148,5.6275],[7.1485,5.6243],[7.152,5.6271],[7.1598,5.6286],[7.1621,5.627],[7.1609,5.6204],[7.16,5.6073],[7.1629,5.5985],[7.1703,5.5988],[7.1751,5.611],[7.18,5.615],[7.1827,5.6215],[7.1873,5.6188],[7.1854,5.605],[7.1997,5.6038],[7.2064,5.6024],[7.2109,5.5999],[7.2197,5.6105],[7.2261,5.6127]]]}},{"type":"Feature","properties":{"name":"Isu","state":"Imo","scode":"IM","centroid":[5.6888,7.053]},"geometry":{"type":"Polygon","coordinates":[[[7.0988,5.7295],[7.0949,5.729],[7.0936,5.7321],[7.091,5.7331],[7.0832,5.7348],[7.0764,5.7344],[7.0761,5.7334],[7.0633,5.7364],[7.0588,5.7282],[7.0499,5.7285],[7.0364,5.7318],[7.0252,5.7245],[7.02,5.7177],[7.0115,5.7199],[7.0097,5.7045],[7.011,5.6992],[7.0028,5.6979],[7.0021,5.6854],[7.011,5.6854],[7.019,5.6902],[7.0238,5.6901],[7.0277,5.6878],[7.0315,5.689],[7.0346,5.6827],[7.0349,5.6749],[7.0335,5.662],[7.0295,5.6501],[7.0329,5.65],[7.0347,5.6517],[7.0414,5.6483],[7.0382,5.6428],[7.0432,5.6435],[7.0434,5.6387],[7.0558,5.6425],[7.0567,5.6353],[7.0627,5.6377],[7.0683,5.6308],[7.0743,5.6267],[7.0794,5.6356],[7.0782,5.6416],[7.0791,5.6484],[7.0809,5.6484],[7.0834,5.6577],[7.0882,5.6631],[7.089,5.67],[7.0867,5.6734],[7.0783,5.6776],[7.0727,5.6761],[7.0708,5.6894],[7.068,5.6936],[7.0768,5.695],[7.0887,5.7062],[7.0782,5.7166],[7.0796,5.7187],[7.0843,5.7297],[7.0896,5.7253],[7.0964,5.724],[7.1002,5.7211],[7.0988,5.7295]]]}},{"type":"Feature","properties":{"name":"Mbatoli","state":"Imo","scode":"IM","centroid":[5.596,7.038]},"geometry":{"type":"Polygon","coordinates":[[[7.0062,5.5416],[7.0157,5.5384],[7.0177,5.5346],[7.0196,5.5393],[7.0218,5.541],[7.0214,5.537],[7.0237,5.5371],[7.0238,5.5335],[7.0277,5.5282],[7.0281,5.5232],[7.027,5.523],[7.0303,5.5223],[7.0318,5.5205],[7.0332,5.5207],[7.0376,5.5271],[7.0442,5.5414],[7.0541,5.5417],[7.0671,5.5283],[7.0785,5.524],[7.0799,5.5344],[7.0866,5.5383],[7.083,5.539],[7.0738,5.5459],[7.0718,5.5556],[7.0755,5.5703],[7.0835,5.5788],[7.0831,5.5831],[7.0759,5.5928],[7.0817,5.6001],[7.0878,5.605],[7.0913,5.6058],[7.0917,5.592],[7.0936,5.5884],[7.0966,5.584],[7.1051,5.5793],[7.1112,5.5726],[7.1138,5.5914],[7.1174,5.6012],[7.1254,5.6105],[7.1338,5.6161],[7.1429,5.6188],[7.1609,5.6204],[7.1621,5.627],[7.1598,5.6286],[7.152,5.6271],[7.1485,5.6243],[7.148,5.6275],[7.143,5.6304],[7.1352,5.6297],[7.1294,5.6342],[7.1163,5.6332],[7.1165,5.6309],[7.1105,5.6315],[7.1058,5.6297],[7.0966,5.6424],[7.0904,5.6473],[7.0884,5.6473],[7.089,5.6488],[7.0809,5.6484],[7.0791,5.6484],[7.0782,5.6416],[7.0794,5.6356],[7.0743,5.6267],[7.0683,5.6308],[7.0627,5.6377],[7.0567,5.6353],[7.0558,5.6425],[7.0434,5.6387],[7.0432,5.6435],[7.0382,5.6428],[7.0414,5.6483],[7.0347,5.6517],[7.0329,5.65],[7.0295,5.6501],[7.0204,5.6526],[7.0183,5.6515],[7.0152,5.6524],[7.0103,5.6497],[7.006,5.6463],[6.9963,5.6441],[6.9552,5.6266],[6.957,5.6182],[6.9641,5.6012],[6.9607,5.5925],[6.9637,5.5814],[6.9592,5.5744],[6.9568,5.5657],[6.9692,5.5606],[6.9734,5.5505],[6.9813,5.541],[6.9889,5.5449],[6.9852,5.559],[6.9855,5.5635],[6.9898,5.5671],[6.9957,5.5694],[6.9986,5.5689],[7.0067,5.559],[7.0023,5.5545],[7.0011,5.5504],[6.9988,5.5489],[7.0049,5.5449],[7.0062,5.5416]]]}},{"type":"Feature","properties":{"name":"Ngor-Okpala","state":"Imo","scode":"IM","centroid":[5.3061,7.1624]},"geometry":{"type":"Polygon","coordinates":[[[7.2643,5.2156],[7.268,5.2421],[7.2765,5.2557],[7.2793,5.2781],[7.2911,5.3035],[7.2923,5.3276],[7.3002,5.3412],[7.2848,5.3497],[7.2595,5.3246],[7.2483,5.3327],[7.2358,5.3371],[7.2517,5.3464],[7.2457,5.3615],[7.2217,5.3732],[7.1994,5.3744],[7.2044,5.3961],[7.2106,5.3976],[7.2139,5.4016],[7.221,5.4212],[7.2245,5.4182],[7.225,5.4238],[7.2282,5.4322],[7.2314,5.435],[7.2409,5.4366],[7.2374,5.4413],[7.2253,5.4484],[7.2233,5.4473],[7.2194,5.4481],[7.2089,5.4438],[7.2029,5.4507],[7.1934,5.4503],[7.1803,5.4462],[7.1774,5.4526],[7.1764,5.4604],[7.1713,5.4673],[7.169,5.4605],[7.1538,5.4519],[7.1467,5.4402],[7.173,5.4288],[7.1684,5.4142],[7.1615,5.4035],[7.1526,5.3946],[7.1342,5.3943],[7.1119,5.3988],[7.1063,5.3986],[7.0998,5.3958],[7.09,5.3849],[7.0887,5.378],[7.0806,5.3634],[7.0743,5.3575],[7.0653,5.3436],[7.0501,5.3344],[7.0353,5.3285],[7.0366,5.3249],[7.0417,5.3223],[7.0402,5.3011],[7.0347,5.2922],[7.0266,5.2887],[7.0172,5.2799],[7.0102,5.2724],[7.0063,5.2646],[7.0069,5.2572],[7.003,5.2462],[7.0036,5.24],[7.012,5.2424],[7.015,5.2419],[7.0357,5.2488],[7.0451,5.2487],[7.056,5.2441],[7.0599,5.24],[7.0622,5.2405],[7.0838,5.229],[7.0873,5.2287],[7.1041,5.2215],[7.1227,5.2163],[7.1654,5.2123],[7.1825,5.2076],[7.1984,5.1998],[7.2101,5.1966],[7.2279,5.1948],[7.2421,5.1959],[7.2514,5.2019],[7.2561,5.2135],[7.2601,5.2133],[7.2643,5.2156]]]}},{"type":"Feature","properties":{"name":"Njaba","state":"Imo","scode":"IM","centroid":[5.7325,6.9985]},"geometry":{"type":"MultiPolygon","coordinates":[[[[7.0295,5.6501],[7.0335,5.662],[7.0349,5.6749],[7.0346,5.6827],[7.0315,5.689],[7.0277,5.6878],[7.0238,5.6901],[7.019,5.6902],[7.011,5.6854],[7.0021,5.6854],[7.0015,5.6808],[6.9793,5.6765],[6.979,5.6722],[6.9806,5.6675],[6.9836,5.664],[6.9896,5.6633],[6.9879,5.6579],[6.9956,5.6597],[7.0033,5.6658],[7.0035,5.6631],[7.0106,5.6556],[7.0103,5.6497],[7.0152,5.6524],[7.0183,5.6515],[7.0204,5.6526],[7.0295,5.6501]]],[[[7.0028,5.6979],[7.011,5.6992],[7.0097,5.7045],[7.0115,5.7199],[7.02,5.7177],[7.0252,5.7245],[7.0364,5.7318],[7.0499,5.7285],[7.0588,5.7282],[7.0633,5.7364],[7.0551,5.7385],[7.0524,5.742],[7.0447,5.7413],[7.0398,5.7428],[7.0306,5.7402],[7.0187,5.7419],[7.015,5.735],[7.0131,5.7371],[6.9993,5.7437],[7.0016,5.7477],[6.9989,5.7485],[6.9993,5.7504],[6.997,5.7552],[7.0023,5.7606],[7.0078,5.7627],[6.998,5.7669],[6.9888,5.7668],[6.9838,5.7711],[6.9808,5.7768],[6.9652,5.7718],[6.9715,5.761],[6.9706,5.7509],[6.9778,5.7369],[6.973,5.7365],[6.9754,5.7332],[6.9753,5.7277],[6.9778,5.727],[6.9742,5.7191],[6.9744,5.7117],[6.9608,5.6953],[6.9738,5.696],[6.9842,5.6983],[6.9899,5.7035],[7.0028,5.6979]]]]}},{"type":"Feature","properties":{"name":"Nkwerre","state":"Imo","scode":"IM","centroid":[5.7662,7.1089]},"geometry":{"type":"MultiPolygon","coordinates":[[[[7.0796,5.7187],[7.0942,5.7132],[7.0986,5.7194],[7.1059,5.7233],[7.1095,5.7205],[7.1165,5.71],[7.1225,5.7109],[7.1234,5.7151],[7.1277,5.72],[7.1317,5.7174],[7.1321,5.7197],[7.1298,5.7241],[7.1189,5.7276],[7.1165,5.7299],[7.1157,5.7341],[7.1119,5.7346],[7.1043,5.7283],[7.1046,5.727],[7.0988,5.7295],[7.1002,5.7211],[7.0964,5.724],[7.0896,5.7253],[7.0843,5.7297],[7.0796,5.7187]]],[[[7.1135,5.8111],[7.1029,5.7994],[7.0967,5.7979],[7.0926,5.793],[7.0834,5.7896],[7.0734,5.7885],[7.0696,5.7858],[7.0678,5.7803],[7.0719,5.7748],[7.0818,5.7718],[7.0791,5.7649],[7.0817,5.7562],[7.0892,5.757],[7.0922,5.7527],[7.0907,5.7499],[7.0918,5.7457],[7.0834,5.7462],[7.0764,5.7344],[7.0832,5.7348],[7.091,5.7331],[7.0936,5.7321],[7.0949,5.729],[7.0988,5.7295],[7.1002,5.7469],[7.1063,5.7485],[7.1084,5.7486],[7.1078,5.7437],[7.1125,5.7394],[7.1254,5.7374],[7.1271,5.7417],[7.1405,5.7387],[7.1438,5.7448],[7.1471,5.7468],[7.1533,5.7426],[7.1564,5.7464],[7.1624,5.746],[7.161,5.7513],[7.155,5.7565],[7.1474,5.7577],[7.1439,5.7614],[7.1401,5.7615],[7.1367,5.7641],[7.1247,5.7651],[7.1169,5.7749],[7.1237,5.7866],[7.1212,5.7869],[7.1187,5.7893],[7.1298,5.7941],[7.1264,5.8011],[7.1231,5.7989],[7.1183,5.802],[7.1171,5.805],[7.1147,5.8065],[7.1135,5.8111]]]]}},{"type":"Feature","properties":{"name":"Nwangele","state":"Imo","scode":"IM","centroid":[5.7051,7.1318]},"geometry":{"type":"Polygon","coordinates":[[[7.0796,5.7187],[7.0782,5.7166],[7.0887,5.7062],[7.0768,5.695],[7.068,5.6936],[7.0708,5.6894],[7.0727,5.6761],[7.0783,5.6776],[7.0867,5.6734],[7.089,5.67],[7.0999,5.6677],[7.0964,5.6726],[7.0955,5.6786],[7.1039,5.6807],[7.1081,5.6792],[7.1082,5.6747],[7.112,5.6744],[7.1132,5.6718],[7.1152,5.6762],[7.1211,5.6801],[7.1237,5.6763],[7.1385,5.6681],[7.1388,5.6653],[7.1456,5.6597],[7.1484,5.6546],[7.1547,5.6662],[7.1612,5.6598],[7.1703,5.6687],[7.1659,5.6698],[7.1656,5.6727],[7.1621,5.674],[7.1598,5.6783],[7.1617,5.6833],[7.161,5.6886],[7.167,5.6975],[7.1692,5.7045],[7.1655,5.7154],[7.1599,5.7154],[7.1579,5.7178],[7.1646,5.7219],[7.1833,5.7133],[7.1897,5.7194],[7.1865,5.7218],[7.1858,5.7244],[7.1894,5.7324],[7.1736,5.7425],[7.175,5.7475],[7.1738,5.749],[7.1689,5.7485],[7.1641,5.7445],[7.1624,5.746],[7.1564,5.7464],[7.1533,5.7426],[7.1471,5.7468],[7.1438,5.7448],[7.1405,5.7387],[7.1271,5.7417],[7.1254,5.7374],[7.1125,5.7394],[7.1078,5.7437],[7.1084,5.7486],[7.1063,5.7485],[7.1002,5.7469],[7.0988,5.7295],[7.1046,5.727],[7.1043,5.7283],[7.1119,5.7346],[7.1157,5.7341],[7.1165,5.7299],[7.1189,5.7276],[7.1298,5.7241],[7.1321,5.7197],[7.1317,5.7174],[7.1277,5.72],[7.1234,5.7151],[7.1225,5.7109],[7.1165,5.71],[7.1095,5.7205],[7.1059,5.7233],[7.0986,5.7194],[7.0942,5.7132],[7.0796,5.7187]]]}},{"type":"Feature","properties":{"name":"Obowo","state":"Imo","scode":"IM","centroid":[5.5604,7.3657]},"geometry":{"type":"Polygon","coordinates":[[[7.4152,5.571],[7.4152,5.5759],[7.4225,5.581],[7.4228,5.5836],[7.4259,5.5856],[7.4238,5.5865],[7.4249,5.5883],[7.4076,5.5875],[7.4026,5.5856],[7.4008,5.5907],[7.3883,5.5837],[7.3709,5.5932],[7.3714,5.5969],[7.367,5.6017],[7.3563,5.6056],[7.3487,5.6061],[7.3437,5.6049],[7.34,5.6058],[7.3368,5.5991],[7.3367,5.5975],[7.344,5.5955],[7.3475,5.5915],[7.3461,5.589],[7.3323,5.592],[7.3224,5.5834],[7.3172,5.5824],[7.3122,5.5822],[7.3055,5.586],[7.3035,5.5845],[7.2996,5.5768],[7.3012,5.5695],[7.3057,5.5653],[7.3123,5.5556],[7.3168,5.5522],[7.3245,5.5539],[7.3234,5.5433],[7.3261,5.5442],[7.3323,5.5428],[7.346,5.5364],[7.3524,5.5361],[7.3589,5.5335],[7.3644,5.5339],[7.3589,5.5277],[7.3575,5.52],[7.3722,5.5167],[7.3729,5.5092],[7.3717,5.506],[7.383,5.5056],[7.3855,5.5034],[7.388,5.5104],[7.3926,5.5124],[7.4017,5.5241],[7.4067,5.5332],[7.4088,5.5427],[7.4083,5.5499],[7.4095,5.553],[7.4174,5.5621],[7.4152,5.571]]]}},{"type":"Feature","properties":{"name":"Oguta","state":"Imo","scode":"IM","centroid":[5.6591,6.8103]},"geometry":{"type":"Polygon","coordinates":[[[6.9692,5.5606],[6.9568,5.5657],[6.9592,5.5744],[6.9637,5.5814],[6.9607,5.5925],[6.9641,5.6012],[6.957,5.6182],[6.9552,5.6266],[6.9382,5.6291],[6.9277,5.6344],[6.9116,5.6502],[6.9043,5.6571],[6.8779,5.6888],[6.8719,5.6934],[6.8668,5.7055],[6.8599,5.7138],[6.8595,5.7282],[6.8479,5.7252],[6.8404,5.72],[6.8378,5.7247],[6.8284,5.7419],[6.8418,5.7568],[6.8465,5.7658],[6.8127,5.787],[6.8107,5.7876],[6.8008,5.7846],[6.794,5.7742],[6.7617,5.7578],[6.7514,5.7496],[6.7301,5.7507],[6.7143,5.7613],[6.6949,5.7462],[6.6913,5.6997],[6.6794,5.6958],[6.6689,5.6899],[6.6584,5.6249],[6.6675,5.622],[6.7088,5.6222],[6.7234,5.616],[6.7356,5.6141],[6.7642,5.6141],[6.813,5.6061],[6.8261,5.6018],[6.8427,5.5895],[6.8518,5.5806],[6.8599,5.5678],[6.8708,5.5547],[6.8813,5.5372],[6.8888,5.5293],[6.9048,5.5311],[6.9294,5.5425],[6.934,5.5543],[6.938,5.5562],[6.9531,5.5567],[6.9609,5.5598],[6.9692,5.5606]]]}},{"type":"Feature","properties":{"name":"Ohaji/Egbema","state":"Imo","scode":"IM","centroid":[5.4248,6.8299]},"geometry":{"type":"Polygon","coordinates":[[[6.8166,5.2594],[6.8271,5.2524],[6.8361,5.2499],[6.849,5.2498],[6.8664,5.2431],[6.8756,5.2379],[6.8876,5.2256],[6.904,5.2195],[6.9289,5.2265],[6.9436,5.2286],[6.9598,5.2317],[6.9718,5.2362],[6.9865,5.2343],[6.9984,5.2392],[7.0036,5.24],[7.003,5.2462],[7.0069,5.2572],[7.0063,5.2646],[6.988,5.2601],[6.9893,5.2688],[6.9862,5.2885],[6.9997,5.2864],[7.0081,5.2819],[7.0172,5.2799],[7.0266,5.2887],[7.0229,5.3038],[7.0117,5.3109],[6.9823,5.3417],[6.9867,5.3755],[6.9836,5.3841],[6.9764,5.394],[6.9749,5.3883],[6.9705,5.383],[6.9671,5.3814],[6.963,5.3813],[6.9506,5.3937],[6.9397,5.3986],[6.9202,5.3855],[6.8905,5.3779],[6.8697,5.3848],[6.8702,5.392],[6.9064,5.4248],[6.9302,5.4427],[6.9228,5.4492],[6.918,5.4516],[6.9136,5.4677],[6.9049,5.4735],[6.8964,5.4842],[6.8856,5.5032],[6.9291,5.5254],[6.9294,5.5425],[6.9048,5.5311],[6.8888,5.5293],[6.8813,5.5372],[6.8708,5.5547],[6.8599,5.5678],[6.8518,5.5806],[6.8427,5.5895],[6.8261,5.6018],[6.813,5.6061],[6.7642,5.6141],[6.7356,5.6141],[6.7234,5.616],[6.7088,5.6222],[6.6675,5.622],[6.6584,5.6249],[6.6391,5.4934],[6.6527,5.4907],[6.7156,5.4891],[6.7333,5.4939],[6.7414,5.4941],[6.745,5.4845],[6.7499,5.4765],[6.7512,5.4648],[6.7437,5.4589],[6.7441,5.4491],[6.749,5.4388],[6.7533,5.4335],[6.7625,5.4102],[6.7581,5.3898],[6.7605,5.3534],[6.7576,5.3428],[6.7558,5.3235],[6.7615,5.3159],[6.7707,5.3008],[6.7862,5.2848],[6.8166,5.2594]]]}},{"type":"Feature","properties":{"name":"Okigwe","state":"Imo","scode":"IM","centroid":[5.8262,7.3217]},"geometry":{"type":"Polygon","coordinates":[[[7.3816,5.7056],[7.3831,5.7076],[7.3968,5.7087],[7.3997,5.7104],[7.4003,5.7127],[7.4001,5.7207],[7.3963,5.7365],[7.3943,5.7558],[7.395,5.7649],[7.3936,5.7724],[7.3944,5.7842],[7.3924,5.8092],[7.3924,5.8338],[7.3864,5.8609],[7.3903,5.883],[7.3964,5.9007],[7.3959,5.9076],[7.392,5.9119],[7.3879,5.9128],[7.3767,5.906],[7.3672,5.9035],[7.3558,5.9064],[7.3457,5.9071],[7.3352,5.9114],[7.2902,5.9172],[7.2845,5.9184],[7.2708,5.9248],[7.261,5.9389],[7.2569,5.9347],[7.2486,5.9319],[7.2288,5.9328],[7.2255,5.9222],[7.232,5.9171],[7.2332,5.9136],[7.23,5.9082],[7.2218,5.9041],[7.2248,5.8987],[7.225,5.8941],[7.2281,5.8898],[7.2345,5.8868],[7.2366,5.8835],[7.2393,5.8775],[7.2408,5.8691],[7.255,5.8671],[7.2593,5.8578],[7.2482,5.8527],[7.2352,5.8525],[7.2239,5.8381],[7.234,5.8392],[7.2519,5.8303],[7.2563,5.8256],[7.2596,5.8193],[7.2653,5.798],[7.2706,5.7866],[7.2765,5.7773],[7.2858,5.7726],[7.2803,5.7575],[7.2661,5.7567],[7.2564,5.7523],[7.2473,5.736],[7.2574,5.7305],[7.2727,5.7322],[7.2786,5.7393],[7.2776,5.7427],[7.3089,5.7551],[7.3246,5.7433],[7.3311,5.731],[7.3395,5.7214],[7.364,5.7005],[7.372,5.7016],[7.3816,5.7056]]]}},{"type":"Feature","properties":{"name":"Onuimo","state":"Imo","scode":"IM","centroid":[5.77,7.233]},"geometry":{"type":"MultiPolygon","coordinates":[[[[7.234,5.8392],[7.2234,5.8335],[7.2233,5.8287],[7.2121,5.8075],[7.2058,5.7717],[7.2052,5.7647],[7.2006,5.7489],[7.1894,5.7324],[7.1858,5.7244],[7.1865,5.7218],[7.1897,5.7194],[7.1833,5.7133],[7.1874,5.711],[7.2012,5.7095],[7.2017,5.7122],[7.2081,5.713],[7.2192,5.7073],[7.2253,5.7113],[7.2301,5.718],[7.2444,5.7232],[7.2431,5.7254],[7.2462,5.7287],[7.2473,5.736],[7.2564,5.7523],[7.2661,5.7567],[7.2803,5.7575],[7.2858,5.7726],[7.2765,5.7773],[7.2706,5.7866],[7.2653,5.798],[7.2596,5.8193],[7.2563,5.8256],[7.2519,5.8303],[7.234,5.8392]]],[[[7.1848,5.8309],[7.1892,5.8294],[7.1981,5.8297],[7.2023,5.8417],[7.2026,5.8443],[7.197,5.8576],[7.1966,5.863],[7.1934,5.8723],[7.189,5.8721],[7.187,5.8701],[7.1869,5.8652],[7.189,5.8619],[7.1885,5.8565],[7.1902,5.8539],[7.1873,5.8539],[7.1834,5.851],[7.1851,5.8421],[7.1827,5.838],[7.1848,5.8309]]]]}},{"type":"Feature","properties":{"name":"Orlu","state":"Imo","scode":"IM","centroid":[5.801,7.0395]},"geometry":{"type":"Polygon","coordinates":[[[7.1135,5.8111],[7.1132,5.8242],[7.1098,5.8297],[7.1085,5.8303],[7.1013,5.8273],[7.0989,5.8244],[7.0968,5.8242],[7.0922,5.8182],[7.0896,5.8175],[7.0791,5.8326],[7.0771,5.8315],[7.0743,5.8295],[7.0723,5.8228],[7.0687,5.8178],[7.0611,5.814],[7.0537,5.816],[7.0466,5.8212],[7.0441,5.8309],[7.0453,5.8458],[7.0466,5.8462],[7.0476,5.8542],[7.0506,5.8585],[7.0489,5.8647],[7.0494,5.8685],[7.0462,5.8742],[7.0397,5.8951],[7.0353,5.9019],[7.021,5.8928],[7.02,5.889],[7.0122,5.8801],[7.0127,5.8718],[7.0153,5.8687],[7.017,5.8604],[7.0184,5.8452],[7.0128,5.8455],[7.0046,5.8483],[7.001,5.8477],[7.0018,5.8397],[6.9997,5.8334],[7.0016,5.8307],[7.0015,5.8259],[7.0051,5.8228],[6.9982,5.8093],[6.9849,5.8107],[6.986,5.7977],[6.9817,5.7944],[6.9909,5.7916],[6.9884,5.7855],[6.984,5.782],[6.9826,5.778],[6.9808,5.7768],[6.9838,5.7711],[6.9888,5.7668],[6.998,5.7669],[7.0078,5.7627],[7.0023,5.7606],[6.997,5.7552],[6.9993,5.7504],[6.9989,5.7485],[7.0016,5.7477],[6.9993,5.7437],[7.0131,5.7371],[7.015,5.735],[7.0187,5.7419],[7.0306,5.7402],[7.0398,5.7428],[7.0447,5.7413],[7.0524,5.742],[7.0551,5.7385],[7.0633,5.7364],[7.0761,5.7334],[7.0764,5.7344],[7.0834,5.7462],[7.0918,5.7457],[7.0907,5.7499],[7.0922,5.7527],[7.0892,5.757],[7.0817,5.7562],[7.0791,5.7649],[7.0818,5.7718],[7.0719,5.7748],[7.0678,5.7803],[7.0696,5.7858],[7.0734,5.7885],[7.0834,5.7896],[7.0926,5.793],[7.0967,5.7979],[7.1029,5.7994],[7.1135,5.8111]]]}},{"type":"Feature","properties":{"name":"Orsu","state":"Imo","scode":"IM","centroid":[5.8494,6.9848]},"geometry":{"type":"Polygon","coordinates":[[[6.9937,5.8952],[6.9795,5.8745],[6.956,5.8506],[6.9539,5.8455],[6.9484,5.8386],[6.9334,5.8304],[6.9334,5.8267],[6.9304,5.8243],[6.9328,5.8231],[6.9275,5.8097],[6.9276,5.8066],[6.9379,5.8003],[6.9423,5.8119],[6.949,5.8147],[6.9501,5.8168],[6.9515,5.8159],[6.9572,5.8173],[6.9594,5.8157],[6.9581,5.8133],[6.9608,5.8028],[6.9597,5.8004],[6.9623,5.7974],[6.9619,5.7924],[6.9731,5.7969],[6.9817,5.7944],[6.986,5.7977],[6.9849,5.8107],[6.9982,5.8093],[7.0051,5.8228],[7.0015,5.8259],[7.0016,5.8307],[6.9997,5.8334],[7.0018,5.8397],[7.001,5.8477],[7.0046,5.8483],[7.0128,5.8455],[7.0184,5.8452],[7.017,5.8604],[7.0153,5.8687],[7.0127,5.8718],[7.0122,5.8801],[7.02,5.889],[7.021,5.8928],[7.0353,5.9019],[7.0425,5.905],[7.045,5.9083],[7.0441,5.9119],[7.0468,5.9229],[7.0435,5.9235],[7.0367,5.9167],[7.031,5.9121],[7.0255,5.9098],[7.0092,5.9077],[7.0031,5.9052],[6.9937,5.8952]]]}},{"type":"Feature","properties":{"name":"Oru East","state":"Imo","scode":"IM","centroid":[5.7064,6.957]},"geometry":{"type":"Polygon","coordinates":[[[7.0103,5.6497],[7.0106,5.6556],[7.0035,5.6631],[7.0033,5.6658],[6.9956,5.6597],[6.9879,5.6579],[6.9896,5.6633],[6.9836,5.664],[6.9806,5.6675],[6.979,5.6722],[6.9793,5.6765],[7.0015,5.6808],[7.0021,5.6854],[7.0028,5.6979],[6.9899,5.7035],[6.9842,5.6983],[6.9738,5.696],[6.9608,5.6953],[6.9744,5.7117],[6.9742,5.7191],[6.9778,5.727],[6.9753,5.7277],[6.9754,5.7332],[6.973,5.7365],[6.9778,5.7369],[6.9706,5.7509],[6.9715,5.761],[6.9652,5.7718],[6.9808,5.7768],[6.9826,5.778],[6.984,5.782],[6.9884,5.7855],[6.9909,5.7916],[6.9817,5.7944],[6.9731,5.7969],[6.9619,5.7924],[6.9623,5.7974],[6.9597,5.8004],[6.9608,5.8028],[6.9581,5.8133],[6.9594,5.8157],[6.9572,5.8173],[6.9515,5.8159],[6.9501,5.8168],[6.949,5.8147],[6.9423,5.8119],[6.9379,5.8003],[6.9276,5.8066],[6.9229,5.7966],[6.918,5.7924],[6.9193,5.79],[6.9227,5.7897],[6.9283,5.7949],[6.9351,5.7941],[6.939,5.7924],[6.9402,5.7905],[6.9427,5.7905],[6.9402,5.7878],[6.943,5.7836],[6.9429,5.7806],[6.934,5.7775],[6.9415,5.7692],[6.9443,5.7687],[6.9461,5.7666],[6.9467,5.7717],[6.9484,5.7707],[6.9504,5.7751],[6.9588,5.7701],[6.9601,5.7713],[6.9634,5.7711],[6.9568,5.7633],[6.9452,5.7567],[6.9356,5.7542],[6.9337,5.7526],[6.9331,5.7474],[6.9276,5.7425],[6.9248,5.742],[6.9222,5.7459],[6.9182,5.7445],[6.9433,5.6963],[6.9184,5.69],[6.9296,5.6634],[6.9116,5.6502],[6.9277,5.6344],[6.9382,5.6291],[6.9552,5.6266],[6.9963,5.6441],[7.006,5.6463],[7.0103,5.6497]]]}},{"type":"Feature","properties":{"name":"Oru West","state":"Imo","scode":"IM","centroid":[5.7393,6.9002]},"geometry":{"type":"Polygon","coordinates":[[[6.9334,5.8304],[6.9204,5.8259],[6.9014,5.8168],[6.8898,5.8063],[6.8855,5.7871],[6.8837,5.7541],[6.8795,5.7455],[6.8766,5.7441],[6.8723,5.7444],[6.8655,5.7479],[6.8465,5.7658],[6.8418,5.7568],[6.8284,5.7419],[6.8378,5.7247],[6.8404,5.72],[6.8479,5.7252],[6.8595,5.7282],[6.8599,5.7138],[6.8668,5.7055],[6.8719,5.6934],[6.8779,5.6888],[6.9043,5.6571],[6.9116,5.6502],[6.9296,5.6634],[6.9184,5.69],[6.9433,5.6963],[6.9182,5.7445],[6.9222,5.7459],[6.9248,5.742],[6.9276,5.7425],[6.9331,5.7474],[6.9337,5.7526],[6.9356,5.7542],[6.9452,5.7567],[6.9568,5.7633],[6.9634,5.7711],[6.9601,5.7713],[6.9588,5.7701],[6.9504,5.7751],[6.9484,5.7707],[6.9467,5.7717],[6.9461,5.7666],[6.9443,5.7687],[6.9415,5.7692],[6.934,5.7775],[6.9429,5.7806],[6.943,5.7836],[6.9402,5.7878],[6.9427,5.7905],[6.9402,5.7905],[6.939,5.7924],[6.9351,5.7941],[6.9283,5.7949],[6.9227,5.7897],[6.9193,5.79],[6.918,5.7924],[6.9229,5.7966],[6.9276,5.8066],[6.9275,5.8097],[6.9328,5.8231],[6.9304,5.8243],[6.9334,5.8267],[6.9334,5.8304]]]}},{"type":"Feature","properties":{"name":"Owerri Municipal","state":"Imo","scode":"IM","centroid":[5.4752,7.0212]},"geometry":{"type":"Polygon","coordinates":[[[7.0419,5.4469],[7.0565,5.4558],[7.0745,5.4617],[7.0748,5.4634],[7.067,5.467],[7.0619,5.4675],[7.0692,5.4736],[7.0682,5.4779],[7.069,5.4864],[7.064,5.4929],[7.049,5.4898],[7.0483,5.4969],[7.0338,5.5056],[7.0285,5.5126],[7.0182,5.5085],[7.0151,5.5187],[7.0095,5.5255],[7.008,5.5211],[6.9973,5.5137],[7.0004,5.5096],[6.9968,5.5107],[6.991,5.5016],[6.9851,5.4948],[6.9794,5.492],[6.9747,5.4843],[6.9835,5.4776],[6.9844,5.4741],[6.9867,5.4727],[6.9875,5.4661],[6.9839,5.4611],[6.9871,5.4611],[6.9958,5.4562],[6.9859,5.444],[6.9967,5.4378],[7.001,5.4368],[7.0024,5.4346],[7.0012,5.4328],[7.0024,5.4266],[7.0074,5.4274],[7.0101,5.4316],[7.0192,5.4384],[7.0243,5.4447],[7.032,5.443],[7.0419,5.4469]]]}},{"type":"Feature","properties":{"name":"Owerri North","state":"Imo","scode":"IM","centroid":[5.4481,7.0951]},"geometry":{"type":"Polygon","coordinates":[[[7.0095,5.5255],[7.0151,5.5187],[7.0182,5.5085],[7.0285,5.5126],[7.0338,5.5056],[7.0483,5.4969],[7.049,5.4898],[7.064,5.4929],[7.069,5.4864],[7.0682,5.4779],[7.0692,5.4736],[7.0619,5.4675],[7.067,5.467],[7.0748,5.4634],[7.0745,5.4617],[7.0565,5.4558],[7.0419,5.4469],[7.0578,5.4345],[7.0625,5.4268],[7.0787,5.4254],[7.0806,5.418],[7.0633,5.3801],[7.0351,5.3766],[7.0323,5.3591],[7.0342,5.3466],[7.0302,5.3423],[7.0353,5.3285],[7.0501,5.3344],[7.0653,5.3436],[7.0743,5.3575],[7.0806,5.3634],[7.0887,5.378],[7.09,5.3849],[7.0998,5.3958],[7.1063,5.3986],[7.1119,5.3988],[7.1342,5.3943],[7.1526,5.3946],[7.1615,5.4035],[7.1684,5.4142],[7.173,5.4288],[7.1467,5.4402],[7.1538,5.4519],[7.169,5.4605],[7.1713,5.4673],[7.1644,5.4765],[7.1582,5.4777],[7.1543,5.4769],[7.1581,5.4822],[7.1666,5.4888],[7.1628,5.4918],[7.162,5.4968],[7.1512,5.4908],[7.1449,5.49],[7.1418,5.4967],[7.1216,5.5058],[7.107,5.5162],[7.0881,5.518],[7.0785,5.524],[7.0671,5.5283],[7.0541,5.5417],[7.0442,5.5414],[7.0376,5.5271],[7.0332,5.5207],[7.0318,5.5205],[7.0303,5.5223],[7.027,5.523],[7.0281,5.5232],[7.0277,5.5282],[7.0238,5.5335],[7.0237,5.5371],[7.0214,5.537],[7.0218,5.541],[7.0196,5.5393],[7.0177,5.5346],[7.0157,5.5384],[7.0062,5.5416],[7.0055,5.5328],[7.0095,5.5255]]]}},{"type":"Feature","properties":{"name":"Owerri West","state":"Imo","scode":"IM","centroid":[5.4368,6.9754]},"geometry":{"type":"MultiPolygon","coordinates":[[[[7.0063,5.2646],[7.0102,5.2724],[7.0172,5.2799],[7.0081,5.2819],[6.9997,5.2864],[6.9862,5.2885],[6.9893,5.2688],[6.988,5.2601],[7.0063,5.2646]]],[[[7.0353,5.3285],[7.0302,5.3423],[7.0342,5.3466],[7.0323,5.3591],[7.0351,5.3766],[7.0633,5.3801],[7.0806,5.418],[7.0787,5.4254],[7.0625,5.4268],[7.0578,5.4345],[7.0419,5.4469],[7.032,5.443],[7.0243,5.4447],[7.0192,5.4384],[7.0101,5.4316],[7.0074,5.4274],[7.0024,5.4266],[7.0012,5.4328],[7.0024,5.4346],[7.001,5.4368],[6.9967,5.4378],[6.9859,5.444],[6.9958,5.4562],[6.9871,5.4611],[6.9839,5.4611],[6.9875,5.4661],[6.9867,5.4727],[6.9844,5.4741],[6.9835,5.4776],[6.9747,5.4843],[6.9794,5.492],[6.9851,5.4948],[6.991,5.5016],[6.9968,5.5107],[7.0004,5.5096],[6.9973,5.5137],[7.008,5.5211],[7.0095,5.5255],[7.0055,5.5328],[7.0062,5.5416],[7.0049,5.5449],[6.9988,5.5489],[7.0011,5.5504],[7.0023,5.5545],[7.0067,5.559],[6.9986,5.5689],[6.9957,5.5694],[6.9898,5.5671],[6.9855,5.5635],[6.9852,5.559],[6.9889,5.5449],[6.9813,5.541],[6.9734,5.5505],[6.9692,5.5606],[6.9609,5.5598],[6.9531,5.5567],[6.938,5.5562],[6.934,5.5543],[6.9294,5.5425],[6.9291,5.5254],[6.8856,5.5032],[6.8964,5.4842],[6.9049,5.4735],[6.9136,5.4677],[6.918,5.4516],[6.9228,5.4492],[6.9302,5.4427],[6.9064,5.4248],[6.8702,5.392],[6.8697,5.3848],[6.8905,5.3779],[6.9202,5.3855],[6.9397,5.3986],[6.9506,5.3937],[6.963,5.3813],[6.9671,5.3814],[6.9705,5.383],[6.9749,5.3883],[6.9764,5.394],[6.9836,5.3841],[6.9867,5.3755],[6.9823,5.3417],[7.0117,5.3109],[7.0229,5.3038],[7.0266,5.2887],[7.0347,5.2922],[7.0402,5.3011],[7.0417,5.3223],[7.0366,5.3249],[7.0353,5.3285]]]]}}]}