{"type":"FeatureCollection","features":[{"type":"Feature","properties":{"name":"Auyo","state":"Jigawa","scode":"JI","centroid":[12.3552,10.0187]},"geometry":{"type":"Polygon","coordinates":[[[9.8597,12.223],[9.886,12.2349],[9.8823,12.245],[9.8857,12.2449],[9.8896,12.247],[9.8915,12.2537],[9.9203,12.2614],[9.9244,12.2671],[9.9267,12.2669],[9.9346,12.2721],[9.9452,12.2731],[9.9495,12.277],[9.9524,12.2765],[9.9565,12.2792],[9.9546,12.2875],[9.9549,12.3001],[9.9579,12.3162],[9.9693,12.3185],[9.9692,12.3219],[9.9764,12.3248],[9.9859,12.3378],[9.9911,12.3389],[9.993,12.3531],[10.016,12.3655],[10.0153,12.3708],[10.0171,12.3738],[10.0351,12.3758],[10.0662,12.3738],[10.1016,12.3865],[10.1143,12.3735],[10.1264,12.358],[10.1387,12.3512],[10.1504,12.3478],[10.1622,12.3448],[10.1797,12.3437],[10.1917,12.3405],[10.1907,12.3377],[10.1917,12.3309],[10.1952,12.3314],[10.195,12.3281],[10.1989,12.3306],[10.2017,12.3361],[10.2012,12.3419],[10.2084,12.3552],[10.2205,12.3563],[10.2258,12.364],[10.2266,12.3686],[10.2429,12.3799],[10.2541,12.391],[10.225,12.4339],[10.1976,12.4335],[10.1436,12.4223],[10.1202,12.4203],[10.1069,12.4169],[10.0896,12.4318],[10.0871,12.4278],[10.0705,12.4225],[10.0525,12.4211],[10.0521,12.4319],[10.033,12.4405],[10.0277,12.4406],[10.0238,12.4398],[10.0209,12.4371],[10.0212,12.4233],[10.0149,12.4257],[9.9992,12.4266],[9.994,12.4152],[9.9933,12.4088],[9.9908,12.4053],[9.9876,12.405],[9.986,12.4096],[9.9826,12.4127],[9.9826,12.4165],[9.9646,12.4143],[9.9644,12.4057],[9.9634,12.4045],[9.9598,12.4047],[9.9586,12.403],[9.965,12.3984],[9.9664,12.3936],[9.9647,12.3899],[9.9587,12.3845],[9.9546,12.3885],[9.9498,12.3897],[9.9439,12.3874],[9.9394,12.3833],[9.9355,12.3828],[9.9351,12.3812],[9.9403,12.3777],[9.9365,12.3715],[9.9286,12.3711],[9.9248,12.3799],[9.9207,12.3811],[9.9212,12.3836],[9.9186,12.384],[9.9157,12.382],[9.9129,12.3723],[9.9174,12.3697],[9.9198,12.3651],[9.909,12.3638],[9.9089,12.3624],[9.9101,12.3634],[9.9126,12.3621],[9.9118,12.3607],[9.905,12.3619],[9.9013,12.3609],[9.8988,12.3518],[9.8966,12.35],[9.8876,12.3454],[9.8853,12.3421],[9.8776,12.3401],[9.8756,12.3411],[9.8735,12.3465],[9.8596,12.3431],[9.8581,12.3406],[9.859,12.3391],[9.8601,12.3387],[9.8615,12.3411],[9.8624,12.3403],[9.8604,12.3367],[9.8619,12.3307],[9.8464,12.3365],[9.8431,12.3355],[9.8407,12.3326],[9.8424,12.3293],[9.8384,12.3276],[9.8398,12.3262],[9.8393,12.3239],[9.8275,12.3187],[9.8252,12.3163],[9.8277,12.3143],[9.8289,12.3052],[9.8239,12.3042],[9.8203,12.3054],[9.8287,12.2699],[9.8322,12.2686],[9.8362,12.2583],[9.8426,12.2489],[9.8531,12.2532],[9.858,12.247],[9.8501,12.2425],[9.8597,12.223]]]}},{"type":"Feature","properties":{"name":"Babura","state":"Jigawa","scode":"JI","centroid":[12.5985,8.855]},"geometry":{"type":"Polygon","coordinates":[[[8.6407,12.593],[8.6487,12.5835],[8.6457,12.5598],[8.6608,12.5589],[8.6832,12.5619],[8.6919,12.5722],[8.7191,12.5666],[8.73,12.5591],[8.7376,12.551],[8.7282,12.546],[8.7181,12.538],[8.7145,12.5235],[8.705,12.5025],[8.6971,12.4951],[8.6932,12.4946],[8.6875,12.4828],[8.6886,12.4685],[8.6989,12.4546],[8.6956,12.4428],[8.7049,12.4273],[8.7099,12.4159],[8.7295,12.4255],[8.7334,12.4234],[8.7387,12.4172],[8.7574,12.4213],[8.7638,12.4199],[8.774,12.4033],[8.7804,12.3871],[8.785,12.3926],[8.7951,12.3823],[8.8042,12.3929],[8.8136,12.4001],[8.8205,12.4024],[8.8211,12.3999],[8.8306,12.4012],[8.8516,12.4196],[8.8777,12.4278],[8.8623,12.4581],[8.8779,12.4808],[8.8914,12.4972],[8.8984,12.5006],[8.9099,12.5144],[8.9201,12.5217],[8.9296,12.5353],[8.923,12.5416],[8.9347,12.561],[8.9363,12.568],[8.9473,12.5793],[8.9528,12.579],[8.9599,12.5715],[8.9696,12.5706],[8.9818,12.5791],[8.9962,12.5806],[8.9999,12.5872],[9.0044,12.5952],[9.0042,12.5972],[9.0229,12.6159],[9.039,12.6285],[9.0329,12.6486],[9.0361,12.6545],[9.0428,12.6621],[9.0324,12.6727],[9.0212,12.6792],[9.0127,12.6901],[9.04,12.6988],[9.0596,12.71],[9.0675,12.7274],[9.0801,12.7354],[9.0792,12.7382],[9.0818,12.7581],[9.0865,12.7742],[9.0695,12.7883],[9.069,12.7991],[9.0551,12.8002],[9.0539,12.8061],[9.0473,12.8162],[9.015,12.8091],[8.9829,12.8068],[8.9713,12.7851],[8.97,12.7756],[8.9513,12.7381],[8.9232,12.7071],[8.9084,12.702],[8.8835,12.6961],[8.8646,12.669],[8.8505,12.6788],[8.8479,12.6753],[8.831,12.6704],[8.8297,12.6705],[8.8286,12.6759],[8.8239,12.6744],[8.8047,12.6731],[8.7593,12.6739],[8.7524,12.6727],[8.7448,12.6667],[8.7229,12.6699],[8.7228,12.6827],[8.7124,12.6806],[8.7011,12.687],[8.6981,12.6752],[8.6832,12.6632],[8.6577,12.6594],[8.6568,12.6451],[8.6545,12.6452],[8.6485,12.6367],[8.6478,12.6185],[8.6444,12.6125],[8.6407,12.593]]]}},{"type":"Feature","properties":{"name":"Biriniwa","state":"Jigawa","scode":"JI","centroid":[12.8128,10.0657]},"geometry":{"type":"Polygon","coordinates":[[[9.7652,12.7962],[9.7709,12.7692],[9.8058,12.7384],[9.8128,12.7289],[9.8148,12.7194],[9.8194,12.7126],[9.828,12.7087],[9.8237,12.7048],[9.8244,12.7026],[9.8493,12.687],[9.8515,12.6758],[9.8622,12.665],[9.8621,12.6421],[9.8531,12.6253],[9.8739,12.6204],[9.8851,12.6214],[9.8902,12.6201],[9.8923,12.6249],[9.893,12.6404],[9.9042,12.6427],[9.9063,12.6386],[9.9222,12.6283],[9.9372,12.6277],[9.9646,12.6338],[9.9706,12.6296],[9.9825,12.6327],[9.9916,12.6432],[9.9987,12.6461],[10.0165,12.6505],[10.0314,12.6453],[10.0509,12.6526],[10.0536,12.6565],[10.0565,12.6715],[10.0778,12.6819],[10.0849,12.687],[10.0993,12.6765],[10.1045,12.6742],[10.1309,12.6871],[10.1495,12.6909],[10.1716,12.6906],[10.1884,12.6954],[10.1866,12.7088],[10.1965,12.7194],[10.2171,12.7271],[10.2309,12.7248],[10.2371,12.7302],[10.2471,12.7295],[10.2509,12.7327],[10.2514,12.7379],[10.2689,12.7461],[10.2884,12.7579],[10.3007,12.7724],[10.3071,12.7765],[10.3288,12.7825],[10.3514,12.7743],[10.3639,12.7874],[10.3628,12.8059],[10.3396,12.8073],[10.3253,12.8115],[10.3149,12.8145],[10.2982,12.8171],[10.2905,12.8155],[10.2955,12.8355],[10.3038,12.8554],[10.3047,12.8611],[10.2901,12.8755],[10.289,12.9056],[10.2719,12.9176],[10.2741,12.9345],[10.2707,12.9389],[10.2704,12.9448],[10.264,12.9548],[10.2773,12.9584],[10.2834,12.9621],[10.2846,12.9643],[10.282,12.9794],[10.2654,12.9836],[10.2637,12.9853],[10.2603,12.9975],[10.2347,13.0088],[10.2265,13.0069],[10.2243,13.0148],[10.2029,13.0082],[10.1744,13.0022],[10.1546,12.9933],[10.149,12.9876],[10.1438,12.9867],[10.1399,12.9892],[10.1364,12.9894],[10.1178,12.9846],[10.0986,12.9855],[10.1037,12.9663],[10.0973,12.9664],[10.0887,12.9836],[10.0637,12.9778],[10.0569,12.974],[10.0609,12.9657],[10.0512,12.9528],[10.0321,12.9652],[10.0192,12.9638],[10.0062,12.9571],[9.997,12.9556],[9.988,12.9564],[9.9644,12.9444],[9.9537,12.9361],[9.9431,12.9112],[9.9297,12.9185],[9.911,12.8775],[9.9177,12.8723],[9.9154,12.8634],[9.9102,12.8585],[9.8997,12.8551],[9.8964,12.8527],[9.8582,12.8202],[9.8162,12.8075],[9.7974,12.8097],[9.7929,12.8145],[9.787,12.8144],[9.7853,12.8127],[9.7868,12.8042],[9.7856,12.7991],[9.7809,12.8004],[9.7774,12.8042],[9.7777,12.7993],[9.7652,12.7962]]]}},{"type":"Feature","properties":{"name":"Birnin Kudu","state":"Jigawa","scode":"JI","centroid":[11.4658,9.4831]},"geometry":{"type":"Polygon","coordinates":[[[9.6259,11.2367],[9.6335,11.2439],[9.634,11.2502],[9.6615,11.2849],[9.6607,11.3057],[9.6549,11.3162],[9.642,11.3322],[9.6411,11.3437],[9.6421,11.3477],[9.6461,11.3499],[9.6459,11.3562],[9.6442,11.3665],[9.6411,11.3716],[9.6369,11.3734],[9.6331,11.3734],[9.6256,11.3683],[9.6167,11.3653],[9.604,11.3648],[9.5996,11.3689],[9.5947,11.3772],[9.5937,11.3816],[9.5889,11.3841],[9.5825,11.3842],[9.5811,11.3931],[9.5903,11.4022],[9.5983,11.4157],[9.607,11.41],[9.6012,11.4034],[9.596,11.385],[9.599,11.3831],[9.632,11.383],[9.6411,11.3887],[9.6448,11.4],[9.6413,11.4224],[9.6474,11.4453],[9.6489,11.4611],[9.703,11.4788],[9.7025,11.4923],[9.6965,11.4917],[9.6855,11.4891],[9.6826,11.4862],[9.6714,11.4816],[9.6643,11.4825],[9.6587,11.4699],[9.6548,11.4694],[9.6496,11.4718],[9.6467,11.4755],[9.6463,11.4803],[9.6482,11.4886],[9.6454,11.4953],[9.6383,11.5044],[9.6383,11.5076],[9.6481,11.519],[9.6404,11.5385],[9.6374,11.5399],[9.6294,11.54],[9.6284,11.5519],[9.6308,11.5724],[9.6224,11.5778],[9.6158,11.5763],[9.6138,11.5788],[9.61,11.5925],[9.6145,11.594],[9.6272,11.6105],[9.6527,11.6233],[9.655,11.6257],[9.6631,11.6384],[9.6641,11.6432],[9.6726,11.6558],[9.6796,11.6546],[9.6948,11.6573],[9.6971,11.6815],[9.6803,11.6774],[9.666,11.6761],[9.6614,11.681],[9.6625,11.6914],[9.6601,11.6982],[9.6612,11.7029],[9.6658,11.7098],[9.6644,11.7268],[9.6397,11.733],[9.5367,11.6834],[9.524,11.6616],[9.5242,11.6486],[9.5044,11.6369],[9.481,11.6136],[9.4644,11.5936],[9.4361,11.5823],[9.4204,11.5579],[9.3777,11.5613],[9.3603,11.5608],[9.3432,11.5317],[9.3305,11.5166],[9.2986,11.4987],[9.2908,11.5063],[9.2842,11.5026],[9.2762,11.4921],[9.2605,11.4761],[9.2525,11.4722],[9.2477,11.4573],[9.2349,11.4524],[9.2315,11.4495],[9.2276,11.4262],[9.2338,11.4197],[9.2334,11.4134],[9.2321,11.4125],[9.2325,11.4057],[9.2291,11.3966],[9.2249,11.3924],[9.2222,11.3738],[9.2084,11.358],[9.195,11.3266],[9.2114,11.3288],[9.2303,11.3352],[9.2871,11.3494],[9.291,11.3482],[9.2943,11.3394],[9.3038,11.3377],[9.3136,11.3462],[9.322,11.3394],[9.3239,11.341],[9.3232,11.3437],[9.3305,11.3399],[9.3301,11.3448],[9.3355,11.3405],[9.337,11.3414],[9.3378,11.3449],[9.3426,11.3407],[9.3461,11.3467],[9.3514,11.3432],[9.3796,11.3313],[9.398,11.3166],[9.4116,11.3],[9.4212,11.2988],[9.4262,11.295],[9.441,11.2932],[9.4452,11.2913],[9.4491,11.2874],[9.4641,11.2815],[9.4667,11.2836],[9.4712,11.2818],[9.4753,11.2846],[9.4753,11.2861],[9.4788,11.2865],[9.4975,11.2781],[9.5058,11.2899],[9.5052,11.2954],[9.5077,11.2977],[9.5075,11.302],[9.5083,11.3051],[9.5114,11.3079],[9.5118,11.3131],[9.5256,11.3165],[9.5379,11.3173],[9.559,11.3169],[9.5591,11.3155],[9.6094,11.3155],[9.6096,11.3091],[9.6073,11.3026],[9.6016,11.2983],[9.5984,11.2929],[9.597,11.2689],[9.5935,11.2572],[9.5956,11.2476],[9.6034,11.2434],[9.6154,11.2403],[9.6259,11.2367]]]}},{"type":"Feature","properties":{"name":"Buji","state":"Jigawa","scode":"JI","centroid":[11.5661,9.7223]},"geometry":{"type":"Polygon","coordinates":[[[9.6459,11.3562],[9.6594,11.3607],[9.6615,11.364],[9.6715,11.3646],[9.6812,11.3708],[9.6832,11.3733],[9.6842,11.38],[9.6893,11.3846],[9.6853,11.3906],[9.6845,11.4033],[9.688,11.4081],[9.7012,11.4117],[9.7041,11.4139],[9.706,11.4158],[9.7063,11.4202],[9.7106,11.4178],[9.712,11.4186],[9.7096,11.4293],[9.716,11.4361],[9.728,11.4357],[9.7657,11.4473],[9.788,11.4633],[9.7847,11.4682],[9.7865,11.4822],[9.784,11.4913],[9.7879,11.5047],[9.7921,11.5065],[9.8056,11.5214],[9.8154,11.5293],[9.8297,11.5378],[9.8308,11.5403],[9.8196,11.5799],[9.8295,11.5881],[9.8349,11.5989],[9.8172,11.6041],[9.8228,11.6134],[9.8215,11.6157],[9.8197,11.6159],[9.8187,11.6196],[9.8136,11.6192],[9.8109,11.6225],[9.811,11.6263],[9.8125,11.6276],[9.8259,11.6268],[9.8282,11.6347],[9.8257,11.6484],[9.8221,11.6576],[9.8208,11.6716],[9.8278,11.6824],[9.8306,11.6846],[9.8278,11.6923],[9.802,11.6915],[9.7843,11.7239],[9.7848,11.7272],[9.7796,11.7365],[9.7126,11.7209],[9.7037,11.7207],[9.6924,11.7222],[9.6849,11.7253],[9.6644,11.7268],[9.6658,11.7098],[9.6612,11.7029],[9.6601,11.6982],[9.6625,11.6914],[9.6614,11.681],[9.666,11.6761],[9.6803,11.6774],[9.6971,11.6815],[9.6948,11.6573],[9.6796,11.6546],[9.6726,11.6558],[9.6641,11.6432],[9.6631,11.6384],[9.655,11.6257],[9.6527,11.6233],[9.6272,11.6105],[9.6145,11.594],[9.61,11.5925],[9.6138,11.5788],[9.6158,11.5763],[9.6224,11.5778],[9.6308,11.5724],[9.6284,11.5519],[9.6294,11.54],[9.6374,11.5399],[9.6404,11.5385],[9.6481,11.519],[9.6383,11.5076],[9.6383,11.5044],[9.6454,11.4953],[9.6482,11.4886],[9.6463,11.4803],[9.6467,11.4755],[9.6496,11.4718],[9.6548,11.4694],[9.6587,11.4699],[9.6643,11.4825],[9.6714,11.4816],[9.6826,11.4862],[9.6855,11.4891],[9.6965,11.4917],[9.7025,11.4923],[9.703,11.4788],[9.6489,11.4611],[9.6474,11.4453],[9.6413,11.4224],[9.6448,11.4],[9.6411,11.3887],[9.632,11.383],[9.599,11.3831],[9.596,11.385],[9.6012,11.4034],[9.607,11.41],[9.5983,11.4157],[9.5903,11.4022],[9.5811,11.3931],[9.5825,11.3842],[9.5889,11.3841],[9.5937,11.3816],[9.5947,11.3772],[9.5996,11.3689],[9.604,11.3648],[9.6167,11.3653],[9.6256,11.3683],[9.6331,11.3734],[9.6369,11.3734],[9.6411,11.3716],[9.6442,11.3665],[9.6459,11.3562]]]}},{"type":"Feature","properties":{"name":"Dutse","state":"Jigawa","scode":"JI","centroid":[11.7963,9.3106]},"geometry":{"type":"Polygon","coordinates":[[[9.202,11.9047],[9.2266,11.9088],[9.23,11.8947],[9.2222,11.891],[9.2124,11.879],[9.2156,11.8756],[9.2123,11.8686],[9.206,11.8634],[9.1983,11.8612],[9.1957,11.8484],[9.1902,11.8376],[9.1871,11.8346],[9.174,11.8292],[9.1523,11.8295],[9.1439,11.8266],[9.1389,11.7937],[9.1416,11.7867],[9.1427,11.7728],[9.1482,11.7656],[9.1415,11.7594],[9.1529,11.7494],[9.1572,11.7415],[9.1574,11.7192],[9.1657,11.7066],[9.1712,11.7026],[9.1743,11.7028],[9.1826,11.7073],[9.1818,11.71],[9.1887,11.7128],[9.193,11.7206],[9.2025,11.7305],[9.2258,11.7357],[9.2489,11.6967],[9.2486,11.6902],[9.2437,11.6897],[9.2446,11.6785],[9.2339,11.6797],[9.233,11.6766],[9.2333,11.6731],[9.2352,11.6726],[9.2335,11.6631],[9.2376,11.6619],[9.2412,11.6571],[9.2414,11.6454],[9.2545,11.6427],[9.274,11.6441],[9.2778,11.6387],[9.2675,11.631],[9.2691,11.6271],[9.2819,11.6131],[9.3117,11.5888],[9.319,11.5806],[9.3274,11.5771],[9.3537,11.5725],[9.3603,11.5608],[9.3777,11.5613],[9.4204,11.5579],[9.4361,11.5823],[9.4644,11.5936],[9.481,11.6136],[9.4583,11.6252],[9.4553,11.6572],[9.4513,11.6608],[9.4472,11.6768],[9.4211,11.6754],[9.4277,11.7027],[9.4171,11.7045],[9.415,11.718],[9.4049,11.7246],[9.4068,11.7288],[9.3963,11.7462],[9.3966,11.7524],[9.3909,11.7593],[9.3917,11.7616],[9.3888,11.7642],[9.3852,11.7639],[9.3733,11.7717],[9.3667,11.7723],[9.3678,11.7781],[9.3629,11.7861],[9.3645,11.7958],[9.3713,11.8041],[9.3796,11.8241],[9.3895,11.8339],[9.3984,11.834],[9.3966,11.8453],[9.3995,11.8461],[9.3993,11.8471],[9.4097,11.849],[9.4003,11.8663],[9.3964,11.8663],[9.3953,11.87],[9.3977,11.8706],[9.3972,11.8764],[9.4258,11.8846],[9.4249,11.8891],[9.4471,11.8933],[9.4495,11.9004],[9.4518,11.9014],[9.4512,11.9041],[9.4522,11.9084],[9.4543,11.9107],[9.4537,11.9129],[9.4442,11.91],[9.4278,11.9105],[9.392,11.9077],[9.3901,11.9189],[9.4075,11.9452],[9.398,11.9754],[9.39,11.9736],[9.3875,11.9748],[9.3815,11.9961],[9.3804,12.0157],[9.3776,12.0202],[9.367,12.0254],[9.3597,12.0266],[9.3561,12.0297],[9.3506,12.0299],[9.3367,12.0264],[9.329,12.0432],[9.3193,12.0569],[9.3013,12.0425],[9.2833,12.032],[9.2777,12.0252],[9.2791,12.0237],[9.2781,12.0222],[9.2746,12.0216],[9.2664,12.0137],[9.2625,12.0053],[9.2602,12.0056],[9.2574,12.0034],[9.2527,12.0039],[9.2519,11.9974],[9.2492,11.9964],[9.25,11.9941],[9.223,11.9896],[9.201,11.9619],[9.207,11.9565],[9.2075,11.9463],[9.207,11.9242],[9.202,11.9047]]]}},{"type":"Feature","properties":{"name":"Gagarawa","state":"Jigawa","scode":"JI","centroid":[12.4833,9.5223]},"geometry":{"type":"Polygon","coordinates":[[[9.4004,12.5601],[9.4057,12.5496],[9.4099,12.5371],[9.4003,12.5321],[9.3982,12.4908],[9.384,12.4719],[9.3945,12.4572],[9.4067,12.4527],[9.4094,12.4322],[9.3987,12.4089],[9.4018,12.3976],[9.4209,12.3842],[9.4504,12.3846],[9.4655,12.3776],[9.4767,12.3814],[9.5349,12.3672],[9.5613,12.3829],[9.5792,12.3913],[9.6482,12.4294],[9.6416,12.4398],[9.6431,12.4438],[9.6526,12.4552],[9.66,12.46],[9.6659,12.4664],[9.6433,12.4701],[9.6431,12.4763],[9.6491,12.4924],[9.6461,12.5094],[9.6522,12.516],[9.6652,12.5359],[9.6641,12.5627],[9.6116,12.5627],[9.5894,12.5765],[9.5627,12.5789],[9.5661,12.5911],[9.5663,12.602],[9.5552,12.6025],[9.5518,12.5944],[9.5095,12.5769],[9.4758,12.5925],[9.4631,12.5914],[9.4528,12.5881],[9.4316,12.5554],[9.4192,12.5604],[9.411,12.5613],[9.4004,12.5601]]]}},{"type":"Feature","properties":{"name":"Garki","state":"Jigawa","scode":"JI","centroid":[12.4097,9.0826]},"geometry":{"type":"Polygon","coordinates":[[[9.1456,12.3256],[9.1584,12.3336],[9.1661,12.3404],[9.1804,12.3373],[9.2165,12.3354],[9.2212,12.3298],[9.2381,12.3205],[9.2495,12.3059],[9.2831,12.317],[9.2906,12.3072],[9.3134,12.2984],[9.3356,12.2855],[9.3411,12.2929],[9.3574,12.3257],[9.3672,12.3363],[9.3829,12.3389],[9.39,12.3363],[9.4012,12.337],[9.4077,12.33],[9.4168,12.3151],[9.4321,12.327],[9.4696,12.3452],[9.5052,12.3507],[9.5349,12.3672],[9.4767,12.3814],[9.4655,12.3776],[9.4504,12.3846],[9.4209,12.3842],[9.4018,12.3976],[9.3987,12.4089],[9.3712,12.4171],[9.3458,12.4282],[9.3249,12.4272],[9.3174,12.429],[9.3087,12.4347],[9.3017,12.4321],[9.2878,12.4309],[9.2793,12.4333],[9.2766,12.4325],[9.2769,12.4299],[9.26,12.4298],[9.2598,12.4333],[9.2548,12.4402],[9.2501,12.4545],[9.242,12.4717],[9.2346,12.4664],[9.2249,12.4641],[9.2158,12.4915],[9.2027,12.489],[9.1933,12.4952],[9.1911,12.5199],[9.1674,12.5351],[9.1582,12.5354],[9.1238,12.5434],[9.1088,12.5291],[9.0996,12.5232],[9.096,12.5246],[9.0924,12.5303],[9.0916,12.5346],[9.0776,12.5503],[9.0638,12.5594],[9.018,12.5729],[9.0169,12.5826],[9.0121,12.5824],[9.0089,12.5867],[8.9999,12.5872],[8.9962,12.5806],[8.9818,12.5791],[8.9696,12.5706],[8.9599,12.5715],[8.9528,12.579],[8.9473,12.5793],[8.9363,12.568],[8.9347,12.561],[8.923,12.5416],[8.9296,12.5353],[8.9201,12.5217],[8.9099,12.5144],[8.8984,12.5006],[8.8914,12.4972],[8.8779,12.4808],[8.8623,12.4581],[8.8777,12.4278],[8.8516,12.4196],[8.8306,12.4012],[8.8211,12.3999],[8.8205,12.4024],[8.8136,12.4001],[8.8042,12.3929],[8.7951,12.3823],[8.783,12.3662],[8.78,12.3412],[8.7556,12.344],[8.7469,12.332],[8.7518,12.3286],[8.7402,12.3158],[8.734,12.3059],[8.7251,12.3055],[8.7235,12.2948],[8.7583,12.2934],[8.7611,12.2877],[8.7746,12.2754],[8.7879,12.2773],[8.816,12.302],[8.8251,12.3024],[8.8396,12.3082],[8.9099,12.301],[8.9255,12.3023],[8.9272,12.2991],[8.9302,12.2978],[8.9307,12.3002],[8.9446,12.3026],[8.9451,12.3045],[8.951,12.3071],[8.9551,12.3069],[8.9581,12.3138],[8.9725,12.3152],[8.9907,12.3137],[9.0152,12.3202],[9.0492,12.3227],[9.057,12.3249],[9.0722,12.3262],[9.0836,12.3259],[9.0938,12.3222],[9.1064,12.3249],[9.1151,12.3332],[9.1236,12.3384],[9.1385,12.3422],[9.1456,12.3256]]]}},{"type":"Feature","properties":{"name":"Gumel","state":"Jigawa","scode":"JI","centroid":[12.6256,9.4017]},"geometry":{"type":"Polygon","coordinates":[[[9.4758,12.5925],[9.482,12.593],[9.496,12.599],[9.4984,12.6014],[9.4988,12.6227],[9.4937,12.6282],[9.4815,12.6323],[9.4784,12.6526],[9.4707,12.681],[9.4435,12.6836],[9.4389,12.7058],[9.4116,12.7054],[9.4093,12.7015],[9.3941,12.6941],[9.3927,12.6951],[9.3666,12.6896],[9.3496,12.6821],[9.3512,12.6781],[9.3503,12.6739],[9.3555,12.6641],[9.3308,12.6617],[9.3163,12.6622],[9.3174,12.6597],[9.317,12.6391],[9.3151,12.621],[9.3216,12.6144],[9.3222,12.6045],[9.3216,12.595],[9.3169,12.5929],[9.3177,12.5908],[9.3238,12.5831],[9.3332,12.5792],[9.3477,12.5701],[9.3565,12.558],[9.3443,12.5397],[9.3667,12.542],[9.4004,12.5601],[9.411,12.5613],[9.4192,12.5604],[9.4316,12.5554],[9.4528,12.5881],[9.4631,12.5914],[9.4758,12.5925]]]}},{"type":"Feature","properties":{"name":"Guri","state":"Jigawa","scode":"JI","centroid":[12.6342,10.4626]},"geometry":{"type":"Polygon","coordinates":[[[10.3253,12.8115],[10.3396,12.8073],[10.3628,12.8059],[10.3639,12.7874],[10.3514,12.7743],[10.3566,12.7514],[10.3602,12.7445],[10.3726,12.7281],[10.3608,12.7165],[10.3566,12.7086],[10.3641,12.6737],[10.3636,12.669],[10.3595,12.6677],[10.3578,12.664],[10.3683,12.6587],[10.3725,12.6595],[10.3758,12.6555],[10.3755,12.6537],[10.3703,12.6515],[10.3645,12.6542],[10.3639,12.6479],[10.3613,12.6425],[10.3572,12.6409],[10.3526,12.6419],[10.3537,12.6325],[10.3528,12.6256],[10.3485,12.6112],[10.3337,12.607],[10.3257,12.6073],[10.323,12.5934],[10.3203,12.5882],[10.3236,12.5601],[10.3147,12.5363],[10.3105,12.5295],[10.3224,12.5183],[10.3393,12.5139],[10.3415,12.515],[10.3433,12.5078],[10.3487,12.4987],[10.3443,12.4941],[10.3484,12.4935],[10.3521,12.4889],[10.3551,12.4877],[10.3562,12.4838],[10.3434,12.4884],[10.3425,12.4866],[10.3392,12.4865],[10.3361,12.4836],[10.3364,12.4802],[10.3391,12.4821],[10.34,12.4805],[10.3356,12.4759],[10.3367,12.4749],[10.34,12.4772],[10.3414,12.4761],[10.3416,12.4743],[10.3453,12.4721],[10.346,12.4693],[10.3496,12.4675],[10.3538,12.4612],[10.3632,12.4521],[10.3812,12.4637],[10.3939,12.4652],[10.411,12.4595],[10.426,12.4579],[10.4296,12.456],[10.4333,12.4433],[10.4378,12.4409],[10.452,12.4393],[10.4623,12.4418],[10.5125,12.4684],[10.5157,12.4682],[10.539,12.4778],[10.5546,12.4808],[10.5547,12.4725],[10.5577,12.4671],[10.5626,12.471],[10.5701,12.4699],[10.5726,12.4771],[10.5758,12.4748],[10.5786,12.4752],[10.5812,12.4769],[10.5838,12.4817],[10.5908,12.4823],[10.5949,12.4856],[10.6017,12.4851],[10.6032,12.4871],[10.6025,12.4883],[10.6056,12.489],[10.5905,12.5049],[10.5929,12.5101],[10.5949,12.5113],[10.6047,12.5107],[10.6052,12.5117],[10.6056,12.5146],[10.6044,12.515],[10.5987,12.5142],[10.5917,12.5162],[10.5912,12.5184],[10.5925,12.5198],[10.5952,12.521],[10.597,12.5202],[10.5982,12.522],[10.5977,12.5239],[10.5941,12.5255],[10.5897,12.5257],[10.5891,12.5279],[10.5924,12.5327],[10.5982,12.5342],[10.5981,12.5376],[10.5943,12.5402],[10.5891,12.5371],[10.586,12.5386],[10.587,12.5425],[10.5954,12.5522],[10.5946,12.5587],[10.5993,12.5583],[10.6026,12.5626],[10.6019,12.5647],[10.5896,12.5652],[10.5857,12.568],[10.586,12.5716],[10.5932,12.5822],[10.5921,12.5888],[10.5965,12.5908],[10.5965,12.6169],[10.5888,12.6422],[10.581,12.6478],[10.5827,12.6539],[10.5823,12.6597],[10.5868,12.6636],[10.5963,12.6633],[10.6001,12.6952],[10.5938,12.6986],[10.5933,12.701],[10.5986,12.7031],[10.5986,12.7061],[10.5841,12.7114],[10.5807,12.7361],[10.5764,12.7453],[10.573,12.7615],[10.5687,12.7857],[10.569,12.794],[10.5657,12.7944],[10.5638,12.7972],[10.5609,12.798],[10.559,12.8055],[10.5581,12.8095],[10.5531,12.8111],[10.5501,12.8137],[10.5463,12.8193],[10.5467,12.8206],[10.5435,12.8196],[10.5377,12.8236],[10.5301,12.8166],[10.5274,12.817],[10.5266,12.8197],[10.5248,12.8176],[10.5128,12.8196],[10.5039,12.8141],[10.4951,12.8159],[10.4938,12.8148],[10.4946,12.8108],[10.502,12.8093],[10.503,12.807],[10.4997,12.8038],[10.4827,12.7989],[10.4807,12.7914],[10.4752,12.79],[10.465,12.7991],[10.4502,12.807],[10.436,12.8176],[10.4283,12.8224],[10.4194,12.8246],[10.4096,12.8305],[10.3854,12.8411],[10.331,12.8473],[10.3253,12.8115]]]}},{"type":"Feature","properties":{"name":"Gwaram","state":"Jigawa","scode":"JI","centroid":[11.1883,9.9795]},"geometry":{"type":"Polygon","coordinates":[[[9.6259,11.2367],[9.6476,11.2341],[9.662,11.2284],[9.6676,11.2314],[9.6724,11.223],[9.6776,11.2213],[9.6841,11.2219],[9.6852,11.2244],[9.6865,11.2233],[9.6896,11.2258],[9.6939,11.2272],[9.6949,11.2263],[9.6966,11.2287],[9.7011,11.2294],[9.7005,11.231],[9.7132,11.2299],[9.7139,11.2317],[9.7118,11.2323],[9.7122,11.2351],[9.7143,11.236],[9.7155,11.2447],[9.7209,11.2475],[9.7256,11.246],[9.7248,11.2476],[9.7267,11.2493],[9.7264,11.2509],[9.7396,11.2482],[9.7428,11.2493],[9.7455,11.2476],[9.7446,11.2472],[9.7455,11.2449],[9.7625,11.2458],[9.7653,11.2503],[9.7671,11.2504],[9.7676,11.2533],[9.7765,11.257],[9.7791,11.2616],[9.7828,11.2625],[9.7889,11.2607],[9.79,11.2634],[9.792,11.2634],[9.7943,11.2666],[9.7941,11.2703],[9.7982,11.2733],[9.8022,11.2739],[9.8108,11.2783],[9.8137,11.277],[9.8163,11.2786],[9.8199,11.2776],[9.8249,11.2796],[9.8419,11.2296],[9.8486,11.2277],[9.8615,11.1982],[9.872,11.1986],[9.8738,11.1966],[9.881,11.1961],[9.8787,11.194],[9.8783,11.1893],[9.8738,11.1868],[9.8827,11.1638],[9.8833,11.1473],[9.8781,11.1325],[9.8903,11.1066],[9.889,11.094],[9.8552,11.0765],[9.8529,11.0662],[9.8592,11.0555],[9.8543,11.0455],[9.8544,11.0374],[9.8578,11.0232],[9.8593,11.0144],[9.8629,11.0064],[9.8689,10.9996],[9.874,10.9973],[9.8815,10.9893],[9.8904,10.991],[9.9292,10.9916],[9.9671,10.9708],[9.9855,10.9582],[10.0063,10.9557],[10.0103,10.9701],[10.0254,10.9729],[10.0462,10.9659],[10.0603,10.97],[10.088,10.99],[10.1119,10.9922],[10.1112,10.9626],[10.1199,10.9542],[10.134,10.9475],[10.1481,10.9454],[10.1511,10.9472],[10.1563,10.9443],[10.1634,10.9444],[10.1727,10.9422],[10.1868,10.9447],[10.1914,10.9482],[10.2203,10.9468],[10.2215,10.9537],[10.2043,10.9755],[10.1953,10.9818],[10.1845,10.986],[10.1691,10.9888],[10.1556,11.0056],[10.1536,11.0136],[10.1618,11.0297],[10.1588,11.0327],[10.1666,11.0479],[10.1688,11.0581],[10.1716,11.0615],[10.1748,11.0628],[10.1788,11.0702],[10.1892,11.0817],[10.2098,11.0923],[10.2185,11.0947],[10.2263,11.0943],[10.2314,11.0895],[10.2481,11.0793],[10.2507,11.0817],[10.258,11.0831],[10.2638,11.0865],[10.2696,11.088],[10.2717,11.094],[10.2705,11.0982],[10.2744,11.1015],[10.2773,11.1071],[10.2852,11.1041],[10.2917,11.1223],[10.3024,11.12],[10.3068,11.122],[10.3135,11.1305],[10.3167,11.1304],[10.3258,11.1248],[10.3299,11.1258],[10.3319,11.1218],[10.3312,11.1187],[10.3323,11.1174],[10.334,11.1181],[10.3385,11.1306],[10.3357,11.1434],[10.3403,11.1526],[10.3461,11.1596],[10.3464,11.1628],[10.3646,11.1794],[10.3634,11.1875],[10.3667,11.2025],[10.3659,11.2048],[10.3632,11.207],[10.3585,11.2081],[10.3468,11.208],[10.3335,11.2057],[10.3222,11.2042],[10.2988,11.2058],[10.2795,11.2032],[10.2533,11.2153],[10.2506,11.2195],[10.2471,11.2206],[10.2353,11.2239],[10.2131,11.2271],[10.2,11.2261],[10.1897,11.2222],[10.1756,11.2243],[10.165,11.2277],[10.1592,11.2311],[10.1518,11.2391],[10.1457,11.241],[10.1365,11.2362],[10.1298,11.2379],[10.1199,11.2374],[10.1221,11.247],[10.1082,11.2536],[10.0905,11.2671],[10.0842,11.2697],[10.0628,11.2661],[10.0277,11.2652],[10.0119,11.2614],[9.9985,11.2646],[9.9915,11.2702],[9.9772,11.2772],[9.9695,11.2788],[9.9683,11.283],[9.9646,11.2818],[9.9577,11.2863],[9.9484,11.2963],[9.9415,11.3139],[9.9121,11.3171],[9.9137,11.3199],[9.9183,11.3474],[9.9035,11.3475],[9.8826,11.359],[9.8835,11.3676],[9.8857,11.3703],[9.8895,11.3714],[9.8884,11.381],[9.8845,11.3813],[9.88,11.3889],[9.8851,11.3963],[9.8856,11.4064],[9.8762,11.4154],[9.8761,11.4234],[9.8801,11.4355],[9.8769,11.4459],[9.878,11.4485],[9.8748,11.4527],[9.8689,11.4583],[9.8646,11.4584],[9.8557,11.466],[9.8014,11.4434],[9.788,11.4633],[9.7657,11.4473],[9.728,11.4357],[9.716,11.4361],[9.7096,11.4293],[9.712,11.4186],[9.7106,11.4178],[9.7063,11.4202],[9.706,11.4158],[9.7041,11.4139],[9.7012,11.4117],[9.688,11.4081],[9.6845,11.4033],[9.6853,11.3906],[9.6893,11.3846],[9.6842,11.38],[9.6832,11.3733],[9.6812,11.3708],[9.6715,11.3646],[9.6615,11.364],[9.6594,11.3607],[9.6459,11.3562],[9.6461,11.3499],[9.6421,11.3477],[9.6411,11.3437],[9.642,11.3322],[9.6549,11.3162],[9.6607,11.3057],[9.6615,11.2849],[9.634,11.2502],[9.6335,11.2439],[9.6259,11.2367]]]}},{"type":"Feature","properties":{"name":"Gwiwa","state":"Jigawa","scode":"JI","centroid":[12.7488,8.2818]},"geometry":{"type":"Polygon","coordinates":[[[8.2421,12.8261],[8.2301,12.8262],[8.211,12.8175],[8.1925,12.8157],[8.1789,12.8113],[8.1521,12.8186],[8.1416,12.811],[8.1278,12.8011],[8.1279,12.7968],[8.1523,12.7968],[8.1629,12.7639],[8.1721,12.7511],[8.1802,12.7561],[8.182,12.7503],[8.1792,12.7485],[8.1849,12.7351],[8.1851,12.7325],[8.1668,12.729],[8.1445,12.7213],[8.1433,12.7153],[8.1539,12.6906],[8.16,12.684],[8.1727,12.6848],[8.1894,12.6785],[8.2083,12.6787],[8.2195,12.682],[8.2224,12.6893],[8.2257,12.6915],[8.2342,12.6927],[8.2396,12.6913],[8.2441,12.6933],[8.2523,12.6937],[8.2535,12.687],[8.2583,12.6811],[8.2615,12.673],[8.2837,12.6726],[8.2829,12.651],[8.3107,12.6457],[8.3146,12.6486],[8.3244,12.6494],[8.3297,12.644],[8.3441,12.6529],[8.3468,12.6717],[8.3755,12.6755],[8.3857,12.6933],[8.4027,12.7059],[8.4035,12.7232],[8.4002,12.7402],[8.4012,12.7453],[8.3983,12.7734],[8.3936,12.7925],[8.3984,12.8259],[8.3706,12.8255],[8.3608,12.8241],[8.3524,12.8255],[8.3375,12.836],[8.2923,12.8291],[8.2606,12.8301],[8.245,12.8279],[8.2421,12.8261]]]}},{"type":"Feature","properties":{"name":"Hadejia","state":"Jigawa","scode":"JI","centroid":[12.4578,10.0585]},"geometry":{"type":"Polygon","coordinates":[[[10.0521,12.4319],[10.0738,12.4392],[10.0794,12.4386],[10.0885,12.4526],[10.0888,12.4557],[10.0841,12.469],[10.0811,12.4672],[10.0726,12.4683],[10.0712,12.473],[10.0793,12.4828],[10.0731,12.4965],[10.0679,12.5002],[10.0655,12.4968],[10.0657,12.4924],[10.0679,12.4882],[10.062,12.4847],[10.0523,12.4723],[10.047,12.4776],[10.0417,12.4722],[10.0431,12.4621],[10.0421,12.461],[10.0432,12.4599],[10.0383,12.4545],[10.0326,12.4601],[10.0296,12.4572],[10.0281,12.4584],[10.0236,12.456],[10.0242,12.4543],[10.0192,12.4486],[10.0223,12.4409],[10.0247,12.4429],[10.0277,12.4406],[10.033,12.4405],[10.0521,12.4319]]]}},{"type":"Feature","properties":{"name":"Jahun","state":"Jigawa","scode":"JI","centroid":[12.0566,9.5576]},"geometry":{"type":"Polygon","coordinates":[[[9.3193,12.0569],[9.329,12.0432],[9.3367,12.0264],[9.3506,12.0299],[9.3561,12.0297],[9.3597,12.0266],[9.367,12.0254],[9.3776,12.0202],[9.3804,12.0157],[9.3815,11.9961],[9.3875,11.9748],[9.39,11.9736],[9.398,11.9754],[9.4075,11.9452],[9.3901,11.9189],[9.392,11.9077],[9.4278,11.9105],[9.4442,11.91],[9.4537,11.9129],[9.4591,11.9148],[9.4587,11.9181],[9.4657,11.9213],[9.4732,11.9355],[9.5147,11.947],[9.5427,11.9659],[9.5407,11.9736],[9.5819,11.9799],[9.5796,11.9731],[9.5807,11.9631],[9.5863,11.9428],[9.595,11.9336],[9.6005,11.9308],[9.6148,11.9299],[9.6252,11.9325],[9.6337,11.9374],[9.6362,11.9351],[9.6517,11.9308],[9.6643,11.9364],[9.673,11.9367],[9.6773,11.9318],[9.7264,11.9488],[9.7379,11.9558],[9.7544,11.9475],[9.7746,11.9498],[9.7832,11.9538],[9.7942,11.9639],[9.81,11.9645],[9.8072,11.9737],[9.8084,12.0068],[9.8144,12.012],[9.8225,12.0238],[9.8199,12.0299],[9.8169,12.0316],[9.8134,12.0295],[9.8025,12.0275],[9.7966,12.0496],[9.7957,12.0712],[9.7825,12.1248],[9.7698,12.1259],[9.7339,12.1238],[9.7308,12.1364],[9.7248,12.1463],[9.7136,12.1455],[9.7061,12.1419],[9.6966,12.1406],[9.6913,12.1408],[9.6906,12.142],[9.6941,12.145],[9.69,12.1474],[9.6902,12.1428],[9.672,12.1394],[9.6535,12.131],[9.6525,12.1363],[9.646,12.1413],[9.6381,12.1363],[9.6113,12.1379],[9.6096,12.1387],[9.6075,12.1463],[9.6083,12.1489],[9.6069,12.1557],[9.5991,12.1581],[9.5804,12.1606],[9.5507,12.1916],[9.5317,12.2083],[9.4993,12.207],[9.4884,12.203],[9.4748,12.1949],[9.4614,12.1821],[9.4596,12.1863],[9.4547,12.1838],[9.4498,12.1852],[9.447,12.1837],[9.4446,12.1857],[9.4385,12.1863],[9.4356,12.1851],[9.4327,12.1813],[9.429,12.181],[9.4251,12.1834],[9.4242,12.178],[9.422,12.1764],[9.4184,12.1767],[9.4118,12.1864],[9.406,12.1894],[9.4064,12.1947],[9.4046,12.1975],[9.4028,12.1971],[9.4038,12.1944],[9.4025,12.1937],[9.3994,12.1975],[9.3956,12.199],[9.3926,12.1973],[9.3955,12.1917],[9.3949,12.19],[9.3884,12.1888],[9.386,12.1902],[9.3883,12.1932],[9.3848,12.1946],[9.382,12.1913],[9.3772,12.189],[9.3781,12.1812],[9.374,12.1783],[9.367,12.1832],[9.3575,12.1831],[9.3547,12.1852],[9.3507,12.1808],[9.3465,12.1827],[9.3417,12.1829],[9.3414,12.1748],[9.3389,12.1739],[9.341,12.177],[9.3388,12.1781],[9.3329,12.1734],[9.336,12.1657],[9.3399,12.1603],[9.3488,12.139],[9.347,12.1319],[9.3489,12.1185],[9.3198,12.1002],[9.3229,12.0714],[9.3193,12.0569]]]}},{"type":"Feature","properties":{"name":"Kafin Hausa","state":"Jigawa","scode":"JI","centroid":[12.1505,9.9948]},"geometry":{"type":"Polygon","coordinates":[[[9.7698,12.1259],[9.7825,12.1248],[9.7957,12.0712],[9.7966,12.0496],[9.8025,12.0275],[9.8134,12.0295],[9.8169,12.0316],[9.8199,12.0299],[9.8225,12.0238],[9.8144,12.012],[9.8084,12.0068],[9.8072,11.9737],[9.81,11.9645],[9.8199,11.9604],[9.834,11.9629],[9.8513,11.9613],[9.8625,11.9647],[9.8783,11.9635],[9.8879,11.9599],[9.8913,11.9559],[9.8948,11.95],[9.8967,11.9411],[9.8987,11.9381],[9.9087,11.9432],[9.9234,11.9438],[9.9236,11.9467],[9.9263,11.9479],[9.9267,11.9497],[9.9304,11.9501],[9.9315,11.9518],[9.9337,11.9496],[9.9345,11.952],[9.9397,11.9508],[9.9414,11.9536],[9.9503,11.9552],[9.9517,11.956],[9.9515,11.9578],[9.9597,11.9604],[9.9605,11.9551],[9.9627,11.9539],[9.9678,11.9544],[9.9704,11.9617],[9.9733,11.9641],[9.9763,11.9627],[9.984,11.9702],[9.9966,11.9751],[10.0122,11.979],[10.0167,11.9827],[10.0215,11.9833],[10.0237,11.9805],[10.0312,11.9787],[10.0372,11.9746],[10.0379,11.9762],[10.0413,11.9763],[10.0446,11.9811],[10.0458,11.9801],[10.0461,11.9813],[10.0481,11.9812],[10.0476,11.9775],[10.051,11.979],[10.054,11.9781],[10.0542,11.9817],[10.0605,11.9863],[10.0629,11.9853],[10.0634,11.9836],[10.0664,11.9836],[10.067,11.985],[10.0636,11.9863],[10.0653,11.9884],[10.0646,11.9893],[10.0671,11.9899],[10.0682,11.9878],[10.0701,11.9886],[10.0695,11.9919],[10.0748,11.9938],[10.0773,11.9921],[10.0789,11.9984],[10.0802,11.9973],[10.0797,11.9953],[10.083,11.9976],[10.0848,11.9969],[10.0866,11.9917],[10.0891,11.9922],[10.0904,11.9953],[10.0927,11.9942],[10.0954,11.9997],[10.092,12.0027],[10.092,12.006],[10.0971,12.0121],[10.0959,12.0144],[10.0966,12.0187],[10.1004,12.0164],[10.1047,12.0171],[10.1055,12.0155],[10.1087,12.0155],[10.1098,12.0139],[10.1119,12.0149],[10.1133,12.0135],[10.1182,12.0133],[10.121,12.0152],[10.1246,12.0144],[10.1272,12.0161],[10.1249,12.0171],[10.1253,12.0184],[10.1303,12.0186],[10.1314,12.0199],[10.1321,12.0214],[10.1294,12.0244],[10.132,12.0282],[10.1344,12.0283],[10.1359,12.0254],[10.1391,12.0233],[10.1428,12.0246],[10.1447,12.0275],[10.1453,12.0252],[10.155,12.0233],[10.1577,12.0275],[10.1568,12.0302],[10.1591,12.031],[10.1623,12.0367],[10.1649,12.0369],[10.1621,12.0397],[10.1624,12.0417],[10.1646,12.0424],[10.1672,12.0407],[10.1745,12.0395],[10.1763,12.0427],[10.1749,12.0462],[10.1707,12.0485],[10.1689,12.0515],[10.1663,12.0503],[10.1657,12.054],[10.1682,12.057],[10.1675,12.0592],[10.1626,12.0657],[10.1525,12.0899],[10.1528,12.1024],[10.1568,12.1197],[10.1573,12.1294],[10.164,12.139],[10.1658,12.1511],[10.1704,12.165],[10.1622,12.1832],[10.1515,12.2023],[10.1475,12.2382],[10.175,12.2734],[10.1798,12.288],[10.1962,12.311],[10.1994,12.3135],[10.2023,12.3116],[10.2066,12.3119],[10.2055,12.3142],[10.2062,12.3193],[10.2036,12.3168],[10.202,12.3172],[10.2045,12.3243],[10.1964,12.3213],[10.1975,12.3247],[10.195,12.3281],[10.1952,12.3314],[10.1917,12.3309],[10.1907,12.3377],[10.1917,12.3405],[10.1797,12.3437],[10.1622,12.3448],[10.1504,12.3478],[10.1387,12.3512],[10.1264,12.358],[10.1143,12.3735],[10.1016,12.3865],[10.0662,12.3738],[10.0351,12.3758],[10.0171,12.3738],[10.0153,12.3708],[10.016,12.3655],[9.993,12.3531],[9.9911,12.3389],[9.9859,12.3378],[9.9764,12.3248],[9.9692,12.3219],[9.9693,12.3185],[9.9579,12.3162],[9.9549,12.3001],[9.9546,12.2875],[9.9565,12.2792],[9.9524,12.2765],[9.9495,12.277],[9.9452,12.2731],[9.9346,12.2721],[9.9267,12.2669],[9.9244,12.2671],[9.9203,12.2614],[9.8915,12.2537],[9.8896,12.247],[9.8857,12.2449],[9.8823,12.245],[9.886,12.2349],[9.8597,12.223],[9.8361,12.2132],[9.8318,12.2067],[9.8256,12.2033],[9.82,12.202],[9.8181,12.1948],[9.804,12.1634],[9.7891,12.15],[9.7671,12.1498],[9.7641,12.1462],[9.7646,12.1404],[9.7687,12.1371],[9.7698,12.1259]]]}},{"type":"Feature","properties":{"name":"Kaugama","state":"Jigawa","scode":"JI","centroid":[12.4793,9.7531]},"geometry":{"type":"Polygon","coordinates":[[[9.6807,12.8209],[9.6919,12.805],[9.7006,12.8026],[9.7287,12.784],[9.7437,12.7541],[9.7462,12.7457],[9.7498,12.7253],[9.7491,12.7147],[9.7647,12.7167],[9.7772,12.6979],[9.7913,12.6666],[9.7936,12.6662],[9.7961,12.6632],[9.7994,12.6548],[9.7955,12.6472],[9.7958,12.6385],[9.7875,12.6315],[9.7805,12.6281],[9.7805,12.6196],[9.7654,12.6092],[9.7408,12.599],[9.7091,12.5842],[9.7025,12.5799],[9.7036,12.5771],[9.6983,12.5645],[9.6911,12.563],[9.6882,12.5691],[9.6641,12.5627],[9.6652,12.5359],[9.6522,12.516],[9.6461,12.5094],[9.6491,12.4924],[9.6431,12.4763],[9.6433,12.4701],[9.6659,12.4664],[9.66,12.46],[9.6526,12.4552],[9.6431,12.4438],[9.6416,12.4398],[9.6482,12.4294],[9.5792,12.3913],[9.607,12.3502],[9.6011,12.3457],[9.6022,12.3393],[9.601,12.3364],[9.602,12.3313],[9.6099,12.3306],[9.6078,12.328],[9.6111,12.3245],[9.6286,12.3272],[9.6499,12.3334],[9.6722,12.3336],[9.6791,12.3205],[9.6855,12.3162],[9.686,12.3065],[9.684,12.2871],[9.6901,12.2864],[9.7179,12.2935],[9.7421,12.3046],[9.773,12.2865],[9.7784,12.2852],[9.7882,12.2967],[9.7953,12.3126],[9.8125,12.309],[9.8203,12.3054],[9.8239,12.3042],[9.8289,12.3052],[9.8277,12.3143],[9.8252,12.3163],[9.8275,12.3187],[9.8393,12.3239],[9.8398,12.3262],[9.8384,12.3276],[9.8424,12.3293],[9.8407,12.3326],[9.8431,12.3355],[9.8464,12.3365],[9.8619,12.3307],[9.8604,12.3367],[9.8624,12.3403],[9.8615,12.3411],[9.8601,12.3387],[9.859,12.3391],[9.8581,12.3406],[9.8596,12.3431],[9.8735,12.3465],[9.8756,12.3411],[9.8776,12.3401],[9.8853,12.3421],[9.8876,12.3454],[9.8966,12.35],[9.8876,12.3751],[9.8911,12.3832],[9.9009,12.3847],[9.904,12.391],[9.916,12.4039],[9.9341,12.4113],[9.9386,12.4142],[9.9368,12.4159],[9.9296,12.4161],[9.9224,12.4214],[9.9098,12.4269],[9.8922,12.4391],[9.8341,12.4255],[9.8044,12.4115],[9.79,12.4029],[9.7605,12.4296],[9.7517,12.4259],[9.749,12.4288],[9.7422,12.4427],[9.7566,12.4553],[9.7618,12.4648],[9.7685,12.4721],[9.7763,12.478],[9.7977,12.4883],[9.8017,12.4919],[9.7838,12.5122],[9.7972,12.52],[9.8025,12.5139],[9.8265,12.5274],[9.8268,12.5317],[9.8238,12.5395],[9.819,12.5402],[9.8208,12.5445],[9.8276,12.5528],[9.8315,12.5661],[9.8243,12.5693],[9.8224,12.5768],[9.8278,12.5795],[9.8353,12.581],[9.8424,12.5794],[9.8437,12.582],[9.8481,12.5805],[9.8561,12.5892],[9.851,12.6015],[9.8541,12.6039],[9.8576,12.6113],[9.8531,12.6253],[9.8621,12.6421],[9.8622,12.665],[9.8515,12.6758],[9.8493,12.687],[9.8244,12.7026],[9.8237,12.7048],[9.828,12.7087],[9.8194,12.7126],[9.8148,12.7194],[9.8128,12.7289],[9.8058,12.7384],[9.7709,12.7692],[9.7652,12.7962],[9.7483,12.7982],[9.7143,12.8102],[9.714,12.8139],[9.7112,12.814],[9.7048,12.8226],[9.6807,12.8209]]]}},{"type":"Feature","properties":{"name":"Kazaure","state":"Jigawa","scode":"JI","centroid":[12.6562,8.5098]},"geometry":{"type":"Polygon","coordinates":[[[8.3441,12.6529],[8.3523,12.6436],[8.3555,12.6344],[8.3589,12.623],[8.3531,12.6215],[8.3563,12.6149],[8.3604,12.6086],[8.3708,12.6021],[8.3865,12.61],[8.3988,12.5868],[8.4224,12.5953],[8.4489,12.5985],[8.4539,12.5908],[8.4584,12.5869],[8.4924,12.6019],[8.496,12.5944],[8.5077,12.5953],[8.532,12.6007],[8.556,12.6026],[8.5998,12.5971],[8.6112,12.5946],[8.6407,12.593],[8.6444,12.6125],[8.6478,12.6185],[8.6485,12.6367],[8.6545,12.6452],[8.6568,12.6451],[8.6577,12.6594],[8.6832,12.6632],[8.6981,12.6752],[8.7011,12.687],[8.688,12.6882],[8.6836,12.708],[8.6781,12.7126],[8.6767,12.7159],[8.6686,12.7195],[8.6591,12.7167],[8.6575,12.7125],[8.6454,12.698],[8.6286,12.7013],[8.6234,12.6851],[8.6047,12.6954],[8.5948,12.6955],[8.5853,12.6673],[8.5676,12.668],[8.549,12.6599],[8.5429,12.645],[8.5379,12.6465],[8.5369,12.6489],[8.5391,12.6549],[8.539,12.6619],[8.5244,12.663],[8.5241,12.6754],[8.5371,12.6797],[8.5429,12.6784],[8.5464,12.6752],[8.554,12.6764],[8.5521,12.6855],[8.5406,12.6905],[8.5464,12.7134],[8.5393,12.7252],[8.5364,12.7256],[8.5193,12.7391],[8.4975,12.749],[8.4917,12.7498],[8.4695,12.7391],[8.4664,12.7266],[8.4681,12.7211],[8.4649,12.719],[8.4457,12.7148],[8.4227,12.7063],[8.4027,12.7059],[8.3857,12.6933],[8.3755,12.6755],[8.3468,12.6717],[8.3441,12.6529]]]}},{"type":"Feature","properties":{"name":"Kiri Kasama","state":"Jigawa","scode":"JI","centroid":[12.5765,10.2313]},"geometry":{"type":"Polygon","coordinates":[[[10.1884,12.6954],[10.1853,12.672],[10.1719,12.6569],[10.163,12.6563],[10.1593,12.6536],[10.1535,12.6465],[10.1515,12.6396],[10.1568,12.6344],[10.1656,12.629],[10.1707,12.6226],[10.1801,12.6057],[10.1727,12.5848],[10.1771,12.5757],[10.1489,12.5663],[10.1353,12.5636],[10.1334,12.5662],[10.1285,12.5626],[10.1225,12.5538],[10.1112,12.5585],[10.1082,12.5723],[10.1029,12.5811],[10.0913,12.5751],[10.0875,12.5579],[10.0627,12.5571],[10.0609,12.5425],[10.0567,12.5428],[10.0534,12.5341],[10.0576,12.5287],[10.0532,12.5163],[10.0568,12.4966],[10.062,12.4847],[10.0679,12.4882],[10.0657,12.4924],[10.0655,12.4968],[10.0679,12.5002],[10.0731,12.4965],[10.0793,12.4828],[10.0712,12.473],[10.0726,12.4683],[10.0811,12.4672],[10.0841,12.469],[10.0888,12.4557],[10.0885,12.4526],[10.0794,12.4386],[10.0738,12.4392],[10.0521,12.4319],[10.0525,12.4211],[10.0705,12.4225],[10.0871,12.4278],[10.0896,12.4318],[10.1069,12.4169],[10.1202,12.4203],[10.1436,12.4223],[10.1976,12.4335],[10.225,12.4339],[10.2405,12.434],[10.2581,12.4596],[10.2881,12.4555],[10.3027,12.4486],[10.3257,12.4428],[10.3392,12.4413],[10.3443,12.4447],[10.3477,12.4449],[10.3498,12.4434],[10.3522,12.4452],[10.3578,12.4459],[10.3632,12.4521],[10.3538,12.4612],[10.3496,12.4675],[10.346,12.4693],[10.3453,12.4721],[10.3416,12.4743],[10.3414,12.4761],[10.34,12.4772],[10.3367,12.4749],[10.3356,12.4759],[10.34,12.4805],[10.3391,12.4821],[10.3364,12.4802],[10.3361,12.4836],[10.3392,12.4865],[10.3425,12.4866],[10.3434,12.4884],[10.3562,12.4838],[10.3551,12.4877],[10.3521,12.4889],[10.3484,12.4935],[10.3443,12.4941],[10.3487,12.4987],[10.3433,12.5078],[10.3415,12.515],[10.3393,12.5139],[10.3224,12.5183],[10.3105,12.5295],[10.3147,12.5363],[10.3236,12.5601],[10.3203,12.5882],[10.323,12.5934],[10.3257,12.6073],[10.3337,12.607],[10.3485,12.6112],[10.3528,12.6256],[10.3537,12.6325],[10.3526,12.6419],[10.3572,12.6409],[10.3613,12.6425],[10.3639,12.6479],[10.3645,12.6542],[10.3703,12.6515],[10.3755,12.6537],[10.3758,12.6555],[10.3725,12.6595],[10.3683,12.6587],[10.3578,12.664],[10.3595,12.6677],[10.3636,12.669],[10.3641,12.6737],[10.3566,12.7086],[10.3608,12.7165],[10.3726,12.7281],[10.3602,12.7445],[10.3566,12.7514],[10.3514,12.7743],[10.3288,12.7825],[10.3071,12.7765],[10.3007,12.7724],[10.2884,12.7579],[10.2689,12.7461],[10.2514,12.7379],[10.2509,12.7327],[10.2471,12.7295],[10.2371,12.7302],[10.2309,12.7248],[10.2171,12.7271],[10.1965,12.7194],[10.1866,12.7088],[10.1884,12.6954]]]}},{"type":"Feature","properties":{"name":"Kiyawa","state":"Jigawa","scode":"JI","centroid":[11.8298,9.5736]},"geometry":{"type":"Polygon","coordinates":[[[9.6397,11.733],[9.632,11.7385],[9.6321,11.7405],[9.6342,11.7415],[9.6307,11.7424],[9.6307,11.7395],[9.6285,11.7392],[9.627,11.7411],[9.6234,11.7412],[9.6233,11.744],[9.6191,11.7455],[9.6201,11.7537],[9.6209,11.7545],[9.6232,11.753],[9.6257,11.7574],[9.6269,11.7558],[9.6281,11.7584],[9.6256,11.7593],[9.6258,11.7614],[9.6288,11.7593],[9.6304,11.7638],[9.6351,11.7673],[9.6345,11.7702],[9.6363,11.7701],[9.6401,11.7725],[9.6399,11.7742],[9.6431,11.775],[9.6432,11.7765],[9.6407,11.7779],[9.6414,11.7787],[9.645,11.7797],[9.6476,11.7775],[9.6515,11.779],[9.6555,11.7781],[9.6583,11.7811],[9.6612,11.7809],[9.6623,11.7835],[9.6695,11.7843],[9.6731,11.7922],[9.6761,11.8131],[9.6778,11.8432],[9.6735,11.8471],[9.6738,11.8593],[9.6792,11.8649],[9.6862,11.8679],[9.6882,11.8657],[9.6878,11.8642],[9.6906,11.864],[9.6939,11.8595],[9.7004,11.8602],[9.7031,11.8587],[9.7018,11.855],[9.7039,11.8511],[9.7065,11.8517],[9.7079,11.8499],[9.7316,11.8579],[9.7476,11.8611],[9.7499,11.864],[9.7536,11.8625],[9.763,11.8678],[9.7778,11.8726],[9.7805,11.8722],[9.7823,11.8746],[9.7871,11.8745],[9.7903,11.8785],[9.8002,11.8801],[9.804,11.8824],[9.8087,11.882],[9.8162,11.8867],[9.8335,11.8904],[9.873,11.9231],[9.8827,11.9332],[9.8888,11.9366],[9.8916,11.9354],[9.8987,11.9381],[9.8967,11.9411],[9.8948,11.95],[9.8913,11.9559],[9.8879,11.9599],[9.8783,11.9635],[9.8625,11.9647],[9.8513,11.9613],[9.834,11.9629],[9.8199,11.9604],[9.81,11.9645],[9.7942,11.9639],[9.7832,11.9538],[9.7746,11.9498],[9.7544,11.9475],[9.7379,11.9558],[9.7264,11.9488],[9.6773,11.9318],[9.673,11.9367],[9.6643,11.9364],[9.6517,11.9308],[9.6362,11.9351],[9.6337,11.9374],[9.6252,11.9325],[9.6148,11.9299],[9.6005,11.9308],[9.595,11.9336],[9.5863,11.9428],[9.5807,11.9631],[9.5796,11.9731],[9.5819,11.9799],[9.5407,11.9736],[9.5427,11.9659],[9.5147,11.947],[9.4732,11.9355],[9.4657,11.9213],[9.4587,11.9181],[9.4591,11.9148],[9.4537,11.9129],[9.4543,11.9107],[9.4522,11.9084],[9.4512,11.9041],[9.4518,11.9014],[9.4495,11.9004],[9.4471,11.8933],[9.4249,11.8891],[9.4258,11.8846],[9.3972,11.8764],[9.3977,11.8706],[9.3953,11.87],[9.3964,11.8663],[9.4003,11.8663],[9.4097,11.849],[9.3993,11.8471],[9.3995,11.8461],[9.3966,11.8453],[9.3984,11.834],[9.3895,11.8339],[9.3796,11.8241],[9.3713,11.8041],[9.3645,11.7958],[9.3629,11.7861],[9.3678,11.7781],[9.3667,11.7723],[9.3733,11.7717],[9.3852,11.7639],[9.3888,11.7642],[9.3917,11.7616],[9.3909,11.7593],[9.3966,11.7524],[9.3963,11.7462],[9.4068,11.7288],[9.4049,11.7246],[9.415,11.718],[9.4171,11.7045],[9.4277,11.7027],[9.4211,11.6754],[9.4472,11.6768],[9.4513,11.6608],[9.4553,11.6572],[9.4583,11.6252],[9.481,11.6136],[9.5044,11.6369],[9.5242,11.6486],[9.524,11.6616],[9.5367,11.6834],[9.6397,11.733]]]}},{"type":"Feature","properties":{"name":"Maigatari","state":"Jigawa","scode":"JI","centroid":[12.7056,9.5753]},"geometry":{"type":"Polygon","coordinates":[[[9.662,12.8338],[9.6349,12.8024],[9.5566,12.8131],[9.5364,12.8111],[9.4754,12.8137],[9.4308,12.8231],[9.3804,12.8223],[9.3667,12.8208],[9.3348,12.823],[9.3321,12.8099],[9.3511,12.7825],[9.3305,12.7593],[9.321,12.7587],[9.3202,12.7549],[9.3246,12.7472],[9.3243,12.7423],[9.3298,12.7446],[9.3332,12.7192],[9.3348,12.7163],[9.3409,12.7114],[9.3417,12.7066],[9.3557,12.7043],[9.3554,12.6967],[9.3483,12.6877],[9.3496,12.6821],[9.3666,12.6896],[9.3927,12.6951],[9.3941,12.6941],[9.4093,12.7015],[9.4116,12.7054],[9.4389,12.7058],[9.4435,12.6836],[9.4707,12.681],[9.4784,12.6526],[9.4815,12.6323],[9.4937,12.6282],[9.4988,12.6227],[9.4984,12.6014],[9.496,12.599],[9.482,12.593],[9.4758,12.5925],[9.5095,12.5769],[9.5518,12.5944],[9.5552,12.6025],[9.5663,12.602],[9.5661,12.5911],[9.5627,12.5789],[9.5894,12.5765],[9.6116,12.5627],[9.6641,12.5627],[9.6882,12.5691],[9.6911,12.563],[9.6983,12.5645],[9.7036,12.5771],[9.7025,12.5799],[9.7091,12.5842],[9.7408,12.599],[9.7654,12.6092],[9.7805,12.6196],[9.7805,12.6281],[9.7875,12.6315],[9.7958,12.6385],[9.7955,12.6472],[9.7994,12.6548],[9.7961,12.6632],[9.7936,12.6662],[9.7913,12.6666],[9.7772,12.6979],[9.7647,12.7167],[9.7491,12.7147],[9.7498,12.7253],[9.7462,12.7457],[9.7437,12.7541],[9.7287,12.784],[9.7006,12.8026],[9.6919,12.805],[9.6807,12.8209],[9.662,12.8338]]]}},{"type":"Feature","properties":{"name":"Malam Madori","state":"Jigawa","scode":"JI","centroid":[12.5384,9.9664]},"geometry":{"type":"Polygon","coordinates":[[[9.8531,12.6253],[9.8576,12.6113],[9.8541,12.6039],[9.851,12.6015],[9.8561,12.5892],[9.8481,12.5805],[9.8437,12.582],[9.8424,12.5794],[9.8353,12.581],[9.8278,12.5795],[9.8224,12.5768],[9.8243,12.5693],[9.8315,12.5661],[9.8276,12.5528],[9.8208,12.5445],[9.819,12.5402],[9.8238,12.5395],[9.8268,12.5317],[9.8265,12.5274],[9.8025,12.5139],[9.7972,12.52],[9.7838,12.5122],[9.8017,12.4919],[9.7977,12.4883],[9.7763,12.478],[9.7685,12.4721],[9.7618,12.4648],[9.7566,12.4553],[9.7422,12.4427],[9.749,12.4288],[9.7517,12.4259],[9.7605,12.4296],[9.79,12.4029],[9.8044,12.4115],[9.8341,12.4255],[9.8922,12.4391],[9.9098,12.4269],[9.9224,12.4214],[9.9296,12.4161],[9.9368,12.4159],[9.9386,12.4142],[9.9341,12.4113],[9.916,12.4039],[9.904,12.391],[9.9009,12.3847],[9.8911,12.3832],[9.8876,12.3751],[9.8966,12.35],[9.8988,12.3518],[9.9013,12.3609],[9.905,12.3619],[9.9118,12.3607],[9.9126,12.3621],[9.9101,12.3634],[9.9089,12.3624],[9.909,12.3638],[9.9198,12.3651],[9.9174,12.3697],[9.9129,12.3723],[9.9157,12.382],[9.9186,12.384],[9.9212,12.3836],[9.9207,12.3811],[9.9248,12.3799],[9.9286,12.3711],[9.9365,12.3715],[9.9403,12.3777],[9.9351,12.3812],[9.9355,12.3828],[9.9394,12.3833],[9.9439,12.3874],[9.9498,12.3897],[9.9546,12.3885],[9.9587,12.3845],[9.9647,12.3899],[9.9664,12.3936],[9.965,12.3984],[9.9586,12.403],[9.9598,12.4047],[9.9634,12.4045],[9.9644,12.4057],[9.9646,12.4143],[9.9826,12.4165],[9.9826,12.4127],[9.986,12.4096],[9.9876,12.405],[9.9908,12.4053],[9.9933,12.4088],[9.994,12.4152],[9.9992,12.4266],[10.0149,12.4257],[10.0212,12.4233],[10.0209,12.4371],[10.0238,12.4398],[10.0277,12.4406],[10.0247,12.4429],[10.0223,12.4409],[10.0192,12.4486],[10.0242,12.4543],[10.0236,12.456],[10.0281,12.4584],[10.0296,12.4572],[10.0326,12.4601],[10.0383,12.4545],[10.0432,12.4599],[10.0421,12.461],[10.0431,12.4621],[10.0417,12.4722],[10.047,12.4776],[10.0523,12.4723],[10.062,12.4847],[10.0568,12.4966],[10.0532,12.5163],[10.0576,12.5287],[10.0534,12.5341],[10.0567,12.5428],[10.0609,12.5425],[10.0627,12.5571],[10.0875,12.5579],[10.0913,12.5751],[10.1029,12.5811],[10.1082,12.5723],[10.1112,12.5585],[10.1225,12.5538],[10.1285,12.5626],[10.1334,12.5662],[10.1353,12.5636],[10.1489,12.5663],[10.1771,12.5757],[10.1727,12.5848],[10.1801,12.6057],[10.1707,12.6226],[10.1656,12.629],[10.1568,12.6344],[10.1515,12.6396],[10.1535,12.6465],[10.1593,12.6536],[10.163,12.6563],[10.1719,12.6569],[10.1853,12.672],[10.1884,12.6954],[10.1716,12.6906],[10.1495,12.6909],[10.1309,12.6871],[10.1045,12.6742],[10.0993,12.6765],[10.0849,12.687],[10.0778,12.6819],[10.0565,12.6715],[10.0536,12.6565],[10.0509,12.6526],[10.0314,12.6453],[10.0165,12.6505],[9.9987,12.6461],[9.9916,12.6432],[9.9825,12.6327],[9.9706,12.6296],[9.9646,12.6338],[9.9372,12.6277],[9.9222,12.6283],[9.9063,12.6386],[9.9042,12.6427],[9.893,12.6404],[9.8923,12.6249],[9.8902,12.6201],[9.8851,12.6214],[9.8739,12.6204],[9.8531,12.6253]]]}},{"type":"Feature","properties":{"name":"Miga","state":"Jigawa","scode":"JI","centroid":[12.228,9.689]},"geometry":{"type":"Polygon","coordinates":[[[9.7698,12.1259],[9.7687,12.1371],[9.7646,12.1404],[9.7641,12.1462],[9.7671,12.1498],[9.7891,12.15],[9.804,12.1634],[9.8181,12.1948],[9.82,12.202],[9.8256,12.2033],[9.8318,12.2067],[9.8361,12.2132],[9.8597,12.223],[9.8501,12.2425],[9.858,12.247],[9.8531,12.2532],[9.8426,12.2489],[9.8362,12.2583],[9.8322,12.2686],[9.8287,12.2699],[9.8203,12.3054],[9.8125,12.309],[9.7953,12.3126],[9.7882,12.2967],[9.7784,12.2852],[9.773,12.2865],[9.7421,12.3046],[9.7179,12.2935],[9.6901,12.2864],[9.684,12.2871],[9.686,12.3065],[9.6855,12.3162],[9.6791,12.3205],[9.6722,12.3336],[9.6499,12.3334],[9.6286,12.3272],[9.6111,12.3245],[9.6078,12.328],[9.5899,12.3109],[9.5818,12.3065],[9.5592,12.2986],[9.5544,12.2941],[9.5546,12.2834],[9.5663,12.2658],[9.5279,12.2182],[9.5317,12.2083],[9.5507,12.1916],[9.5804,12.1606],[9.5991,12.1581],[9.6069,12.1557],[9.6083,12.1489],[9.6075,12.1463],[9.6096,12.1387],[9.6113,12.1379],[9.6381,12.1363],[9.646,12.1413],[9.6525,12.1363],[9.6535,12.131],[9.672,12.1394],[9.6902,12.1428],[9.69,12.1474],[9.6941,12.145],[9.6906,12.142],[9.6913,12.1408],[9.6966,12.1406],[9.7061,12.1419],[9.7136,12.1455],[9.7248,12.1463],[9.7308,12.1364],[9.7339,12.1238],[9.7698,12.1259]]]}},{"type":"Feature","properties":{"name":"Ringim","state":"Jigawa","scode":"JI","centroid":[12.1662,9.1105]},"geometry":{"type":"Polygon","coordinates":[[[9.223,11.9896],[9.25,11.9941],[9.2492,11.9964],[9.2519,11.9974],[9.2527,12.0039],[9.2574,12.0034],[9.2602,12.0056],[9.2625,12.0053],[9.2664,12.0137],[9.2746,12.0216],[9.2781,12.0222],[9.2791,12.0237],[9.2777,12.0252],[9.2833,12.032],[9.3013,12.0425],[9.3193,12.0569],[9.3229,12.0714],[9.3198,12.1002],[9.3489,12.1185],[9.347,12.1319],[9.3488,12.139],[9.3399,12.1603],[9.336,12.1657],[9.3344,12.1648],[9.3322,12.1686],[9.3307,12.1669],[9.3311,12.1619],[9.3345,12.1596],[9.3338,12.1578],[9.3307,12.1567],[9.3217,12.1665],[9.3201,12.1607],[9.318,12.1635],[9.3156,12.1629],[9.3168,12.162],[9.316,12.1612],[9.3128,12.1626],[9.309,12.1565],[9.3059,12.1553],[9.3042,12.155],[9.304,12.1577],[9.298,12.164],[9.2972,12.1614],[9.2951,12.1603],[9.2925,12.1632],[9.2872,12.1629],[9.2887,12.1617],[9.2862,12.1598],[9.2868,12.1547],[9.2813,12.1513],[9.2797,12.1511],[9.2761,12.1598],[9.2729,12.1551],[9.2707,12.1547],[9.273,12.1915],[9.2636,12.1979],[9.2564,12.196],[9.2356,12.2014],[9.2301,12.2044],[9.2335,12.2089],[9.2252,12.218],[9.2222,12.2258],[9.2046,12.2444],[9.2017,12.2501],[9.1906,12.2434],[9.18,12.2321],[9.176,12.2317],[9.1755,12.2357],[9.1703,12.2353],[9.1593,12.2309],[9.1512,12.231],[9.1462,12.2392],[9.1465,12.2516],[9.157,12.2594],[9.1641,12.2737],[9.1514,12.2836],[9.1288,12.2709],[9.1135,12.2832],[9.1187,12.2965],[9.1252,12.3082],[9.1456,12.3256],[9.1385,12.3422],[9.1236,12.3384],[9.1151,12.3332],[9.1064,12.3249],[9.0938,12.3222],[9.0836,12.3259],[9.0722,12.3262],[9.057,12.3249],[9.0492,12.3227],[9.0152,12.3202],[8.9907,12.3137],[8.9725,12.3152],[8.9581,12.3138],[8.9551,12.3069],[8.951,12.3071],[8.9451,12.3045],[8.9446,12.3026],[8.9307,12.3002],[8.9302,12.2978],[8.9272,12.2991],[8.9255,12.3023],[8.9099,12.301],[8.9115,12.2849],[8.9175,12.2663],[8.9205,12.2667],[8.9352,12.231],[8.9344,12.2146],[8.9438,12.2018],[8.9445,12.1961],[8.9522,12.1853],[8.9506,12.1686],[8.9432,12.1546],[8.942,12.1534],[8.9312,12.1552],[8.9305,12.1479],[8.9358,12.142],[8.9397,12.1323],[8.9386,12.1301],[8.939,12.1227],[8.9366,12.1191],[8.9384,12.1138],[8.9278,12.1104],[8.9252,12.0963],[8.915,12.0762],[8.9457,12.0723],[8.9488,12.0755],[8.9725,12.0844],[8.978,12.0838],[8.9851,12.0798],[8.9885,12.0684],[8.996,12.0644],[9.0037,12.0629],[9.0098,12.0641],[9.0119,12.0686],[9.0145,12.0699],[9.0438,12.0757],[9.0466,12.074],[9.0741,12.0735],[9.0771,12.0596],[9.078,12.0462],[9.0815,12.0462],[9.0837,12.0386],[9.0828,12.0328],[9.0847,12.0274],[9.0983,12.0229],[9.1333,12.0353],[9.1443,12.0262],[9.1489,12.0194],[9.1519,12.0276],[9.1454,12.0416],[9.1477,12.0455],[9.1475,12.0482],[9.1528,12.0548],[9.1563,12.0675],[9.1819,12.0854],[9.1938,12.0846],[9.1987,12.0828],[9.2004,12.0683],[9.214,12.0541],[9.2203,12.0321],[9.224,12.0262],[9.228,12.0144],[9.223,11.9896]]]}},{"type":"Feature","properties":{"name":"Roni","state":"Jigawa","scode":"JI","centroid":[12.5832,8.322]},"geometry":{"type":"Polygon","coordinates":[[[8.16,12.684],[8.1604,12.6671],[8.1532,12.6554],[8.1821,12.6518],[8.1835,12.6352],[8.1853,12.6299],[8.1904,12.6287],[8.1904,12.624],[8.2035,12.6216],[8.2305,12.6125],[8.237,12.609],[8.2462,12.5944],[8.2563,12.5962],[8.2788,12.6046],[8.2886,12.5999],[8.2901,12.5888],[8.2946,12.5767],[8.3012,12.5361],[8.2971,12.5336],[8.3,12.5272],[8.3029,12.5282],[8.3111,12.5077],[8.3354,12.4992],[8.3547,12.4797],[8.3582,12.4379],[8.3656,12.4317],[8.3672,12.4357],[8.3769,12.4356],[8.3795,12.4424],[8.3849,12.4503],[8.3847,12.4572],[8.3874,12.4703],[8.3962,12.4726],[8.3979,12.4832],[8.4037,12.4887],[8.408,12.4959],[8.4102,12.5047],[8.4584,12.5869],[8.4539,12.5908],[8.4489,12.5985],[8.4224,12.5953],[8.3988,12.5868],[8.3865,12.61],[8.3708,12.6021],[8.3604,12.6086],[8.3563,12.6149],[8.3531,12.6215],[8.3589,12.623],[8.3555,12.6344],[8.3523,12.6436],[8.3441,12.6529],[8.3297,12.644],[8.3244,12.6494],[8.3146,12.6486],[8.3107,12.6457],[8.2829,12.651],[8.2837,12.6726],[8.2615,12.673],[8.2583,12.6811],[8.2535,12.687],[8.2523,12.6937],[8.2441,12.6933],[8.2396,12.6913],[8.2342,12.6927],[8.2257,12.6915],[8.2224,12.6893],[8.2195,12.682],[8.2083,12.6787],[8.1894,12.6785],[8.1727,12.6848],[8.16,12.684]]]}},{"type":"Feature","properties":{"name":"Sule Tankarkar","state":"Jigawa","scode":"JI","centroid":[12.6431,9.2134]},"geometry":{"type":"Polygon","coordinates":[[[9.3496,12.6821],[9.3483,12.6877],[9.3554,12.6967],[9.3557,12.7043],[9.3417,12.7066],[9.3409,12.7114],[9.3348,12.7163],[9.3332,12.7192],[9.3298,12.7446],[9.3243,12.7423],[9.3246,12.7472],[9.3202,12.7549],[9.321,12.7587],[9.3305,12.7593],[9.3511,12.7825],[9.3321,12.8099],[9.3348,12.823],[9.1933,12.8328],[9.1855,12.8344],[9.1289,12.8331],[9.0891,12.8352],[9.0817,12.8342],[9.0575,12.8452],[9.0409,12.8461],[9.0473,12.8162],[9.0539,12.8061],[9.0551,12.8002],[9.069,12.7991],[9.0695,12.7883],[9.0865,12.7742],[9.0818,12.7581],[9.0792,12.7382],[9.0801,12.7354],[9.0675,12.7274],[9.0596,12.71],[9.04,12.6988],[9.0127,12.6901],[9.0212,12.6792],[9.0324,12.6727],[9.0428,12.6621],[9.0361,12.6545],[9.0329,12.6486],[9.039,12.6285],[9.0229,12.6159],[9.0042,12.5972],[9.0044,12.5952],[8.9999,12.5872],[9.0089,12.5867],[9.0121,12.5824],[9.0169,12.5826],[9.018,12.5729],[9.0638,12.5594],[9.0776,12.5503],[9.0916,12.5346],[9.0924,12.5303],[9.096,12.5246],[9.0996,12.5232],[9.1088,12.5291],[9.1238,12.5434],[9.1582,12.5354],[9.1674,12.5351],[9.1911,12.5199],[9.1933,12.4952],[9.2027,12.489],[9.2158,12.4915],[9.2249,12.4641],[9.2346,12.4664],[9.242,12.4717],[9.2501,12.4545],[9.2548,12.4402],[9.2598,12.4333],[9.26,12.4298],[9.2769,12.4299],[9.2766,12.4325],[9.2793,12.4333],[9.2878,12.4309],[9.3017,12.4321],[9.3087,12.4347],[9.3174,12.429],[9.3249,12.4272],[9.3458,12.4282],[9.3712,12.4171],[9.3987,12.4089],[9.4094,12.4322],[9.4067,12.4527],[9.3945,12.4572],[9.384,12.4719],[9.3982,12.4908],[9.4003,12.5321],[9.4099,12.5371],[9.4057,12.5496],[9.4004,12.5601],[9.3667,12.542],[9.3443,12.5397],[9.3565,12.558],[9.3477,12.5701],[9.3332,12.5792],[9.3238,12.5831],[9.3177,12.5908],[9.3169,12.5929],[9.3216,12.595],[9.3222,12.6045],[9.3216,12.6144],[9.3151,12.621],[9.317,12.6391],[9.3174,12.6597],[9.3163,12.6622],[9.3308,12.6617],[9.3555,12.6641],[9.3503,12.6739],[9.3512,12.6781],[9.3496,12.6821]]]}},{"type":"Feature","properties":{"name":"Taura","state":"Jigawa","scode":"JI","centroid":[12.2687,9.3747]},"geometry":{"type":"Polygon","coordinates":[[[9.336,12.1657],[9.3329,12.1734],[9.3388,12.1781],[9.341,12.177],[9.3389,12.1739],[9.3414,12.1748],[9.3417,12.1829],[9.3465,12.1827],[9.3507,12.1808],[9.3547,12.1852],[9.3575,12.1831],[9.367,12.1832],[9.374,12.1783],[9.3781,12.1812],[9.3772,12.189],[9.382,12.1913],[9.3848,12.1946],[9.3883,12.1932],[9.386,12.1902],[9.3884,12.1888],[9.3949,12.19],[9.3955,12.1917],[9.3926,12.1973],[9.3956,12.199],[9.3994,12.1975],[9.4025,12.1937],[9.4038,12.1944],[9.4028,12.1971],[9.4046,12.1975],[9.4064,12.1947],[9.406,12.1894],[9.4118,12.1864],[9.4184,12.1767],[9.422,12.1764],[9.4242,12.178],[9.4251,12.1834],[9.429,12.181],[9.4327,12.1813],[9.4356,12.1851],[9.4385,12.1863],[9.4446,12.1857],[9.447,12.1837],[9.4498,12.1852],[9.4547,12.1838],[9.4596,12.1863],[9.4614,12.1821],[9.4748,12.1949],[9.4884,12.203],[9.4993,12.207],[9.5317,12.2083],[9.5279,12.2182],[9.5663,12.2658],[9.5546,12.2834],[9.5544,12.2941],[9.5592,12.2986],[9.5818,12.3065],[9.5899,12.3109],[9.6078,12.328],[9.6099,12.3306],[9.602,12.3313],[9.601,12.3364],[9.6022,12.3393],[9.6011,12.3457],[9.607,12.3502],[9.5792,12.3913],[9.5613,12.3829],[9.5349,12.3672],[9.5052,12.3507],[9.4696,12.3452],[9.4321,12.327],[9.4168,12.3151],[9.4077,12.33],[9.4012,12.337],[9.39,12.3363],[9.3829,12.3389],[9.3672,12.3363],[9.3574,12.3257],[9.3411,12.2929],[9.3356,12.2855],[9.3134,12.2984],[9.2906,12.3072],[9.2831,12.317],[9.2495,12.3059],[9.2381,12.3205],[9.2212,12.3298],[9.2165,12.3354],[9.1804,12.3373],[9.1661,12.3404],[9.1584,12.3336],[9.1456,12.3256],[9.1252,12.3082],[9.1187,12.2965],[9.1135,12.2832],[9.1288,12.2709],[9.1514,12.2836],[9.1641,12.2737],[9.157,12.2594],[9.1465,12.2516],[9.1462,12.2392],[9.1512,12.231],[9.1593,12.2309],[9.1703,12.2353],[9.1755,12.2357],[9.176,12.2317],[9.18,12.2321],[9.1906,12.2434],[9.2017,12.2501],[9.2046,12.2444],[9.2222,12.2258],[9.2252,12.218],[9.2335,12.2089],[9.2301,12.2044],[9.2356,12.2014],[9.2564,12.196],[9.2636,12.1979],[9.273,12.1915],[9.2707,12.1547],[9.2729,12.1551],[9.2761,12.1598],[9.2797,12.1511],[9.2813,12.1513],[9.2868,12.1547],[9.2862,12.1598],[9.2887,12.1617],[9.2872,12.1629],[9.2925,12.1632],[9.2951,12.1603],[9.2972,12.1614],[9.298,12.164],[9.304,12.1577],[9.3042,12.155],[9.3059,12.1553],[9.309,12.1565],[9.3128,12.1626],[9.316,12.1612],[9.3168,12.162],[9.3156,12.1629],[9.318,12.1635],[9.3201,12.1607],[9.3217,12.1665],[9.3307,12.1567],[9.3338,12.1578],[9.3345,12.1596],[9.3311,12.1619],[9.3307,12.1669],[9.3322,12.1686],[9.3344,12.1648],[9.336,12.1657]]]}},{"type":"Feature","properties":{"name":"Yankwashi","state":"Jigawa","scode":"JI","centroid":[12.7587,8.5158]},"geometry":{"type":"Polygon","coordinates":[[[8.3984,12.8259],[8.3936,12.7925],[8.3983,12.7734],[8.4012,12.7453],[8.4002,12.7402],[8.4035,12.7232],[8.4027,12.7059],[8.4227,12.7063],[8.4457,12.7148],[8.4649,12.719],[8.4681,12.7211],[8.4664,12.7266],[8.4695,12.7391],[8.4917,12.7498],[8.4975,12.749],[8.5193,12.7391],[8.5364,12.7256],[8.5393,12.7252],[8.5464,12.7134],[8.5406,12.6905],[8.5521,12.6855],[8.554,12.6764],[8.5464,12.6752],[8.5429,12.6784],[8.5371,12.6797],[8.5241,12.6754],[8.5244,12.663],[8.539,12.6619],[8.5391,12.6549],[8.5369,12.6489],[8.5379,12.6465],[8.5429,12.645],[8.549,12.6599],[8.5676,12.668],[8.5853,12.6673],[8.5948,12.6955],[8.6047,12.6954],[8.6234,12.6851],[8.6286,12.7013],[8.6454,12.698],[8.6575,12.7125],[8.6591,12.7167],[8.6686,12.7195],[8.6639,12.7258],[8.651,12.7276],[8.6518,12.7331],[8.6363,12.7373],[8.6038,12.7373],[8.5944,12.7662],[8.5931,12.7773],[8.5882,12.7944],[8.5871,12.8027],[8.5891,12.8086],[8.574,12.8205],[8.5639,12.8253],[8.5632,12.8341],[8.5522,12.8318],[8.5021,12.8338],[8.4788,12.8307],[8.4698,12.8281],[8.4523,12.819],[8.4441,12.8161],[8.4354,12.8152],[8.4229,12.8209],[8.3984,12.8259]]]}}]}