{"type":"FeatureCollection","features":[{"type":"Feature","properties":{"name":"Birnin Gwari","state":"Kaduna","scode":"KD","centroid":[10.8699,6.6383]},"geometry":{"type":"Polygon","coordinates":[[[6.8894,11.3836],[6.8779,11.3662],[6.8445,11.3604],[6.8329,11.352],[6.8334,11.3374],[6.8353,11.3288],[6.8399,11.3189],[6.8362,11.3161],[6.8357,11.31],[6.8295,11.3072],[6.8251,11.308],[6.8225,11.3107],[6.8195,11.3084],[6.8153,11.3081],[6.7871,11.3198],[6.774,11.3224],[6.7706,11.3201],[6.7679,11.3082],[6.7665,11.2969],[6.7668,11.2722],[6.7643,11.2673],[6.7606,11.2671],[6.7584,11.2634],[6.7305,11.2582],[6.7112,11.2492],[6.7034,11.239],[6.6928,11.2163],[6.6891,11.2036],[6.6861,11.1794],[6.685,11.1515],[6.6882,11.1279],[6.6909,11.1209],[6.6986,11.114],[6.7142,11.111],[6.716,11.1062],[6.707,11.0943],[6.7009,11.0966],[6.696,11.0936],[6.6874,11.0917],[6.6811,11.0811],[6.683,11.065],[6.6768,11.0573],[6.6753,11.0564],[6.6686,11.0628],[6.6638,11.0615],[6.6638,11.0556],[6.662,11.0547],[6.6608,11.0558],[6.6565,11.052],[6.6464,11.0493],[6.6442,11.0488],[6.643,11.0506],[6.6272,11.0481],[6.6242,11.0491],[6.6227,11.047],[6.6032,11.046],[6.5998,11.0447],[6.5988,11.0413],[6.5876,11.0309],[6.5859,11.025],[6.5846,11.0239],[6.5781,11.0253],[6.5773,11.0216],[6.572,11.0221],[6.5722,11.0245],[6.5516,11.0418],[6.5334,11.0479],[6.5108,11.0437],[6.4886,11.0327],[6.4791,11.0295],[6.4582,11.0159],[6.437,11.0076],[6.4318,11.0075],[6.4271,11.0095],[6.4263,11.0127],[6.4216,11.0178],[6.419,11.0277],[6.4113,11.0311],[6.4069,11.0289],[6.4037,11.0329],[6.3956,11.0318],[6.3916,11.0338],[6.3865,11.0322],[6.3825,11.0326],[6.3783,11.0305],[6.3749,11.031],[6.3718,11.0247],[6.3648,11.0177],[6.3538,11.0223],[6.3468,11.0222],[6.3442,11.0242],[6.3409,11.0211],[6.3383,11.021],[6.3347,11.0247],[6.3286,11.0271],[6.3224,11.0241],[6.322,11.0214],[6.3262,11.0227],[6.3274,11.0196],[6.3243,11.0177],[6.3222,11.0117],[6.3201,11.0102],[6.3131,11.0104],[6.3009,10.9991],[6.3014,10.9941],[6.2964,10.9926],[6.2927,10.9853],[6.2875,10.9794],[6.287,10.9752],[6.2832,10.9746],[6.2831,10.9684],[6.2802,10.9636],[6.2665,10.9661],[6.2654,10.9636],[6.2623,10.9629],[6.2608,10.9595],[6.2544,10.9554],[6.251,10.9483],[6.2482,10.9486],[6.2418,10.9453],[6.2375,10.9453],[6.2321,10.9332],[6.234,10.9266],[6.233,10.9221],[6.2178,10.9051],[6.2092,10.9018],[6.1646,10.8931],[6.1578,10.8851],[6.164,10.8682],[6.1624,10.8656],[6.1637,10.86],[6.1628,10.8561],[6.1606,10.854],[6.1567,10.8528],[6.1541,10.8547],[6.1488,10.855],[6.1226,10.8449],[6.122,10.8361],[6.1304,10.8339],[6.1364,10.8253],[6.1303,10.818],[6.1268,10.8186],[6.1223,10.815],[6.1126,10.8139],[6.1135,10.8052],[6.1112,10.7997],[6.1101,10.7897],[6.1057,10.7775],[6.102,10.7747],[6.1039,10.7695],[6.1131,10.7602],[6.111,10.7499],[6.1165,10.7429],[6.1167,10.7403],[6.1116,10.7361],[6.1106,10.7319],[6.1071,10.7277],[6.1073,10.721],[6.1037,10.7162],[6.0938,10.7106],[6.0944,10.7055],[6.0928,10.699],[6.0969,10.6982],[6.0989,10.7017],[6.1075,10.7018],[6.1119,10.7004],[6.1164,10.6942],[6.1142,10.6919],[6.1176,10.6868],[6.1258,10.6853],[6.1326,10.679],[6.1372,10.6792],[6.141,10.6732],[6.1402,10.6705],[6.1331,10.6674],[6.1331,10.6605],[6.1305,10.6577],[6.1308,10.646],[6.127,10.6386],[6.1275,10.6344],[6.1234,10.6322],[6.1214,10.6286],[6.1147,10.6068],[6.1171,10.6021],[6.1275,10.5963],[6.134,10.5901],[6.1299,10.5777],[6.1287,10.5688],[6.1256,10.5623],[6.1245,10.5542],[6.12,10.5501],[6.1144,10.5486],[6.109,10.5452],[6.0997,10.5475],[6.0936,10.5462],[6.0943,10.531],[6.0922,10.5218],[6.1583,10.5008],[6.1749,10.4422],[6.1614,10.4176],[6.1623,10.4096],[6.1645,10.4081],[6.1629,10.4039],[6.1644,10.3986],[6.1663,10.3964],[6.1696,10.3955],[6.1723,10.3885],[6.1751,10.3881],[6.1773,10.3858],[6.1731,10.3809],[6.1692,10.3713],[6.1693,10.3664],[6.1709,10.365],[6.1697,10.3585],[6.1734,10.3591],[6.1805,10.366],[6.1826,10.3738],[6.1842,10.3753],[6.1928,10.3787],[6.1967,10.3783],[6.2046,10.3725],[6.2071,10.3731],[6.2138,10.3823],[6.2167,10.3894],[6.2194,10.3894],[6.2219,10.3858],[6.226,10.3846],[6.2319,10.3865],[6.2357,10.3848],[6.2442,10.4119],[6.2545,10.4274],[6.2859,10.4138],[6.2872,10.4144],[6.2876,10.4203],[6.2862,10.4235],[6.2914,10.4231],[6.2963,10.418],[6.3037,10.424],[6.3046,10.4257],[6.3023,10.4314],[6.3107,10.4331],[6.3201,10.4406],[6.3225,10.4468],[6.3238,10.4535],[6.3154,10.4802],[6.3271,10.4952],[6.3553,10.5112],[6.3698,10.5279],[6.3829,10.5404],[6.3865,10.5509],[6.3918,10.5569],[6.3912,10.5613],[6.3971,10.5694],[6.3972,10.5727],[6.4024,10.5744],[6.4064,10.5728],[6.4099,10.575],[6.4244,10.5771],[6.4356,10.5908],[6.4459,10.5906],[6.4467,10.5942],[6.4504,10.595],[6.4558,10.5957],[6.4573,10.5939],[6.4599,10.5942],[6.4692,10.6003],[6.4724,10.6061],[6.4771,10.6081],[6.4804,10.6074],[6.483,10.6049],[6.4945,10.6157],[6.5138,10.6054],[6.5243,10.595],[6.5211,10.5822],[6.5216,10.5728],[6.5251,10.5645],[6.5323,10.5532],[6.5403,10.5452],[6.5492,10.5452],[6.5561,10.5469],[6.5741,10.5573],[6.5869,10.5741],[6.6471,10.5934],[6.6809,10.5894],[6.696,10.591],[6.7098,10.5875],[6.7259,10.5894],[6.7313,10.5964],[6.7243,10.6177],[6.7142,10.6341],[6.7166,10.6415],[6.7198,10.6435],[6.7233,10.652],[6.7378,10.6708],[6.7493,10.696],[6.7488,10.7],[6.7669,10.7309],[6.7779,10.735],[6.7837,10.7467],[6.7885,10.7479],[6.7966,10.7547],[6.7981,10.7604],[6.8033,10.7674],[6.8029,10.7711],[6.8051,10.7772],[6.8085,10.7813],[6.807,10.7873],[6.8093,10.7915],[6.8299,10.7903],[6.8365,10.7932],[6.8404,10.7969],[6.8429,10.8074],[6.8462,10.8121],[6.8541,10.8117],[6.8586,10.7941],[6.8581,10.7899],[6.8611,10.7835],[6.8794,10.777],[6.8911,10.7641],[6.9015,10.7613],[6.9169,10.7507],[6.9212,10.7419],[6.9213,10.7367],[6.9271,10.7241],[6.9279,10.719],[6.933,10.7163],[6.9423,10.6976],[7.0076,10.6632],[7.0061,10.6573],[7.0111,10.6304],[7.0097,10.6087],[7.0175,10.5945],[7.0178,10.5908],[7.0154,10.5895],[7.0149,10.5874],[7.0175,10.5801],[7.0153,10.5746],[7.0175,10.571],[7.0176,10.5634],[7.0192,10.5602],[7.1044,10.5566],[7.1106,10.5893],[7.1103,10.6085],[7.1236,10.6669],[7.1292,10.7144],[7.0185,10.7856],[6.996,10.7961],[6.9527,10.8943],[6.9656,10.9002],[6.9759,10.9128],[6.9856,10.9126],[6.9975,10.9275],[6.9975,10.9338],[7.0415,10.9394],[7.0498,10.931],[7.0671,10.9301],[7.0724,10.9126],[7.0966,10.886],[7.1137,10.904],[7.1238,10.9236],[7.1294,10.9312],[7.1313,10.9415],[7.136,10.952],[7.1291,10.9702],[7.1298,10.9745],[7.1327,10.9768],[7.1346,10.9822],[7.1438,10.9961],[7.1464,11.0036],[7.1419,11.0318],[7.1436,11.0372],[7.1502,11.0444],[7.1531,11.068],[7.1628,11.0921],[7.1616,11.1309],[7.1521,11.1288],[7.1443,11.1301],[7.1293,11.1382],[7.1234,11.145],[7.1187,11.1561],[7.0958,11.1695],[7.0899,11.1748],[7.0846,11.181],[7.0767,11.1953],[7.069,11.2033],[7.0614,11.2078],[7.0584,11.2003],[7.0469,11.2048],[7.0402,11.2048],[7.0255,11.2096],[6.9991,11.2268],[6.9757,11.239],[6.9677,11.2452],[6.9724,11.2556],[6.9841,11.2706],[6.997,11.2811],[7.0087,11.2938],[7.0076,11.311],[7.0096,11.3309],[7.0082,11.3408],[7.0099,11.3474],[7.0134,11.346],[7.0136,11.3492],[7.0062,11.3618],[6.9885,11.3607],[6.9755,11.3574],[6.9613,11.3588],[6.9496,11.3659],[6.9403,11.3742],[6.9345,11.3754],[6.9193,11.3849],[6.898,11.3841],[6.8977,11.3813],[6.8894,11.3836]]]}},{"type":"Feature","properties":{"name":"Chikun","state":"Kaduna","scode":"KD","centroid":[10.3796,7.2147]},"geometry":{"type":"Polygon","coordinates":[[[7.5106,10.1947],[7.5166,10.2312],[7.5382,10.275],[7.5549,10.2845],[7.5579,10.2899],[7.5625,10.2894],[7.5654,10.2871],[7.5766,10.2837],[7.5778,10.2814],[7.5886,10.2811],[7.5863,10.29],[7.5896,10.3084],[7.6041,10.3091],[7.608,10.3203],[7.6058,10.3311],[7.6145,10.3388],[7.615,10.3445],[7.6119,10.3468],[7.6066,10.3466],[7.6017,10.3775],[7.5944,10.3876],[7.5965,10.3947],[7.6058,10.3964],[7.6162,10.3952],[7.6249,10.3892],[7.6328,10.3896],[7.642,10.3934],[7.6501,10.3998],[7.6688,10.3994],[7.6732,10.4024],[7.6798,10.4118],[7.6955,10.4119],[7.6932,10.418],[7.6913,10.4318],[7.6999,10.4396],[7.7079,10.44],[7.7139,10.4509],[7.7147,10.4635],[7.7309,10.469],[7.7297,10.4775],[7.7103,10.4905],[7.7109,10.4985],[7.7023,10.505],[7.7021,10.5071],[7.6986,10.51],[7.6987,10.5229],[7.6941,10.526],[7.6953,10.5409],[7.6994,10.549],[7.7051,10.5502],[7.7013,10.5731],[7.6982,10.5778],[7.6975,10.5904],[7.6926,10.5953],[7.6798,10.5855],[7.6791,10.5697],[7.6746,10.5604],[7.6682,10.5621],[7.6472,10.5615],[7.6364,10.5681],[7.6249,10.5655],[7.6199,10.5759],[7.6021,10.5878],[7.5972,10.5869],[7.5758,10.5761],[7.5735,10.5728],[7.5644,10.5803],[7.5594,10.5817],[7.551,10.579],[7.5472,10.5718],[7.5287,10.5705],[7.5276,10.5722],[7.5217,10.5716],[7.5208,10.5586],[7.5065,10.5607],[7.4943,10.5653],[7.4871,10.5625],[7.4873,10.5569],[7.4755,10.5421],[7.4735,10.5322],[7.4649,10.517],[7.4622,10.5087],[7.4539,10.5049],[7.4447,10.4938],[7.447,10.4911],[7.4456,10.4894],[7.4408,10.488],[7.4417,10.4809],[7.4404,10.467],[7.4361,10.4596],[7.4323,10.4445],[7.4192,10.4445],[7.4137,10.4366],[7.4048,10.4353],[7.4055,10.4383],[7.4036,10.4432],[7.3983,10.4456],[7.3978,10.4542],[7.3987,10.4678],[7.4046,10.4726],[7.404,10.4749],[7.3984,10.4842],[7.391,10.4809],[7.3877,10.4817],[7.3865,10.4848],[7.378,10.4901],[7.3642,10.4895],[7.3484,10.4915],[7.3371,10.4914],[7.3208,10.4993],[7.312,10.502],[7.3061,10.5002],[7.2927,10.4919],[7.2912,10.4871],[7.2873,10.4916],[7.2869,10.4967],[7.2855,10.4981],[7.2877,10.504],[7.2855,10.5151],[7.2861,10.5182],[7.2557,10.5163],[7.2568,10.5196],[7.2547,10.5228],[7.2483,10.5242],[7.248,10.5267],[7.2425,10.5272],[7.2381,10.5314],[7.2384,10.5338],[7.242,10.5336],[7.2489,10.5422],[7.2548,10.5592],[7.2723,10.574],[7.2748,10.5797],[7.2798,10.5853],[7.2864,10.5872],[7.2931,10.587],[7.3077,10.5943],[7.3106,10.6272],[7.2946,10.6495],[7.2847,10.6531],[7.2799,10.6527],[7.2636,10.6575],[7.2127,10.693],[7.1927,10.7227],[7.1882,10.7262],[7.1292,10.7144],[7.1236,10.6669],[7.1103,10.6085],[7.1106,10.5893],[7.1044,10.5566],[7.0192,10.5602],[7.0176,10.5634],[7.0175,10.571],[7.0153,10.5746],[7.0175,10.5801],[7.0149,10.5874],[7.0154,10.5895],[7.0178,10.5908],[7.0175,10.5945],[7.0097,10.6087],[7.0111,10.6304],[7.0061,10.6573],[7.0076,10.6632],[6.9423,10.6976],[6.933,10.7163],[6.9279,10.719],[6.9271,10.7241],[6.9213,10.7367],[6.9212,10.7419],[6.9169,10.7507],[6.9015,10.7613],[6.8911,10.7641],[6.8794,10.777],[6.8611,10.7835],[6.8581,10.7899],[6.8586,10.7941],[6.8541,10.8117],[6.8462,10.8121],[6.8429,10.8074],[6.8404,10.7969],[6.8365,10.7932],[6.8299,10.7903],[6.8093,10.7915],[6.807,10.7873],[6.8085,10.7813],[6.8051,10.7772],[6.8029,10.7711],[6.8033,10.7674],[6.7981,10.7604],[6.7966,10.7547],[6.7885,10.7479],[6.7837,10.7467],[6.7779,10.735],[6.7669,10.7309],[6.7488,10.7],[6.7493,10.696],[6.7378,10.6708],[6.7233,10.652],[6.7198,10.6435],[6.7296,10.6419],[6.7418,10.6439],[6.7511,10.6421],[6.7599,10.6453],[6.7853,10.6392],[6.803,10.6432],[6.8166,10.6384],[6.8295,10.6247],[6.8295,10.5998],[6.8351,10.5958],[6.8419,10.5725],[6.8411,10.5573],[6.8355,10.538],[6.8395,10.5316],[6.8443,10.5283],[6.8492,10.5308],[6.8564,10.538],[6.8612,10.5508],[6.8691,10.5554],[6.9126,10.538],[6.919,10.5308],[6.9266,10.517],[6.9235,10.5123],[6.9299,10.5111],[6.9359,10.5002],[6.9479,10.4914],[6.9535,10.4822],[6.9544,10.4625],[6.9463,10.4504],[6.9383,10.4336],[6.9231,10.3822],[6.9263,10.3701],[6.9343,10.3613],[6.9488,10.3605],[6.9772,10.3648],[6.9969,10.3565],[7.0202,10.3541],[7.0339,10.3436],[7.0435,10.3267],[7.0508,10.3171],[7.0492,10.301],[7.0459,10.2914],[7.0323,10.2874],[7.0194,10.2737],[7.0098,10.2504],[7.0082,10.2424],[7.0034,10.2416],[7.0026,10.2472],[6.9961,10.2448],[6.9873,10.2368],[6.9849,10.2368],[6.9825,10.244],[6.9704,10.2328],[6.9656,10.2151],[6.9545,10.192],[6.9423,10.1806],[6.9287,10.1806],[6.9271,10.1862],[6.9214,10.191],[6.915,10.1886],[6.911,10.179],[6.9038,10.1685],[6.8949,10.1581],[6.8853,10.1508],[6.8821,10.1171],[6.9012,10.0764],[6.9144,10.0778],[6.9262,10.0677],[6.9405,10.061],[6.9523,10.0476],[7.0085,10.0448],[7.0187,10.0383],[7.0339,10.0442],[7.065,10.0425],[7.0852,10.0366],[7.0919,10.0324],[7.1003,10.0299],[7.1037,10.0316],[7.1054,10.0265],[7.1121,10.0265],[7.123,10.0299],[7.1249,10.033],[7.1382,10.0358],[7.1668,10.0333],[7.1794,10.0274],[7.1886,10.0274],[7.2004,10.0333],[7.2071,10.0417],[7.2139,10.04],[7.216,10.0374],[7.2291,10.0384],[7.2324,10.0433],[7.2408,10.04],[7.2541,10.0392],[7.2631,10.0442],[7.2734,10.0466],[7.2785,10.0454],[7.2834,10.0405],[7.2885,10.0405],[7.3005,10.0577],[7.3095,10.0602],[7.3171,10.059],[7.335,10.0603],[7.3519,10.0713],[7.3587,10.0797],[7.3719,10.0823],[7.3842,10.0929],[7.3872,10.099],[7.3996,10.1106],[7.4033,10.1309],[7.4085,10.1394],[7.4298,10.1596],[7.4451,10.1841],[7.468,10.1867],[7.5106,10.1947]]]}},{"type":"Feature","properties":{"name":"Giwa","state":"Kaduna","scode":"KD","centroid":[11.0742,7.3232]},"geometry":{"type":"Polygon","coordinates":[[[7.6187,11.2777],[7.6075,11.2718],[7.574,11.3191],[7.5622,11.3232],[7.5509,11.3314],[7.5383,11.3345],[7.5299,11.3392],[7.5217,11.3404],[7.5219,11.3535],[7.5203,11.3616],[7.5056,11.3565],[7.4964,11.3516],[7.4895,11.3522],[7.483,11.3576],[7.4725,11.376],[7.4676,11.3777],[7.4544,11.3784],[7.4276,11.374],[7.4055,11.3753],[7.3979,11.378],[7.3923,11.3748],[7.39,11.3702],[7.3806,11.3494],[7.3701,11.3332],[7.3666,11.3228],[7.3643,11.3113],[7.3646,11.2903],[7.3578,11.2643],[7.3412,11.2624],[7.3202,11.2651],[7.2976,11.2736],[7.2896,11.2843],[7.284,11.2755],[7.2733,11.2744],[7.2657,11.2781],[7.2605,11.2785],[7.2527,11.2729],[7.2496,11.2729],[7.2274,11.2786],[7.2221,11.2761],[7.2151,11.27],[7.21,11.2611],[7.1948,11.2576],[7.1953,11.2522],[7.199,11.2434],[7.2006,11.2285],[7.2027,11.2222],[7.2114,11.2024],[7.2185,11.1999],[7.2197,11.1942],[7.2065,11.1856],[7.2001,11.1732],[7.2003,11.1517],[7.173,11.1349],[7.1616,11.1309],[7.1628,11.0921],[7.1531,11.068],[7.1502,11.0444],[7.1436,11.0372],[7.1419,11.0318],[7.1464,11.0036],[7.1438,10.9961],[7.1346,10.9822],[7.1327,10.9768],[7.1298,10.9745],[7.1291,10.9702],[7.136,10.952],[7.1313,10.9415],[7.1294,10.9312],[7.1238,10.9236],[7.1137,10.904],[7.0966,10.886],[7.0724,10.9126],[7.0671,10.9301],[7.0498,10.931],[7.0415,10.9394],[6.9975,10.9338],[6.9975,10.9275],[6.9856,10.9126],[6.9759,10.9128],[6.9656,10.9002],[6.9527,10.8943],[6.996,10.7961],[7.0185,10.7856],[7.1292,10.7144],[7.1882,10.7262],[7.2056,10.7503],[7.208,10.789],[7.2066,10.8097],[7.2081,10.8348],[7.2157,10.8521],[7.2235,10.8655],[7.2429,10.8882],[7.258,10.916],[7.267,10.919],[7.2764,10.9292],[7.3097,10.942],[7.3155,10.9623],[7.3324,10.9882],[7.3391,10.9924],[7.3432,11.0002],[7.3532,11.011],[7.3669,11.0055],[7.3766,11.0139],[7.4086,11.0003],[7.426,11.0146],[7.4323,10.9902],[7.4391,10.9813],[7.4517,10.972],[7.4737,10.9654],[7.492,10.9629],[7.5061,10.9653],[7.5168,10.97],[7.5231,10.9706],[7.5189,10.9804],[7.5172,10.99],[7.514,10.992],[7.5091,11.0023],[7.5106,11.0076],[7.5094,11.0125],[7.5056,11.0196],[7.4954,11.0299],[7.5003,11.0435],[7.5135,11.0614],[7.517,11.0628],[7.5341,11.0586],[7.5447,11.0589],[7.5596,11.0624],[7.5674,11.0658],[7.5707,11.0713],[7.5757,11.0751],[7.5814,11.0659],[7.5873,11.0676],[7.5998,11.0677],[7.6056,11.0707],[7.6006,11.0844],[7.614,11.0859],[7.6212,11.0799],[7.6262,11.0792],[7.6378,11.073],[7.6405,11.0738],[7.6381,11.0917],[7.6432,11.1205],[7.643,11.1257],[7.6438,11.1292],[7.6457,11.1308],[7.6494,11.14],[7.6343,11.1481],[7.6293,11.1563],[7.6244,11.1575],[7.6192,11.1676],[7.6147,11.1666],[7.613,11.1729],[7.6022,11.1799],[7.6015,11.1844],[7.6054,11.1875],[7.6107,11.2012],[7.6247,11.2163],[7.6241,11.223],[7.619,11.2285],[7.6184,11.2329],[7.6197,11.2489],[7.6231,11.2568],[7.6232,11.2629],[7.6187,11.2777]]]}},{"type":"Feature","properties":{"name":"Igabi","state":"Kaduna","scode":"KD","centroid":[10.753,7.5454]},"geometry":{"type":"Polygon","coordinates":[[[7.4118,10.5605],[7.4144,10.5622],[7.4127,10.5796],[7.4162,10.5874],[7.4151,10.588],[7.419,10.5956],[7.4216,10.5977],[7.4238,10.604],[7.4278,10.6038],[7.4307,10.6085],[7.4345,10.6098],[7.4342,10.611],[7.4513,10.6186],[7.4555,10.6134],[7.4613,10.6104],[7.4627,10.612],[7.465,10.6103],[7.455,10.6011],[7.4575,10.5985],[7.4615,10.5975],[7.464,10.5932],[7.4641,10.591],[7.4608,10.5905],[7.46,10.5846],[7.4667,10.5842],[7.4711,10.5813],[7.4704,10.5769],[7.4729,10.5685],[7.483,10.5668],[7.4871,10.5625],[7.4943,10.5653],[7.5065,10.5607],[7.5208,10.5586],[7.5217,10.5716],[7.5276,10.5722],[7.5287,10.5705],[7.5472,10.5718],[7.551,10.579],[7.5594,10.5817],[7.5644,10.5803],[7.5735,10.5728],[7.5758,10.5761],[7.5972,10.5869],[7.6021,10.5878],[7.6199,10.5759],[7.6249,10.5655],[7.6364,10.5681],[7.6472,10.5615],[7.6682,10.5621],[7.6746,10.5604],[7.6791,10.5697],[7.6798,10.5855],[7.6926,10.5953],[7.6975,10.5904],[7.6982,10.5778],[7.7013,10.5731],[7.7051,10.5502],[7.6994,10.549],[7.6953,10.5409],[7.6941,10.526],[7.6987,10.5229],[7.6986,10.51],[7.7021,10.5071],[7.7023,10.505],[7.7109,10.4985],[7.7103,10.4905],[7.7297,10.4775],[7.732,10.4827],[7.7398,10.4883],[7.7435,10.4875],[7.7546,10.4921],[7.7563,10.4947],[7.7676,10.4892],[7.7782,10.4998],[7.7941,10.495],[7.7989,10.4899],[7.8169,10.5076],[7.8218,10.5062],[7.8249,10.4971],[7.8292,10.4979],[7.8355,10.5017],[7.8488,10.5054],[7.8522,10.508],[7.8498,10.5199],[7.8502,10.5228],[7.8533,10.5252],[7.8697,10.5267],[7.8709,10.5336],[7.8734,10.5341],[7.8746,10.5386],[7.8724,10.5511],[7.8743,10.5541],[7.8724,10.5569],[7.8725,10.5623],[7.8821,10.5822],[7.8888,10.5887],[7.8884,10.5925],[7.8857,10.5927],[7.8814,10.5897],[7.8575,10.5798],[7.8573,10.5844],[7.8529,10.5955],[7.8589,10.6168],[7.8649,10.6237],[7.865,10.6265],[7.8689,10.6335],[7.8693,10.6533],[7.8682,10.6576],[7.8655,10.6599],[7.8642,10.6674],[7.8664,10.6705],[7.8751,10.6748],[7.8781,10.6731],[7.883,10.6738],[7.8894,10.678],[7.8814,10.6856],[7.8811,10.6886],[7.8726,10.6996],[7.8733,10.7037],[7.8696,10.7093],[7.8639,10.7308],[7.8548,10.737],[7.8507,10.7477],[7.8862,10.7644],[7.8769,10.7754],[7.8799,10.7905],[7.879,10.7952],[7.8696,10.7953],[7.865,10.7938],[7.8585,10.7955],[7.8557,10.7938],[7.8461,10.8053],[7.8293,10.8165],[7.8203,10.8283],[7.8156,10.8307],[7.8143,10.8508],[7.8339,10.8731],[7.8234,10.8867],[7.8192,10.8891],[7.8185,10.8912],[7.7992,10.9084],[7.7919,10.9226],[7.7863,10.9201],[7.7783,10.9211],[7.7735,10.9357],[7.7649,10.9434],[7.7702,10.963],[7.7672,10.9678],[7.7599,10.9703],[7.754,10.9684],[7.7475,10.9691],[7.7398,10.9627],[7.7301,10.962],[7.726,10.9676],[7.7253,10.9734],[7.7171,10.9793],[7.7105,10.9869],[7.7048,10.9858],[7.7009,10.9907],[7.696,10.9878],[7.6912,10.9877],[7.6863,10.9925],[7.6684,10.9999],[7.661,10.9901],[7.6606,10.9846],[7.6528,10.9734],[7.6423,10.9687],[7.6341,10.9706],[7.6306,10.9768],[7.6306,10.991],[7.6255,10.9966],[7.6122,11.0004],[7.6066,10.9997],[7.6024,11.0051],[7.5969,11.0067],[7.5821,11.0059],[7.5718,11.0027],[7.5685,10.9955],[7.5508,10.9892],[7.5231,10.9706],[7.5168,10.97],[7.5061,10.9653],[7.492,10.9629],[7.4737,10.9654],[7.4517,10.972],[7.4391,10.9813],[7.4323,10.9902],[7.426,11.0146],[7.4086,11.0003],[7.3766,11.0139],[7.3669,11.0055],[7.3532,11.011],[7.3432,11.0002],[7.3391,10.9924],[7.3324,10.9882],[7.3155,10.9623],[7.3097,10.942],[7.2764,10.9292],[7.267,10.919],[7.258,10.916],[7.2429,10.8882],[7.2235,10.8655],[7.2157,10.8521],[7.2081,10.8348],[7.2066,10.8097],[7.208,10.789],[7.2056,10.7503],[7.1882,10.7262],[7.1927,10.7227],[7.2127,10.693],[7.2636,10.6575],[7.2799,10.6527],[7.2847,10.6531],[7.2946,10.6495],[7.3106,10.6272],[7.3077,10.5943],[7.2931,10.587],[7.2864,10.5872],[7.2798,10.5853],[7.2748,10.5797],[7.2723,10.574],[7.2548,10.5592],[7.2489,10.5422],[7.242,10.5336],[7.2384,10.5338],[7.2381,10.5314],[7.2425,10.5272],[7.248,10.5267],[7.2483,10.5242],[7.2547,10.5228],[7.2568,10.5196],[7.2557,10.5163],[7.2861,10.5182],[7.2855,10.5151],[7.2877,10.504],[7.2855,10.4981],[7.2869,10.4967],[7.2873,10.4916],[7.2912,10.4871],[7.2927,10.4919],[7.3061,10.5002],[7.312,10.502],[7.3208,10.4993],[7.3371,10.4914],[7.3484,10.4915],[7.3642,10.4895],[7.378,10.4901],[7.3836,10.5034],[7.3917,10.5095],[7.3954,10.5146],[7.3943,10.5204],[7.3968,10.5254],[7.398,10.5329],[7.4009,10.5347],[7.4055,10.5337],[7.4078,10.5372],[7.4062,10.5381],[7.4092,10.5473],[7.4067,10.5533],[7.4075,10.5572],[7.41,10.5574],[7.4118,10.5605]]]}},{"type":"Feature","properties":{"name":"Ikara","state":"Kaduna","scode":"KD","centroid":[11.282,8.1826]},"geometry":{"type":"Polygon","coordinates":[[[8.2644,11.3132],[8.2586,11.3129],[8.2557,11.315],[8.2488,11.3257],[8.2374,11.3271],[8.2268,11.3259],[8.2068,11.3187],[8.2002,11.3244],[8.1874,11.3406],[8.1674,11.3543],[8.1652,11.363],[8.1488,11.3734],[8.1499,11.3754],[8.1229,11.3867],[8.1223,11.3917],[8.1137,11.4085],[8.1286,11.4113],[8.1406,11.4163],[8.1433,11.4203],[8.1404,11.4568],[8.1539,11.4774],[8.1525,11.489],[8.1617,11.4972],[8.1618,11.5055],[8.1501,11.5192],[8.121,11.5202],[8.114,11.5223],[8.11,11.5209],[8.1069,11.5237],[8.103,11.5227],[8.1015,11.524],[8.0976,11.5201],[8.0866,11.5174],[8.0835,11.5138],[8.0819,11.5055],[8.0735,11.5046],[8.0672,11.5004],[8.0614,11.5006],[8.0607,11.4977],[8.0568,11.4967],[8.0548,11.4909],[8.0512,11.488],[8.047,11.4865],[8.0447,11.4879],[8.0406,11.487],[8.0391,11.4917],[8.0358,11.4934],[8.0303,11.4941],[8.0225,11.4888],[8.0123,11.4918],[8.0091,11.4908],[8.0009,11.4921],[7.9995,11.4896],[7.9976,11.4893],[7.9957,11.4916],[7.9948,11.4869],[7.991,11.4876],[7.9886,11.4847],[7.9825,11.483],[7.9802,11.4843],[7.9787,11.4833],[7.9779,11.479],[7.9684,11.4787],[7.9627,11.4714],[7.9565,11.4674],[7.9546,11.457],[7.9564,11.451],[7.9589,11.4466],[7.9654,11.4438],[7.9664,11.4387],[7.9707,11.4312],[7.9707,11.4277],[7.9658,11.4268],[7.9647,11.4202],[7.9688,11.4137],[7.972,11.4168],[7.9753,11.4176],[7.9784,11.4101],[7.9784,11.4085],[7.9755,11.4086],[7.9757,11.4014],[7.9703,11.4033],[7.969,11.3977],[7.9667,11.3964],[7.9675,11.3934],[7.9698,11.3935],[7.9696,11.3921],[7.967,11.3883],[7.9636,11.388],[7.9636,11.3852],[7.9694,11.3818],[7.9687,11.3803],[7.9678,11.3786],[7.9621,11.379],[7.9605,11.3761],[7.9652,11.3717],[7.9679,11.3715],[7.9676,11.3696],[7.9765,11.3683],[7.9701,11.3637],[7.9747,11.3571],[7.9717,11.357],[7.9708,11.355],[7.9733,11.3486],[7.9866,11.354],[7.9876,11.3474],[7.9964,11.3364],[8.0107,11.3421],[8.0089,11.3478],[8.0099,11.3526],[8.0145,11.3534],[8.0166,11.3595],[8.0232,11.3625],[8.0334,11.3623],[8.0528,11.3674],[8.0536,11.3714],[8.0637,11.3746],[8.0648,11.371],[8.0612,11.3697],[8.0605,11.3626],[8.0608,11.322],[8.0587,11.3117],[8.0616,11.3076],[8.0651,11.3073],[8.0636,11.303],[8.0649,11.2969],[8.0754,11.2939],[8.0854,11.2874],[8.0955,11.2882],[8.1034,11.2869],[8.1066,11.281],[8.1042,11.2761],[8.1055,11.2661],[8.1019,11.2635],[8.1003,11.2648],[8.0985,11.264],[8.0947,11.26],[8.0924,11.2615],[8.0854,11.2612],[8.0821,11.2575],[8.0829,11.2442],[8.081,11.2337],[8.0821,11.2256],[8.0779,11.2256],[8.0786,11.2273],[8.0743,11.228],[8.073,11.2253],[8.0712,11.2251],[8.064,11.2281],[8.0599,11.2196],[8.061,11.2184],[8.0555,11.2168],[8.0546,11.2099],[8.0481,11.2011],[8.0479,11.1956],[8.0561,11.1878],[8.0634,11.186],[8.0679,11.173],[8.0706,11.1709],[8.083,11.1739],[8.0898,11.1726],[8.0917,11.1738],[8.1142,11.1629],[8.1186,11.1497],[8.1204,11.1485],[8.1334,11.1482],[8.1394,11.1329],[8.1508,11.1198],[8.1579,11.1155],[8.1671,11.1247],[8.1808,11.1289],[8.1822,11.1281],[8.2132,11.1403],[8.225,11.136],[8.2275,11.1328],[8.2189,11.1227],[8.2225,11.1042],[8.2253,11.1053],[8.2397,11.1018],[8.2565,11.0998],[8.2636,11.1048],[8.2669,11.1056],[8.2717,11.1034],[8.2806,11.1067],[8.2888,11.1054],[8.2917,11.1145],[8.2965,11.1163],[8.3018,11.1238],[8.3107,11.1274],[8.3099,11.1417],[8.3022,11.1617],[8.3195,11.1847],[8.3214,11.1805],[8.3229,11.181],[8.3284,11.1754],[8.3345,11.1721],[8.3357,11.1698],[8.3403,11.1699],[8.347,11.1666],[8.3569,11.1719],[8.3604,11.1717],[8.3638,11.1689],[8.3763,11.167],[8.4017,11.1539],[8.4064,11.1459],[8.4079,11.1388],[8.4047,11.1294],[8.4044,11.1208],[8.4085,11.1102],[8.4116,11.1085],[8.4227,11.1057],[8.4454,11.1154],[8.4607,11.1157],[8.4679,11.1137],[8.4789,11.1134],[8.4968,11.1297],[8.506,11.1322],[8.5099,11.1512],[8.5187,11.1623],[8.5146,11.163],[8.509,11.1586],[8.5061,11.1582],[8.5021,11.1589],[8.4976,11.1626],[8.4834,11.1616],[8.4701,11.1693],[8.4669,11.1681],[8.4647,11.1696],[8.4619,11.1718],[8.4575,11.1841],[8.4472,11.204],[8.4378,11.21],[8.4379,11.2168],[8.4338,11.2266],[8.428,11.2291],[8.4151,11.2306],[8.4029,11.2279],[8.3593,11.2266],[8.3362,11.2333],[8.334,11.2295],[8.3252,11.2272],[8.3082,11.2354],[8.2979,11.2342],[8.294,11.2425],[8.2937,11.2495],[8.291,11.2524],[8.2917,11.256],[8.2878,11.2589],[8.2861,11.2682],[8.278,11.2749],[8.2766,11.2778],[8.2742,11.2779],[8.2731,11.2765],[8.2661,11.2774],[8.2607,11.2763],[8.2573,11.2797],[8.2547,11.2958],[8.2563,11.3012],[8.26,11.3042],[8.2644,11.3132]]]}},{"type":"Feature","properties":{"name":"Jaba","state":"Kaduna","scode":"KD","centroid":[9.4842,8.0243]},"geometry":{"type":"Polygon","coordinates":[[[8.1648,9.5511],[8.1652,9.5536],[8.1574,9.5676],[8.1718,9.5658],[8.1725,9.582],[8.1633,9.5804],[8.1521,9.5929],[8.1499,9.5971],[8.1399,9.6012],[8.13,9.6182],[8.1167,9.625],[8.0944,9.6186],[8.0912,9.6116],[8.0935,9.6006],[8.0928,9.5955],[8.0791,9.5819],[8.069,9.5855],[8.0645,9.5846],[8.062,9.5818],[8.055,9.5812],[8.0487,9.5723],[8.0378,9.5678],[8.0358,9.5706],[8.0175,9.5718],[8.0163,9.5732],[8.0066,9.5756],[8.0041,9.5825],[8.0047,9.5891],[7.9885,9.5945],[7.9856,9.6008],[7.9795,9.6067],[7.9728,9.6101],[7.9707,9.6147],[7.966,9.6172],[7.9579,9.6335],[7.9479,9.6349],[7.9275,9.6147],[7.929,9.5861],[7.9257,9.5745],[7.9287,9.5674],[7.9443,9.5599],[7.9327,9.5382],[7.9375,9.5307],[7.9423,9.5134],[7.9418,9.5082],[7.953,9.5023],[7.9516,9.4841],[7.9556,9.4608],[7.9473,9.445],[7.9391,9.4432],[7.9482,9.4378],[7.9483,9.4308],[7.9576,9.4221],[7.953,9.4148],[7.9593,9.3976],[7.952,9.3927],[7.9509,9.3861],[7.9065,9.3297],[7.9191,9.3174],[7.9406,9.3142],[8.0083,9.3231],[8.0176,9.3301],[8.0162,9.3327],[8.021,9.3429],[8.0255,9.3436],[8.0335,9.3403],[8.0358,9.3407],[8.0357,9.347],[8.0315,9.3499],[8.0262,9.3569],[8.0302,9.3618],[8.0338,9.3624],[8.0433,9.3574],[8.0591,9.3583],[8.0589,9.3698],[8.0568,9.3781],[8.0471,9.3885],[8.045,9.3935],[8.07,9.4168],[8.0735,9.4158],[8.0932,9.4288],[8.1029,9.4407],[8.1047,9.4477],[8.0907,9.4553],[8.0762,9.4582],[8.0749,9.4597],[8.0718,9.4658],[8.0722,9.4796],[8.0684,9.4912],[8.0698,9.4954],[8.092,9.4966],[8.1087,9.4935],[8.1218,9.5021],[8.1303,9.5041],[8.1392,9.5037],[8.1518,9.5068],[8.1593,9.5246],[8.1458,9.5345],[8.1521,9.5503],[8.1648,9.5511]]]}},{"type":"Feature","properties":{"name":"Jema'A","state":"Kaduna","scode":"KD","centroid":[9.4127,8.2576]},"geometry":{"type":"Polygon","coordinates":[[[8.0872,9.2307],[8.1077,9.229],[8.1304,9.2154],[8.1437,9.2171],[8.1498,9.2287],[8.1726,9.2226],[8.1775,9.2344],[8.1865,9.2386],[8.1984,9.2379],[8.2069,9.2332],[8.2107,9.2362],[8.2295,9.2378],[8.2328,9.241],[8.247,9.2394],[8.2505,9.2507],[8.2632,9.2595],[8.2705,9.2673],[8.2669,9.2803],[8.2966,9.2857],[8.3097,9.2946],[8.3108,9.2981],[8.3472,9.3265],[8.3472,9.3297],[8.3497,9.3334],[8.3673,9.3522],[8.3743,9.3559],[8.3974,9.3611],[8.4128,9.3694],[8.4346,9.4031],[8.4412,9.4159],[8.4477,9.4342],[8.4653,9.4444],[8.473,9.4446],[8.481,9.4592],[8.4955,9.4648],[8.505,9.474],[8.5047,9.4791],[8.5092,9.4816],[8.5119,9.4899],[8.5159,9.4934],[8.555,9.4927],[8.5778,9.4992],[8.5743,9.5137],[8.5685,9.5197],[8.5563,9.5537],[8.5536,9.569],[8.5557,9.5816],[8.5511,9.5815],[8.5336,9.5745],[8.5217,9.5723],[8.4987,9.5756],[8.4739,9.555],[8.4541,9.5326],[8.4445,9.533],[8.4123,9.5502],[8.4026,9.5505],[8.3956,9.5461],[8.3753,9.5477],[8.3513,9.5427],[8.346,9.5475],[8.3418,9.5682],[8.3338,9.5782],[8.3237,9.5844],[8.3337,9.5926],[8.3303,9.5952],[8.3246,9.5967],[8.3243,9.6025],[8.3214,9.602],[8.3214,9.6066],[8.3193,9.6065],[8.3187,9.6094],[8.3118,9.6124],[8.3035,9.6081],[8.2989,9.6097],[8.2921,9.6018],[8.2869,9.5999],[8.2865,9.5932],[8.2836,9.5881],[8.2846,9.5835],[8.2816,9.5744],[8.2814,9.5722],[8.2831,9.5703],[8.2803,9.5684],[8.2779,9.5677],[8.2738,9.5734],[8.2673,9.5723],[8.2637,9.569],[8.2588,9.5715],[8.2553,9.571],[8.2513,9.5758],[8.2409,9.5754],[8.239,9.571],[8.2451,9.5588],[8.2448,9.5316],[8.2348,9.5242],[8.2271,9.505],[8.2072,9.511],[8.1748,9.5332],[8.1648,9.5511],[8.1521,9.5503],[8.1458,9.5345],[8.1593,9.5246],[8.1518,9.5068],[8.1392,9.5037],[8.1303,9.5041],[8.1218,9.5021],[8.1087,9.4935],[8.092,9.4966],[8.0698,9.4954],[8.0684,9.4912],[8.0722,9.4796],[8.0718,9.4658],[8.0749,9.4597],[8.0762,9.4582],[8.0907,9.4553],[8.1047,9.4477],[8.1029,9.4407],[8.0932,9.4288],[8.0735,9.4158],[8.07,9.4168],[8.045,9.3935],[8.0471,9.3885],[8.0568,9.3781],[8.0589,9.3698],[8.0591,9.3583],[8.0433,9.3574],[8.0338,9.3624],[8.0302,9.3618],[8.0262,9.3569],[8.0315,9.3499],[8.0357,9.347],[8.0358,9.3407],[8.0335,9.3403],[8.0255,9.3436],[8.021,9.3429],[8.0162,9.3327],[8.0176,9.3301],[8.0083,9.3231],[7.9406,9.3142],[7.9839,9.2979],[7.9967,9.2947],[8.0149,9.2849],[8.0609,9.2658],[8.0781,9.2463],[8.0872,9.2307]]]}},{"type":"Feature","properties":{"name":"Kachia","state":"Kaduna","scode":"KD","centroid":[9.8436,7.6514]},"geometry":{"type":"Polygon","coordinates":[[[7.2514,9.521],[7.2749,9.5211],[7.29,9.5141],[7.3002,9.5272],[7.3044,9.5475],[7.3034,9.56],[7.3087,9.5729],[7.3176,9.573],[7.332,9.58],[7.3435,9.5825],[7.3619,9.5797],[7.375,9.5793],[7.381,9.5823],[7.4032,9.588],[7.4208,9.5911],[7.4315,9.5912],[7.4337,9.5933],[7.4385,9.6084],[7.4409,9.6092],[7.448,9.6162],[7.468,9.6047],[7.4757,9.6035],[7.4825,9.6054],[7.4868,9.6033],[7.4964,9.595],[7.5122,9.5871],[7.5172,9.5889],[7.5297,9.6023],[7.5455,9.5923],[7.5567,9.5793],[7.5671,9.5772],[7.5892,9.5885],[7.6121,9.5953],[7.6121,9.5974],[7.6203,9.6084],[7.648,9.6271],[7.6589,9.6289],[7.6628,9.6259],[7.6801,9.6204],[7.6834,9.621],[7.692,9.6174],[7.7124,9.6036],[7.7343,9.6092],[7.7441,9.6316],[7.7478,9.6356],[7.7463,9.6702],[7.7486,9.6765],[7.7695,9.6795],[7.776,9.6762],[7.8008,9.6522],[7.8158,9.6479],[7.8365,9.6916],[7.8469,9.6954],[7.8673,9.6934],[7.8656,9.6777],[7.8787,9.6735],[7.9004,9.6743],[7.9061,9.6627],[7.905,9.6583],[7.9206,9.6372],[7.9295,9.6427],[7.9408,9.6422],[7.9479,9.6349],[7.9579,9.6335],[7.966,9.6172],[7.9707,9.6147],[7.9728,9.6101],[7.9795,9.6067],[7.9856,9.6008],[7.9885,9.5945],[8.0047,9.5891],[8.0041,9.5825],[8.0066,9.5756],[8.0163,9.5732],[8.0175,9.5718],[8.0358,9.5706],[8.0378,9.5678],[8.0487,9.5723],[8.055,9.5812],[8.062,9.5818],[8.0645,9.5846],[8.069,9.5855],[8.0791,9.5819],[8.0928,9.5955],[8.0935,9.6006],[8.0912,9.6116],[8.0944,9.6186],[8.1167,9.625],[8.1147,9.6303],[8.1321,9.6553],[8.1306,9.6583],[8.1334,9.6689],[8.1269,9.6774],[8.1211,9.6773],[8.1156,9.6804],[8.114,9.6979],[8.1101,9.7067],[8.1013,9.7055],[8.0913,9.7138],[8.0893,9.7184],[8.0708,9.7327],[8.0708,9.7394],[8.0786,9.7575],[8.0677,9.7716],[8.0269,9.7801],[8.0234,9.7836],[8.0218,9.7996],[8.0228,9.8016],[8.0423,9.8164],[8.0504,9.8275],[8.0556,9.8307],[8.0572,9.8422],[8.0686,9.8486],[8.0711,9.8486],[8.087,9.8611],[8.0899,9.8864],[8.0872,9.8876],[8.0808,9.9041],[8.0777,9.9203],[8.0723,9.9217],[8.0686,9.9108],[8.0598,9.9158],[8.0611,9.9243],[8.0603,9.9336],[8.0423,9.9492],[8.0108,9.9494],[8.017,9.9739],[8.021,9.98],[8.0276,10.0131],[8.029,10.0367],[8.028,10.04],[8.0092,10.0574],[8.0005,10.0622],[7.9943,10.0697],[7.9843,10.0769],[7.9826,10.0796],[7.9797,10.089],[7.9803,10.0972],[7.9971,10.0935],[7.9985,10.1181],[7.9738,10.1179],[7.9519,10.1312],[7.949,10.1306],[7.9395,10.1061],[7.9028,10.0827],[7.8946,10.0673],[7.8463,10.0709],[7.826,10.071],[7.8203,10.0688],[7.8083,10.0557],[7.798,10.0518],[7.8058,10.0181],[7.802,9.9999],[7.7916,10.0038],[7.7828,9.9997],[7.7664,9.9957],[7.7615,9.9883],[7.7481,9.978],[7.7431,9.9838],[7.7361,10.0124],[7.7205,10.0202],[7.7092,10.0221],[7.697,10.0131],[7.6906,10.0048],[7.6591,10.0138],[7.6556,10.0171],[7.6273,10.0167],[7.6199,10.0447],[7.6373,10.0385],[7.6187,10.095],[7.5983,10.1002],[7.556,10.1724],[7.5431,10.1822],[7.5106,10.1947],[7.468,10.1867],[7.4451,10.1841],[7.4298,10.1596],[7.4085,10.1394],[7.4033,10.1309],[7.3996,10.1106],[7.3872,10.099],[7.3842,10.0929],[7.3719,10.0823],[7.3587,10.0797],[7.3519,10.0713],[7.335,10.0603],[7.3171,10.059],[7.3095,10.0602],[7.3005,10.0577],[7.2885,10.0405],[7.2834,10.0405],[7.2785,10.0454],[7.2734,10.0466],[7.2631,10.0442],[7.2541,10.0392],[7.2702,10.0282],[7.2778,10.0164],[7.2803,9.9996],[7.2811,9.965],[7.2862,9.95],[7.2854,9.9332],[7.2938,9.9079],[7.2955,9.8877],[7.2955,9.8718],[7.2965,9.8698],[7.2949,9.853],[7.2929,9.8516],[7.2887,9.8406],[7.2921,9.8238],[7.2929,9.8112],[7.2913,9.8003],[7.2854,9.7893],[7.2736,9.7834],[7.2677,9.7834],[7.2601,9.7868],[7.2517,9.7944],[7.2315,9.791],[7.224,9.7876],[7.2105,9.7801],[7.2047,9.7583],[7.2227,9.7409],[7.256,9.7126],[7.2764,9.6899],[7.2979,9.6489],[7.3056,9.6277],[7.2961,9.6135],[7.2589,9.5891],[7.2339,9.5648],[7.2485,9.535],[7.2514,9.521]]]}},{"type":"Feature","properties":{"name":"Kaduna North","state":"Kaduna","scode":"KD","centroid":[10.5547,7.4452]},"geometry":{"type":"Polygon","coordinates":[[[7.4408,10.488],[7.4456,10.4894],[7.447,10.4911],[7.4447,10.4938],[7.4539,10.5049],[7.4622,10.5087],[7.4649,10.517],[7.4735,10.5322],[7.4755,10.5421],[7.4873,10.5569],[7.4871,10.5625],[7.483,10.5668],[7.4729,10.5685],[7.4704,10.5769],[7.4711,10.5813],[7.4667,10.5842],[7.46,10.5846],[7.4608,10.5905],[7.4641,10.591],[7.464,10.5932],[7.4615,10.5975],[7.4575,10.5985],[7.455,10.6011],[7.465,10.6103],[7.4627,10.612],[7.4613,10.6104],[7.4555,10.6134],[7.4513,10.6186],[7.4342,10.611],[7.4345,10.6098],[7.4307,10.6085],[7.4278,10.6038],[7.4238,10.604],[7.4216,10.5977],[7.419,10.5956],[7.4151,10.588],[7.4162,10.5874],[7.4127,10.5796],[7.4144,10.5622],[7.4118,10.5605],[7.4204,10.5555],[7.4221,10.5496],[7.427,10.55],[7.4182,10.5473],[7.4198,10.5415],[7.4223,10.5408],[7.4244,10.5346],[7.4234,10.5297],[7.4262,10.5242],[7.4216,10.5115],[7.4191,10.5097],[7.4185,10.5022],[7.4251,10.4942],[7.4345,10.4948],[7.4408,10.488]]]}},{"type":"Feature","properties":{"name":"Kaduna South","state":"Kaduna","scode":"KD","centroid":[10.4907,7.4127]},"geometry":{"type":"Polygon","coordinates":[[[7.378,10.4901],[7.3865,10.4848],[7.3877,10.4817],[7.391,10.4809],[7.3984,10.4842],[7.404,10.4749],[7.4046,10.4726],[7.3987,10.4678],[7.3978,10.4542],[7.3983,10.4456],[7.4036,10.4432],[7.4055,10.4383],[7.4048,10.4353],[7.4137,10.4366],[7.4192,10.4445],[7.4323,10.4445],[7.4361,10.4596],[7.4404,10.467],[7.4417,10.4809],[7.4408,10.488],[7.4345,10.4948],[7.4251,10.4942],[7.4185,10.5022],[7.4191,10.5097],[7.4216,10.5115],[7.4262,10.5242],[7.4234,10.5297],[7.4244,10.5346],[7.4223,10.5408],[7.4198,10.5415],[7.4182,10.5473],[7.427,10.55],[7.4221,10.5496],[7.4204,10.5555],[7.4118,10.5605],[7.41,10.5574],[7.4075,10.5572],[7.4067,10.5533],[7.4092,10.5473],[7.4062,10.5381],[7.4078,10.5372],[7.4055,10.5337],[7.4009,10.5347],[7.398,10.5329],[7.3968,10.5254],[7.3943,10.5204],[7.3954,10.5146],[7.3917,10.5095],[7.3836,10.5034],[7.378,10.4901]]]}},{"type":"Feature","properties":{"name":"Kagarko","state":"Kaduna","scode":"KD","centroid":[9.4746,7.6204]},"geometry":{"type":"Polygon","coordinates":[[[7.7241,9.3293],[7.7312,9.3261],[7.7639,9.2959],[7.7929,9.2756],[7.8084,9.2728],[7.8268,9.2764],[7.8725,9.29],[7.8974,9.3059],[7.9191,9.3174],[7.9065,9.3297],[7.9509,9.3861],[7.952,9.3927],[7.9593,9.3976],[7.953,9.4148],[7.9576,9.4221],[7.9483,9.4308],[7.9482,9.4378],[7.9391,9.4432],[7.9473,9.445],[7.9556,9.4608],[7.9516,9.4841],[7.953,9.5023],[7.9418,9.5082],[7.9423,9.5134],[7.9375,9.5307],[7.9327,9.5382],[7.9443,9.5599],[7.9287,9.5674],[7.9257,9.5745],[7.929,9.5861],[7.9275,9.6147],[7.9479,9.6349],[7.9408,9.6422],[7.9295,9.6427],[7.9206,9.6372],[7.905,9.6583],[7.9061,9.6627],[7.9004,9.6743],[7.8787,9.6735],[7.8656,9.6777],[7.8673,9.6934],[7.8469,9.6954],[7.8365,9.6916],[7.8158,9.6479],[7.8008,9.6522],[7.776,9.6762],[7.7695,9.6795],[7.7486,9.6765],[7.7463,9.6702],[7.7478,9.6356],[7.7441,9.6316],[7.7343,9.6092],[7.7124,9.6036],[7.692,9.6174],[7.6834,9.621],[7.6801,9.6204],[7.6628,9.6259],[7.6589,9.6289],[7.648,9.6271],[7.6203,9.6084],[7.6121,9.5974],[7.6121,9.5953],[7.5892,9.5885],[7.5671,9.5772],[7.5567,9.5793],[7.5455,9.5923],[7.5297,9.6023],[7.5172,9.5889],[7.5122,9.5871],[7.4964,9.595],[7.4868,9.6033],[7.4825,9.6054],[7.4757,9.6035],[7.468,9.6047],[7.448,9.6162],[7.4409,9.6092],[7.4385,9.6084],[7.4337,9.5933],[7.4315,9.5912],[7.4208,9.5911],[7.4032,9.588],[7.381,9.5823],[7.375,9.5793],[7.3619,9.5797],[7.3435,9.5825],[7.332,9.58],[7.3176,9.573],[7.3087,9.5729],[7.3034,9.56],[7.3044,9.5475],[7.3002,9.5272],[7.29,9.5141],[7.2749,9.5211],[7.2514,9.521],[7.2295,9.4998],[7.219,9.4927],[7.2009,9.4598],[7.2214,9.3753],[7.2224,9.3323],[7.2323,9.3177],[7.2737,9.3293],[7.334,9.3408],[7.3536,9.3378],[7.3786,9.3365],[7.3897,9.3359],[7.4737,9.3503],[7.4969,9.3524],[7.5091,9.355],[7.5421,9.3874],[7.6141,9.4061],[7.647,9.4087],[7.6675,9.4014],[7.6707,9.3839],[7.6787,9.3684],[7.693,9.3494],[7.7241,9.3293]]]}},{"type":"Feature","properties":{"name":"Kajuru","state":"Kaduna","scode":"KD","centroid":[10.2607,7.7995]},"geometry":{"type":"Polygon","coordinates":[[[7.9519,10.1312],[7.9669,10.147],[7.976,10.1525],[7.9956,10.1497],[8.0054,10.1708],[7.9903,10.1785],[7.9923,10.195],[7.9994,10.2007],[8.0231,10.2319],[8.0173,10.244],[8.0275,10.2656],[8.039,10.2829],[8.071,10.2861],[8.0819,10.2681],[8.0829,10.2611],[8.0648,10.2389],[8.0778,10.231],[8.0884,10.228],[8.0925,10.2224],[8.1099,10.2367],[8.1188,10.2384],[8.1276,10.249],[8.1141,10.2671],[8.1123,10.2775],[8.1171,10.2885],[8.1166,10.2928],[8.1084,10.2965],[8.0977,10.3123],[8.0772,10.3055],[8.0742,10.3157],[8.0594,10.3178],[8.0398,10.3039],[8.0353,10.2987],[8.0327,10.302],[8.0336,10.3259],[8.0394,10.3432],[8.0328,10.352],[8.034,10.3537],[8.0305,10.3737],[8.0234,10.3934],[8.0083,10.4101],[8.0002,10.4497],[8.0002,10.4517],[8.0068,10.4585],[8.0114,10.4751],[8.0064,10.4781],[7.9813,10.4765],[7.9767,10.4791],[7.952,10.4756],[7.9489,10.477],[7.9317,10.4662],[7.921,10.4789],[7.898,10.4887],[7.8946,10.5043],[7.8875,10.5143],[7.883,10.5157],[7.8817,10.5195],[7.8779,10.5193],[7.8697,10.5267],[7.8533,10.5252],[7.8502,10.5228],[7.8498,10.5199],[7.8522,10.508],[7.8488,10.5054],[7.8355,10.5017],[7.8292,10.4979],[7.8249,10.4971],[7.8218,10.5062],[7.8169,10.5076],[7.7989,10.4899],[7.7941,10.495],[7.7782,10.4998],[7.7676,10.4892],[7.7563,10.4947],[7.7546,10.4921],[7.7435,10.4875],[7.7398,10.4883],[7.732,10.4827],[7.7297,10.4775],[7.7309,10.469],[7.7147,10.4635],[7.7139,10.4509],[7.7079,10.44],[7.6999,10.4396],[7.6913,10.4318],[7.6932,10.418],[7.6955,10.4119],[7.6798,10.4118],[7.6732,10.4024],[7.6688,10.3994],[7.6501,10.3998],[7.642,10.3934],[7.6328,10.3896],[7.6249,10.3892],[7.6162,10.3952],[7.6058,10.3964],[7.5965,10.3947],[7.5944,10.3876],[7.6017,10.3775],[7.6066,10.3466],[7.6119,10.3468],[7.615,10.3445],[7.6145,10.3388],[7.6058,10.3311],[7.608,10.3203],[7.6041,10.3091],[7.5896,10.3084],[7.5863,10.29],[7.5886,10.2811],[7.5778,10.2814],[7.5766,10.2837],[7.5654,10.2871],[7.5625,10.2894],[7.5579,10.2899],[7.5549,10.2845],[7.5382,10.275],[7.5166,10.2312],[7.5106,10.1947],[7.5431,10.1822],[7.556,10.1724],[7.5983,10.1002],[7.6187,10.095],[7.6373,10.0385],[7.6199,10.0447],[7.6273,10.0167],[7.6556,10.0171],[7.6591,10.0138],[7.6906,10.0048],[7.697,10.0131],[7.7092,10.0221],[7.7205,10.0202],[7.7361,10.0124],[7.7431,9.9838],[7.7481,9.978],[7.7615,9.9883],[7.7664,9.9957],[7.7828,9.9997],[7.7916,10.0038],[7.802,9.9999],[7.8058,10.0181],[7.798,10.0518],[7.8083,10.0557],[7.8203,10.0688],[7.826,10.071],[7.8463,10.0709],[7.8946,10.0673],[7.9028,10.0827],[7.9395,10.1061],[7.949,10.1306],[7.9519,10.1312]]]}},{"type":"Feature","properties":{"name":"Kaura","state":"Kaduna","scode":"KD","centroid":[9.6377,8.4598]},"geometry":{"type":"Polygon","coordinates":[[[8.5557,9.5816],[8.5659,9.5966],[8.567,9.614],[8.5656,9.6243],[8.5704,9.64],[8.5778,9.6564],[8.5852,9.6644],[8.5801,9.6727],[8.5816,9.6758],[8.599,9.6787],[8.6019,9.6907],[8.6019,9.7061],[8.5989,9.7279],[8.5935,9.728],[8.5822,9.7239],[8.576,9.726],[8.5745,9.7374],[8.5708,9.7409],[8.5615,9.744],[8.5615,9.7413],[8.5558,9.7433],[8.5493,9.7426],[8.5452,9.7385],[8.5424,9.7425],[8.536,9.7455],[8.5283,9.7551],[8.5295,9.7387],[8.5285,9.7369],[8.5269,9.7361],[8.5253,9.7414],[8.5231,9.7358],[8.5201,9.7371],[8.5155,9.7332],[8.5011,9.7409],[8.5007,9.7303],[8.4924,9.7168],[8.4864,9.6918],[8.4779,9.6889],[8.4717,9.6924],[8.4615,9.6936],[8.4488,9.6934],[8.4449,9.6915],[8.4303,9.6946],[8.4231,9.7018],[8.4012,9.7041],[8.3916,9.7094],[8.3787,9.7265],[8.3651,9.7078],[8.3589,9.7063],[8.352,9.707],[8.3579,9.6988],[8.3598,9.6919],[8.368,9.6792],[8.3644,9.6779],[8.3584,9.6654],[8.3544,9.6653],[8.349,9.6609],[8.3426,9.6609],[8.3419,9.6586],[8.3506,9.651],[8.348,9.6486],[8.3389,9.6547],[8.331,9.6508],[8.3299,9.649],[8.3282,9.6448],[8.3363,9.6391],[8.3385,9.6252],[8.3282,9.6226],[8.3175,9.6284],[8.3148,9.6169],[8.3118,9.6124],[8.3187,9.6094],[8.3193,9.6065],[8.3214,9.6066],[8.3214,9.602],[8.3243,9.6025],[8.3246,9.5967],[8.3303,9.5952],[8.3337,9.5926],[8.3237,9.5844],[8.3338,9.5782],[8.3418,9.5682],[8.346,9.5475],[8.3513,9.5427],[8.3753,9.5477],[8.3956,9.5461],[8.4026,9.5505],[8.4123,9.5502],[8.4445,9.533],[8.4541,9.5326],[8.4739,9.555],[8.4987,9.5756],[8.5217,9.5723],[8.5336,9.5745],[8.5511,9.5815],[8.5557,9.5816]]]}},{"type":"Feature","properties":{"name":"Kauru","state":"Kaduna","scode":"KD","centroid":[10.3974,8.1867]},"geometry":{"type":"MultiPolygon","coordinates":[[[[8.4342,9.994],[8.429,9.9881],[8.4348,9.9771],[8.4238,9.9701],[8.4285,9.9667],[8.4357,9.9654],[8.4287,9.9494],[8.4306,9.9477],[8.422,9.9373],[8.4229,9.9296],[8.4249,9.9287],[8.4272,9.9236],[8.4202,9.918],[8.4338,9.8986],[8.4325,9.8953],[8.4332,9.8869],[8.4435,9.8778],[8.4557,9.8821],[8.4673,9.8786],[8.4729,9.8807],[8.4831,9.8685],[8.4983,9.8721],[8.5058,9.8696],[8.5096,9.8651],[8.5079,9.8536],[8.5107,9.8484],[8.5119,9.8414],[8.5099,9.8384],[8.5139,9.8299],[8.512,9.8119],[8.5057,9.8088],[8.5046,9.7931],[8.5017,9.7871],[8.4929,9.7796],[8.4847,9.7641],[8.4843,9.7546],[8.4976,9.7501],[8.5011,9.7409],[8.5155,9.7332],[8.5201,9.7371],[8.5231,9.7358],[8.5253,9.7414],[8.5269,9.7361],[8.5285,9.7369],[8.5295,9.7387],[8.5283,9.7551],[8.536,9.7455],[8.5424,9.7425],[8.5452,9.7385],[8.5493,9.7426],[8.5558,9.7433],[8.5615,9.7413],[8.5615,9.744],[8.5708,9.7409],[8.5745,9.7374],[8.576,9.726],[8.5822,9.7239],[8.5935,9.728],[8.5989,9.7279],[8.6106,9.7413],[8.6155,9.7424],[8.6168,9.7448],[8.6336,9.7546],[8.6351,9.7576],[8.6439,9.7754],[8.6425,9.8108],[8.6439,9.8347],[8.6393,9.8558],[8.6347,9.8668],[8.6381,9.8857],[8.6466,9.9052],[8.6649,9.9639],[8.673,9.9874],[8.6766,9.9934],[8.6799,10.0051],[8.6796,10.0111],[8.6632,10.0162],[8.6401,10.015],[8.6241,10.0029],[8.6222,10.0025],[8.6163,10.0052],[8.6107,10.0012],[8.6037,10.005],[8.6004,10.005],[8.5901,10.0126],[8.589,10.0229],[8.5753,10.0215],[8.5675,10.026],[8.5631,10.0257],[8.5584,10.0276],[8.5553,10.0318],[8.5509,10.0304],[8.5385,10.0323],[8.5339,10.0255],[8.5313,10.0239],[8.5247,10.0235],[8.5146,10.0182],[8.5119,10.0199],[8.5012,10.0188],[8.494,10.0218],[8.4878,10.0185],[8.4886,10.0141],[8.4761,9.9957],[8.4769,9.9851],[8.4563,9.9839],[8.4527,9.9904],[8.4342,9.994]]],[[[8.4162,10.4442],[8.381,10.4731],[8.3757,10.4716],[8.3493,10.4928],[8.3387,10.4903],[8.3203,10.4938],[8.3224,10.5091],[8.3191,10.527],[8.3229,10.543],[8.3168,10.5471],[8.3145,10.5512],[8.3137,10.5648],[8.3067,10.5771],[8.2856,10.582],[8.285,10.5845],[8.2592,10.5891],[8.2538,10.596],[8.2504,10.5966],[8.2443,10.6066],[8.2544,10.6302],[8.252,10.6359],[8.2419,10.6413],[8.2385,10.6532],[8.2405,10.6629],[8.2349,10.6662],[8.2124,10.6511],[8.2059,10.669],[8.193,10.6723],[8.1849,10.676],[8.1822,10.6797],[8.1773,10.6804],[8.1732,10.6742],[8.1662,10.6704],[8.1521,10.6784],[8.1495,10.6758],[8.1423,10.6774],[8.1299,10.6849],[8.1143,10.6715],[8.1088,10.675],[8.0913,10.6744],[8.0888,10.6813],[8.0782,10.6835],[8.0753,10.6857],[8.0691,10.6859],[8.0577,10.6956],[8.0544,10.6947],[8.0488,10.6905],[8.0321,10.7014],[8.0283,10.7006],[8.0192,10.7077],[8.001,10.7051],[7.9997,10.7084],[7.9901,10.7105],[7.9787,10.7107],[7.9769,10.7127],[7.971,10.7046],[7.9675,10.7125],[7.963,10.7024],[7.9641,10.6989],[7.9541,10.6922],[7.9518,10.6946],[7.9556,10.7018],[7.9527,10.704],[7.9534,10.7098],[7.9497,10.7134],[7.9451,10.7147],[7.9417,10.7114],[7.9366,10.7098],[7.9303,10.7034],[7.9178,10.7018],[7.9152,10.6871],[7.8988,10.6957],[7.8956,10.6876],[7.8949,10.6813],[7.8894,10.678],[7.883,10.6738],[7.8781,10.6731],[7.8751,10.6748],[7.8664,10.6705],[7.8642,10.6674],[7.8655,10.6599],[7.8682,10.6576],[7.8693,10.6533],[7.8689,10.6335],[7.865,10.6265],[7.8649,10.6237],[7.8589,10.6168],[7.8529,10.5955],[7.8573,10.5844],[7.8575,10.5798],[7.8814,10.5897],[7.8857,10.5927],[7.8884,10.5925],[7.8888,10.5887],[7.8821,10.5822],[7.8725,10.5623],[7.8724,10.5569],[7.8743,10.5541],[7.8724,10.5511],[7.8746,10.5386],[7.8734,10.5341],[7.8709,10.5336],[7.8697,10.5267],[7.8779,10.5193],[7.8817,10.5195],[7.883,10.5157],[7.8875,10.5143],[7.8946,10.5043],[7.898,10.4887],[7.921,10.4789],[7.9317,10.4662],[7.9489,10.477],[7.952,10.4756],[7.9767,10.4791],[7.9813,10.4765],[8.0064,10.4781],[8.0114,10.4751],[8.0068,10.4585],[8.0002,10.4517],[8.0002,10.4497],[8.0083,10.4101],[8.0234,10.3934],[8.0305,10.3737],[8.034,10.3537],[8.0328,10.352],[8.0394,10.3432],[8.0336,10.3259],[8.0327,10.302],[8.0353,10.2987],[8.0398,10.3039],[8.0594,10.3178],[8.0742,10.3157],[8.0772,10.3055],[8.0977,10.3123],[8.1084,10.2965],[8.1166,10.2928],[8.1171,10.2885],[8.1304,10.2823],[8.1445,10.282],[8.1504,10.2687],[8.1446,10.2503],[8.1615,10.2439],[8.1643,10.2305],[8.1939,10.2185],[8.1934,10.2135],[8.1718,10.1999],[8.1694,10.19],[8.184,10.1845],[8.2062,10.1678],[8.2028,10.1564],[8.203,10.147],[8.2401,10.1195],[8.2211,10.104],[8.2384,10.0903],[8.2384,10.0781],[8.2459,10.0718],[8.2463,10.063],[8.2716,10.0548],[8.266,10.0314],[8.2721,10.0223],[8.2845,10.0263],[8.3043,10.0253],[8.3199,10.0288],[8.3349,10.0167],[8.3582,10.0291],[8.3698,10.043],[8.3795,10.0174],[8.3825,10.0135],[8.4013,10.002],[8.4081,10.0029],[8.416,10.0073],[8.4295,10.004],[8.4343,9.998],[8.4517,10.0165],[8.4553,10.0178],[8.4513,10.0449],[8.4663,10.0531],[8.4767,10.0795],[8.4822,10.0823],[8.491,10.0838],[8.5009,10.0922],[8.4862,10.1308],[8.4819,10.1306],[8.4755,10.1378],[8.46,10.1428],[8.4543,10.1411],[8.45,10.1415],[8.4467,10.1464],[8.4389,10.1523],[8.4395,10.1761],[8.4268,10.175],[8.4153,10.1886],[8.4243,10.2092],[8.4184,10.231],[8.4189,10.2339],[8.4042,10.2542],[8.398,10.2736],[8.3959,10.2944],[8.3842,10.2992],[8.3794,10.2957],[8.353,10.2658],[8.3372,10.251],[8.328,10.246],[8.3199,10.2969],[8.3342,10.3393],[8.3305,10.3539],[8.363,10.3939],[8.3913,10.3938],[8.4071,10.4031],[8.4217,10.4354],[8.4162,10.4442]]]]}},{"type":"Feature","properties":{"name":"Kubau","state":"Kaduna","scode":"KD","centroid":[10.8766,8.3569]},"geometry":{"type":"Polygon","coordinates":[[[8.4812,10.7159],[8.5014,10.7258],[8.5206,10.7314],[8.5394,10.7334],[8.5716,10.7483],[8.5729,10.7737],[8.5628,10.7783],[8.5593,10.7846],[8.5587,10.7892],[8.5625,10.7965],[8.5631,10.8165],[8.5692,10.8174],[8.567,10.8272],[8.57,10.8282],[8.575,10.8271],[8.5739,10.8421],[8.5815,10.8589],[8.585,10.8615],[8.5837,10.888],[8.5808,10.9017],[8.578,10.9074],[8.5685,10.9075],[8.5736,10.929],[8.5813,10.942],[8.5866,10.9574],[8.5885,10.9679],[8.5971,10.9892],[8.599,11.0021],[8.6148,11.0177],[8.6099,11.0403],[8.6073,11.0712],[8.5946,11.0825],[8.5899,11.0821],[8.5896,11.0849],[8.5741,11.0928],[8.5592,11.0998],[8.5465,11.1025],[8.534,11.1073],[8.5196,11.1149],[8.506,11.1322],[8.4968,11.1297],[8.4789,11.1134],[8.4679,11.1137],[8.4607,11.1157],[8.4454,11.1154],[8.4227,11.1057],[8.4116,11.1085],[8.4085,11.1102],[8.4044,11.1208],[8.4047,11.1294],[8.4079,11.1388],[8.4064,11.1459],[8.4017,11.1539],[8.3763,11.167],[8.3638,11.1689],[8.3604,11.1717],[8.3569,11.1719],[8.347,11.1666],[8.3403,11.1699],[8.3357,11.1698],[8.3345,11.1721],[8.3284,11.1754],[8.3229,11.181],[8.3214,11.1805],[8.3195,11.1847],[8.3022,11.1617],[8.3099,11.1417],[8.3107,11.1274],[8.3018,11.1238],[8.2965,11.1163],[8.2917,11.1145],[8.2888,11.1054],[8.2806,11.1067],[8.2717,11.1034],[8.2669,11.1056],[8.2636,11.1048],[8.2565,11.0998],[8.2397,11.1018],[8.2253,11.1053],[8.2225,11.1042],[8.2189,11.1227],[8.2275,11.1328],[8.225,11.136],[8.2132,11.1403],[8.1822,11.1281],[8.1808,11.1289],[8.1671,11.1247],[8.1579,11.1155],[8.1574,11.1094],[8.1586,11.1051],[8.1635,11.0986],[8.1661,11.0802],[8.1732,11.0727],[8.1771,11.0717],[8.1974,11.0323],[8.2143,11.0266],[8.2174,11.0227],[8.2233,11.0026],[8.228,10.9965],[8.2342,10.9728],[8.2493,10.952],[8.2503,10.9366],[8.2421,10.9305],[8.2319,10.9136],[8.2235,10.9082],[8.2072,10.9018],[8.1832,10.896],[8.1805,10.8848],[8.174,10.8759],[8.1647,10.8529],[8.1596,10.849],[8.1581,10.8416],[8.1597,10.8243],[8.1633,10.8215],[8.1566,10.8085],[8.1491,10.8042],[8.1449,10.7966],[8.1266,10.809],[8.1201,10.7999],[8.1095,10.8017],[8.092,10.7958],[8.0872,10.7998],[8.0836,10.7978],[8.0779,10.788],[8.0708,10.7835],[8.0633,10.781],[8.0607,10.7672],[8.0869,10.7403],[8.0867,10.7339],[8.0746,10.7245],[8.0744,10.7189],[8.0752,10.7064],[8.0868,10.697],[8.0888,10.6813],[8.0913,10.6744],[8.1088,10.675],[8.1143,10.6715],[8.1299,10.6849],[8.1423,10.6774],[8.1495,10.6758],[8.1521,10.6784],[8.1662,10.6704],[8.1732,10.6742],[8.1773,10.6804],[8.1822,10.6797],[8.1849,10.676],[8.193,10.6723],[8.2059,10.669],[8.2124,10.6511],[8.2349,10.6662],[8.2405,10.6629],[8.2385,10.6532],[8.2419,10.6413],[8.252,10.6359],[8.2544,10.6302],[8.2443,10.6066],[8.2504,10.5966],[8.2538,10.596],[8.2592,10.5891],[8.285,10.5845],[8.2856,10.582],[8.3067,10.5771],[8.3137,10.5648],[8.3145,10.5512],[8.3168,10.5471],[8.3229,10.543],[8.3191,10.527],[8.3224,10.5091],[8.3203,10.4938],[8.3387,10.4903],[8.3493,10.4928],[8.3757,10.4716],[8.381,10.4731],[8.4162,10.4442],[8.4218,10.4682],[8.4122,10.4855],[8.3921,10.4941],[8.3957,10.5117],[8.3843,10.5198],[8.3834,10.5279],[8.3785,10.5376],[8.37,10.5429],[8.3615,10.5582],[8.3588,10.5681],[8.3666,10.5734],[8.3544,10.5779],[8.3451,10.5771],[8.3638,10.588],[8.346,10.5997],[8.3529,10.604],[8.3566,10.613],[8.3459,10.6246],[8.3344,10.6264],[8.3345,10.6512],[8.3369,10.6574],[8.341,10.6611],[8.3628,10.6677],[8.3709,10.6737],[8.3721,10.6957],[8.3695,10.7069],[8.3906,10.7276],[8.3995,10.7321],[8.4141,10.7366],[8.4192,10.7341],[8.4337,10.7307],[8.4469,10.7321],[8.4812,10.7159]]]}},{"type":"Feature","properties":{"name":"Kudan","state":"Kaduna","scode":"KD","centroid":[11.2718,7.7488]},"geometry":{"type":"Polygon","coordinates":[[[7.6247,11.2163],[7.6313,11.2098],[7.634,11.21],[7.6366,11.2114],[7.6401,11.2184],[7.6523,11.2215],[7.6527,11.2153],[7.658,11.2073],[7.6683,11.212],[7.6722,11.2119],[7.672,11.21],[7.6738,11.2084],[7.6825,11.21],[7.6841,11.2117],[7.6962,11.2127],[7.6943,11.2055],[7.6867,11.1946],[7.6893,11.1939],[7.6958,11.1955],[7.7065,11.1944],[7.706,11.2005],[7.7166,11.2024],[7.7205,11.1984],[7.7248,11.1985],[7.7258,11.1999],[7.7214,11.2051],[7.7223,11.2079],[7.7208,11.2075],[7.7199,11.21],[7.7217,11.2107],[7.719,11.2144],[7.721,11.2144],[7.7223,11.2177],[7.7234,11.217],[7.7238,11.22],[7.723,11.2218],[7.7196,11.2226],[7.7209,11.2269],[7.7195,11.2262],[7.7187,11.2287],[7.7171,11.2278],[7.7201,11.2318],[7.7166,11.234],[7.7175,11.2361],[7.7142,11.2364],[7.7253,11.2462],[7.7268,11.2426],[7.7289,11.2436],[7.7315,11.2392],[7.7331,11.2405],[7.7331,11.2438],[7.7372,11.246],[7.7384,11.2448],[7.741,11.246],[7.7416,11.2447],[7.7461,11.2448],[7.7503,11.2303],[7.7625,11.2295],[7.7606,11.2268],[7.7545,11.2238],[7.7566,11.2195],[7.7548,11.2183],[7.7526,11.2097],[7.7562,11.1987],[7.7742,11.1914],[7.7703,11.1801],[7.7772,11.1788],[7.7919,11.1723],[7.7898,11.1615],[7.7993,11.161],[7.8001,11.1584],[7.8062,11.1601],[7.8126,11.1535],[7.817,11.1572],[7.8219,11.158],[7.8355,11.1563],[7.836,11.1609],[7.8385,11.1649],[7.8418,11.1688],[7.8444,11.1691],[7.8412,11.1787],[7.8372,11.1822],[7.8373,11.1846],[7.8393,11.1866],[7.8378,11.197],[7.8413,11.1993],[7.8395,11.2023],[7.836,11.2028],[7.8319,11.2024],[7.8291,11.1991],[7.8127,11.2031],[7.8093,11.2164],[7.8148,11.2269],[7.8137,11.2296],[7.8091,11.2283],[7.8077,11.2338],[7.8132,11.2357],[7.8097,11.2416],[7.8123,11.2531],[7.8122,11.2593],[7.8176,11.2705],[7.813,11.2767],[7.8144,11.2832],[7.8138,11.2898],[7.8243,11.2876],[7.8322,11.2832],[7.8436,11.2872],[7.8482,11.2835],[7.8525,11.2775],[7.8591,11.2843],[7.8662,11.2806],[7.8751,11.2814],[7.8765,11.2819],[7.8775,11.287],[7.8756,11.2886],[7.8752,11.2941],[7.8735,11.297],[7.8712,11.2985],[7.8672,11.2971],[7.8642,11.3046],[7.8582,11.3113],[7.8572,11.3174],[7.8542,11.3206],[7.8531,11.3212],[7.8438,11.3162],[7.8428,11.3173],[7.8369,11.3278],[7.8322,11.3329],[7.8288,11.3412],[7.8247,11.3403],[7.8189,11.3479],[7.817,11.3557],[7.8154,11.3548],[7.8157,11.357],[7.8118,11.3601],[7.8092,11.3652],[7.8061,11.3639],[7.8055,11.3717],[7.8016,11.3736],[7.8005,11.3767],[7.7984,11.3767],[7.789,11.3599],[7.7831,11.3611],[7.7775,11.3649],[7.7792,11.366],[7.7755,11.3702],[7.7755,11.3749],[7.7694,11.3791],[7.7648,11.3793],[7.76,11.3754],[7.7571,11.3771],[7.7548,11.3724],[7.7507,11.3714],[7.7416,11.3683],[7.7301,11.3716],[7.7205,11.3697],[7.7177,11.3646],[7.7133,11.3484],[7.718,11.3368],[7.7165,11.3361],[7.7212,11.325],[7.7171,11.3225],[7.7187,11.3213],[7.7157,11.318],[7.7084,11.3158],[7.7077,11.3183],[7.7066,11.3181],[7.7062,11.31],[7.6898,11.3088],[7.6835,11.3097],[7.6845,11.3063],[7.6753,11.3062],[7.6688,11.2969],[7.6643,11.3],[7.664,11.2975],[7.658,11.293],[7.6538,11.292],[7.6517,11.293],[7.6479,11.29],[7.6279,11.2835],[7.6187,11.2777],[7.6232,11.2629],[7.6231,11.2568],[7.6197,11.2489],[7.6184,11.2329],[7.619,11.2285],[7.6241,11.223],[7.6247,11.2163]]]}},{"type":"Feature","properties":{"name":"Lere","state":"Kaduna","scode":"KD","centroid":[10.3737,8.5584]},"geometry":{"type":"Polygon","coordinates":[[[8.8183,10.3804],[8.8131,10.3798],[8.8103,10.3812],[8.8089,10.3863],[8.8053,10.3881],[8.8076,10.3921],[8.8066,10.3932],[8.8037,10.3928],[8.7979,10.3989],[8.7955,10.3994],[8.7983,10.4017],[8.7969,10.403],[8.7937,10.4024],[8.7931,10.4107],[8.7823,10.4242],[8.778,10.4242],[8.7702,10.4281],[8.7673,10.4277],[8.765,10.4317],[8.7576,10.435],[8.7552,10.4391],[8.7492,10.4407],[8.7494,10.4452],[8.7528,10.4546],[8.7583,10.4579],[8.7767,10.4795],[8.7761,10.4963],[8.7731,10.5045],[8.7737,10.5138],[8.7753,10.5191],[8.7821,10.5259],[8.7843,10.5433],[8.7931,10.5655],[8.7832,10.597],[8.7792,10.5981],[8.7706,10.5873],[8.7604,10.5819],[8.7585,10.5731],[8.7497,10.565],[8.736,10.5609],[8.7111,10.5434],[8.7035,10.5493],[8.6664,10.5933],[8.6496,10.6241],[8.6439,10.6305],[8.6388,10.6305],[8.6156,10.6398],[8.5936,10.6451],[8.5827,10.6413],[8.5539,10.6362],[8.5437,10.6318],[8.5345,10.6327],[8.5226,10.6376],[8.519,10.6417],[8.5142,10.6433],[8.5063,10.6505],[8.5074,10.6559],[8.501,10.6605],[8.4982,10.6647],[8.4974,10.6798],[8.4898,10.6974],[8.4897,10.7029],[8.484,10.7093],[8.4812,10.7159],[8.4469,10.7321],[8.4337,10.7307],[8.4192,10.7341],[8.4141,10.7366],[8.3995,10.7321],[8.3906,10.7276],[8.3695,10.7069],[8.3721,10.6957],[8.3709,10.6737],[8.3628,10.6677],[8.341,10.6611],[8.3369,10.6574],[8.3345,10.6512],[8.3344,10.6264],[8.3459,10.6246],[8.3566,10.613],[8.3529,10.604],[8.346,10.5997],[8.3638,10.588],[8.3451,10.5771],[8.3544,10.5779],[8.3666,10.5734],[8.3588,10.5681],[8.3615,10.5582],[8.37,10.5429],[8.3785,10.5376],[8.3834,10.5279],[8.3843,10.5198],[8.3957,10.5117],[8.3921,10.4941],[8.4122,10.4855],[8.4218,10.4682],[8.4162,10.4442],[8.4217,10.4354],[8.4071,10.4031],[8.3913,10.3938],[8.363,10.3939],[8.3305,10.3539],[8.3342,10.3393],[8.3199,10.2969],[8.328,10.246],[8.3372,10.251],[8.353,10.2658],[8.3794,10.2957],[8.3842,10.2992],[8.3959,10.2944],[8.398,10.2736],[8.4042,10.2542],[8.4189,10.2339],[8.4184,10.231],[8.4243,10.2092],[8.4153,10.1886],[8.4268,10.175],[8.4395,10.1761],[8.4389,10.1523],[8.4467,10.1464],[8.45,10.1415],[8.4543,10.1411],[8.46,10.1428],[8.4755,10.1378],[8.4819,10.1306],[8.4862,10.1308],[8.5009,10.0922],[8.491,10.0838],[8.4822,10.0823],[8.4767,10.0795],[8.4663,10.0531],[8.4513,10.0449],[8.4553,10.0178],[8.4517,10.0165],[8.4343,9.998],[8.4342,9.994],[8.4527,9.9904],[8.4563,9.9839],[8.4769,9.9851],[8.4761,9.9957],[8.4886,10.0141],[8.4878,10.0185],[8.494,10.0218],[8.5012,10.0188],[8.5119,10.0199],[8.5146,10.0182],[8.5247,10.0235],[8.5313,10.0239],[8.5339,10.0255],[8.5385,10.0323],[8.5509,10.0304],[8.5553,10.0318],[8.5584,10.0276],[8.5631,10.0257],[8.5675,10.026],[8.5753,10.0215],[8.589,10.0229],[8.5901,10.0126],[8.6004,10.005],[8.6037,10.005],[8.6107,10.0012],[8.6163,10.0052],[8.6222,10.0025],[8.6241,10.0029],[8.6401,10.015],[8.6632,10.0162],[8.6796,10.0111],[8.6723,10.0817],[8.6717,10.1246],[8.6732,10.1376],[8.672,10.1462],[8.6809,10.177],[8.6861,10.2112],[8.7125,10.2303],[8.7287,10.2483],[8.7343,10.2751],[8.7386,10.278],[8.7496,10.2809],[8.7573,10.2801],[8.7634,10.2814],[8.7692,10.2852],[8.7907,10.2935],[8.7993,10.3029],[8.7993,10.3229],[8.8011,10.3385],[8.804,10.3454],[8.8051,10.3556],[8.8183,10.3804]]]}},{"type":"Feature","properties":{"name":"Makarfi","state":"Kaduna","scode":"KD","centroid":[11.3029,7.9426]},"geometry":{"type":"Polygon","coordinates":[[[7.8413,11.1993],[7.8423,11.1984],[7.8463,11.1996],[7.8472,11.1957],[7.8551,11.1978],[7.8594,11.1935],[7.8606,11.1898],[7.8661,11.1931],[7.8639,11.1972],[7.8658,11.198],[7.8665,11.2009],[7.8705,11.1955],[7.8771,11.2001],[7.8803,11.1951],[7.8849,11.1924],[7.8888,11.1946],[7.8901,11.1988],[7.8958,11.2008],[7.8968,11.2043],[7.9009,11.2054],[7.9046,11.2101],[7.9137,11.2115],[7.9171,11.2143],[7.9249,11.2121],[7.9236,11.2172],[7.9253,11.2208],[7.9271,11.2215],[7.929,11.2191],[7.9319,11.2194],[7.9351,11.2178],[7.9374,11.2194],[7.9385,11.2233],[7.9439,11.2228],[7.9497,11.2265],[7.9525,11.2265],[7.9601,11.2301],[7.9636,11.2271],[7.9656,11.2171],[7.9688,11.2164],[7.9723,11.2203],[7.9757,11.2207],[7.9783,11.2279],[7.9862,11.2278],[7.9897,11.2336],[7.9905,11.2318],[7.9938,11.2328],[7.9965,11.2293],[7.9966,11.2252],[8.002,11.2226],[8.0035,11.2161],[8.0124,11.2158],[8.014,11.2111],[8.0195,11.2105],[8.0208,11.2051],[8.0278,11.2046],[8.032,11.2017],[8.0347,11.202],[8.0363,11.2004],[8.0439,11.1987],[8.0479,11.1956],[8.0481,11.2011],[8.0546,11.2099],[8.0555,11.2168],[8.061,11.2184],[8.0599,11.2196],[8.064,11.2281],[8.0712,11.2251],[8.073,11.2253],[8.0743,11.228],[8.0786,11.2273],[8.0779,11.2256],[8.0821,11.2256],[8.081,11.2337],[8.0829,11.2442],[8.0821,11.2575],[8.0854,11.2612],[8.0924,11.2615],[8.0947,11.26],[8.0985,11.264],[8.1003,11.2648],[8.1019,11.2635],[8.1055,11.2661],[8.1042,11.2761],[8.1066,11.281],[8.1034,11.2869],[8.0955,11.2882],[8.0854,11.2874],[8.0754,11.2939],[8.0649,11.2969],[8.0636,11.303],[8.0651,11.3073],[8.0616,11.3076],[8.0587,11.3117],[8.0608,11.322],[8.0605,11.3626],[8.0612,11.3697],[8.0648,11.371],[8.0637,11.3746],[8.0536,11.3714],[8.0528,11.3674],[8.0334,11.3623],[8.0232,11.3625],[8.0166,11.3595],[8.0145,11.3534],[8.0099,11.3526],[8.0089,11.3478],[8.0107,11.3421],[7.9964,11.3364],[7.9876,11.3474],[7.9866,11.354],[7.9733,11.3486],[7.9708,11.355],[7.9717,11.357],[7.9747,11.3571],[7.9701,11.3637],[7.9765,11.3683],[7.9676,11.3696],[7.9679,11.3715],[7.9652,11.3717],[7.9605,11.3761],[7.9621,11.379],[7.9678,11.3786],[7.9687,11.3803],[7.9694,11.3818],[7.9636,11.3852],[7.9636,11.388],[7.967,11.3883],[7.9696,11.3921],[7.9698,11.3935],[7.9675,11.3934],[7.9667,11.3964],[7.969,11.3977],[7.9703,11.4033],[7.9757,11.4014],[7.9755,11.4086],[7.9784,11.4085],[7.9784,11.4101],[7.9753,11.4176],[7.972,11.4168],[7.9688,11.4137],[7.9647,11.4202],[7.9658,11.4268],[7.9707,11.4277],[7.9707,11.4312],[7.9664,11.4387],[7.9654,11.4438],[7.9589,11.4466],[7.9564,11.451],[7.9546,11.457],[7.9565,11.4674],[7.9487,11.4662],[7.9448,11.4644],[7.945,11.4631],[7.9425,11.4632],[7.9419,11.4597],[7.9314,11.4533],[7.9302,11.4484],[7.9177,11.4401],[7.9168,11.4353],[7.9094,11.4335],[7.9069,11.4314],[7.9033,11.4323],[7.8986,11.4311],[7.8968,11.4277],[7.8938,11.4272],[7.8931,11.4242],[7.8966,11.4189],[7.8891,11.4052],[7.8827,11.3995],[7.8823,11.3951],[7.879,11.3919],[7.8789,11.3862],[7.866,11.3818],[7.8571,11.3855],[7.8558,11.3781],[7.8359,11.3774],[7.8329,11.3719],[7.8268,11.3696],[7.8214,11.3735],[7.8195,11.3722],[7.8135,11.3785],[7.8098,11.3789],[7.8062,11.3775],[7.8055,11.3717],[7.8061,11.3639],[7.8092,11.3652],[7.8118,11.3601],[7.8157,11.357],[7.8154,11.3548],[7.817,11.3557],[7.8189,11.3479],[7.8247,11.3403],[7.8288,11.3412],[7.8322,11.3329],[7.8369,11.3278],[7.8428,11.3173],[7.8438,11.3162],[7.8531,11.3212],[7.8542,11.3206],[7.8572,11.3174],[7.8582,11.3113],[7.8642,11.3046],[7.8672,11.2971],[7.8712,11.2985],[7.8735,11.297],[7.8752,11.2941],[7.8756,11.2886],[7.8775,11.287],[7.8765,11.2819],[7.8751,11.2814],[7.8662,11.2806],[7.8591,11.2843],[7.8525,11.2775],[7.8482,11.2835],[7.8436,11.2872],[7.8322,11.2832],[7.8243,11.2876],[7.8138,11.2898],[7.8144,11.2832],[7.813,11.2767],[7.8176,11.2705],[7.8122,11.2593],[7.8123,11.2531],[7.8097,11.2416],[7.8132,11.2357],[7.8077,11.2338],[7.8091,11.2283],[7.8137,11.2296],[7.8148,11.2269],[7.8093,11.2164],[7.8127,11.2031],[7.8291,11.1991],[7.8319,11.2024],[7.836,11.2028],[7.8395,11.2023],[7.8413,11.1993]]]}},{"type":"Feature","properties":{"name":"Sabon Gari","state":"Kaduna","scode":"KD","centroid":[11.1666,7.7048]},"geometry":{"type":"Polygon","coordinates":[[[7.6247,11.2163],[7.6107,11.2012],[7.6054,11.1875],[7.6015,11.1844],[7.6022,11.1799],[7.613,11.1729],[7.6147,11.1666],[7.6192,11.1676],[7.6244,11.1575],[7.6293,11.1563],[7.6343,11.1481],[7.6494,11.14],[7.6457,11.1308],[7.6512,11.1283],[7.6619,11.1204],[7.6718,11.1265],[7.6745,11.1269],[7.6786,11.119],[7.6828,11.1172],[7.6891,11.1106],[7.6981,11.111],[7.703,11.1063],[7.7063,11.1077],[7.7109,11.1009],[7.7196,11.0942],[7.727,11.0954],[7.7285,11.0926],[7.7388,11.0904],[7.7389,11.0867],[7.7408,11.0841],[7.745,11.0858],[7.7494,11.0902],[7.7489,11.0996],[7.7464,11.103],[7.747,11.1063],[7.7503,11.1078],[7.7498,11.1128],[7.7454,11.1157],[7.7424,11.1155],[7.741,11.1202],[7.7443,11.1198],[7.7464,11.1211],[7.7496,11.1264],[7.7478,11.1303],[7.7487,11.1327],[7.7555,11.1326],[7.7727,11.137],[7.784,11.1479],[7.7859,11.1468],[7.7886,11.14],[7.7921,11.1398],[7.7929,11.1474],[7.7953,11.1472],[7.7999,11.1379],[7.8034,11.1403],[7.8126,11.1535],[7.8062,11.1601],[7.8001,11.1584],[7.7993,11.161],[7.7898,11.1615],[7.7919,11.1723],[7.7772,11.1788],[7.7703,11.1801],[7.7742,11.1914],[7.7562,11.1987],[7.7526,11.2097],[7.7548,11.2183],[7.7566,11.2195],[7.7545,11.2238],[7.7606,11.2268],[7.7625,11.2295],[7.7503,11.2303],[7.7461,11.2448],[7.7416,11.2447],[7.741,11.246],[7.7384,11.2448],[7.7372,11.246],[7.7331,11.2438],[7.7331,11.2405],[7.7315,11.2392],[7.7289,11.2436],[7.7268,11.2426],[7.7253,11.2462],[7.7142,11.2364],[7.7175,11.2361],[7.7166,11.234],[7.7201,11.2318],[7.7171,11.2278],[7.7187,11.2287],[7.7195,11.2262],[7.7209,11.2269],[7.7196,11.2226],[7.723,11.2218],[7.7238,11.22],[7.7234,11.217],[7.7223,11.2177],[7.721,11.2144],[7.719,11.2144],[7.7217,11.2107],[7.7199,11.21],[7.7208,11.2075],[7.7223,11.2079],[7.7214,11.2051],[7.7258,11.1999],[7.7248,11.1985],[7.7205,11.1984],[7.7166,11.2024],[7.706,11.2005],[7.7065,11.1944],[7.6958,11.1955],[7.6893,11.1939],[7.6867,11.1946],[7.6943,11.2055],[7.6962,11.2127],[7.6841,11.2117],[7.6825,11.21],[7.6738,11.2084],[7.672,11.21],[7.6722,11.2119],[7.6683,11.212],[7.658,11.2073],[7.6527,11.2153],[7.6523,11.2215],[7.6401,11.2184],[7.6366,11.2114],[7.634,11.21],[7.6313,11.2098],[7.6247,11.2163]]]}},{"type":"Feature","properties":{"name":"Sanga","state":"Kaduna","scode":"KD","centroid":[9.2384,8.4327]},"geometry":{"type":"Polygon","coordinates":[[[8.0872,9.2307],[8.0708,9.1546],[8.0616,9.0521],[8.0991,9.0397],[8.1376,9.0362],[8.1553,9.0415],[8.1919,9.0524],[8.2328,9.1048],[8.2535,9.1472],[8.2584,9.1829],[8.2851,9.1849],[8.3009,9.1885],[8.3088,9.1864],[8.3185,9.1804],[8.3283,9.1811],[8.334,9.1851],[8.3381,9.1924],[8.3433,9.1945],[8.3646,9.1814],[8.3873,9.1757],[8.3955,9.162],[8.4184,9.1399],[8.4308,9.1258],[8.4466,9.1126],[8.4739,9.073],[8.4766,9.0554],[8.4907,9.0377],[8.4986,9.0113],[8.5043,9.0014],[8.514,9.0007],[8.5333,9.0044],[8.5476,9.0142],[8.5541,9.0204],[8.5576,9.0259],[8.5621,9.0267],[8.5622,9.0302],[8.564,9.0327],[8.5763,9.0344],[8.5758,9.042],[8.5696,9.044],[8.5677,9.0495],[8.564,9.0522],[8.5668,9.0608],[8.5707,9.0633],[8.5936,9.0906],[8.6207,9.1149],[8.6303,9.137],[8.6498,9.1731],[8.6548,9.1873],[8.6578,9.2077],[8.6715,9.2513],[8.679,9.2753],[8.6844,9.2833],[8.6875,9.2989],[8.6927,9.3126],[8.6981,9.3206],[8.6942,9.3223],[8.6914,9.3396],[8.6894,9.3414],[8.6907,9.355],[8.6959,9.3687],[8.6954,9.3784],[8.6923,9.3826],[8.6873,9.3877],[8.6695,9.3965],[8.6649,9.3932],[8.6562,9.394],[8.6484,9.3956],[8.6423,9.4011],[8.6318,9.4199],[8.6279,9.4217],[8.6237,9.4292],[8.6177,9.4348],[8.6076,9.464],[8.6024,9.4727],[8.6027,9.4825],[8.5882,9.4893],[8.5801,9.4956],[8.5778,9.4992],[8.555,9.4927],[8.5159,9.4934],[8.5119,9.4899],[8.5092,9.4816],[8.5047,9.4791],[8.505,9.474],[8.4955,9.4648],[8.481,9.4592],[8.473,9.4446],[8.4653,9.4444],[8.4477,9.4342],[8.4412,9.4159],[8.4346,9.4031],[8.4128,9.3694],[8.3974,9.3611],[8.3743,9.3559],[8.3673,9.3522],[8.3497,9.3334],[8.3472,9.3297],[8.3472,9.3265],[8.3108,9.2981],[8.3097,9.2946],[8.2966,9.2857],[8.2669,9.2803],[8.2705,9.2673],[8.2632,9.2595],[8.2505,9.2507],[8.247,9.2394],[8.2328,9.241],[8.2295,9.2378],[8.2107,9.2362],[8.2069,9.2332],[8.1984,9.2379],[8.1865,9.2386],[8.1775,9.2344],[8.1726,9.2226],[8.1498,9.2287],[8.1437,9.2171],[8.1304,9.2154],[8.1077,9.229],[8.0872,9.2307]]]}},{"type":"Feature","properties":{"name":"Soba","state":"Kaduna","scode":"KD","centroid":[10.9658,7.9945]},"geometry":{"type":"Polygon","coordinates":[[[7.8126,11.1535],[7.8034,11.1403],[7.7999,11.1379],[7.7953,11.1472],[7.7929,11.1474],[7.7921,11.1398],[7.7886,11.14],[7.7859,11.1468],[7.784,11.1479],[7.7727,11.137],[7.7881,11.1067],[7.7999,11.1038],[7.7994,11.0989],[7.8031,11.0885],[7.8146,11.0721],[7.8162,11.0659],[7.8122,11.061],[7.815,11.0569],[7.8131,11.0519],[7.8202,11.0353],[7.8165,11.0312],[7.8076,11.0304],[7.7995,11.0107],[7.8014,11.0074],[7.8145,10.9991],[7.8089,10.9806],[7.814,10.9753],[7.8175,10.9607],[7.8087,10.9454],[7.8037,10.9402],[7.8056,10.9354],[7.8039,10.9273],[7.7983,10.9264],[7.7919,10.9226],[7.7992,10.9084],[7.8185,10.8912],[7.8192,10.8891],[7.8234,10.8867],[7.8339,10.8731],[7.8143,10.8508],[7.8156,10.8307],[7.8203,10.8283],[7.8293,10.8165],[7.8461,10.8053],[7.8557,10.7938],[7.8585,10.7955],[7.865,10.7938],[7.8696,10.7953],[7.879,10.7952],[7.8799,10.7905],[7.8769,10.7754],[7.8862,10.7644],[7.8507,10.7477],[7.8548,10.737],[7.8639,10.7308],[7.8696,10.7093],[7.8733,10.7037],[7.8726,10.6996],[7.8811,10.6886],[7.8814,10.6856],[7.8894,10.678],[7.8949,10.6813],[7.8956,10.6876],[7.8988,10.6957],[7.9152,10.6871],[7.9178,10.7018],[7.9303,10.7034],[7.9366,10.7098],[7.9417,10.7114],[7.9451,10.7147],[7.9497,10.7134],[7.9534,10.7098],[7.9527,10.704],[7.9556,10.7018],[7.9518,10.6946],[7.9541,10.6922],[7.9641,10.6989],[7.963,10.7024],[7.9675,10.7125],[7.971,10.7046],[7.9769,10.7127],[7.9787,10.7107],[7.9901,10.7105],[7.9997,10.7084],[8.001,10.7051],[8.0192,10.7077],[8.0283,10.7006],[8.0321,10.7014],[8.0488,10.6905],[8.0544,10.6947],[8.0577,10.6956],[8.0691,10.6859],[8.0753,10.6857],[8.0782,10.6835],[8.0888,10.6813],[8.0868,10.697],[8.0752,10.7064],[8.0744,10.7189],[8.0746,10.7245],[8.0867,10.7339],[8.0869,10.7403],[8.0607,10.7672],[8.0633,10.781],[8.0708,10.7835],[8.0779,10.788],[8.0836,10.7978],[8.0872,10.7998],[8.092,10.7958],[8.1095,10.8017],[8.1201,10.7999],[8.1266,10.809],[8.1449,10.7966],[8.1491,10.8042],[8.1566,10.8085],[8.1633,10.8215],[8.1597,10.8243],[8.1581,10.8416],[8.1596,10.849],[8.1647,10.8529],[8.174,10.8759],[8.1805,10.8848],[8.1832,10.896],[8.2072,10.9018],[8.2235,10.9082],[8.2319,10.9136],[8.2421,10.9305],[8.2503,10.9366],[8.2493,10.952],[8.2342,10.9728],[8.228,10.9965],[8.2233,11.0026],[8.2174,11.0227],[8.2143,11.0266],[8.1974,11.0323],[8.1771,11.0717],[8.1732,11.0727],[8.1661,11.0802],[8.1635,11.0986],[8.1586,11.1051],[8.1574,11.1094],[8.1579,11.1155],[8.1508,11.1198],[8.1394,11.1329],[8.1334,11.1482],[8.1204,11.1485],[8.1186,11.1497],[8.1142,11.1629],[8.0917,11.1738],[8.0898,11.1726],[8.083,11.1739],[8.0706,11.1709],[8.0679,11.173],[8.0634,11.186],[8.0561,11.1878],[8.0479,11.1956],[8.0439,11.1987],[8.0363,11.2004],[8.0347,11.202],[8.032,11.2017],[8.0278,11.2046],[8.0208,11.2051],[8.0195,11.2105],[8.014,11.2111],[8.0124,11.2158],[8.0035,11.2161],[8.002,11.2226],[7.9966,11.2252],[7.9965,11.2293],[7.9938,11.2328],[7.9905,11.2318],[7.9897,11.2336],[7.9862,11.2278],[7.9783,11.2279],[7.9757,11.2207],[7.9723,11.2203],[7.9688,11.2164],[7.9656,11.2171],[7.9636,11.2271],[7.9601,11.2301],[7.9525,11.2265],[7.9497,11.2265],[7.9439,11.2228],[7.9385,11.2233],[7.9374,11.2194],[7.9351,11.2178],[7.9319,11.2194],[7.929,11.2191],[7.9271,11.2215],[7.9253,11.2208],[7.9236,11.2172],[7.9249,11.2121],[7.9171,11.2143],[7.9137,11.2115],[7.9046,11.2101],[7.9009,11.2054],[7.8968,11.2043],[7.8958,11.2008],[7.8901,11.1988],[7.8888,11.1946],[7.8849,11.1924],[7.8803,11.1951],[7.8771,11.2001],[7.8705,11.1955],[7.8665,11.2009],[7.8658,11.198],[7.8639,11.1972],[7.8661,11.1931],[7.8606,11.1898],[7.8594,11.1935],[7.8551,11.1978],[7.8472,11.1957],[7.8463,11.1996],[7.8423,11.1984],[7.8413,11.1993],[7.8378,11.197],[7.8393,11.1866],[7.8373,11.1846],[7.8372,11.1822],[7.8412,11.1787],[7.8444,11.1691],[7.8418,11.1688],[7.8385,11.1649],[7.836,11.1609],[7.8355,11.1563],[7.8219,11.158],[7.817,11.1572],[7.8126,11.1535]]]}},{"type":"Feature","properties":{"name":"Zangon Kataf","state":"Kaduna","scode":"KD","centroid":[9.8928,8.2205]},"geometry":{"type":"Polygon","coordinates":[[[8.3118,9.6124],[8.3148,9.6169],[8.3175,9.6284],[8.3282,9.6226],[8.3385,9.6252],[8.3363,9.6391],[8.3282,9.6448],[8.3299,9.649],[8.331,9.6508],[8.3389,9.6547],[8.348,9.6486],[8.3506,9.651],[8.3419,9.6586],[8.3426,9.6609],[8.349,9.6609],[8.3544,9.6653],[8.3584,9.6654],[8.3644,9.6779],[8.368,9.6792],[8.3598,9.6919],[8.3579,9.6988],[8.352,9.707],[8.3589,9.7063],[8.3651,9.7078],[8.3787,9.7265],[8.3916,9.7094],[8.4012,9.7041],[8.4231,9.7018],[8.4303,9.6946],[8.4449,9.6915],[8.4488,9.6934],[8.4615,9.6936],[8.4717,9.6924],[8.4779,9.6889],[8.4864,9.6918],[8.4924,9.7168],[8.5007,9.7303],[8.5011,9.7409],[8.4976,9.7501],[8.4843,9.7546],[8.4847,9.7641],[8.4929,9.7796],[8.5017,9.7871],[8.5046,9.7931],[8.5057,9.8088],[8.512,9.8119],[8.5139,9.8299],[8.5099,9.8384],[8.5119,9.8414],[8.5107,9.8484],[8.5079,9.8536],[8.5096,9.8651],[8.5058,9.8696],[8.4983,9.8721],[8.4831,9.8685],[8.4729,9.8807],[8.4673,9.8786],[8.4557,9.8821],[8.4435,9.8778],[8.4332,9.8869],[8.4325,9.8953],[8.4338,9.8986],[8.4202,9.918],[8.4272,9.9236],[8.4249,9.9287],[8.4229,9.9296],[8.422,9.9373],[8.4306,9.9477],[8.4287,9.9494],[8.4357,9.9654],[8.4285,9.9667],[8.4238,9.9701],[8.4348,9.9771],[8.429,9.9881],[8.4342,9.994],[8.4343,9.998],[8.4295,10.004],[8.416,10.0073],[8.4081,10.0029],[8.4013,10.002],[8.3825,10.0135],[8.3795,10.0174],[8.3698,10.043],[8.3582,10.0291],[8.3349,10.0167],[8.3199,10.0288],[8.3043,10.0253],[8.2845,10.0263],[8.2721,10.0223],[8.266,10.0314],[8.2716,10.0548],[8.2463,10.063],[8.2459,10.0718],[8.2384,10.0781],[8.2384,10.0903],[8.2211,10.104],[8.2401,10.1195],[8.203,10.147],[8.2028,10.1564],[8.2062,10.1678],[8.184,10.1845],[8.1694,10.19],[8.1718,10.1999],[8.1934,10.2135],[8.1939,10.2185],[8.1643,10.2305],[8.1615,10.2439],[8.1446,10.2503],[8.1504,10.2687],[8.1445,10.282],[8.1304,10.2823],[8.1171,10.2885],[8.1123,10.2775],[8.1141,10.2671],[8.1276,10.249],[8.1188,10.2384],[8.1099,10.2367],[8.0925,10.2224],[8.0884,10.228],[8.0778,10.231],[8.0648,10.2389],[8.0829,10.2611],[8.0819,10.2681],[8.071,10.2861],[8.039,10.2829],[8.0275,10.2656],[8.0173,10.244],[8.0231,10.2319],[7.9994,10.2007],[7.9923,10.195],[7.9903,10.1785],[8.0054,10.1708],[7.9956,10.1497],[7.976,10.1525],[7.9669,10.147],[7.9519,10.1312],[7.9738,10.1179],[7.9985,10.1181],[7.9971,10.0935],[7.9803,10.0972],[7.9797,10.089],[7.9826,10.0796],[7.9843,10.0769],[7.9943,10.0697],[8.0005,10.0622],[8.0092,10.0574],[8.028,10.04],[8.029,10.0367],[8.0276,10.0131],[8.021,9.98],[8.017,9.9739],[8.0108,9.9494],[8.0423,9.9492],[8.0603,9.9336],[8.0611,9.9243],[8.0598,9.9158],[8.0686,9.9108],[8.0723,9.9217],[8.0777,9.9203],[8.0808,9.9041],[8.0872,9.8876],[8.0899,9.8864],[8.087,9.8611],[8.0711,9.8486],[8.0686,9.8486],[8.0572,9.8422],[8.0556,9.8307],[8.0504,9.8275],[8.0423,9.8164],[8.0228,9.8016],[8.0218,9.7996],[8.0234,9.7836],[8.0269,9.7801],[8.0677,9.7716],[8.0786,9.7575],[8.0708,9.7394],[8.0708,9.7327],[8.0893,9.7184],[8.0913,9.7138],[8.1013,9.7055],[8.1101,9.7067],[8.114,9.6979],[8.1156,9.6804],[8.1211,9.6773],[8.1269,9.6774],[8.1334,9.6689],[8.1306,9.6583],[8.1321,9.6553],[8.1147,9.6303],[8.1167,9.625],[8.13,9.6182],[8.1399,9.6012],[8.1499,9.5971],[8.1521,9.5929],[8.1633,9.5804],[8.1725,9.582],[8.1718,9.5658],[8.1574,9.5676],[8.1652,9.5536],[8.1648,9.5511],[8.1748,9.5332],[8.2072,9.511],[8.2271,9.505],[8.2348,9.5242],[8.2448,9.5316],[8.2451,9.5588],[8.239,9.571],[8.2409,9.5754],[8.2513,9.5758],[8.2553,9.571],[8.2588,9.5715],[8.2637,9.569],[8.2673,9.5723],[8.2738,9.5734],[8.2779,9.5677],[8.2803,9.5684],[8.2831,9.5703],[8.2814,9.5722],[8.2816,9.5744],[8.2846,9.5835],[8.2836,9.5881],[8.2865,9.5932],[8.2869,9.5999],[8.2921,9.6018],[8.2989,9.6097],[8.3035,9.6081],[8.3118,9.6124]]]}},{"type":"Feature","properties":{"name":"Zaria","state":"Kaduna","scode":"KD","centroid":[11.0358,7.6855]},"geometry":{"type":"Polygon","coordinates":[[[7.7919,10.9226],[7.7983,10.9264],[7.8039,10.9273],[7.8056,10.9354],[7.8037,10.9402],[7.8087,10.9454],[7.8175,10.9607],[7.814,10.9753],[7.8089,10.9806],[7.8145,10.9991],[7.8014,11.0074],[7.7995,11.0107],[7.8076,11.0304],[7.8165,11.0312],[7.8202,11.0353],[7.8131,11.0519],[7.815,11.0569],[7.8122,11.061],[7.8162,11.0659],[7.8146,11.0721],[7.8031,11.0885],[7.7994,11.0989],[7.7999,11.1038],[7.7881,11.1067],[7.7727,11.137],[7.7555,11.1326],[7.7487,11.1327],[7.7478,11.1303],[7.7496,11.1264],[7.7464,11.1211],[7.7443,11.1198],[7.741,11.1202],[7.7424,11.1155],[7.7454,11.1157],[7.7498,11.1128],[7.7503,11.1078],[7.747,11.1063],[7.7464,11.103],[7.7489,11.0996],[7.7494,11.0902],[7.745,11.0858],[7.7408,11.0841],[7.7389,11.0867],[7.7388,11.0904],[7.7285,11.0926],[7.727,11.0954],[7.7196,11.0942],[7.7109,11.1009],[7.7063,11.1077],[7.703,11.1063],[7.6981,11.111],[7.6891,11.1106],[7.6828,11.1172],[7.6786,11.119],[7.6745,11.1269],[7.6718,11.1265],[7.6619,11.1204],[7.6512,11.1283],[7.6457,11.1308],[7.6438,11.1292],[7.643,11.1257],[7.6432,11.1205],[7.6381,11.0917],[7.6405,11.0738],[7.6378,11.073],[7.6262,11.0792],[7.6212,11.0799],[7.614,11.0859],[7.6006,11.0844],[7.6056,11.0707],[7.5998,11.0677],[7.5873,11.0676],[7.5814,11.0659],[7.5757,11.0751],[7.5707,11.0713],[7.5674,11.0658],[7.5596,11.0624],[7.5447,11.0589],[7.5341,11.0586],[7.517,11.0628],[7.5135,11.0614],[7.5003,11.0435],[7.4954,11.0299],[7.5056,11.0196],[7.5094,11.0125],[7.5106,11.0076],[7.5091,11.0023],[7.514,10.992],[7.5172,10.99],[7.5189,10.9804],[7.5231,10.9706],[7.5508,10.9892],[7.5685,10.9955],[7.5718,11.0027],[7.5821,11.0059],[7.5969,11.0067],[7.6024,11.0051],[7.6066,10.9997],[7.6122,11.0004],[7.6255,10.9966],[7.6306,10.991],[7.6306,10.9768],[7.6341,10.9706],[7.6423,10.9687],[7.6528,10.9734],[7.6606,10.9846],[7.661,10.9901],[7.6684,10.9999],[7.6863,10.9925],[7.6912,10.9877],[7.696,10.9878],[7.7009,10.9907],[7.7048,10.9858],[7.7105,10.9869],[7.7171,10.9793],[7.7253,10.9734],[7.726,10.9676],[7.7301,10.962],[7.7398,10.9627],[7.7475,10.9691],[7.754,10.9684],[7.7599,10.9703],[7.7672,10.9678],[7.7702,10.963],[7.7649,10.9434],[7.7735,10.9357],[7.7783,10.9211],[7.7863,10.9201],[7.7919,10.9226]]]}}]}