{"type":"FeatureCollection","features":[{"type":"Feature","properties":{"name":"Aleiro","state":"Kebbi","scode":"KE","centroid":[12.3138,4.4549]},"geometry":{"type":"Polygon","coordinates":[[[4.3605,12.3371],[4.3567,12.334],[4.3579,12.3249],[4.3681,12.31],[4.3717,12.301],[4.3738,12.2935],[4.3726,12.2924],[4.3718,12.2845],[4.3882,12.275],[4.4005,12.262],[4.4004,12.2596],[4.4067,12.2559],[4.4114,12.2508],[4.4228,12.2493],[4.4294,12.2441],[4.4331,12.2436],[4.448,12.2241],[4.4545,12.229],[4.4869,12.2382],[4.5303,12.2396],[4.525,12.2458],[4.5239,12.2501],[4.5212,12.2508],[4.5237,12.2558],[4.5492,12.2508],[4.552,12.2842],[4.5571,12.2898],[4.5485,12.3015],[4.5374,12.3012],[4.5271,12.3324],[4.5198,12.3398],[4.5027,12.3369],[4.4978,12.3417],[4.4941,12.3478],[4.489,12.384],[4.4749,12.4064],[4.4693,12.4023],[4.4595,12.3995],[4.4451,12.4056],[4.4377,12.407],[4.4315,12.4124],[4.4286,12.413],[4.4242,12.4114],[4.419,12.4071],[4.4091,12.4102],[4.3921,12.4109],[4.3947,12.3862],[4.404,12.3525],[4.3975,12.3465],[4.382,12.3409],[4.3605,12.3371]]]}},{"type":"Feature","properties":{"name":"Arewa Dandi","state":"Kebbi","scode":"KE","centroid":[12.7673,4.0896]},"geometry":{"type":"Polygon","coordinates":[[[4.5547,13.1114],[4.513,13.1367],[4.4975,13.16],[4.493,13.1623],[4.4903,13.1666],[4.4675,13.1805],[4.4551,13.183],[4.4298,13.1927],[4.3918,13.1971],[4.3744,13.2011],[4.3002,13.2596],[4.258,13.2644],[4.2139,13.2637],[4.1786,13.2541],[4.1264,13.2497],[4.1334,13.2242],[4.1372,13.217],[4.1431,13.1822],[4.1421,13.1619],[4.14,13.1523],[4.1326,13.1402],[4.105,12.9964],[4.0525,12.9104],[4.0516,12.9038],[4.0432,12.8955],[4.0377,12.8869],[3.9528,12.7489],[3.9039,12.7116],[3.8876,12.7053],[3.7952,12.6425],[3.7141,12.5827],[3.6983,12.5688],[3.6727,12.5519],[3.6578,12.5289],[3.6541,12.5118],[3.6524,12.4865],[3.6579,12.4371],[3.6619,12.4154],[3.6641,12.3829],[3.6661,12.2071],[3.6545,12.1773],[3.64,12.1643],[3.6296,12.1488],[3.6284,12.1253],[3.6672,12.1307],[3.6971,12.1436],[3.7099,12.1455],[3.7192,12.1427],[3.7365,12.1333],[3.7645,12.0992],[3.7926,12.1253],[3.7968,12.1393],[3.7838,12.1885],[3.7823,12.2178],[3.7844,12.2208],[3.8036,12.2244],[3.8092,12.2279],[3.8215,12.2412],[3.8244,12.2598],[3.8327,12.2852],[3.8143,12.3067],[3.8142,12.3153],[3.8314,12.3318],[3.832,12.3362],[3.835,12.3389],[3.8345,12.348],[3.8294,12.3494],[3.8264,12.3768],[3.8337,12.3782],[3.8368,12.3826],[3.8461,12.3872],[3.8526,12.3963],[3.859,12.3991],[3.862,12.4031],[3.8617,12.4109],[3.8745,12.4237],[3.8796,12.4267],[3.9372,12.4608],[3.9673,12.4596],[3.9853,12.4681],[3.9949,12.4796],[4.0001,12.4951],[3.9937,12.5313],[3.9944,12.5349],[3.9978,12.5352],[3.9956,12.538],[3.9963,12.5414],[4.0036,12.549],[4.0055,12.549],[4.0142,12.5413],[4.0195,12.5454],[4.0299,12.5466],[4.0292,12.5506],[4.0303,12.5524],[4.0348,12.5517],[4.0379,12.5539],[4.0439,12.5485],[4.0468,12.5479],[4.054,12.5562],[4.0515,12.5591],[4.0518,12.5621],[4.0502,12.5648],[4.0556,12.5657],[4.0567,12.5694],[4.0636,12.575],[4.088,12.5738],[4.1054,12.6035],[4.1191,12.6118],[4.1503,12.6392],[4.1735,12.6558],[4.1861,12.6711],[4.2013,12.6954],[4.206,12.6998],[4.2174,12.7019],[4.2201,12.7046],[4.2294,12.7079],[4.243,12.7207],[4.2488,12.7236],[4.2616,12.7263],[4.2744,12.7318],[4.2883,12.7356],[4.2998,12.7435],[4.3256,12.757],[4.3403,12.7666],[4.3413,12.7894],[4.3467,12.7899],[4.3797,12.8204],[4.375,12.8301],[4.3775,12.8378],[4.3881,12.8433],[4.3972,12.846],[4.4276,12.852],[4.4516,12.8548],[4.4521,12.8589],[4.4696,12.8949],[4.5437,12.9195],[4.5466,12.9305],[4.561,12.9627],[4.5143,12.9646],[4.4822,12.9783],[4.4759,13.0006],[4.5232,13.0774],[4.5547,13.1114]]]}},{"type":"Feature","properties":{"name":"Argungu","state":"Kebbi","scode":"KE","centroid":[12.6905,4.4337]},"geometry":{"type":"Polygon","coordinates":[[[4.4516,12.8548],[4.4276,12.852],[4.3972,12.846],[4.3881,12.8433],[4.3775,12.8378],[4.375,12.8301],[4.3797,12.8204],[4.3467,12.7899],[4.3413,12.7894],[4.3403,12.7666],[4.3256,12.757],[4.2998,12.7435],[4.2883,12.7356],[4.2744,12.7318],[4.2616,12.7263],[4.2488,12.7236],[4.243,12.7207],[4.2294,12.7079],[4.2201,12.7046],[4.2174,12.7019],[4.206,12.6998],[4.2013,12.6954],[4.1861,12.6711],[4.1735,12.6558],[4.2218,12.6116],[4.2266,12.5986],[4.242,12.5794],[4.2471,12.5689],[4.2589,12.5594],[4.2594,12.5469],[4.2882,12.5463],[4.2873,12.5797],[4.3591,12.5891],[4.3649,12.5877],[4.3656,12.5835],[4.3685,12.5822],[4.3707,12.5749],[4.3696,12.5727],[4.3661,12.5726],[4.3641,12.5708],[4.3612,12.5717],[4.3628,12.575],[4.354,12.5779],[4.3526,12.5765],[4.3533,12.5727],[4.3517,12.5705],[4.3541,12.5686],[4.3544,12.5659],[4.3523,12.5643],[4.3533,12.5574],[4.3677,12.5325],[4.3768,12.5346],[4.3764,12.549],[4.3826,12.5518],[4.3832,12.5559],[4.3818,12.5602],[4.3943,12.56],[4.3953,12.5626],[4.4003,12.565],[4.4005,12.5677],[4.4027,12.5699],[4.4089,12.565],[4.4082,12.5612],[4.4207,12.5574],[4.4258,12.5568],[4.4474,12.5594],[4.4515,12.5661],[4.4526,12.5808],[4.4546,12.5866],[4.454,12.6141],[4.4571,12.62],[4.4657,12.6236],[4.4742,12.6244],[4.4882,12.6287],[4.5011,12.6356],[4.5333,12.6472],[4.5455,12.6545],[4.56,12.6533],[4.5671,12.6679],[4.5887,12.6664],[4.6182,12.6605],[4.6426,12.6296],[4.6557,12.6058],[4.6612,12.5873],[4.708,12.6282],[4.7411,12.6346],[4.7525,12.6351],[4.7575,12.637],[4.7319,12.6721],[4.7304,12.7021],[4.7093,12.7047],[4.7041,12.7038],[4.7039,12.7052],[4.6954,12.7058],[4.6958,12.7037],[4.6657,12.705],[4.6327,12.7164],[4.6146,12.7202],[4.5952,12.7308],[4.5842,12.7353],[4.5713,12.7489],[4.5629,12.7561],[4.5585,12.7578],[4.5569,12.7642],[4.551,12.7686],[4.5504,12.7705],[4.5544,12.776],[4.555,12.7809],[4.552,12.7815],[4.5505,12.7858],[4.5503,12.7907],[4.5522,12.7971],[4.5509,12.7976],[4.5514,12.8004],[4.55,12.8026],[4.5315,12.8056],[4.5093,12.8211],[4.4982,12.8329],[4.4674,12.8513],[4.4516,12.8548]]]}},{"type":"Feature","properties":{"name":"Augie","state":"Kebbi","scode":"KE","centroid":[12.8933,4.6244]},"geometry":{"type":"Polygon","coordinates":[[[4.7503,12.7509],[4.7603,12.7725],[4.7703,12.7893],[4.7758,12.7903],[4.8063,12.8042],[4.8068,12.8195],[4.7752,12.8547],[4.7592,12.8744],[4.7405,12.8933],[4.711,12.9079],[4.6982,12.9224],[4.6966,12.9305],[4.6882,12.9382],[4.6579,12.9442],[4.6462,12.9486],[4.6495,12.9541],[4.6524,12.9543],[4.6607,12.9595],[4.6616,12.9659],[4.6595,12.9663],[4.6594,12.9689],[4.6634,12.9705],[4.6657,12.9696],[4.6662,12.9735],[4.6718,12.9766],[4.6735,12.9806],[4.678,12.9809],[4.6785,12.9795],[4.6806,12.9803],[4.678,12.9882],[4.6778,12.9991],[4.6867,13.0061],[4.7026,13.0258],[4.7247,13.0495],[4.7316,13.0528],[4.7263,13.0545],[4.7022,13.0732],[4.683,13.0789],[4.623,13.0701],[4.5547,13.1114],[4.5232,13.0774],[4.4759,13.0006],[4.4822,12.9783],[4.5143,12.9646],[4.561,12.9627],[4.5466,12.9305],[4.5437,12.9195],[4.4696,12.8949],[4.4521,12.8589],[4.4516,12.8548],[4.4674,12.8513],[4.4982,12.8329],[4.5093,12.8211],[4.5315,12.8056],[4.55,12.8026],[4.5514,12.8004],[4.5509,12.7976],[4.5522,12.7971],[4.5503,12.7907],[4.5505,12.7858],[4.552,12.7815],[4.555,12.7809],[4.5544,12.776],[4.5504,12.7705],[4.551,12.7686],[4.5569,12.7642],[4.5585,12.7578],[4.5629,12.7561],[4.5713,12.7489],[4.5842,12.7353],[4.5952,12.7308],[4.6146,12.7202],[4.6327,12.7164],[4.6657,12.705],[4.6958,12.7037],[4.6954,12.7058],[4.7039,12.7052],[4.7041,12.7038],[4.7093,12.7047],[4.7304,12.7021],[4.7436,12.7373],[4.7503,12.7509]]]}},{"type":"Feature","properties":{"name":"Bagudu","state":"Kebbi","scode":"KE","centroid":[11.3268,3.9256]},"geometry":{"type":"Polygon","coordinates":[[[3.8114,11.5877],[3.8063,11.6046],[3.795,11.6043],[3.7755,11.6064],[3.6893,11.6428],[3.6707,11.6551],[3.6588,11.6581],[3.6431,11.6648],[3.6358,11.6758],[3.6311,11.686],[3.6275,11.7088],[3.6139,11.6996],[3.5931,11.6944],[3.5705,11.6867],[3.5263,11.6786],[3.5109,11.67],[3.5135,11.6234],[3.5106,11.5675],[3.5107,11.5247],[3.4869,11.4793],[3.4771,11.4554],[3.475,11.4297],[3.4856,11.3134],[3.4883,11.3058],[3.4921,11.3004],[3.4972,11.2965],[3.5037,11.295],[3.5086,11.2911],[3.5305,11.2644],[3.5436,11.2582],[3.5649,11.2525],[3.6006,11.2039],[3.6315,11.1766],[3.6387,11.1721],[3.645,11.1653],[3.6578,11.1565],[3.6631,11.1478],[3.6682,11.1462],[3.6703,11.1434],[3.6812,11.1441],[3.6822,11.1427],[3.6855,11.1435],[3.6914,11.1409],[3.6997,11.1419],[3.7087,11.138],[3.711,11.1328],[3.7134,11.1347],[3.7225,11.1324],[3.7232,11.1303],[3.7197,11.1263],[3.7214,11.1231],[3.7218,11.1153],[3.7192,11.1065],[3.7205,11.0966],[3.731,11.087],[3.7314,11.0825],[3.7286,11.0783],[3.7283,11.0632],[3.7205,11.0503],[3.722,11.0486],[3.7228,11.032],[3.7256,11.0282],[3.7172,11.0198],[3.7423,10.9623],[3.77,10.9197],[3.7732,10.9201],[3.8023,10.9461],[3.9328,10.943],[3.9531,10.9657],[3.993,11.0165],[3.9959,11.0163],[3.998,11.0179],[4.0684,11.022],[4.1004,11.0263],[4.184,11.0246],[4.2149,11.0222],[4.2254,11.0193],[4.2439,11.024],[4.2671,11.0253],[4.2656,11.019],[4.266,11.012],[4.2589,10.998],[4.2566,10.9903],[4.2637,10.9829],[4.2633,10.9767],[4.2751,10.9609],[4.2772,10.9544],[4.3016,10.9487],[4.3141,10.9499],[4.3199,10.9696],[4.3269,10.9867],[4.3295,11.0022],[4.3156,11.0569],[4.3167,11.0587],[4.3138,11.0641],[4.312,11.0749],[4.3138,11.0802],[4.3117,11.0905],[4.3044,11.1052],[4.3051,11.1099],[4.3116,11.1201],[4.3106,11.1244],[4.3068,11.1267],[4.3056,11.1308],[4.3051,11.145],[4.3129,11.1545],[4.3246,11.1568],[4.3282,11.1591],[4.3328,11.158],[4.3375,11.1658],[4.3377,11.1815],[4.3315,11.174],[4.3273,11.1717],[4.3194,11.1707],[4.3084,11.1721],[4.303,11.1749],[4.299,11.1874],[4.2886,11.1981],[4.2752,11.2022],[4.2704,11.2013],[4.2624,11.2025],[4.2563,11.21],[4.2562,11.2144],[4.2616,11.2239],[4.2594,11.2345],[4.2512,11.2423],[4.2448,11.253],[4.2377,11.2615],[4.2355,11.2679],[4.2294,11.2705],[4.2141,11.2686],[4.212,11.2722],[4.209,11.2728],[4.2039,11.279],[4.1955,11.2822],[4.1831,11.2928],[4.1768,11.3127],[4.1769,11.3212],[4.1782,11.324],[4.1771,11.3312],[4.1887,11.3456],[4.2008,11.3562],[4.2171,11.359],[4.2323,11.3598],[4.2341,11.357],[4.2451,11.3546],[4.2519,11.359],[4.2598,11.3586],[4.2604,11.3623],[4.2743,11.3739],[4.2978,11.3829],[4.323,11.4022],[4.3676,11.41],[4.3747,11.415],[4.3838,11.4379],[4.4068,11.4379],[4.3985,11.4636],[4.3857,11.4783],[4.3716,11.4918],[4.4065,11.4997],[4.4059,11.5311],[4.3939,11.5578],[4.3813,11.561],[4.3786,11.5669],[4.3593,11.5813],[4.3294,11.577],[4.3115,11.5803],[4.2469,11.6118],[4.2288,11.6598],[4.2271,11.6578],[4.2218,11.6594],[4.2186,11.6575],[4.2146,11.6577],[4.2111,11.663],[4.2167,11.6703],[4.2134,11.6737],[4.2087,11.6736],[4.2062,11.6715],[4.2038,11.6658],[4.2057,11.663],[4.205,11.6604],[4.2003,11.6599],[4.1955,11.6621],[4.1939,11.6597],[4.194,11.6568],[4.1977,11.655],[4.1992,11.6514],[4.1943,11.6462],[4.1879,11.6477],[4.184,11.6422],[4.1807,11.642],[4.1775,11.6457],[4.1751,11.645],[4.1741,11.6429],[4.1727,11.6447],[4.1699,11.6442],[4.1689,11.6486],[4.1597,11.65],[4.1508,11.6567],[4.1471,11.6564],[4.1444,11.6615],[4.1044,11.6483],[4.1078,11.6165],[4.1059,11.615],[4.068,11.6095],[4.0622,11.5999],[4.059,11.5815],[4.0541,11.5804],[4.0441,11.5694],[4.0368,11.5759],[4.0157,11.5616],[3.9893,11.5005],[3.9691,11.5105],[3.9602,11.5169],[3.9543,11.5239],[3.9364,11.5207],[3.928,11.5225],[3.9154,11.5284],[3.9023,11.5365],[3.8779,11.5474],[3.8755,11.5493],[3.8753,11.5565],[3.8738,11.5584],[3.8653,11.5573],[3.8615,11.5626],[3.8587,11.5623],[3.8559,11.5655],[3.8432,11.5692],[3.8408,11.5665],[3.8359,11.5698],[3.8178,11.5702],[3.8058,11.5735],[3.8114,11.5877]]]}},{"type":"Feature","properties":{"name":"Birnin Kebbi","state":"Kebbi","scode":"KE","centroid":[12.4767,4.2557]},"geometry":{"type":"Polygon","coordinates":[[[4.4749,12.4064],[4.4797,12.4059],[4.4847,12.4079],[4.4873,12.4109],[4.4798,12.4211],[4.4555,12.4446],[4.471,12.4509],[4.4483,12.4935],[4.4457,12.5328],[4.4486,12.5528],[4.4474,12.5594],[4.4258,12.5568],[4.4207,12.5574],[4.4082,12.5612],[4.4089,12.565],[4.4027,12.5699],[4.4005,12.5677],[4.4003,12.565],[4.3953,12.5626],[4.3943,12.56],[4.3818,12.5602],[4.3832,12.5559],[4.3826,12.5518],[4.3764,12.549],[4.3768,12.5346],[4.3677,12.5325],[4.3533,12.5574],[4.3523,12.5643],[4.3544,12.5659],[4.3541,12.5686],[4.3517,12.5705],[4.3533,12.5727],[4.3526,12.5765],[4.354,12.5779],[4.3628,12.575],[4.3612,12.5717],[4.3641,12.5708],[4.3661,12.5726],[4.3696,12.5727],[4.3707,12.5749],[4.3685,12.5822],[4.3656,12.5835],[4.3649,12.5877],[4.3591,12.5891],[4.2873,12.5797],[4.2882,12.5463],[4.2594,12.5469],[4.2589,12.5594],[4.2471,12.5689],[4.242,12.5794],[4.2266,12.5986],[4.2218,12.6116],[4.1735,12.6558],[4.1503,12.6392],[4.1191,12.6118],[4.1054,12.6035],[4.088,12.5738],[4.0636,12.575],[4.0567,12.5694],[4.0556,12.5657],[4.0502,12.5648],[4.0518,12.5621],[4.0515,12.5591],[4.054,12.5562],[4.0696,12.5357],[4.0763,12.5109],[4.0852,12.4877],[4.088,12.4847],[4.0821,12.4816],[4.0765,12.4826],[4.0764,12.4811],[4.0732,12.48],[4.072,12.4777],[4.0677,12.4788],[4.06,12.4726],[4.0565,12.4719],[4.0579,12.4681],[4.0549,12.4641],[4.0561,12.4631],[4.0546,12.4594],[4.0562,12.4568],[4.0513,12.4549],[4.0523,12.4533],[4.0504,12.4515],[4.0487,12.4522],[4.0454,12.4502],[4.043,12.4462],[4.0609,12.4388],[4.0855,12.4156],[4.1057,12.3711],[4.1242,12.3812],[4.1352,12.3996],[4.171,12.3985],[4.1698,12.3786],[4.1848,12.3804],[4.1834,12.3947],[4.1988,12.3952],[4.2007,12.3791],[4.201,12.3569],[4.2276,12.3565],[4.2355,12.332],[4.2941,12.3251],[4.3177,12.3273],[4.3366,12.3412],[4.3605,12.3371],[4.382,12.3409],[4.3975,12.3465],[4.404,12.3525],[4.3947,12.3862],[4.3921,12.4109],[4.4091,12.4102],[4.419,12.4071],[4.4242,12.4114],[4.4286,12.413],[4.4315,12.4124],[4.4377,12.407],[4.4451,12.4056],[4.4595,12.3995],[4.4693,12.4023],[4.4749,12.4064]]]}},{"type":"Feature","properties":{"name":"Bunza","state":"Kebbi","scode":"KE","centroid":[12.2057,3.9485]},"geometry":{"type":"Polygon","coordinates":[[[3.9948,11.9992],[4.0177,12.003],[4.0081,12.0146],[4.048,12.0366],[4.047,12.0429],[4.0784,12.058],[4.0811,12.0642],[4.0796,12.0689],[4.0813,12.0724],[4.0914,12.0719],[4.0924,12.0733],[4.1054,12.0739],[4.1015,12.0872],[4.0972,12.0902],[4.1005,12.0896],[4.0995,12.0917],[4.0961,12.0933],[4.0975,12.0956],[4.1013,12.0971],[4.097,12.0978],[4.0978,12.1001],[4.101,12.099],[4.1019,12.1004],[4.0977,12.1038],[4.1003,12.1054],[4.1002,12.1093],[4.0982,12.1121],[4.0992,12.1164],[4.102,12.119],[4.1044,12.1169],[4.1045,12.1139],[4.1072,12.1134],[4.1059,12.1174],[4.1086,12.1175],[4.111,12.1206],[4.1137,12.1185],[4.118,12.1183],[4.1203,12.1215],[4.1254,12.124],[4.1261,12.1259],[4.1234,12.1292],[4.1304,12.1308],[4.128,12.1357],[4.132,12.1352],[4.1324,12.1379],[4.1283,12.1408],[4.1276,12.1464],[4.1237,12.1456],[4.1202,12.1477],[4.1248,12.1536],[4.1245,12.1546],[4.1213,12.1542],[4.1212,12.1587],[4.117,12.1603],[4.1174,12.1646],[4.1145,12.1663],[4.1151,12.1704],[4.1176,12.1711],[4.1182,12.1747],[4.1236,12.1776],[4.1301,12.1842],[4.1307,12.1892],[4.1465,12.2058],[4.1358,12.2194],[4.1409,12.2223],[4.1417,12.2259],[4.1441,12.2272],[4.1438,12.2299],[4.1462,12.2346],[4.1464,12.2383],[4.1444,12.2396],[4.1456,12.2426],[4.1528,12.2452],[4.1596,12.2504],[4.1385,12.2681],[4.1249,12.2613],[4.1184,12.255],[4.1047,12.2352],[4.0963,12.2186],[4.0854,12.2197],[4.0766,12.2307],[4.068,12.2379],[4.047,12.2441],[4.041,12.2305],[4.0209,12.2251],[4.0102,12.2179],[4.007,12.219],[4.0049,12.2171],[4.005,12.2153],[4.0036,12.2186],[3.9989,12.2177],[3.9986,12.2222],[3.9973,12.223],[3.9935,12.2213],[3.9928,12.2238],[3.99,12.223],[3.9889,12.2255],[3.9883,12.2222],[3.9872,12.2221],[3.9852,12.2242],[3.9838,12.2327],[3.9818,12.2334],[3.9823,12.237],[3.9844,12.2389],[3.9805,12.2411],[3.9773,12.2411],[3.9761,12.2463],[3.9786,12.2462],[3.9796,12.2444],[3.9805,12.2467],[3.982,12.2469],[3.9806,12.2495],[3.9818,12.2493],[3.9839,12.2521],[3.9855,12.2502],[3.9845,12.2547],[3.9859,12.2543],[3.9867,12.256],[3.9895,12.2541],[3.9922,12.2574],[3.9952,12.2551],[3.9955,12.2573],[3.9984,12.2576],[3.9992,12.2596],[4.0031,12.261],[4.0033,12.2638],[4.0012,12.2646],[4.0035,12.267],[4.0002,12.2696],[4.0016,12.2708],[3.9982,12.2713],[3.9985,12.2691],[3.9972,12.2707],[3.9997,12.2741],[3.9991,12.281],[3.9953,12.2861],[3.9963,12.29],[3.9934,12.2891],[3.9918,12.2913],[3.9989,12.302],[4.0004,12.3077],[3.9984,12.3092],[3.996,12.3082],[3.9971,12.3097],[3.9963,12.3143],[3.9976,12.3154],[3.993,12.3168],[3.99,12.3211],[3.9893,12.3255],[3.9904,12.3272],[3.9882,12.3281],[3.9896,12.3303],[3.9883,12.3319],[3.9908,12.3321],[3.9886,12.3364],[3.9855,12.3375],[3.9851,12.3389],[3.9871,12.3423],[3.9793,12.3439],[3.972,12.3574],[3.9724,12.36],[3.9742,12.3604],[3.9745,12.3645],[3.9793,12.3648],[3.979,12.3668],[3.9815,12.3684],[3.9844,12.3689],[3.9863,12.3668],[3.9885,12.3678],[3.9896,12.3703],[3.9918,12.3705],[3.9915,12.3741],[3.994,12.3789],[3.9919,12.3807],[3.9938,12.3819],[3.9931,12.3859],[3.9945,12.3911],[3.9997,12.3946],[4.0,12.3965],[4.0025,12.3969],[4.0049,12.4025],[4.009,12.4042],[4.0047,12.4064],[3.9962,12.4057],[3.9887,12.408],[3.9807,12.4135],[3.9758,12.4139],[3.9449,12.4071],[3.9302,12.4053],[3.9203,12.4058],[3.9092,12.4095],[3.8796,12.4267],[3.8745,12.4237],[3.8617,12.4109],[3.862,12.4031],[3.859,12.3991],[3.8526,12.3963],[3.8461,12.3872],[3.8368,12.3826],[3.8337,12.3782],[3.8264,12.3768],[3.8294,12.3494],[3.8345,12.348],[3.835,12.3389],[3.832,12.3362],[3.8314,12.3318],[3.8142,12.3153],[3.8143,12.3067],[3.8327,12.2852],[3.8244,12.2598],[3.8215,12.2412],[3.8092,12.2279],[3.8036,12.2244],[3.7844,12.2208],[3.7823,12.2178],[3.7838,12.1885],[3.7968,12.1393],[3.7926,12.1253],[3.7645,12.0992],[3.7836,12.1006],[3.8407,12.091],[3.8621,12.0929],[3.8735,12.092],[3.9033,12.0839],[3.9153,12.0784],[3.9387,12.0706],[3.9513,12.062],[3.9548,12.0575],[3.9628,12.0539],[3.9668,12.0446],[3.9641,12.0301],[3.9742,12.0227],[3.9948,11.9992]]]}},{"type":"Feature","properties":{"name":"Dandi","state":"Kebbi","scode":"KE","centroid":[11.8606,3.8097]},"geometry":{"type":"Polygon","coordinates":[[[3.7645,12.0992],[3.7365,12.1333],[3.7192,12.1427],[3.7099,12.1455],[3.6971,12.1436],[3.6672,12.1307],[3.6284,12.1253],[3.6352,12.1014],[3.6606,12.0395],[3.6708,12.01],[3.6717,11.9756],[3.6439,11.9424],[3.6187,11.9082],[3.6317,11.8253],[3.6604,11.8101],[3.6633,11.7983],[3.6625,11.7867],[3.6649,11.7592],[3.6639,11.7554],[3.6374,11.7176],[3.6275,11.7088],[3.6311,11.686],[3.6358,11.6758],[3.6431,11.6648],[3.6588,11.6581],[3.6707,11.6551],[3.6893,11.6428],[3.7755,11.6064],[3.795,11.6043],[3.8063,11.6046],[3.8114,11.5877],[3.8186,11.5866],[3.8207,11.5833],[3.8258,11.5811],[3.8312,11.5836],[3.8356,11.59],[3.8423,11.6101],[3.837,11.6188],[3.8516,11.6283],[3.887,11.6402],[3.8984,11.6401],[3.9177,11.6357],[3.9439,11.6412],[3.9532,11.6275],[3.9622,11.6175],[3.9729,11.6379],[3.9835,11.6657],[3.9896,11.7168],[4.0001,11.7272],[4.0165,11.7314],[4.0207,11.7685],[4.0147,11.7861],[3.9989,11.807],[3.9693,11.837],[3.9663,11.8658],[3.9597,11.8813],[3.9633,11.888],[3.9729,11.9159],[3.9728,11.9359],[3.969,11.9715],[3.9675,11.9757],[3.9691,11.9811],[3.9948,11.9992],[3.9742,12.0227],[3.9641,12.0301],[3.9668,12.0446],[3.9628,12.0539],[3.9548,12.0575],[3.9513,12.062],[3.9387,12.0706],[3.9153,12.0784],[3.9033,12.0839],[3.8735,12.092],[3.8621,12.0929],[3.8407,12.091],[3.7836,12.1006],[3.7645,12.0992]]]}},{"type":"Feature","properties":{"name":"Fakai","state":"Kebbi","scode":"KE","centroid":[11.5311,4.8574]},"geometry":{"type":"Polygon","coordinates":[[[4.4828,11.532],[4.4933,11.5079],[4.4967,11.4953],[4.5094,11.4961],[4.5191,11.4971],[4.5327,11.5028],[4.5413,11.5133],[4.5789,11.5247],[4.5905,11.5324],[4.6075,11.5344],[4.6164,11.5331],[4.6336,11.5174],[4.6377,11.4789],[4.6613,11.4748],[4.7033,11.4767],[4.72,11.4597],[4.7436,11.4396],[4.7445,11.4372],[4.7496,11.4364],[4.7757,11.3994],[4.7662,11.3591],[4.7752,11.3413],[4.786,11.3356],[4.7915,11.3268],[4.8115,11.3403],[4.8156,11.3361],[4.8194,11.3397],[4.8232,11.3362],[4.83,11.3361],[4.8404,11.3509],[4.8476,11.3487],[4.8521,11.3501],[4.8543,11.3514],[4.8543,11.3549],[4.8632,11.3578],[4.8674,11.3581],[4.8715,11.3529],[4.879,11.3548],[4.881,11.3582],[4.8832,11.3593],[4.8832,11.3608],[4.8773,11.3709],[4.8881,11.3782],[4.8978,11.3875],[4.8981,11.3906],[4.9133,11.3855],[4.9285,11.3762],[4.9385,11.3641],[4.9443,11.3674],[4.9589,11.3693],[4.9661,11.3621],[4.9709,11.3532],[4.9725,11.3476],[4.9725,11.3396],[4.9813,11.3195],[4.9883,11.313],[4.9945,11.3159],[4.9992,11.3255],[5.0105,11.3323],[5.0268,11.3343],[5.0435,11.3344],[5.0489,11.3364],[5.0792,11.3351],[5.1022,11.3388],[5.1126,11.3433],[5.1207,11.3525],[5.1281,11.3702],[5.1419,11.3939],[5.1441,11.4114],[5.1232,11.4134],[5.1332,11.4362],[5.1348,11.4432],[5.133,11.4529],[5.1585,11.4637],[5.1632,11.4687],[5.1628,11.4841],[5.143,11.4973],[5.1396,11.5049],[5.1314,11.5066],[5.1248,11.5059],[5.1207,11.5335],[5.1118,11.5441],[5.1076,11.5456],[5.1059,11.5501],[5.1014,11.5483],[5.1013,11.5453],[5.0983,11.5461],[5.0953,11.5429],[5.0873,11.5406],[5.0857,11.5414],[5.0828,11.5451],[5.0783,11.5474],[5.0684,11.5664],[5.0531,11.5873],[5.0124,11.6157],[4.9872,11.6257],[4.9799,11.6259],[4.9684,11.6289],[4.9571,11.658],[4.9535,11.6591],[4.9358,11.6572],[4.9342,11.6706],[4.9391,11.7035],[4.9344,11.7221],[4.9318,11.7239],[4.9151,11.7218],[4.914,11.7166],[4.8991,11.7087],[4.8939,11.7092],[4.8937,11.7113],[4.8897,11.7139],[4.8895,11.7193],[4.8924,11.7319],[4.8912,11.7375],[4.8927,11.7468],[4.8895,11.7502],[4.8839,11.7511],[4.8786,11.7502],[4.8748,11.7401],[4.8726,11.7382],[4.8731,11.7345],[4.8698,11.7338],[4.8615,11.7358],[4.8498,11.7351],[4.8485,11.7444],[4.844,11.7521],[4.8368,11.7533],[4.8327,11.752],[4.8316,11.7567],[4.8283,11.7592],[4.8236,11.76],[4.8208,11.7629],[4.8198,11.7669],[4.8152,11.7661],[4.8093,11.7596],[4.8026,11.7577],[4.7994,11.7494],[4.7948,11.7473],[4.7937,11.743],[4.7912,11.7409],[4.7849,11.7384],[4.7805,11.7396],[4.7772,11.7373],[4.7683,11.739],[4.7615,11.7344],[4.7673,11.7204],[4.7648,11.7181],[4.7571,11.723],[4.7504,11.7195],[4.7451,11.7214],[4.7426,11.7152],[4.7385,11.7101],[4.7382,11.7074],[4.7334,11.7043],[4.7312,11.6998],[4.7211,11.6948],[4.7125,11.6912],[4.708,11.6921],[4.701,11.6906],[4.6989,11.6927],[4.6919,11.6859],[4.686,11.6862],[4.6765,11.6819],[4.6727,11.6835],[4.671,11.6907],[4.6644,11.6944],[4.6615,11.6939],[4.6592,11.6786],[4.6693,11.6748],[4.6668,11.6676],[4.635,11.6723],[4.6289,11.6681],[4.6231,11.6567],[4.6193,11.6556],[4.6153,11.6577],[4.586,11.6549],[4.5699,11.6329],[4.5462,11.6344],[4.551,11.6167],[4.5487,11.6108],[4.5475,11.5974],[4.5562,11.5866],[4.5699,11.5737],[4.5541,11.5646],[4.542,11.5603],[4.5228,11.5303],[4.4947,11.5326],[4.4828,11.532]]]}},{"type":"Feature","properties":{"name":"Gwandu","state":"Kebbi","scode":"KE","centroid":[12.5067,4.6121]},"geometry":{"type":"Polygon","coordinates":[[[4.4749,12.4064],[4.489,12.384],[4.4941,12.3478],[4.4978,12.3417],[4.5027,12.3369],[4.5198,12.3398],[4.5271,12.3324],[4.5374,12.3012],[4.5485,12.3015],[4.5599,12.3048],[4.5765,12.333],[4.5925,12.3468],[4.5864,12.3807],[4.5858,12.3889],[4.5878,12.3959],[4.5971,12.4031],[4.5993,12.4007],[4.6298,12.4329],[4.6643,12.4123],[4.6721,12.4066],[4.6812,12.3966],[4.6911,12.4],[4.703,12.3839],[4.703,12.3797],[4.7092,12.3649],[4.7221,12.3632],[4.736,12.3638],[4.7398,12.3656],[4.7539,12.3637],[4.7509,12.3894],[4.7518,12.3927],[4.7498,12.421],[4.7575,12.4496],[4.7694,12.4696],[4.8031,12.4852],[4.8119,12.5036],[4.7959,12.5124],[4.7947,12.5754],[4.7575,12.637],[4.7525,12.6351],[4.7411,12.6346],[4.708,12.6282],[4.6612,12.5873],[4.6557,12.6058],[4.6426,12.6296],[4.6182,12.6605],[4.5887,12.6664],[4.5671,12.6679],[4.56,12.6533],[4.5455,12.6545],[4.5333,12.6472],[4.5011,12.6356],[4.4882,12.6287],[4.4742,12.6244],[4.4657,12.6236],[4.4571,12.62],[4.454,12.6141],[4.4546,12.5866],[4.4526,12.5808],[4.4515,12.5661],[4.4474,12.5594],[4.4486,12.5528],[4.4457,12.5328],[4.4483,12.4935],[4.471,12.4509],[4.4555,12.4446],[4.4798,12.4211],[4.4873,12.4109],[4.4847,12.4079],[4.4797,12.4059],[4.4749,12.4064]]]}},{"type":"Feature","properties":{"name":"Jega","state":"Kebbi","scode":"KE","centroid":[12.1155,4.4278]},"geometry":{"type":"Polygon","coordinates":[[[4.5882,12.0388],[4.5748,12.0747],[4.5523,12.0977],[4.5509,12.1318],[4.5559,12.2129],[4.5621,12.23],[4.5303,12.2396],[4.4869,12.2382],[4.4545,12.229],[4.448,12.2241],[4.4331,12.2436],[4.4294,12.2441],[4.4228,12.2493],[4.4114,12.2508],[4.4067,12.2559],[4.4004,12.2596],[4.4005,12.262],[4.3882,12.275],[4.3718,12.2845],[4.3726,12.2924],[4.3738,12.2935],[4.3717,12.301],[4.3681,12.31],[4.3579,12.3249],[4.3567,12.334],[4.3605,12.3371],[4.3366,12.3412],[4.3177,12.3273],[4.2941,12.3251],[4.2355,12.332],[4.2402,12.3194],[4.2442,12.3132],[4.2445,12.3069],[4.2457,12.3039],[4.2499,12.3047],[4.2474,12.2993],[4.2516,12.3011],[4.2534,12.2952],[4.2511,12.2937],[4.2571,12.284],[4.26,12.2862],[4.2622,12.2829],[4.2658,12.2836],[4.2686,12.2992],[4.2744,12.2991],[4.2753,12.2908],[4.2773,12.291],[4.2791,12.2891],[4.2783,12.2858],[4.2729,12.2847],[4.2737,12.2819],[4.2775,12.2818],[4.2795,12.2739],[4.2783,12.2698],[4.2808,12.2625],[4.2777,12.26],[4.2773,12.2576],[4.2791,12.2549],[4.282,12.2548],[4.2844,12.2566],[4.2866,12.2518],[4.2855,12.2498],[4.2899,12.2489],[4.2887,12.2457],[4.2907,12.2417],[4.2836,12.2371],[4.2827,12.2346],[4.2802,12.2331],[4.2785,12.234],[4.2736,12.2326],[4.2735,12.2314],[4.2693,12.2295],[4.2689,12.2136],[4.2638,12.2139],[4.2514,12.211],[4.2488,12.2423],[4.2342,12.2447],[4.2405,12.2235],[4.2397,12.2153],[4.2295,12.1939],[4.1689,12.1818],[4.1721,12.1638],[4.1796,12.1422],[4.1923,12.1364],[4.2022,12.1344],[4.2192,12.1378],[4.2301,12.1438],[4.2502,12.1496],[4.274,12.154],[4.3067,12.1562],[4.3233,12.1595],[4.3416,12.1659],[4.356,12.1912],[4.3656,12.193],[4.37,12.1697],[4.3837,12.1418],[4.3846,12.1374],[4.3789,12.1103],[4.3799,12.0907],[4.3732,12.0618],[4.3663,12.0525],[4.3892,12.0364],[4.383,11.987],[4.3952,11.9861],[4.4084,11.9614],[4.4127,11.9605],[4.4449,11.9697],[4.4427,11.9464],[4.4492,11.9226],[4.4511,11.8927],[4.4495,11.8849],[4.4502,11.8823],[4.468,11.8647],[4.5183,11.8799],[4.5508,11.8919],[4.5671,11.9196],[4.582,11.9965],[4.5882,12.0388]]]}},{"type":"Feature","properties":{"name":"Kalgo","state":"Kebbi","scode":"KE","centroid":[12.3645,4.0671]},"geometry":{"type":"Polygon","coordinates":[[[4.1596,12.2504],[4.169,12.2584],[4.1745,12.266],[4.1805,12.2755],[4.1841,12.285],[4.2053,12.292],[4.2238,12.2958],[4.23,12.2954],[4.2301,12.297],[4.2269,12.2986],[4.2285,12.3015],[4.232,12.3025],[4.234,12.3005],[4.2386,12.3023],[4.2445,12.3069],[4.2442,12.3132],[4.2402,12.3194],[4.2355,12.332],[4.2276,12.3565],[4.201,12.3569],[4.2007,12.3791],[4.1988,12.3952],[4.1834,12.3947],[4.1848,12.3804],[4.1698,12.3786],[4.171,12.3985],[4.1352,12.3996],[4.1242,12.3812],[4.1057,12.3711],[4.0855,12.4156],[4.0609,12.4388],[4.043,12.4462],[4.0454,12.4502],[4.0487,12.4522],[4.0504,12.4515],[4.0523,12.4533],[4.0513,12.4549],[4.0562,12.4568],[4.0546,12.4594],[4.0561,12.4631],[4.0549,12.4641],[4.0579,12.4681],[4.0565,12.4719],[4.06,12.4726],[4.0677,12.4788],[4.072,12.4777],[4.0732,12.48],[4.0764,12.4811],[4.0765,12.4826],[4.0821,12.4816],[4.088,12.4847],[4.0852,12.4877],[4.0763,12.5109],[4.0696,12.5357],[4.054,12.5562],[4.0468,12.5479],[4.0439,12.5485],[4.0379,12.5539],[4.0348,12.5517],[4.0303,12.5524],[4.0292,12.5506],[4.0299,12.5466],[4.0195,12.5454],[4.0142,12.5413],[4.0055,12.549],[4.0036,12.549],[3.9963,12.5414],[3.9956,12.538],[3.9978,12.5352],[3.9944,12.5349],[3.9937,12.5313],[4.0001,12.4951],[3.9949,12.4796],[3.9853,12.4681],[3.9673,12.4596],[3.9372,12.4608],[3.8796,12.4267],[3.9092,12.4095],[3.9203,12.4058],[3.9302,12.4053],[3.9449,12.4071],[3.9758,12.4139],[3.9807,12.4135],[3.9887,12.408],[3.9962,12.4057],[4.0047,12.4064],[4.009,12.4042],[4.0049,12.4025],[4.0025,12.3969],[4.0,12.3965],[3.9997,12.3946],[3.9945,12.3911],[3.9931,12.3859],[3.9938,12.3819],[3.9919,12.3807],[3.994,12.3789],[3.9915,12.3741],[3.9918,12.3705],[3.9896,12.3703],[3.9885,12.3678],[3.9863,12.3668],[3.9844,12.3689],[3.9815,12.3684],[3.979,12.3668],[3.9793,12.3648],[3.9745,12.3645],[3.9742,12.3604],[3.9724,12.36],[3.972,12.3574],[3.9793,12.3439],[3.9871,12.3423],[3.9851,12.3389],[3.9855,12.3375],[3.9886,12.3364],[3.9908,12.3321],[3.9883,12.3319],[3.9896,12.3303],[3.9882,12.3281],[3.9904,12.3272],[3.9893,12.3255],[3.99,12.3211],[3.993,12.3168],[3.9976,12.3154],[3.9963,12.3143],[3.9971,12.3097],[3.996,12.3082],[3.9984,12.3092],[4.0004,12.3077],[3.9989,12.302],[3.9918,12.2913],[3.9934,12.2891],[3.9963,12.29],[3.9953,12.2861],[3.9991,12.281],[3.9997,12.2741],[3.9972,12.2707],[3.9985,12.2691],[3.9982,12.2713],[4.0016,12.2708],[4.0002,12.2696],[4.0035,12.267],[4.0012,12.2646],[4.0033,12.2638],[4.0031,12.261],[3.9992,12.2596],[3.9984,12.2576],[3.9955,12.2573],[3.9952,12.2551],[3.9922,12.2574],[3.9895,12.2541],[3.9867,12.256],[3.9859,12.2543],[3.9845,12.2547],[3.9855,12.2502],[3.9839,12.2521],[3.9818,12.2493],[3.9806,12.2495],[3.982,12.2469],[3.9805,12.2467],[3.9796,12.2444],[3.9786,12.2462],[3.9761,12.2463],[3.9773,12.2411],[3.9805,12.2411],[3.9844,12.2389],[3.9823,12.237],[3.9818,12.2334],[3.9838,12.2327],[3.9852,12.2242],[3.9872,12.2221],[3.9883,12.2222],[3.9889,12.2255],[3.99,12.223],[3.9928,12.2238],[3.9935,12.2213],[3.9973,12.223],[3.9986,12.2222],[3.9989,12.2177],[4.0036,12.2186],[4.005,12.2153],[4.0049,12.2171],[4.007,12.219],[4.0102,12.2179],[4.0209,12.2251],[4.041,12.2305],[4.047,12.2441],[4.068,12.2379],[4.0766,12.2307],[4.0854,12.2197],[4.0963,12.2186],[4.1047,12.2352],[4.1184,12.255],[4.1249,12.2613],[4.1385,12.2681],[4.1596,12.2504]]]}},{"type":"Feature","properties":{"name":"Koko-Besse","state":"Kebbi","scode":"KE","centroid":[11.4064,4.3866]},"geometry":{"type":"Polygon","coordinates":[[[4.3688,11.747],[4.3548,11.749],[4.3504,11.7473],[4.3494,11.7448],[4.345,11.7428],[4.3444,11.7407],[4.345,11.7376],[4.3505,11.7315],[4.343,11.7261],[4.3393,11.7264],[4.3356,11.7317],[4.3341,11.7316],[4.3332,11.7344],[4.3346,11.7379],[4.331,11.7425],[4.3274,11.742],[4.3269,11.7399],[4.3242,11.7402],[4.3217,11.7375],[4.3246,11.7325],[4.3242,11.7304],[4.322,11.7247],[4.3181,11.7218],[4.3115,11.7235],[4.3099,11.7252],[4.3097,11.7299],[4.3006,11.7329],[4.2963,11.7357],[4.2923,11.7346],[4.2939,11.7284],[4.2932,11.7239],[4.2883,11.7188],[4.2837,11.7174],[4.2862,11.7141],[4.286,11.7121],[4.2895,11.7096],[4.2849,11.7025],[4.2795,11.7013],[4.2772,11.7021],[4.2757,11.7058],[4.2711,11.705],[4.2656,11.6996],[4.2647,11.6925],[4.2567,11.6875],[4.2543,11.6792],[4.2592,11.6745],[4.2585,11.6711],[4.2564,11.6694],[4.255,11.662],[4.2525,11.661],[4.2493,11.662],[4.2471,11.6685],[4.2443,11.6708],[4.2403,11.6671],[4.242,11.6601],[4.241,11.6569],[4.2362,11.6562],[4.2308,11.6606],[4.2288,11.6598],[4.2469,11.6118],[4.3115,11.5803],[4.3294,11.577],[4.3593,11.5813],[4.3786,11.5669],[4.3813,11.561],[4.3939,11.5578],[4.4059,11.5311],[4.4065,11.4997],[4.3716,11.4918],[4.3857,11.4783],[4.3985,11.4636],[4.4068,11.4379],[4.3838,11.4379],[4.3747,11.415],[4.3676,11.41],[4.323,11.4022],[4.2978,11.3829],[4.2743,11.3739],[4.2604,11.3623],[4.2598,11.3586],[4.2519,11.359],[4.2451,11.3546],[4.2341,11.357],[4.2323,11.3598],[4.2171,11.359],[4.2008,11.3562],[4.1887,11.3456],[4.1771,11.3312],[4.1782,11.324],[4.1769,11.3212],[4.1768,11.3127],[4.1831,11.2928],[4.1955,11.2822],[4.2039,11.279],[4.209,11.2728],[4.212,11.2722],[4.2141,11.2686],[4.2294,11.2705],[4.2355,11.2679],[4.2377,11.2615],[4.2448,11.253],[4.2512,11.2423],[4.2594,11.2345],[4.2616,11.2239],[4.2562,11.2144],[4.2563,11.21],[4.2624,11.2025],[4.2704,11.2013],[4.2752,11.2022],[4.2886,11.1981],[4.299,11.1874],[4.303,11.1749],[4.3084,11.1721],[4.3194,11.1707],[4.3273,11.1717],[4.3315,11.174],[4.3377,11.1815],[4.3456,11.1834],[4.3519,11.1827],[4.3581,11.1789],[4.3766,11.1715],[4.3985,11.1655],[4.409,11.1649],[4.4187,11.1731],[4.4255,11.1741],[4.4315,11.1723],[4.437,11.1664],[4.4405,11.165],[4.456,11.1627],[4.4631,11.156],[4.4652,11.1517],[4.4697,11.1484],[4.4775,11.1461],[4.4814,11.1475],[4.4882,11.1426],[4.4934,11.1473],[4.5133,11.1481],[4.5106,11.1569],[4.4982,11.1766],[4.4976,11.1845],[4.4886,11.1921],[4.4859,11.2171],[4.4876,11.2396],[4.496,11.2414],[4.5136,11.2621],[4.5158,11.2671],[4.5143,11.2909],[4.52,11.3085],[4.517,11.3385],[4.5201,11.3411],[4.5324,11.3623],[4.5415,11.3735],[4.5502,11.4007],[4.5614,11.4207],[4.57,11.4277],[4.5947,11.4613],[4.5893,11.464],[4.5764,11.4611],[4.5655,11.4613],[4.564,11.4649],[4.5604,11.467],[4.5576,11.4667],[4.5553,11.4688],[4.5521,11.4758],[4.5489,11.4776],[4.5422,11.4774],[4.5381,11.4752],[4.5338,11.4757],[4.5197,11.4819],[4.5094,11.4961],[4.4967,11.4953],[4.4933,11.5079],[4.4828,11.532],[4.4968,11.5524],[4.4694,11.5765],[4.4192,11.6142],[4.4273,11.6706],[4.3968,11.6922],[4.3751,11.7146],[4.3716,11.7247],[4.3688,11.747]]]}},{"type":"Feature","properties":{"name":"Maiyama","state":"Kebbi","scode":"KE","centroid":[11.9816,4.3233]},"geometry":{"type":"Polygon","coordinates":[[[4.5508,11.8919],[4.5183,11.8799],[4.468,11.8647],[4.4502,11.8823],[4.4495,11.8849],[4.4511,11.8927],[4.4492,11.9226],[4.4427,11.9464],[4.4449,11.9697],[4.4127,11.9605],[4.4084,11.9614],[4.3952,11.9861],[4.383,11.987],[4.3892,12.0364],[4.3663,12.0525],[4.3732,12.0618],[4.3799,12.0907],[4.3789,12.1103],[4.3846,12.1374],[4.3837,12.1418],[4.37,12.1697],[4.3656,12.193],[4.356,12.1912],[4.3416,12.1659],[4.3233,12.1595],[4.3067,12.1562],[4.274,12.154],[4.2502,12.1496],[4.2301,12.1438],[4.2192,12.1378],[4.2022,12.1344],[4.1923,12.1364],[4.1796,12.1422],[4.1721,12.1638],[4.1689,12.1818],[4.2295,12.1939],[4.2397,12.2153],[4.2405,12.2235],[4.2342,12.2447],[4.2488,12.2423],[4.2514,12.211],[4.2638,12.2139],[4.2689,12.2136],[4.2693,12.2295],[4.2735,12.2314],[4.2736,12.2326],[4.2785,12.234],[4.2802,12.2331],[4.2827,12.2346],[4.2836,12.2371],[4.2907,12.2417],[4.2887,12.2457],[4.2899,12.2489],[4.2855,12.2498],[4.2866,12.2518],[4.2844,12.2566],[4.282,12.2548],[4.2791,12.2549],[4.2773,12.2576],[4.2777,12.26],[4.2808,12.2625],[4.2783,12.2698],[4.2795,12.2739],[4.2775,12.2818],[4.2737,12.2819],[4.2729,12.2847],[4.2783,12.2858],[4.2791,12.2891],[4.2773,12.291],[4.2753,12.2908],[4.2744,12.2991],[4.2686,12.2992],[4.2658,12.2836],[4.2622,12.2829],[4.26,12.2862],[4.2571,12.284],[4.2511,12.2937],[4.2534,12.2952],[4.2516,12.3011],[4.2474,12.2993],[4.2499,12.3047],[4.2457,12.3039],[4.2445,12.3069],[4.2386,12.3023],[4.234,12.3005],[4.232,12.3025],[4.2285,12.3015],[4.2269,12.2986],[4.2301,12.297],[4.23,12.2954],[4.2238,12.2958],[4.2053,12.292],[4.1841,12.285],[4.1805,12.2755],[4.1745,12.266],[4.169,12.2584],[4.1596,12.2504],[4.1528,12.2452],[4.1456,12.2426],[4.1444,12.2396],[4.1464,12.2383],[4.1462,12.2346],[4.1438,12.2299],[4.1441,12.2272],[4.1417,12.2259],[4.1409,12.2223],[4.1358,12.2194],[4.1465,12.2058],[4.1307,12.1892],[4.1301,12.1842],[4.1236,12.1776],[4.1182,12.1747],[4.1176,12.1711],[4.1151,12.1704],[4.1145,12.1663],[4.1174,12.1646],[4.117,12.1603],[4.1212,12.1587],[4.1213,12.1542],[4.1245,12.1546],[4.1248,12.1536],[4.1202,12.1477],[4.1237,12.1456],[4.1276,12.1464],[4.1283,12.1408],[4.1324,12.1379],[4.132,12.1352],[4.128,12.1357],[4.1304,12.1308],[4.1234,12.1292],[4.1261,12.1259],[4.1254,12.124],[4.1203,12.1215],[4.118,12.1183],[4.1137,12.1185],[4.111,12.1206],[4.1086,12.1175],[4.1059,12.1174],[4.1072,12.1134],[4.1045,12.1139],[4.1044,12.1169],[4.102,12.119],[4.0992,12.1164],[4.0982,12.1121],[4.1002,12.1093],[4.1003,12.1054],[4.0977,12.1038],[4.1019,12.1004],[4.101,12.099],[4.0978,12.1001],[4.097,12.0978],[4.1013,12.0971],[4.0975,12.0956],[4.0961,12.0933],[4.0995,12.0917],[4.1005,12.0896],[4.0972,12.0902],[4.1015,12.0872],[4.1054,12.0739],[4.1516,12.0741],[4.1633,12.0665],[4.1659,12.0518],[4.2012,12.0483],[4.214,12.0157],[4.2036,12.0023],[4.2175,11.9827],[4.2259,11.9801],[4.2298,11.9667],[4.2277,11.9486],[4.2367,11.933],[4.238,11.9285],[4.2368,11.9261],[4.2474,11.9269],[4.2526,11.9297],[4.2625,11.9317],[4.2628,11.9282],[4.2658,11.9281],[4.2705,11.9225],[4.2777,11.9201],[4.2783,11.9143],[4.2816,11.9089],[4.2917,11.9],[4.3121,11.8484],[4.3049,11.8442],[4.2772,11.7986],[4.2914,11.7715],[4.3006,11.7329],[4.3097,11.7299],[4.3099,11.7252],[4.3115,11.7235],[4.3181,11.7218],[4.322,11.7247],[4.3242,11.7304],[4.3246,11.7325],[4.3217,11.7375],[4.3242,11.7402],[4.3269,11.7399],[4.3274,11.742],[4.331,11.7425],[4.3346,11.7379],[4.3332,11.7344],[4.3341,11.7316],[4.3356,11.7317],[4.3393,11.7264],[4.343,11.7261],[4.3505,11.7315],[4.345,11.7376],[4.3444,11.7407],[4.345,11.7428],[4.3494,11.7448],[4.3504,11.7473],[4.3548,11.749],[4.3688,11.747],[4.3728,11.7467],[4.3767,11.7416],[4.381,11.7403],[4.3854,11.746],[4.3863,11.7495],[4.3854,11.7525],[4.3814,11.7535],[4.3807,11.7561],[4.3777,11.7581],[4.3779,11.7625],[4.3816,11.7603],[4.3892,11.7597],[4.3918,11.7558],[4.3939,11.7575],[4.3949,11.7567],[4.4136,11.7302],[4.4172,11.7085],[4.4364,11.7108],[4.4491,11.7204],[4.4869,11.7405],[4.4987,11.75],[4.5097,11.7558],[4.5354,11.785],[4.549,11.7955],[4.544,11.8035],[4.5497,11.8109],[4.5508,11.8919]]]}},{"type":"Feature","properties":{"name":"Ngaski","state":"Kebbi","scode":"KE","centroid":[10.5339,4.7752]},"geometry":{"type":"Polygon","coordinates":[[[4.8263,10.8822],[4.822,10.881],[4.8257,10.8615],[4.8246,10.8579],[4.8271,10.8543],[4.8261,10.8493],[4.8109,10.8333],[4.7949,10.8219],[4.7909,10.8219],[4.7841,10.8181],[4.7809,10.8188],[4.7795,10.8061],[4.7762,10.7974],[4.7554,10.7832],[4.7471,10.7605],[4.7485,10.7564],[4.7564,10.7497],[4.7666,10.7233],[4.7538,10.7138],[4.7452,10.675],[4.7422,10.6689],[4.7379,10.6671],[4.7374,10.6654],[4.7279,10.6635],[4.7265,10.6563],[4.7321,10.6464],[4.7292,10.642],[4.7444,10.6388],[4.7692,10.615],[4.7653,10.6049],[4.7499,10.5853],[4.7453,10.5837],[4.6929,10.6092],[4.6939,10.6116],[4.6926,10.6121],[4.6765,10.6036],[4.6632,10.5939],[4.6608,10.5963],[4.6585,10.5948],[4.6533,10.5947],[4.6338,10.6114],[4.6297,10.6088],[4.6258,10.6036],[4.6255,10.6011],[4.6241,10.6005],[4.6244,10.5975],[4.6208,10.6004],[4.6195,10.5997],[4.621,10.5955],[4.6192,10.5955],[4.6172,10.5932],[4.6173,10.588],[4.6156,10.5906],[4.6105,10.586],[4.6071,10.5865],[4.6029,10.585],[4.6067,10.584],[4.6072,10.5827],[4.6031,10.577],[4.602,10.5773],[4.6008,10.5707],[4.5992,10.5702],[4.5981,10.5764],[4.5969,10.576],[4.5935,10.5717],[4.5937,10.57],[4.5851,10.5639],[4.5101,10.5352],[4.4985,10.5174],[4.4856,10.4698],[4.4795,10.4213],[4.4864,10.3685],[4.483,10.3287],[4.4908,10.314],[4.5184,10.2984],[4.5418,10.2871],[4.56,10.2681],[4.5661,10.2568],[4.5661,10.246],[4.5687,10.246],[4.5674,10.2229],[4.5518,10.1949],[4.5275,10.143],[4.5269,10.1112],[4.53,10.1006],[4.6248,10.1027],[4.6392,10.1378],[4.6495,10.1815],[4.6504,10.1986],[4.6465,10.205],[4.6711,10.2118],[4.6694,10.2261],[4.697,10.2403],[4.7287,10.2482],[4.7777,10.2566],[4.7939,10.2607],[4.8715,10.2183],[4.9465,10.2853],[4.9503,10.3897],[4.932,10.4395],[4.9062,10.4542],[4.8759,10.4593],[4.8534,10.4603],[4.8451,10.4787],[4.8329,10.4879],[4.8187,10.5071],[4.8195,10.5381],[4.822,10.559],[4.8237,10.595],[4.8145,10.6042],[4.802,10.6134],[4.7961,10.6293],[4.8028,10.6527],[4.812,10.6619],[4.8145,10.6744],[4.807,10.6929],[4.8095,10.6979],[4.8257,10.7084],[4.8364,10.7058],[4.8406,10.7037],[4.8438,10.6995],[4.8462,10.6992],[4.8625,10.7082],[4.8662,10.708],[4.8702,10.7035],[4.8736,10.7024],[4.8937,10.7066],[4.8966,10.7048],[4.9006,10.6952],[4.9083,10.6902],[4.9205,10.6891],[4.9275,10.6947],[4.9302,10.6937],[4.9327,10.6889],[4.9417,10.6887],[4.9495,10.6914],[4.951,10.6938],[4.9507,10.6986],[4.955,10.7062],[4.9652,10.7075],[4.9735,10.7104],[4.9793,10.7171],[4.9868,10.7171],[5.0031,10.7221],[5.0085,10.7217],[5.012,10.7239],[5.0138,10.7384],[5.0269,10.7504],[5.0299,10.7498],[5.0393,10.7414],[5.0479,10.7372],[5.0553,10.738],[5.0613,10.7399],[5.0634,10.7446],[5.0661,10.7471],[5.0784,10.7482],[5.0848,10.7589],[5.088,10.7568],[5.0947,10.7614],[5.101,10.7613],[5.1023,10.7723],[5.1073,10.7857],[5.109,10.7957],[5.0998,10.8083],[5.0839,10.8175],[5.0588,10.8208],[5.0471,10.825],[5.0345,10.8458],[5.0287,10.8593],[5.0262,10.8719],[5.0253,10.8903],[5.0345,10.8995],[5.0546,10.9045],[5.0755,10.9154],[5.0822,10.9271],[5.0814,10.9505],[5.068,10.9898],[5.063,11.0124],[5.0406,11.0519],[5.0111,11.0325],[4.95,10.9982],[4.9141,10.9681],[4.889,10.9505],[4.875,10.9312],[4.8803,10.8796],[4.8592,10.8834],[4.834,10.8843],[4.8263,10.8822]]]}},{"type":"Feature","properties":{"name":"Sakaba","state":"Kebbi","scode":"KE","centroid":[11.1399,5.5557]},"geometry":{"type":"Polygon","coordinates":[[[5.3331,11.3564],[5.3364,11.3476],[5.3364,11.3404],[5.3424,11.3387],[5.3485,11.3389],[5.3574,11.3064],[5.3686,11.2826],[5.3724,11.2701],[5.373,11.2628],[5.3795,11.243],[5.3796,11.235],[5.3892,11.2311],[5.3898,11.2206],[5.3846,11.2024],[5.3897,11.1734],[5.3939,11.1619],[5.404,11.147],[5.4028,11.144],[5.4052,11.1266],[5.4134,11.1209],[5.4084,11.1168],[5.3938,11.1178],[5.3871,11.0922],[5.3911,11.064],[5.389,11.0375],[5.4112,11.0044],[5.4306,10.9906],[5.4473,10.9835],[5.5007,10.9753],[5.5009,10.9838],[5.5051,10.985],[5.5086,10.981],[5.5102,10.981],[5.5103,10.9865],[5.5151,10.9936],[5.5189,10.992],[5.5197,10.9899],[5.5224,10.9905],[5.5245,10.9831],[5.531,10.9776],[5.5342,10.9716],[5.536,10.9623],[5.5385,10.959],[5.5421,10.9597],[5.546,10.9535],[5.5509,10.9526],[5.5562,10.9474],[5.5595,10.9493],[5.5602,10.9521],[5.5642,10.9542],[5.5678,10.952],[5.5716,10.9537],[5.571,10.9572],[5.5729,10.9606],[5.5748,10.9607],[5.5753,10.9651],[5.5783,10.9689],[5.585,10.9668],[5.6365,10.965],[5.6651,10.9735],[5.68,10.9757],[5.7034,10.9897],[5.729,10.9984],[5.7348,11.0062],[5.7401,11.0234],[5.7569,11.0289],[5.7656,11.0394],[5.7691,11.0494],[5.7752,11.06],[5.8003,11.0825],[5.809,11.0875],[5.8261,11.0931],[5.8358,11.0933],[5.8552,11.0986],[5.8679,11.1069],[5.85,11.1112],[5.8283,11.1253],[5.8105,11.1326],[5.7983,11.1317],[5.7945,11.1351],[5.7951,11.1524],[5.8115,11.2047],[5.7829,11.2048],[5.7702,11.2036],[5.7581,11.2054],[5.756,11.1978],[5.7672,11.1962],[5.7726,11.1895],[5.7685,11.1858],[5.766,11.1856],[5.7653,11.189],[5.7637,11.1889],[5.7605,11.1875],[5.7602,11.1851],[5.763,11.1812],[5.7758,11.1781],[5.7757,11.1743],[5.773,11.1742],[5.7725,11.171],[5.7769,11.1711],[5.7768,11.1676],[5.7636,11.1669],[5.7172,11.1694],[5.7068,11.1726],[5.6839,11.1846],[5.6569,11.2094],[5.6312,11.2374],[5.6035,11.2481],[5.5777,11.2516],[5.5616,11.2499],[5.5236,11.2524],[5.4952,11.2507],[5.4848,11.2546],[5.5003,11.2842],[5.4875,11.3042],[5.4728,11.3035],[5.4748,11.3149],[5.4915,11.3416],[5.4904,11.3489],[5.4814,11.3492],[5.4419,11.3628],[5.4314,11.3636],[5.4181,11.3719],[5.4266,11.3885],[5.4254,11.3934],[5.4138,11.4019],[5.4064,11.3977],[5.397,11.3963],[5.3946,11.3992],[5.3869,11.3962],[5.3836,11.3931],[5.3819,11.4045],[5.3704,11.4048],[5.3601,11.3971],[5.3545,11.3959],[5.3492,11.3895],[5.3486,11.3908],[5.3444,11.3908],[5.3433,11.3884],[5.3403,11.387],[5.3426,11.3771],[5.3457,11.3719],[5.3451,11.3691],[5.3428,11.3652],[5.3331,11.3564]]]}},{"type":"Feature","properties":{"name":"Shanga","state":"Kebbi","scode":"KE","centroid":[11.1242,4.6187]},"geometry":{"type":"Polygon","coordinates":[[[4.3141,10.9499],[4.3298,10.9514],[4.3358,10.9187],[4.3385,10.9035],[4.3622,10.8891],[4.3811,10.88],[4.4072,10.8772],[4.4503,10.8859],[4.524,10.9162],[4.5398,10.92],[4.5685,10.9087],[4.5935,10.8929],[4.598,10.8929],[4.5997,10.8892],[4.6022,10.8882],[4.6056,10.8895],[4.608,10.8878],[4.6092,10.8889],[4.6148,10.8885],[4.6164,10.8907],[4.6253,10.8927],[4.6266,10.8941],[4.6279,10.8912],[4.6298,10.8906],[4.6303,10.8915],[4.6353,10.8912],[4.643,10.8945],[4.6457,10.8937],[4.6575,10.9005],[4.6738,10.9174],[4.6761,10.9163],[4.6778,10.9172],[4.6903,10.9168],[4.6935,10.9191],[4.6894,10.9277],[4.6884,10.9317],[4.6896,10.9346],[4.6866,10.9365],[4.6795,10.9459],[4.6885,10.9514],[4.7068,10.9529],[4.7147,10.9521],[4.7135,10.9485],[4.7158,10.941],[4.7155,10.9349],[4.7179,10.9296],[4.7175,10.9194],[4.7201,10.9136],[4.7237,10.9106],[4.73,10.9074],[4.7391,10.9142],[4.7476,10.9156],[4.762,10.9073],[4.7646,10.9009],[4.7898,10.9109],[4.7959,10.9107],[4.8084,10.9023],[4.8263,10.8822],[4.834,10.8843],[4.8592,10.8834],[4.8803,10.8796],[4.875,10.9312],[4.889,10.9505],[4.9141,10.9681],[4.95,10.9982],[5.0111,11.0325],[5.0406,11.0519],[5.0274,11.0505],[5.0211,11.054],[5.0092,11.0519],[4.996,11.054],[4.9911,11.061],[4.9918,11.0701],[4.9799,11.0805],[4.9345,11.084],[4.9087,11.0819],[4.8982,11.0875],[4.8766,11.0917],[4.8633,11.1001],[4.8607,11.1034],[4.8397,11.1139],[4.8178,11.1195],[4.8144,11.1161],[4.8026,11.114],[4.7886,11.1189],[4.7858,11.1238],[4.7802,11.1287],[4.7794,11.1314],[4.7653,11.1369],[4.7576,11.143],[4.7461,11.1476],[4.7413,11.1532],[4.7405,11.1693],[4.7327,11.1896],[4.7223,11.2059],[4.7053,11.2211],[4.7034,11.2285],[4.739,11.2511],[4.7081,11.2641],[4.7039,11.268],[4.7045,11.2722],[4.7082,11.2751],[4.7133,11.2837],[4.7105,11.291],[4.7119,11.2971],[4.7268,11.302],[4.7279,11.3062],[4.7329,11.3068],[4.7378,11.3042],[4.7438,11.3068],[4.7477,11.3114],[4.7605,11.3145],[4.7915,11.3268],[4.786,11.3356],[4.7752,11.3413],[4.7662,11.3591],[4.7757,11.3994],[4.7496,11.4364],[4.7445,11.4372],[4.7436,11.4396],[4.72,11.4597],[4.7033,11.4767],[4.6613,11.4748],[4.6377,11.4789],[4.6336,11.5174],[4.6164,11.5331],[4.6075,11.5344],[4.5905,11.5324],[4.5789,11.5247],[4.5413,11.5133],[4.5327,11.5028],[4.5191,11.4971],[4.5094,11.4961],[4.5197,11.4819],[4.5338,11.4757],[4.5381,11.4752],[4.5422,11.4774],[4.5489,11.4776],[4.5521,11.4758],[4.5553,11.4688],[4.5576,11.4667],[4.5604,11.467],[4.564,11.4649],[4.5655,11.4613],[4.5764,11.4611],[4.5893,11.464],[4.5947,11.4613],[4.57,11.4277],[4.5614,11.4207],[4.5502,11.4007],[4.5415,11.3735],[4.5324,11.3623],[4.5201,11.3411],[4.517,11.3385],[4.52,11.3085],[4.5143,11.2909],[4.5158,11.2671],[4.5136,11.2621],[4.496,11.2414],[4.4876,11.2396],[4.4859,11.2171],[4.4886,11.1921],[4.4976,11.1845],[4.4982,11.1766],[4.5106,11.1569],[4.5133,11.1481],[4.4934,11.1473],[4.4882,11.1426],[4.4814,11.1475],[4.4775,11.1461],[4.4697,11.1484],[4.4652,11.1517],[4.4631,11.156],[4.456,11.1627],[4.4405,11.165],[4.437,11.1664],[4.4315,11.1723],[4.4255,11.1741],[4.4187,11.1731],[4.409,11.1649],[4.3985,11.1655],[4.3766,11.1715],[4.3581,11.1789],[4.3519,11.1827],[4.3456,11.1834],[4.3377,11.1815],[4.3375,11.1658],[4.3328,11.158],[4.3282,11.1591],[4.3246,11.1568],[4.3129,11.1545],[4.3051,11.145],[4.3056,11.1308],[4.3068,11.1267],[4.3106,11.1244],[4.3116,11.1201],[4.3051,11.1099],[4.3044,11.1052],[4.3117,11.0905],[4.3138,11.0802],[4.312,11.0749],[4.3138,11.0641],[4.3167,11.0587],[4.3156,11.0569],[4.3295,11.0022],[4.3269,10.9867],[4.3199,10.9696],[4.3141,10.9499]]]}},{"type":"Feature","properties":{"name":"Suru","state":"Kebbi","scode":"KE","centroid":[11.8006,4.0983]},"geometry":{"type":"Polygon","coordinates":[[[3.9948,11.9992],[3.9691,11.9811],[3.9675,11.9757],[3.969,11.9715],[3.9728,11.9359],[3.9729,11.9159],[3.9633,11.888],[3.9597,11.8813],[3.9663,11.8658],[3.9693,11.837],[3.9989,11.807],[4.0147,11.7861],[4.0207,11.7685],[4.0165,11.7314],[4.0001,11.7272],[3.9896,11.7168],[3.9835,11.6657],[3.9729,11.6379],[3.9622,11.6175],[3.9532,11.6275],[3.9439,11.6412],[3.9177,11.6357],[3.8984,11.6401],[3.887,11.6402],[3.8516,11.6283],[3.837,11.6188],[3.8423,11.6101],[3.8356,11.59],[3.8312,11.5836],[3.8258,11.5811],[3.8207,11.5833],[3.8186,11.5866],[3.8114,11.5877],[3.8058,11.5735],[3.8178,11.5702],[3.8359,11.5698],[3.8408,11.5665],[3.8432,11.5692],[3.8559,11.5655],[3.8587,11.5623],[3.8615,11.5626],[3.8653,11.5573],[3.8738,11.5584],[3.8753,11.5565],[3.8755,11.5493],[3.8779,11.5474],[3.9023,11.5365],[3.9154,11.5284],[3.928,11.5225],[3.9364,11.5207],[3.9543,11.5239],[3.9602,11.5169],[3.9691,11.5105],[3.9893,11.5005],[4.0157,11.5616],[4.0368,11.5759],[4.0441,11.5694],[4.0541,11.5804],[4.059,11.5815],[4.0622,11.5999],[4.068,11.6095],[4.1059,11.615],[4.1078,11.6165],[4.1044,11.6483],[4.1444,11.6615],[4.1471,11.6564],[4.1508,11.6567],[4.1597,11.65],[4.1689,11.6486],[4.1699,11.6442],[4.1727,11.6447],[4.1741,11.6429],[4.1751,11.645],[4.1775,11.6457],[4.1807,11.642],[4.184,11.6422],[4.1879,11.6477],[4.1943,11.6462],[4.1992,11.6514],[4.1977,11.655],[4.194,11.6568],[4.1939,11.6597],[4.1955,11.6621],[4.2003,11.6599],[4.205,11.6604],[4.2057,11.663],[4.2038,11.6658],[4.2062,11.6715],[4.2087,11.6736],[4.2134,11.6737],[4.2167,11.6703],[4.2111,11.663],[4.2146,11.6577],[4.2186,11.6575],[4.2218,11.6594],[4.2271,11.6578],[4.2288,11.6598],[4.2308,11.6606],[4.2362,11.6562],[4.241,11.6569],[4.242,11.6601],[4.2403,11.6671],[4.2443,11.6708],[4.2471,11.6685],[4.2493,11.662],[4.2525,11.661],[4.255,11.662],[4.2564,11.6694],[4.2585,11.6711],[4.2592,11.6745],[4.2543,11.6792],[4.2567,11.6875],[4.2647,11.6925],[4.2656,11.6996],[4.2711,11.705],[4.2757,11.7058],[4.2772,11.7021],[4.2795,11.7013],[4.2849,11.7025],[4.2895,11.7096],[4.286,11.7121],[4.2862,11.7141],[4.2837,11.7174],[4.2883,11.7188],[4.2932,11.7239],[4.2939,11.7284],[4.2923,11.7346],[4.2963,11.7357],[4.3006,11.7329],[4.2914,11.7715],[4.2772,11.7986],[4.3049,11.8442],[4.3121,11.8484],[4.2917,11.9],[4.2816,11.9089],[4.2783,11.9143],[4.2777,11.9201],[4.2705,11.9225],[4.2658,11.9281],[4.2628,11.9282],[4.2625,11.9317],[4.2526,11.9297],[4.2474,11.9269],[4.2368,11.9261],[4.238,11.9285],[4.2367,11.933],[4.2277,11.9486],[4.2298,11.9667],[4.2259,11.9801],[4.2175,11.9827],[4.2036,12.0023],[4.214,12.0157],[4.2012,12.0483],[4.1659,12.0518],[4.1633,12.0665],[4.1516,12.0741],[4.1054,12.0739],[4.0924,12.0733],[4.0914,12.0719],[4.0813,12.0724],[4.0796,12.0689],[4.0811,12.0642],[4.0784,12.058],[4.047,12.0429],[4.048,12.0366],[4.0081,12.0146],[4.0177,12.003],[3.9948,11.9992]]]}},{"type":"Feature","properties":{"name":"Wasagu-Danko","state":"Kebbi","scode":"KE","centroid":[11.3852,5.7691]},"geometry":{"type":"MultiPolygon","coordinates":[[[[5.8679,11.1069],[5.8923,11.1108],[5.8975,11.1136],[5.9068,11.1371],[5.915,11.1451],[5.9777,11.167],[6.0006,11.1436],[6.0159,11.138],[6.0253,11.1717],[6.0324,11.1813],[6.0485,11.2097],[6.0552,11.2178],[6.0591,11.2298],[6.0699,11.2271],[6.0659,11.2102],[6.0547,11.2016],[6.0468,11.1626],[6.0693,11.1642],[6.0763,11.1687],[6.0957,11.1769],[6.1059,11.1833],[6.1172,11.2074],[6.1165,11.2239],[6.1091,11.2354],[6.1087,11.2384],[6.1357,11.2954],[6.1478,11.3056],[6.1731,11.3179],[6.1906,11.3341],[6.1747,11.3594],[6.2044,11.3837],[6.2009,11.39],[6.1776,11.384],[6.1543,11.383],[6.0923,11.3863],[6.0796,11.3884],[6.0529,11.4015],[6.0388,11.4207],[6.0301,11.4436],[6.0257,11.4449],[6.0095,11.4626],[5.968,11.4669],[5.9612,11.4541],[5.9463,11.4495],[5.9366,11.4438],[5.9338,11.4366],[5.8906,11.4405],[5.8761,11.4396],[5.8442,11.4328],[5.8355,11.4354],[5.8268,11.4443],[5.8237,11.4567],[5.8246,11.4985],[5.8164,11.5155],[5.8172,11.5368],[5.8159,11.5424],[5.8173,11.5477],[5.816,11.5532],[5.8179,11.5571],[5.8172,11.5601],[5.8214,11.5663],[5.82,11.5747],[5.8261,11.5792],[5.8266,11.5861],[5.8299,11.5944],[5.8288,11.6248],[5.8223,11.6343],[5.8195,11.6484],[5.7878,11.6789],[5.7803,11.6839],[5.7607,11.6866],[5.705,11.688],[5.6962,11.6706],[5.691,11.6673],[5.6697,11.6614],[5.6394,11.6629],[5.6049,11.6686],[5.5802,11.6754],[5.5641,11.6844],[5.5537,11.6767],[5.5515,11.6726],[5.5416,11.6657],[5.5275,11.6613],[5.5183,11.6708],[5.5155,11.6705],[5.5141,11.6648],[5.5129,11.6445],[5.501,11.6306],[5.4972,11.6129],[5.5024,11.5982],[5.5117,11.59],[5.5152,11.574],[5.5161,11.5571],[5.5102,11.5366],[5.5117,11.5234],[5.5067,11.4994],[5.5087,11.4882],[5.4815,11.4683],[5.4651,11.4687],[5.4474,11.4632],[5.4428,11.4579],[5.4349,11.4527],[5.4274,11.4521],[5.4187,11.4554],[5.406,11.4516],[5.4045,11.4295],[5.4021,11.4242],[5.4052,11.4141],[5.4128,11.4057],[5.4138,11.4019],[5.4254,11.3934],[5.4266,11.3885],[5.4181,11.3719],[5.4314,11.3636],[5.4419,11.3628],[5.4814,11.3492],[5.4904,11.3489],[5.4915,11.3416],[5.4748,11.3149],[5.4728,11.3035],[5.4875,11.3042],[5.5003,11.2842],[5.4848,11.2546],[5.4952,11.2507],[5.5236,11.2524],[5.5616,11.2499],[5.5777,11.2516],[5.6035,11.2481],[5.6312,11.2374],[5.6569,11.2094],[5.6839,11.1846],[5.7068,11.1726],[5.7172,11.1694],[5.7636,11.1669],[5.7768,11.1676],[5.7769,11.1711],[5.7725,11.171],[5.773,11.1742],[5.7757,11.1743],[5.7758,11.1781],[5.763,11.1812],[5.7602,11.1851],[5.7605,11.1875],[5.7637,11.1889],[5.7653,11.189],[5.766,11.1856],[5.7685,11.1858],[5.7726,11.1895],[5.7672,11.1962],[5.756,11.1978],[5.7581,11.2054],[5.7702,11.2036],[5.7829,11.2048],[5.8115,11.2047],[5.7951,11.1524],[5.7945,11.1351],[5.7983,11.1317],[5.8105,11.1326],[5.8283,11.1253],[5.85,11.1112],[5.8679,11.1069]]],[[[4.941,11.7308],[4.9431,11.7268],[4.9388,11.7224],[4.9344,11.7221],[4.9391,11.7035],[4.9342,11.6706],[4.9358,11.6572],[4.9535,11.6591],[4.9571,11.658],[4.9684,11.6289],[4.9799,11.6259],[4.9872,11.6257],[5.0124,11.6157],[5.0531,11.5873],[5.0684,11.5664],[5.0783,11.5474],[5.0828,11.5451],[5.0857,11.5414],[5.0873,11.5406],[5.0953,11.5429],[5.0983,11.5461],[5.1013,11.5453],[5.1014,11.5483],[5.1059,11.5501],[5.1076,11.5456],[5.1118,11.5441],[5.1207,11.5335],[5.1248,11.5059],[5.1314,11.5066],[5.1396,11.5049],[5.1404,11.5113],[5.1463,11.5235],[5.1432,11.539],[5.1531,11.5527],[5.1662,11.5558],[5.1702,11.5561],[5.1725,11.5465],[5.1782,11.5482],[5.182,11.5447],[5.1841,11.5392],[5.1984,11.5484],[5.2024,11.5442],[5.2092,11.5458],[5.2163,11.5366],[5.2223,11.5423],[5.2342,11.5452],[5.2323,11.5359],[5.2366,11.5336],[5.2496,11.5353],[5.2532,11.5328],[5.2623,11.5324],[5.2691,11.5327],[5.2832,11.5408],[5.2935,11.5432],[5.2965,11.5456],[5.3007,11.5598],[5.294,11.5656],[5.2957,11.5707],[5.3066,11.5738],[5.3096,11.5726],[5.3082,11.5679],[5.3181,11.5624],[5.3198,11.5567],[5.3342,11.5559],[5.346,11.56],[5.3504,11.5584],[5.3547,11.5601],[5.3549,11.5614],[5.3582,11.5558],[5.3573,11.5509],[5.3694,11.5513],[5.3844,11.5641],[5.396,11.5869],[5.4179,11.6123],[5.4292,11.6467],[5.4367,11.6582],[5.4436,11.6638],[5.4496,11.6657],[5.46,11.6731],[5.4602,11.6844],[5.4564,11.6951],[5.4541,11.6989],[5.4402,11.7088],[5.4285,11.7067],[5.4222,11.7087],[5.4128,11.7043],[5.4052,11.7029],[5.4013,11.7053],[5.397,11.712],[5.394,11.7107],[5.3854,11.7121],[5.3759,11.7096],[5.3689,11.7144],[5.3659,11.7139],[5.3623,11.7101],[5.3499,11.7093],[5.349,11.7101],[5.3508,11.7155],[5.3559,11.7222],[5.3527,11.7296],[5.3408,11.7345],[5.3365,11.7396],[5.3366,11.7495],[5.328,11.7722],[5.3193,11.7731],[5.3071,11.7583],[5.2962,11.7553],[5.2971,11.7607],[5.3132,11.7723],[5.3175,11.7779],[5.3177,11.7876],[5.3158,11.7908],[5.3123,11.7929],[5.3095,11.7937],[5.3027,11.7921],[5.3,11.7809],[5.2958,11.7745],[5.2928,11.7742],[5.288,11.7694],[5.2865,11.7693],[5.2837,11.7725],[5.2743,11.7759],[5.2708,11.78],[5.2638,11.7751],[5.2579,11.7735],[5.2517,11.7743],[5.2548,11.7673],[5.2538,11.7648],[5.238,11.7559],[5.2231,11.7567],[5.2193,11.7578],[5.2207,11.7655],[5.2153,11.7684],[5.2139,11.7705],[5.2149,11.772],[5.2141,11.7751],[5.1952,11.7836],[5.1906,11.7841],[5.1898,11.7866],[5.1825,11.792],[5.1779,11.7924],[5.1773,11.7878],[5.1742,11.7834],[5.1704,11.7833],[5.1662,11.7799],[5.173,11.769],[5.1829,11.7673],[5.1836,11.7661],[5.184,11.7597],[5.1819,11.7518],[5.1774,11.7441],[5.1702,11.7422],[5.1682,11.7436],[5.1638,11.7433],[5.1629,11.7418],[5.1589,11.7407],[5.1565,11.7367],[5.1512,11.7385],[5.1479,11.7378],[5.1459,11.7369],[5.145,11.7325],[5.1404,11.7305],[5.1349,11.7303],[5.1342,11.7284],[5.1296,11.7289],[5.1273,11.731],[5.1249,11.7298],[5.103,11.7378],[5.0814,11.7323],[5.0732,11.7269],[5.0712,11.7199],[5.0651,11.7114],[5.0655,11.7089],[5.0628,11.7081],[5.0566,11.7128],[5.0516,11.7201],[5.0441,11.7238],[5.0381,11.7234],[5.0342,11.7195],[5.0303,11.7198],[5.0272,11.7231],[5.0285,11.731],[5.0273,11.7336],[5.0145,11.7442],[5.01,11.7454],[5.0088,11.7493],[5.0071,11.7497],[5.0057,11.7466],[5.0005,11.748],[4.9953,11.7447],[4.9899,11.7464],[4.988,11.745],[4.9871,11.7407],[4.9773,11.737],[4.9737,11.7382],[4.9661,11.736],[4.9639,11.7385],[4.9603,11.7397],[4.9527,11.7393],[4.945,11.735],[4.9441,11.7323],[4.941,11.7308]]]]}},{"type":"Feature","properties":{"name":"Yauri","state":"Kebbi","scode":"KE","centroid":[10.7693,4.7351]},"geometry":{"type":"Polygon","coordinates":[[[4.6935,10.9191],[4.695,10.9193],[4.706,10.9],[4.7156,10.8903],[4.7202,10.8797],[4.7227,10.8669],[4.7204,10.8594],[4.7096,10.8517],[4.7097,10.8327],[4.7074,10.8243],[4.7021,10.8141],[4.6997,10.8018],[4.6981,10.8012],[4.6993,10.7985],[4.6964,10.7903],[4.6945,10.7758],[4.6948,10.7507],[4.6925,10.7447],[4.6959,10.7432],[4.695,10.7305],[4.6975,10.7189],[4.6931,10.7019],[4.6895,10.6946],[4.6878,10.6937],[4.6892,10.692],[4.688,10.6835],[4.6909,10.6694],[4.6908,10.6629],[4.6715,10.6411],[4.6588,10.6295],[4.6513,10.6185],[4.6461,10.6166],[4.6438,10.619],[4.6338,10.6114],[4.6533,10.5947],[4.6585,10.5948],[4.6608,10.5963],[4.6632,10.5939],[4.6765,10.6036],[4.6926,10.6121],[4.6939,10.6116],[4.6929,10.6092],[4.7453,10.5837],[4.7499,10.5853],[4.7653,10.6049],[4.7692,10.615],[4.7444,10.6388],[4.7292,10.642],[4.7321,10.6464],[4.7265,10.6563],[4.7279,10.6635],[4.7374,10.6654],[4.7379,10.6671],[4.7422,10.6689],[4.7452,10.675],[4.7538,10.7138],[4.7666,10.7233],[4.7564,10.7497],[4.7485,10.7564],[4.7471,10.7605],[4.7554,10.7832],[4.7762,10.7974],[4.7795,10.8061],[4.7809,10.8188],[4.7841,10.8181],[4.7909,10.8219],[4.7949,10.8219],[4.8109,10.8333],[4.8261,10.8493],[4.8271,10.8543],[4.8246,10.8579],[4.8257,10.8615],[4.822,10.881],[4.8263,10.8822],[4.8084,10.9023],[4.7959,10.9107],[4.7898,10.9109],[4.7646,10.9009],[4.762,10.9073],[4.7476,10.9156],[4.7391,10.9142],[4.73,10.9074],[4.7237,10.9106],[4.7201,10.9136],[4.7175,10.9194],[4.7179,10.9296],[4.7155,10.9349],[4.7158,10.941],[4.7135,10.9485],[4.7147,10.9521],[4.7068,10.9529],[4.6885,10.9514],[4.6795,10.9459],[4.6866,10.9365],[4.6896,10.9346],[4.6884,10.9317],[4.6894,10.9277],[4.6935,10.9191]]]}},{"type":"Feature","properties":{"name":"Zuru","state":"Kebbi","scode":"KE","centroid":[11.4286,5.2706]},"geometry":{"type":"Polygon","coordinates":[[[5.4138,11.4019],[5.4128,11.4057],[5.4052,11.4141],[5.4021,11.4242],[5.4045,11.4295],[5.406,11.4516],[5.4187,11.4554],[5.4274,11.4521],[5.4349,11.4527],[5.4428,11.4579],[5.4474,11.4632],[5.4651,11.4687],[5.4815,11.4683],[5.5087,11.4882],[5.5067,11.4994],[5.5117,11.5234],[5.5102,11.5366],[5.5161,11.5571],[5.5152,11.574],[5.5117,11.59],[5.5024,11.5982],[5.4972,11.6129],[5.501,11.6306],[5.5129,11.6445],[5.5141,11.6648],[5.5058,11.6631],[5.5025,11.6582],[5.4972,11.6559],[5.4813,11.6648],[5.4712,11.6638],[5.46,11.6731],[5.4496,11.6657],[5.4436,11.6638],[5.4367,11.6582],[5.4292,11.6467],[5.4179,11.6123],[5.396,11.5869],[5.3844,11.5641],[5.3694,11.5513],[5.3573,11.5509],[5.3582,11.5558],[5.3549,11.5614],[5.3547,11.5601],[5.3504,11.5584],[5.346,11.56],[5.3342,11.5559],[5.3198,11.5567],[5.3181,11.5624],[5.3082,11.5679],[5.3096,11.5726],[5.3066,11.5738],[5.2957,11.5707],[5.294,11.5656],[5.3007,11.5598],[5.2965,11.5456],[5.2935,11.5432],[5.2832,11.5408],[5.2691,11.5327],[5.2623,11.5324],[5.2532,11.5328],[5.2496,11.5353],[5.2366,11.5336],[5.2323,11.5359],[5.2342,11.5452],[5.2223,11.5423],[5.2163,11.5366],[5.2092,11.5458],[5.2024,11.5442],[5.1984,11.5484],[5.1841,11.5392],[5.182,11.5447],[5.1782,11.5482],[5.1725,11.5465],[5.1702,11.5561],[5.1662,11.5558],[5.1531,11.5527],[5.1432,11.539],[5.1463,11.5235],[5.1404,11.5113],[5.1396,11.5049],[5.143,11.4973],[5.1628,11.4841],[5.1632,11.4687],[5.1585,11.4637],[5.133,11.4529],[5.1348,11.4432],[5.1332,11.4362],[5.1232,11.4134],[5.1441,11.4114],[5.1419,11.3939],[5.1281,11.3702],[5.1207,11.3525],[5.1126,11.3433],[5.1022,11.3388],[5.0792,11.3351],[5.0489,11.3364],[5.0435,11.3344],[5.0268,11.3343],[5.0105,11.3323],[4.9992,11.3255],[4.9945,11.3159],[4.9883,11.313],[4.996,11.3104],[4.9997,11.2945],[5.0018,11.291],[4.9964,11.2842],[4.9989,11.2754],[5.0032,11.267],[5.0054,11.2576],[5.0119,11.252],[5.0167,11.2512],[5.0255,11.256],[5.0327,11.2608],[5.0344,11.2649],[5.0408,11.2705],[5.0456,11.2729],[5.052,11.2729],[5.0585,11.2705],[5.0649,11.2544],[5.0625,11.2448],[5.0528,11.2311],[5.0488,11.2279],[5.0488,11.2111],[5.0528,11.2054],[5.0576,11.2046],[5.0625,11.2086],[5.0713,11.2271],[5.0713,11.2376],[5.1855,11.228],[5.2334,11.2182],[5.2444,11.2449],[5.2431,11.2906],[5.2497,11.3094],[5.2687,11.3189],[5.3331,11.3564],[5.3428,11.3652],[5.3451,11.3691],[5.3457,11.3719],[5.3426,11.3771],[5.3403,11.387],[5.3433,11.3884],[5.3444,11.3908],[5.3486,11.3908],[5.3492,11.3895],[5.3545,11.3959],[5.3601,11.3971],[5.3704,11.4048],[5.3819,11.4045],[5.3836,11.3931],[5.3869,11.3962],[5.3946,11.3992],[5.397,11.3963],[5.4064,11.3977],[5.4138,11.4019]]]}}]}