{"type":"FeatureCollection","features":[{"type":"Feature","properties":{"name":"Ajingi","state":"Kano","scode":"KN","centroid":[11.978,9.0605]},"geometry":{"type":"Polygon","coordinates":[[[8.905,11.9208],[8.9281,11.9307],[8.9406,11.9339],[8.9535,11.9354],[8.957,11.947],[8.9619,11.9463],[8.97,11.9405],[8.9732,11.9403],[8.9762,11.9355],[8.9801,11.9328],[8.9859,11.9366],[9.004,11.9314],[9.0088,11.9376],[9.0243,11.9382],[9.0284,11.9336],[9.0308,11.9233],[9.0332,11.9282],[9.0366,11.9267],[9.0376,11.918],[9.0392,11.9162],[9.0536,11.9159],[9.0664,11.918],[9.0676,11.9106],[9.0935,11.9051],[9.1041,11.9047],[9.1023,11.8976],[9.0988,11.897],[9.0933,11.8781],[9.0836,11.8684],[9.0757,11.8392],[9.1124,11.8464],[9.1178,11.8437],[9.1295,11.8409],[9.1433,11.8411],[9.145,11.8316],[9.1538,11.8345],[9.1581,11.8563],[9.1541,11.861],[9.1588,11.8672],[9.1621,11.8797],[9.1673,11.8839],[9.1668,11.8861],[9.1817,11.8977],[9.202,11.9047],[9.207,11.9242],[9.2075,11.9463],[9.207,11.9565],[9.201,11.9619],[9.223,11.9896],[9.228,12.0144],[9.224,12.0262],[9.2203,12.0321],[9.214,12.0541],[9.2004,12.0683],[9.1987,12.0828],[9.1938,12.0846],[9.1819,12.0854],[9.1563,12.0675],[9.1528,12.0548],[9.1475,12.0482],[9.1477,12.0455],[9.1454,12.0416],[9.1519,12.0276],[9.1489,12.0194],[9.1443,12.0262],[9.1333,12.0353],[9.0983,12.0229],[9.0847,12.0274],[9.0828,12.0328],[9.0837,12.0386],[9.0815,12.0462],[9.078,12.0462],[9.0771,12.0596],[9.0741,12.0735],[9.0466,12.074],[9.0438,12.0757],[9.0145,12.0699],[9.0119,12.0686],[9.0098,12.0641],[9.0037,12.0629],[8.996,12.0644],[8.9885,12.0684],[8.9851,12.0798],[8.978,12.0838],[8.9725,12.0844],[8.9488,12.0755],[8.9457,12.0723],[8.9305,12.049],[8.9233,12.0412],[8.9091,12.0372],[8.8997,12.0299],[8.8979,12.0255],[8.8956,12.0088],[8.8692,11.9803],[8.866,11.9752],[8.8636,11.9614],[8.8626,11.9449],[8.8637,11.9326],[8.8656,11.9272],[8.8639,11.9118],[8.8826,11.913],[8.8886,11.9231],[8.905,11.9208]]]}},{"type":"Feature","properties":{"name":"Albasu","state":"Kano","scode":"KN","centroid":[11.6439,9.1092]},"geometry":{"type":"Polygon","coordinates":[[[9.3274,11.5771],[9.319,11.5806],[9.3117,11.5888],[9.2819,11.6131],[9.2691,11.6271],[9.2675,11.631],[9.2778,11.6387],[9.274,11.6441],[9.2545,11.6427],[9.2414,11.6454],[9.2412,11.6571],[9.2376,11.6619],[9.2335,11.6631],[9.2352,11.6726],[9.2333,11.6731],[9.233,11.6766],[9.2339,11.6797],[9.2446,11.6785],[9.2437,11.6897],[9.2486,11.6902],[9.2489,11.6967],[9.2258,11.7357],[9.2025,11.7305],[9.193,11.7206],[9.1887,11.7128],[9.1818,11.71],[9.1826,11.7073],[9.1743,11.7028],[9.1712,11.7026],[9.1657,11.7066],[9.1574,11.7192],[9.1277,11.7112],[9.0801,11.7106],[9.0755,11.705],[9.0635,11.6976],[9.0542,11.6935],[9.0403,11.6905],[9.014,11.6961],[9.0132,11.7012],[9.0187,11.7104],[9.0242,11.728],[9.0207,11.733],[9.0188,11.7328],[9.017,11.7297],[9.0136,11.7287],[9.0039,11.735],[9.0022,11.7379],[9.0023,11.7412],[8.9848,11.7353],[8.9767,11.7346],[8.9707,11.7237],[8.9607,11.7207],[8.9581,11.7248],[8.9521,11.7277],[8.9376,11.727],[8.9303,11.7303],[8.9241,11.7229],[8.9177,11.718],[8.9182,11.7075],[8.9348,11.7069],[8.9453,11.709],[8.9545,11.6938],[8.9584,11.6793],[8.956,11.6687],[8.9605,11.6653],[8.9613,11.6609],[8.9611,11.6569],[8.9494,11.6446],[8.9426,11.6341],[8.9352,11.635],[8.9352,11.6318],[8.9443,11.6326],[8.9507,11.6265],[8.9312,11.6138],[8.9457,11.608],[8.9529,11.5985],[8.9584,11.5956],[8.9701,11.5841],[8.9673,11.5756],[8.9682,11.5711],[8.984,11.5714],[8.9839,11.566],[8.9969,11.5636],[9.0208,11.5765],[9.0248,11.5701],[9.0274,11.5607],[9.0312,11.5561],[9.0496,11.5557],[9.0574,11.5516],[9.063,11.5518],[9.062,11.5661],[9.0667,11.5874],[9.0774,11.6132],[9.0991,11.6281],[9.1065,11.6274],[9.1124,11.6313],[9.1196,11.6303],[9.1272,11.637],[9.1269,11.6391],[9.129,11.6405],[9.13,11.6467],[9.1314,11.6472],[9.1336,11.6529],[9.1602,11.6525],[9.1603,11.6444],[9.1641,11.6356],[9.1594,11.6298],[9.1615,11.6256],[9.1638,11.6139],[9.1742,11.609],[9.1821,11.5975],[9.1745,11.5938],[9.1763,11.5872],[9.1757,11.5833],[9.1689,11.5736],[9.175,11.5568],[9.1917,11.5498],[9.1954,11.5497],[9.2095,11.5586],[9.2242,11.5617],[9.2401,11.5618],[9.2522,11.5646],[9.2602,11.5629],[9.3079,11.569],[9.3185,11.5718],[9.3274,11.5771]]]}},{"type":"Feature","properties":{"name":"Bagwai","state":"Kano","scode":"KN","centroid":[12.1037,8.1325]},"geometry":{"type":"Polygon","coordinates":[[[8.1419,11.9932],[8.1403,12.0041],[8.1508,12.0037],[8.1663,12.0079],[8.1719,12.0129],[8.1804,12.0059],[8.1989,12.0145],[8.2162,12.0169],[8.2249,12.0165],[8.2347,12.0187],[8.2389,12.021],[8.2404,12.0189],[8.2471,12.0174],[8.2471,12.0215],[8.2457,12.0304],[8.2582,12.0453],[8.2493,12.0508],[8.2647,12.0707],[8.266,12.0742],[8.2686,12.0752],[8.2685,12.0817],[8.2582,12.0856],[8.2508,12.12],[8.238,12.1316],[8.2278,12.1382],[8.2189,12.1387],[8.2154,12.142],[8.2071,12.1433],[8.1833,12.1615],[8.1903,12.17],[8.184,12.1854],[8.1828,12.1961],[8.1739,12.2076],[8.1652,12.207],[8.1576,12.19],[8.1447,12.1973],[8.1309,12.2104],[8.1193,12.2049],[8.1231,12.2026],[8.1246,12.1992],[8.1252,12.1933],[8.122,12.188],[8.1175,12.1897],[8.1157,12.1891],[8.114,12.1918],[8.1122,12.19],[8.1134,12.1878],[8.1123,12.1861],[8.1072,12.1836],[8.0983,12.1837],[8.093,12.1822],[8.0875,12.1854],[8.0799,12.1851],[8.0743,12.1828],[8.0552,12.1797],[8.0418,12.1816],[8.0334,12.1748],[8.0264,12.1669],[8.0329,12.1516],[8.0053,12.1445],[8.0045,12.1538],[8.0013,12.1562],[7.9992,12.1629],[7.9923,12.1608],[7.9912,12.1532],[7.994,12.1284],[8.0011,12.1289],[8.001,12.1213],[7.9907,12.1162],[7.9836,12.0981],[7.9847,12.0933],[7.9887,12.0906],[7.9929,12.0838],[8.0095,12.0776],[8.0082,12.0693],[8.0144,12.0712],[8.0152,12.0694],[8.0193,12.0685],[8.0158,12.0599],[8.0318,12.0545],[8.0346,12.0631],[8.039,12.0691],[8.0441,12.0676],[8.0437,12.0598],[8.0493,12.0534],[8.0564,12.0542],[8.0573,12.0625],[8.0631,12.0615],[8.0828,12.0623],[8.0882,12.064],[8.092,12.0683],[8.1045,12.0691],[8.1051,12.0674],[8.1091,12.0674],[8.112,12.0695],[8.1147,12.0621],[8.1172,12.0599],[8.1143,12.0451],[8.1188,12.0421],[8.1237,12.0412],[8.1247,12.0334],[8.122,12.0268],[8.1206,12.0152],[8.1228,12.012],[8.1273,12.0011],[8.1345,11.9909],[8.1419,11.9932]]]}},{"type":"Feature","properties":{"name":"Bebeji","state":"Kano","scode":"KN","centroid":[11.5348,8.3103]},"geometry":{"type":"Polygon","coordinates":[[[8.4331,11.4225],[8.4334,11.4264],[8.4307,11.4259],[8.4279,11.4287],[8.4282,11.4306],[8.4332,11.4333],[8.4318,11.4358],[8.4333,11.4368],[8.429,11.4353],[8.4228,11.4403],[8.4282,11.4442],[8.4335,11.4442],[8.433,11.4456],[8.4341,11.4463],[8.4307,11.4506],[8.4276,11.4499],[8.4274,11.4546],[8.4246,11.4568],[8.4247,11.4603],[8.4263,11.4619],[8.4254,11.4633],[8.416,11.4646],[8.4082,11.4634],[8.3966,11.4679],[8.4131,11.489],[8.4131,11.4932],[8.4171,11.5004],[8.4262,11.5046],[8.4258,11.5097],[8.4286,11.5171],[8.4271,11.5212],[8.4199,11.5278],[8.4161,11.5353],[8.4243,11.5468],[8.4252,11.5551],[8.4338,11.5768],[8.434,11.5817],[8.4223,11.5826],[8.4222,11.5796],[8.4042,11.5755],[8.3908,11.5844],[8.3751,11.6062],[8.3787,11.6098],[8.3769,11.6133],[8.3746,11.6151],[8.3692,11.6156],[8.3691,11.6173],[8.3662,11.6188],[8.3663,11.6237],[8.3644,11.6266],[8.3656,11.6301],[8.3577,11.6413],[8.3584,11.6432],[8.3521,11.6562],[8.348,11.6609],[8.3418,11.6636],[8.3358,11.6699],[8.3341,11.6762],[8.3346,11.6848],[8.3316,11.6882],[8.3299,11.695],[8.3304,11.7086],[8.3325,11.7194],[8.3317,11.7274],[8.3273,11.7274],[8.3256,11.7239],[8.3187,11.7214],[8.3157,11.721],[8.3107,11.7231],[8.3012,11.7201],[8.2926,11.7219],[8.2786,11.7319],[8.2744,11.73],[8.273,11.7243],[8.2706,11.7177],[8.2324,11.7125],[8.2276,11.7086],[8.212,11.6853],[8.2202,11.6802],[8.2189,11.6757],[8.2229,11.6734],[8.2237,11.6695],[8.2228,11.6663],[8.2177,11.6604],[8.2181,11.6558],[8.2163,11.6469],[8.2327,11.6436],[8.226,11.6384],[8.2199,11.6305],[8.2088,11.6339],[8.2031,11.6277],[8.201,11.6294],[8.1922,11.6242],[8.1885,11.6081],[8.2049,11.6063],[8.2095,11.5997],[8.207,11.5958],[8.209,11.5907],[8.2076,11.5892],[8.2149,11.5796],[8.2099,11.5553],[8.2103,11.5409],[8.2174,11.5178],[8.2181,11.5119],[8.2148,11.5079],[8.2112,11.492],[8.207,11.4884],[8.2016,11.4803],[8.2033,11.469],[8.2058,11.4656],[8.202,11.4615],[8.2062,11.4526],[8.2017,11.4501],[8.2048,11.4431],[8.2094,11.4399],[8.2394,11.4553],[8.2487,11.457],[8.2538,11.4451],[8.2629,11.4395],[8.2728,11.4375],[8.266,11.4277],[8.2669,11.4131],[8.2688,11.407],[8.2664,11.4055],[8.2743,11.3947],[8.2727,11.3897],[8.2753,11.3785],[8.2737,11.3751],[8.2775,11.3708],[8.2833,11.3697],[8.2903,11.3635],[8.2869,11.3588],[8.29,11.354],[8.3013,11.3467],[8.3073,11.3482],[8.3139,11.3446],[8.3179,11.3461],[8.3232,11.3485],[8.3282,11.3545],[8.332,11.3553],[8.3349,11.3543],[8.3345,11.3586],[8.3437,11.36],[8.342,11.3637],[8.3502,11.3646],[8.3565,11.3691],[8.3602,11.3685],[8.3659,11.3641],[8.369,11.3667],[8.3714,11.3662],[8.3733,11.362],[8.3788,11.367],[8.3796,11.3756],[8.3857,11.3766],[8.3999,11.4041],[8.4331,11.4225]]]}},{"type":"Feature","properties":{"name":"Bichi","state":"Kano","scode":"KN","centroid":[12.2799,8.2666]},"geometry":{"type":"Polygon","coordinates":[[[8.4842,12.2605],[8.4792,12.2736],[8.4729,12.284],[8.4726,12.2863],[8.4794,12.2911],[8.474,12.3016],[8.4672,12.3094],[8.4633,12.3118],[8.4495,12.3161],[8.451,12.3205],[8.4509,12.3279],[8.446,12.3237],[8.4394,12.3223],[8.439,12.3281],[8.4365,12.3314],[8.4352,12.3383],[8.4356,12.3566],[8.4335,12.3575],[8.4171,12.352],[8.409,12.351],[8.3976,12.3521],[8.3855,12.3457],[8.3677,12.3545],[8.3601,12.3568],[8.3596,12.371],[8.3835,12.3742],[8.3843,12.3754],[8.3842,12.3837],[8.3775,12.3848],[8.3687,12.3905],[8.3603,12.3829],[8.3596,12.375],[8.3531,12.3715],[8.3508,12.3644],[8.3425,12.3564],[8.3421,12.3509],[8.3327,12.3376],[8.3049,12.3321],[8.309,12.3502],[8.2578,12.347],[8.2464,12.3547],[8.2447,12.3689],[8.2346,12.381],[8.1998,12.3544],[8.1938,12.3435],[8.1881,12.3465],[8.1853,12.3577],[8.1791,12.3715],[8.1794,12.3855],[8.1845,12.4],[8.1597,12.4011],[8.1516,12.4276],[8.1361,12.4241],[8.131,12.4152],[8.1191,12.4061],[8.1143,12.3809],[8.1103,12.3686],[8.0812,12.3663],[8.0778,12.3557],[8.0909,12.3561],[8.0935,12.3527],[8.0928,12.3489],[8.0978,12.3439],[8.0974,12.3409],[8.0826,12.3344],[8.0962,12.3147],[8.1183,12.2986],[8.1155,12.2967],[8.1139,12.2888],[8.1404,12.2763],[8.1413,12.2668],[8.1404,12.259],[8.1294,12.2547],[8.1217,12.2553],[8.1186,12.2528],[8.1183,12.2319],[8.115,12.2265],[8.1169,12.2092],[8.1193,12.2049],[8.1309,12.2104],[8.1447,12.1973],[8.1576,12.19],[8.1652,12.207],[8.1739,12.2076],[8.1828,12.1961],[8.184,12.1854],[8.1903,12.17],[8.1833,12.1615],[8.2071,12.1433],[8.2154,12.142],[8.2147,12.1544],[8.2041,12.1541],[8.206,12.1611],[8.2088,12.1635],[8.211,12.1691],[8.2252,12.1718],[8.2297,12.1689],[8.2303,12.1622],[8.2526,12.163],[8.2528,12.1554],[8.2647,12.1479],[8.2697,12.1495],[8.2912,12.1468],[8.2922,12.177],[8.2963,12.1852],[8.3186,12.1896],[8.352,12.1877],[8.3535,12.1934],[8.3679,12.2141],[8.3827,12.2285],[8.3886,12.2269],[8.3882,12.2233],[8.396,12.2211],[8.3994,12.2349],[8.4028,12.2414],[8.4108,12.2516],[8.4146,12.254],[8.4215,12.2558],[8.4292,12.2527],[8.4334,12.2479],[8.44,12.2306],[8.4466,12.2286],[8.4468,12.2299],[8.4539,12.23],[8.4584,12.2317],[8.4643,12.2461],[8.4842,12.2605]]]}},{"type":"Feature","properties":{"name":"Bunkure","state":"Kano","scode":"KN","centroid":[11.6764,8.5866]},"geometry":{"type":"Polygon","coordinates":[[[8.4715,11.7172],[8.4593,11.7149],[8.4494,11.7001],[8.4329,11.6849],[8.4349,11.6626],[8.4507,11.6624],[8.4542,11.6531],[8.4559,11.639],[8.4456,11.598],[8.4644,11.5777],[8.4634,11.5731],[8.4656,11.5669],[8.4626,11.5569],[8.4704,11.5545],[8.4862,11.5547],[8.4928,11.5725],[8.515,11.5679],[8.5234,11.5753],[8.5184,11.5863],[8.5127,11.5903],[8.5146,11.5947],[8.5197,11.6029],[8.5299,11.5996],[8.5375,11.6022],[8.5435,11.6063],[8.545,11.6184],[8.5545,11.6176],[8.5613,11.6088],[8.5669,11.5878],[8.5926,11.5894],[8.592,11.6305],[8.598,11.6311],[8.6066,11.6293],[8.6077,11.6191],[8.6162,11.618],[8.617,11.6243],[8.6256,11.6265],[8.6318,11.6302],[8.6353,11.635],[8.6408,11.6331],[8.6466,11.6369],[8.6491,11.6371],[8.6499,11.6352],[8.6721,11.6345],[8.6708,11.6375],[8.6752,11.6387],[8.68,11.6341],[8.6867,11.6336],[8.6926,11.6292],[8.7075,11.6287],[8.7119,11.623],[8.7172,11.6269],[8.7171,11.6305],[8.7437,11.6301],[8.7532,11.6285],[8.752,11.6326],[8.7558,11.6357],[8.7543,11.6413],[8.7592,11.6514],[8.756,11.653],[8.758,11.6571],[8.7576,11.6636],[8.7615,11.6624],[8.7637,11.6636],[8.7616,11.6676],[8.7628,11.6704],[8.7671,11.6713],[8.7664,11.6761],[8.7687,11.6797],[8.7647,11.6858],[8.7652,11.6881],[8.7573,11.6923],[8.7576,11.6936],[8.7638,11.6941],[8.7572,11.6996],[8.7597,11.7005],[8.7605,11.7037],[8.7574,11.7029],[8.7564,11.7062],[8.7542,11.7063],[8.7549,11.7091],[8.7507,11.7112],[8.7514,11.7138],[8.7539,11.7128],[8.7587,11.7148],[8.7567,11.7198],[8.7574,11.7235],[8.7563,11.7262],[8.7575,11.7288],[8.7566,11.7382],[8.7592,11.7405],[8.7622,11.7393],[8.7628,11.7415],[8.7571,11.7461],[8.7588,11.7488],[8.7584,11.759],[8.76,11.7578],[8.7619,11.7596],[8.7678,11.7593],[8.7642,11.7626],[8.7454,11.7694],[8.7343,11.766],[8.7316,11.7668],[8.7262,11.7639],[8.7201,11.7657],[8.7174,11.768],[8.7064,11.7701],[8.7072,11.7464],[8.7048,11.7301],[8.7017,11.7197],[8.6967,11.7164],[8.6903,11.7066],[8.6882,11.6967],[8.6908,11.6845],[8.7001,11.6761],[8.6953,11.6745],[8.6751,11.6586],[8.6617,11.6642],[8.6603,11.6716],[8.6614,11.6904],[8.6532,11.6938],[8.6526,11.7043],[8.655,11.7121],[8.6592,11.717],[8.656,11.7206],[8.652,11.7292],[8.6502,11.728],[8.6472,11.7308],[8.6491,11.7322],[8.6464,11.7374],[8.6402,11.733],[8.6374,11.7281],[8.6322,11.7269],[8.6197,11.7373],[8.6183,11.7524],[8.608,11.7481],[8.5848,11.7445],[8.5852,11.7619],[8.5824,11.7663],[8.575,11.7717],[8.5674,11.7816],[8.5556,11.7757],[8.5422,11.7722],[8.5378,11.7637],[8.5335,11.764],[8.5298,11.773],[8.5017,11.7588],[8.5004,11.7451],[8.5027,11.7395],[8.4967,11.7332],[8.4835,11.7277],[8.4747,11.7152],[8.4715,11.7172]]]}},{"type":"Feature","properties":{"name":"Dala","state":"Kano","scode":"KN","centroid":[12.0224,8.4947]},"geometry":{"type":"Polygon","coordinates":[[[8.4663,12.0655],[8.4644,12.0645],[8.4664,12.0604],[8.4646,12.0596],[8.4694,12.053],[8.4694,12.0488],[8.471,12.0464],[8.4754,12.0493],[8.4779,12.0436],[8.4837,12.0365],[8.4821,12.0358],[8.4844,12.0324],[8.4792,12.0292],[8.4728,12.0276],[8.4729,12.0264],[8.469,12.0239],[8.4879,12.0121],[8.4893,12.0119],[8.4916,12.0184],[8.4939,12.0167],[8.4924,12.0161],[8.4927,12.0147],[8.4941,12.0139],[8.4955,12.0149],[8.4992,12.0121],[8.495,12.005],[8.4946,11.9969],[8.5011,11.9976],[8.5015,11.9945],[8.5029,11.9939],[8.5087,12.0003],[8.508,12.0017],[8.5095,12.0023],[8.5098,12.0049],[8.5124,12.0054],[8.5166,12.01],[8.5208,12.0119],[8.5221,12.0112],[8.5249,12.0147],[8.5234,12.0163],[8.5181,12.021],[8.5155,12.0195],[8.5096,12.0275],[8.5009,12.0266],[8.4992,12.0312],[8.4925,12.0351],[8.48,12.0474],[8.4663,12.0655]]]}},{"type":"Feature","properties":{"name":"Dambatta","state":"Kano","scode":"KN","centroid":[12.43,8.6206]},"geometry":{"type":"Polygon","coordinates":[[[8.7326,12.2688],[8.7235,12.2948],[8.7251,12.3055],[8.734,12.3059],[8.7402,12.3158],[8.7518,12.3286],[8.7469,12.332],[8.7556,12.344],[8.78,12.3412],[8.783,12.3662],[8.7951,12.3823],[8.785,12.3926],[8.7804,12.3871],[8.774,12.4033],[8.7638,12.4199],[8.7574,12.4213],[8.7387,12.4172],[8.7334,12.4234],[8.7295,12.4255],[8.7099,12.4159],[8.7049,12.4273],[8.6956,12.4428],[8.6989,12.4546],[8.6886,12.4685],[8.6875,12.4828],[8.6932,12.4946],[8.6971,12.4951],[8.705,12.5025],[8.7145,12.5235],[8.7181,12.538],[8.7282,12.546],[8.7376,12.551],[8.73,12.5591],[8.7191,12.5666],[8.6919,12.5722],[8.6832,12.5619],[8.6608,12.5589],[8.6457,12.5598],[8.6487,12.5835],[8.6407,12.593],[8.6112,12.5946],[8.5998,12.5971],[8.556,12.6026],[8.532,12.6007],[8.54,12.5801],[8.5257,12.5764],[8.5263,12.5665],[8.5317,12.5521],[8.5489,12.552],[8.5522,12.5313],[8.5504,12.5196],[8.5515,12.4996],[8.5484,12.486],[8.4905,12.4836],[8.4881,12.4885],[8.4891,12.495],[8.4872,12.5041],[8.4728,12.5036],[8.4721,12.5125],[8.446,12.5144],[8.4447,12.5118],[8.4481,12.4991],[8.4434,12.4896],[8.4333,12.4952],[8.4251,12.4878],[8.443,12.4747],[8.4459,12.4454],[8.472,12.4473],[8.4841,12.445],[8.4888,12.4297],[8.489,12.4147],[8.495,12.4088],[8.4906,12.3906],[8.4833,12.3885],[8.4783,12.3822],[8.4771,12.3783],[8.4741,12.3758],[8.458,12.3696],[8.4465,12.3553],[8.4576,12.3519],[8.4783,12.3598],[8.494,12.3726],[8.5015,12.3767],[8.4991,12.3834],[8.5022,12.3859],[8.5259,12.3869],[8.5322,12.3821],[8.539,12.3815],[8.5493,12.3867],[8.5498,12.3792],[8.5381,12.3698],[8.5472,12.3618],[8.5663,12.3518],[8.5653,12.3498],[8.5674,12.3209],[8.5764,12.3025],[8.5894,12.2942],[8.5923,12.2868],[8.5981,12.2796],[8.6003,12.2673],[8.598,12.26],[8.6029,12.2599],[8.6059,12.2555],[8.6088,12.2574],[8.6112,12.2531],[8.6382,12.2625],[8.6429,12.262],[8.6471,12.2553],[8.6561,12.2678],[8.6641,12.2723],[8.6675,12.277],[8.6674,12.2898],[8.665,12.2991],[8.6739,12.306],[8.6962,12.2974],[8.7041,12.2884],[8.7081,12.2734],[8.703,12.2711],[8.7032,12.2664],[8.7048,12.2653],[8.7129,12.2647],[8.7326,12.2688]]]}},{"type":"Feature","properties":{"name":"Dawakin Kudu","state":"Kano","scode":"KN","centroid":[11.8198,8.6599]},"geometry":{"type":"Polygon","coordinates":[[[8.6183,11.7524],[8.6197,11.7373],[8.6322,11.7269],[8.6374,11.7281],[8.6402,11.733],[8.6464,11.7374],[8.6491,11.7322],[8.6472,11.7308],[8.6502,11.728],[8.652,11.7292],[8.656,11.7206],[8.6592,11.717],[8.655,11.7121],[8.6526,11.7043],[8.6532,11.6938],[8.6614,11.6904],[8.6603,11.6716],[8.6617,11.6642],[8.6751,11.6586],[8.6953,11.6745],[8.7001,11.6761],[8.6908,11.6845],[8.6882,11.6967],[8.6903,11.7066],[8.6967,11.7164],[8.7017,11.7197],[8.7048,11.7301],[8.7072,11.7464],[8.7064,11.7701],[8.7174,11.768],[8.7201,11.7657],[8.7262,11.7639],[8.7316,11.7668],[8.7343,11.766],[8.7454,11.7694],[8.7642,11.7626],[8.7678,11.7593],[8.7694,11.7578],[8.7731,11.7586],[8.7793,11.7694],[8.7866,11.7693],[8.7901,11.7714],[8.7919,11.7734],[8.7919,11.7782],[8.8001,11.7824],[8.811,11.7989],[8.8207,11.7982],[8.8143,11.8102],[8.8159,11.8122],[8.8137,11.8139],[8.8074,11.8168],[8.7894,11.8191],[8.7745,11.8349],[8.7704,11.8352],[8.7665,11.8293],[8.7622,11.8261],[8.7568,11.8275],[8.756,11.8304],[8.7475,11.8244],[8.7419,11.8256],[8.7429,11.8309],[8.7387,11.8431],[8.7368,11.8442],[8.7248,11.8401],[8.7075,11.8615],[8.7175,11.8818],[8.7364,11.8839],[8.7377,11.8873],[8.736,11.8938],[8.7245,11.9017],[8.7138,11.9199],[8.6997,11.9162],[8.6839,11.9092],[8.6738,11.9076],[8.6663,11.921],[8.6674,11.9212],[8.6682,11.9261],[8.6748,11.9335],[8.6731,11.9371],[8.6616,11.9336],[8.6497,11.9335],[8.6317,11.937],[8.6304,11.9276],[8.6355,11.918],[8.6281,11.9138],[8.6091,11.9111],[8.6117,11.8945],[8.6137,11.8924],[8.6107,11.8905],[8.5886,11.8841],[8.5798,11.8846],[8.5813,11.8821],[8.5661,11.8808],[8.5585,11.8808],[8.5564,11.887],[8.5532,11.8902],[8.5362,11.8914],[8.5354,11.8871],[8.5225,11.89],[8.5217,11.8855],[8.5179,11.8799],[8.5102,11.8769],[8.5059,11.8663],[8.5017,11.8643],[8.5038,11.8541],[8.5087,11.8494],[8.5097,11.8461],[8.5115,11.8431],[8.5161,11.8427],[8.5233,11.8255],[8.5224,11.8216],[8.5234,11.8209],[8.5259,11.8205],[8.5303,11.8239],[8.5339,11.8218],[8.5404,11.824],[8.553,11.8227],[8.5732,11.8138],[8.584,11.803],[8.5953,11.8089],[8.6037,11.7996],[8.6005,11.7861],[8.6142,11.7671],[8.6169,11.761],[8.6168,11.7552],[8.6183,11.7524]]]}},{"type":"Feature","properties":{"name":"Dawakin Tofa","state":"Kano","scode":"KN","centroid":[12.1494,8.3912]},"geometry":{"type":"Polygon","coordinates":[[[8.3877,12.0222],[8.3978,12.0197],[8.397,12.0217],[8.3997,12.0242],[8.3994,12.0273],[8.4031,12.0293],[8.4025,12.0327],[8.4059,12.0331],[8.4062,12.0352],[8.4046,12.0363],[8.407,12.0381],[8.4054,12.0409],[8.4077,12.0451],[8.4093,12.0456],[8.4086,12.0482],[8.4101,12.048],[8.4101,12.0496],[8.4137,12.0512],[8.4139,12.0533],[8.4161,12.0537],[8.4166,12.0566],[8.4191,12.0583],[8.4178,12.0602],[8.4252,12.062],[8.4432,12.076],[8.4447,12.0832],[8.4425,12.0851],[8.4404,12.0909],[8.4411,12.0928],[8.4535,12.0976],[8.4758,12.1153],[8.4818,12.124],[8.494,12.13],[8.4995,12.1297],[8.5075,12.1315],[8.5049,12.1365],[8.507,12.1443],[8.5145,12.1442],[8.5081,12.16],[8.5035,12.1595],[8.4908,12.1658],[8.4968,12.1759],[8.4957,12.1868],[8.4973,12.2005],[8.5224,12.2043],[8.5234,12.2138],[8.5181,12.2145],[8.5066,12.2121],[8.5016,12.2062],[8.4984,12.2067],[8.4964,12.2152],[8.4932,12.2172],[8.4947,12.2213],[8.4941,12.2298],[8.4962,12.2356],[8.5079,12.2422],[8.5136,12.2481],[8.5149,12.257],[8.5149,12.2648],[8.4994,12.2607],[8.4941,12.2573],[8.4842,12.2605],[8.4643,12.2461],[8.4584,12.2317],[8.4539,12.23],[8.4468,12.2299],[8.4466,12.2286],[8.44,12.2306],[8.4334,12.2479],[8.4292,12.2527],[8.4215,12.2558],[8.4146,12.254],[8.4108,12.2516],[8.4028,12.2414],[8.3994,12.2349],[8.396,12.2211],[8.3882,12.2233],[8.3886,12.2269],[8.3827,12.2285],[8.3679,12.2141],[8.3535,12.1934],[8.352,12.1877],[8.3186,12.1896],[8.2963,12.1852],[8.2922,12.177],[8.2912,12.1468],[8.2697,12.1495],[8.2647,12.1479],[8.2528,12.1554],[8.2526,12.163],[8.2303,12.1622],[8.2297,12.1689],[8.2252,12.1718],[8.211,12.1691],[8.2088,12.1635],[8.206,12.1611],[8.2041,12.1541],[8.2147,12.1544],[8.2154,12.142],[8.2189,12.1387],[8.2278,12.1382],[8.238,12.1316],[8.2508,12.12],[8.2635,12.1157],[8.2684,12.1156],[8.2695,12.1146],[8.2673,12.11],[8.2693,12.1076],[8.2722,12.1084],[8.2752,12.1129],[8.2813,12.1132],[8.2811,12.1099],[8.2868,12.1077],[8.2902,12.101],[8.2944,12.1],[8.3003,12.0952],[8.3045,12.0951],[8.3065,12.0907],[8.3087,12.0894],[8.3122,12.0894],[8.315,12.0868],[8.3277,12.0836],[8.329,12.0772],[8.3385,12.0797],[8.3441,12.0985],[8.3494,12.0967],[8.3506,12.0935],[8.3553,12.091],[8.3538,12.0807],[8.3551,12.0497],[8.3618,12.0497],[8.3629,12.0475],[8.3711,12.0427],[8.3732,12.0362],[8.377,12.0375],[8.3797,12.0346],[8.3846,12.0339],[8.3876,12.0288],[8.3877,12.0222]]]}},{"type":"Feature","properties":{"name":"Doguwa","state":"Kano","scode":"KN","centroid":[10.8364,8.6649]},"geometry":{"type":"Polygon","coordinates":[[[8.7832,10.597],[8.7819,10.601],[8.8219,10.6723],[8.8247,10.6753],[8.8482,10.6799],[8.8525,10.6863],[8.8552,10.7074],[8.8513,10.7201],[8.838,10.7336],[8.829,10.7578],[8.8216,10.7692],[8.7856,10.7972],[8.7694,10.8293],[8.7662,10.8511],[8.7458,10.8572],[8.7451,10.8595],[8.7454,10.8618],[8.7501,10.8669],[8.7499,10.8856],[8.7596,10.9235],[8.7652,10.9266],[8.7672,10.9301],[8.7679,10.9364],[8.7667,10.9417],[8.7554,10.9623],[8.7549,10.966],[8.7519,10.9682],[8.7456,10.9804],[8.7369,10.9897],[8.737,10.9925],[8.7284,11.003],[8.7199,11.0118],[8.7092,11.0113],[8.7046,11.0143],[8.695,11.0264],[8.6935,11.0354],[8.6876,11.0391],[8.6884,11.0438],[8.6863,11.0465],[8.6893,11.0515],[8.6891,11.0546],[8.6861,11.058],[8.6902,11.0689],[8.6876,11.0704],[8.6842,11.0769],[8.679,11.0824],[8.6727,11.0836],[8.6632,11.0886],[8.6569,11.0978],[8.658,11.1],[8.656,11.1046],[8.6516,11.1063],[8.6452,11.1145],[8.6426,11.1257],[8.6441,11.1335],[8.6433,11.14],[8.6453,11.1564],[8.6436,11.1622],[8.6436,11.1731],[8.6418,11.1781],[8.6421,11.1805],[8.6453,11.1842],[8.6412,11.1917],[8.6411,11.2],[8.633,11.2124],[8.6293,11.2237],[8.5977,11.2211],[8.5838,11.2213],[8.5821,11.2191],[8.5758,11.2167],[8.5766,11.2152],[8.5752,11.2116],[8.5428,11.1784],[8.5409,11.1784],[8.5278,11.1689],[8.5195,11.1663],[8.5202,11.1639],[8.5187,11.1623],[8.5099,11.1512],[8.506,11.1322],[8.5196,11.1149],[8.534,11.1073],[8.5465,11.1025],[8.5592,11.0998],[8.5741,11.0928],[8.5896,11.0849],[8.5899,11.0821],[8.5946,11.0825],[8.6073,11.0712],[8.6099,11.0403],[8.6148,11.0177],[8.599,11.0021],[8.5971,10.9892],[8.5885,10.9679],[8.5866,10.9574],[8.5813,10.942],[8.5736,10.929],[8.5685,10.9075],[8.578,10.9074],[8.5808,10.9017],[8.5837,10.888],[8.585,10.8615],[8.5815,10.8589],[8.5739,10.8421],[8.575,10.8271],[8.57,10.8282],[8.567,10.8272],[8.5692,10.8174],[8.5631,10.8165],[8.5625,10.7965],[8.5587,10.7892],[8.5593,10.7846],[8.5628,10.7783],[8.5729,10.7737],[8.5716,10.7483],[8.5394,10.7334],[8.5206,10.7314],[8.5014,10.7258],[8.4812,10.7159],[8.484,10.7093],[8.4897,10.7029],[8.4898,10.6974],[8.4974,10.6798],[8.4982,10.6647],[8.501,10.6605],[8.5074,10.6559],[8.5063,10.6505],[8.5142,10.6433],[8.519,10.6417],[8.5226,10.6376],[8.5345,10.6327],[8.5437,10.6318],[8.5539,10.6362],[8.5827,10.6413],[8.5936,10.6451],[8.6156,10.6398],[8.6388,10.6305],[8.6439,10.6305],[8.6496,10.6241],[8.6664,10.5933],[8.7035,10.5493],[8.7111,10.5434],[8.736,10.5609],[8.7497,10.565],[8.7585,10.5731],[8.7604,10.5819],[8.7706,10.5873],[8.7792,10.5981],[8.7832,10.597]]]}},{"type":"Feature","properties":{"name":"Fagge","state":"Kano","scode":"KN","centroid":[12.0407,8.5171]},"geometry":{"type":"Polygon","coordinates":[[[8.5509,12.0531],[8.5507,12.0549],[8.5523,12.056],[8.5466,12.065],[8.5421,12.0646],[8.541,12.061],[8.5364,12.059],[8.535,12.0602],[8.5336,12.0594],[8.5195,12.0642],[8.5183,12.0696],[8.5112,12.0729],[8.4969,12.07],[8.4965,12.0643],[8.504,12.0628],[8.5054,12.0585],[8.4898,12.0532],[8.4786,12.0698],[8.4663,12.0655],[8.48,12.0474],[8.4925,12.0351],[8.4992,12.0312],[8.5009,12.0266],[8.5096,12.0275],[8.5155,12.0195],[8.5181,12.021],[8.5234,12.0163],[8.5249,12.0147],[8.5221,12.0112],[8.5277,12.0049],[8.5351,11.9911],[8.5445,11.9939],[8.5425,11.9991],[8.5432,12.004],[8.5417,12.0047],[8.5445,12.0218],[8.5358,12.0348],[8.5386,12.0364],[8.5402,12.04],[8.5419,12.0398],[8.544,12.0422],[8.5455,12.0454],[8.5447,12.0469],[8.5492,12.0519],[8.5485,12.0533],[8.5509,12.0531]]]}},{"type":"Feature","properties":{"name":"Gabasawa","state":"Kano","scode":"KN","centroid":[12.1674,8.8433]},"geometry":{"type":"Polygon","coordinates":[[[8.9457,12.0723],[8.915,12.0762],[8.9252,12.0963],[8.9278,12.1104],[8.9384,12.1138],[8.9366,12.1191],[8.939,12.1227],[8.9386,12.1301],[8.9397,12.1323],[8.9358,12.142],[8.9305,12.1479],[8.9312,12.1552],[8.942,12.1534],[8.9432,12.1546],[8.9506,12.1686],[8.9522,12.1853],[8.9445,12.1961],[8.9438,12.2018],[8.9344,12.2146],[8.9352,12.231],[8.9205,12.2667],[8.9175,12.2663],[8.9115,12.2849],[8.9099,12.301],[8.8396,12.3082],[8.8251,12.3024],[8.816,12.302],[8.7879,12.2773],[8.7746,12.2754],[8.7611,12.2877],[8.7583,12.2934],[8.7235,12.2948],[8.7326,12.2688],[8.7287,12.2602],[8.7298,12.2526],[8.7172,12.2534],[8.7178,12.2252],[8.7135,12.2109],[8.7215,12.2032],[8.7331,12.2005],[8.7309,12.1866],[8.7192,12.1559],[8.7297,12.1531],[8.7452,12.1569],[8.7491,12.1455],[8.7519,12.1512],[8.751,12.1603],[8.7589,12.1623],[8.7636,12.1607],[8.7726,12.1611],[8.7785,12.1583],[8.7812,12.1507],[8.7762,12.1369],[8.763,12.1192],[8.7739,12.1123],[8.7773,12.107],[8.7754,12.1],[8.7927,12.1003],[8.7946,12.0816],[8.8022,12.0626],[8.8204,12.0713],[8.8279,12.0612],[8.8318,12.0536],[8.8322,12.0416],[8.8366,12.0391],[8.8408,12.03],[8.8408,12.0181],[8.8333,12.0049],[8.8264,12.0041],[8.8226,11.9971],[8.8228,11.9924],[8.8373,11.9798],[8.8383,11.974],[8.8476,11.9611],[8.8636,11.9614],[8.866,11.9752],[8.8692,11.9803],[8.8956,12.0088],[8.8979,12.0255],[8.8997,12.0299],[8.9091,12.0372],[8.9233,12.0412],[8.9305,12.049],[8.9457,12.0723]]]}},{"type":"Feature","properties":{"name":"Garko","state":"Kano","scode":"KN","centroid":[11.5835,8.841]},"geometry":{"type":"Polygon","coordinates":[[[9.0312,11.5561],[9.0274,11.5607],[9.0248,11.5701],[9.0208,11.5765],[8.9969,11.5636],[8.9839,11.566],[8.984,11.5714],[8.9682,11.5711],[8.9673,11.5756],[8.9701,11.5841],[8.9584,11.5956],[8.9529,11.5985],[8.9457,11.608],[8.9312,11.6138],[8.9114,11.6213],[8.9056,11.6179],[8.8893,11.6036],[8.8828,11.6074],[8.8597,11.6132],[8.8666,11.6168],[8.8805,11.6184],[8.885,11.6214],[8.8904,11.6285],[8.8982,11.624],[8.9025,11.6374],[8.9019,11.6497],[8.9108,11.6474],[8.9119,11.6552],[8.9075,11.6616],[8.9044,11.6867],[8.9049,11.6922],[8.8935,11.691],[8.8901,11.7001],[8.8858,11.6994],[8.8843,11.6977],[8.8859,11.6934],[8.8807,11.6914],[8.8748,11.7027],[8.8763,11.706],[8.8805,11.7094],[8.8797,11.7154],[8.8664,11.7114],[8.8632,11.7171],[8.8689,11.7275],[8.862,11.7337],[8.858,11.7337],[8.8561,11.7317],[8.8473,11.7285],[8.8475,11.7228],[8.8401,11.7213],[8.8338,11.7182],[8.8281,11.7192],[8.8256,11.714],[8.8201,11.7137],[8.8182,11.7087],[8.8222,11.7013],[8.8243,11.6904],[8.8197,11.6913],[8.8183,11.6929],[8.8116,11.6935],[8.8026,11.7035],[8.7965,11.7015],[8.7882,11.705],[8.7871,11.7073],[8.7912,11.7171],[8.7905,11.7221],[8.7856,11.7243],[8.7642,11.7277],[8.7563,11.7262],[8.7574,11.7235],[8.7567,11.7198],[8.7587,11.7148],[8.7539,11.7128],[8.7514,11.7138],[8.7507,11.7112],[8.7549,11.7091],[8.7542,11.7063],[8.7564,11.7062],[8.7574,11.7029],[8.7605,11.7037],[8.7597,11.7005],[8.7572,11.6996],[8.7638,11.6941],[8.7576,11.6936],[8.7573,11.6923],[8.7652,11.6881],[8.7647,11.6858],[8.7687,11.6797],[8.7664,11.6761],[8.7671,11.6713],[8.7628,11.6704],[8.7616,11.6676],[8.7637,11.6636],[8.7615,11.6624],[8.7576,11.6636],[8.758,11.6571],[8.756,11.653],[8.7592,11.6514],[8.7543,11.6413],[8.7558,11.6357],[8.752,11.6326],[8.7532,11.6285],[8.7544,11.6258],[8.7571,11.6257],[8.7579,11.6244],[8.7567,11.6147],[8.7576,11.6107],[8.7519,11.6077],[8.7555,11.5925],[8.76,11.5842],[8.7585,11.5769],[8.7596,11.5671],[8.7623,11.561],[8.77,11.5534],[8.764,11.5454],[8.7613,11.5392],[8.7582,11.5371],[8.7576,11.5279],[8.7615,11.5187],[8.7706,11.5036],[8.7704,11.4939],[8.7728,11.4914],[8.7742,11.4818],[8.7717,11.4704],[8.7701,11.4525],[8.7738,11.442],[8.7858,11.4348],[8.7825,11.4238],[8.7949,11.4145],[8.7858,11.4042],[8.7861,11.3952],[8.8002,11.4003],[8.8139,11.4011],[8.8179,11.4027],[8.8278,11.4093],[8.8315,11.4141],[8.8419,11.4213],[8.8498,11.4292],[8.8284,11.4441],[8.8269,11.4554],[8.8354,11.4723],[8.8437,11.4825],[8.8438,11.4909],[8.8461,11.4966],[8.8688,11.497],[8.8712,11.5029],[8.8789,11.5059],[8.8762,11.5186],[8.8804,11.5442],[8.8806,11.5563],[8.904,11.5547],[8.9051,11.5574],[8.916,11.5673],[8.9167,11.5739],[8.9341,11.5735],[8.9347,11.5685],[8.9429,11.5554],[8.9814,11.5455],[9.0019,11.5471],[9.0067,11.54],[9.0035,11.5362],[9.0047,11.525],[9.0242,11.5283],[9.0331,11.528],[9.0312,11.5561]]]}},{"type":"Feature","properties":{"name":"Garun Malam","state":"Kano","scode":"KN","centroid":[11.6669,8.4023]},"geometry":{"type":"Polygon","coordinates":[[[8.379,11.7577],[8.3741,11.7505],[8.3719,11.7429],[8.3513,11.725],[8.346,11.7235],[8.3386,11.7271],[8.3317,11.7274],[8.3325,11.7194],[8.3304,11.7086],[8.3299,11.695],[8.3316,11.6882],[8.3346,11.6848],[8.3341,11.6762],[8.3358,11.6699],[8.3418,11.6636],[8.348,11.6609],[8.3521,11.6562],[8.3584,11.6432],[8.3577,11.6413],[8.3656,11.6301],[8.3644,11.6266],[8.3663,11.6237],[8.3662,11.6188],[8.3691,11.6173],[8.3692,11.6156],[8.3746,11.6151],[8.3769,11.6133],[8.3787,11.6098],[8.3751,11.6062],[8.3908,11.5844],[8.4042,11.5755],[8.4222,11.5796],[8.4223,11.5826],[8.434,11.5817],[8.4338,11.5768],[8.4391,11.5744],[8.4418,11.5694],[8.4418,11.5576],[8.4574,11.558],[8.4626,11.5569],[8.4656,11.5669],[8.4634,11.5731],[8.4644,11.5777],[8.4456,11.598],[8.4559,11.639],[8.4542,11.6531],[8.4507,11.6624],[8.4349,11.6626],[8.4329,11.6849],[8.4494,11.7001],[8.4593,11.7149],[8.4715,11.7172],[8.4704,11.7332],[8.463,11.737],[8.4594,11.7386],[8.4553,11.7366],[8.4433,11.7349],[8.4259,11.7246],[8.4269,11.7421],[8.4229,11.7477],[8.407,11.7471],[8.398,11.7513],[8.3902,11.7514],[8.379,11.7577]]]}},{"type":"Feature","properties":{"name":"Gaya","state":"Kano","scode":"KN","centroid":[11.8159,9.0306]},"geometry":{"type":"Polygon","coordinates":[[[8.905,11.9208],[8.8971,11.9053],[8.9013,11.9029],[8.9072,11.9034],[8.9075,11.8912],[8.9027,11.8838],[8.9095,11.8832],[8.9173,11.8849],[8.9236,11.884],[8.9314,11.8851],[8.934,11.8926],[8.9483,11.8884],[8.9502,11.876],[8.9561,11.8626],[8.95,11.8546],[8.9458,11.8457],[8.9281,11.8508],[8.9234,11.8473],[8.9163,11.847],[8.9151,11.8412],[8.909,11.8403],[8.9108,11.8347],[8.9178,11.832],[8.929,11.8217],[8.9034,11.8236],[8.8986,11.8178],[8.902,11.8075],[8.8861,11.8073],[8.8832,11.7927],[8.8837,11.7884],[8.8907,11.7859],[8.8936,11.7829],[8.8886,11.7813],[8.8927,11.7775],[8.8884,11.7715],[8.888,11.7686],[8.8928,11.7692],[8.894,11.7706],[8.8952,11.768],[8.893,11.7639],[8.896,11.7626],[8.9008,11.7645],[8.9025,11.7634],[8.9025,11.7615],[8.8984,11.7564],[8.8985,11.753],[8.9015,11.7531],[8.9011,11.7511],[8.9049,11.7437],[8.8994,11.7347],[8.9046,11.7279],[8.9082,11.7255],[8.9115,11.7179],[8.9177,11.718],[8.9241,11.7229],[8.9303,11.7303],[8.9376,11.727],[8.9521,11.7277],[8.9581,11.7248],[8.9607,11.7207],[8.9707,11.7237],[8.9767,11.7346],[8.9848,11.7353],[9.0023,11.7412],[9.0022,11.7379],[9.0039,11.735],[9.0136,11.7287],[9.017,11.7297],[9.0188,11.7328],[9.0207,11.733],[9.0242,11.728],[9.0187,11.7104],[9.0132,11.7012],[9.014,11.6961],[9.0403,11.6905],[9.0542,11.6935],[9.0635,11.6976],[9.0755,11.705],[9.0801,11.7106],[9.1277,11.7112],[9.1574,11.7192],[9.1572,11.7415],[9.1529,11.7494],[9.1415,11.7594],[9.1482,11.7656],[9.1427,11.7728],[9.1416,11.7867],[9.1389,11.7937],[9.1439,11.8266],[9.1523,11.8295],[9.174,11.8292],[9.1871,11.8346],[9.1902,11.8376],[9.1957,11.8484],[9.1983,11.8612],[9.206,11.8634],[9.2123,11.8686],[9.2156,11.8756],[9.2124,11.879],[9.2222,11.891],[9.23,11.8947],[9.2266,11.9088],[9.202,11.9047],[9.1817,11.8977],[9.1668,11.8861],[9.1673,11.8839],[9.1621,11.8797],[9.1588,11.8672],[9.1541,11.861],[9.1581,11.8563],[9.1538,11.8345],[9.145,11.8316],[9.1433,11.8411],[9.1295,11.8409],[9.1178,11.8437],[9.1124,11.8464],[9.0757,11.8392],[9.0836,11.8684],[9.0933,11.8781],[9.0988,11.897],[9.1023,11.8976],[9.1041,11.9047],[9.0935,11.9051],[9.0676,11.9106],[9.0664,11.918],[9.0536,11.9159],[9.0392,11.9162],[9.0376,11.918],[9.0366,11.9267],[9.0332,11.9282],[9.0308,11.9233],[9.0284,11.9336],[9.0243,11.9382],[9.0088,11.9376],[9.004,11.9314],[8.9859,11.9366],[8.9801,11.9328],[8.9762,11.9355],[8.9732,11.9403],[8.97,11.9405],[8.9619,11.9463],[8.957,11.947],[8.9535,11.9354],[8.9406,11.9339],[8.9281,11.9307],[8.905,11.9208]]]}},{"type":"Feature","properties":{"name":"Gezawa","state":"Kano","scode":"KN","centroid":[12.0513,8.7204]},"geometry":{"type":"Polygon","coordinates":[[[8.5988,11.9703],[8.6083,11.9694],[8.6277,11.9621],[8.6319,11.9624],[8.6551,11.9777],[8.6725,11.9813],[8.6761,11.9841],[8.6905,12.0012],[8.6926,12.0111],[8.7029,12.0109],[8.708,12.0061],[8.7136,11.9864],[8.717,11.979],[8.7239,11.9795],[8.7336,11.9776],[8.736,11.962],[8.7434,11.9635],[8.7558,11.9613],[8.7762,11.9663],[8.7817,11.9684],[8.7907,11.9796],[8.794,11.9779],[8.8003,11.9802],[8.8301,11.9735],[8.8383,11.974],[8.8373,11.9798],[8.8228,11.9924],[8.8226,11.9971],[8.8264,12.0041],[8.8333,12.0049],[8.8408,12.0181],[8.8408,12.03],[8.8366,12.0391],[8.8322,12.0416],[8.8318,12.0536],[8.8279,12.0612],[8.8204,12.0713],[8.8022,12.0626],[8.7946,12.0816],[8.7927,12.1003],[8.7754,12.1],[8.7773,12.107],[8.7739,12.1123],[8.763,12.1192],[8.7762,12.1369],[8.7812,12.1507],[8.7785,12.1583],[8.7726,12.1611],[8.7636,12.1607],[8.7589,12.1623],[8.751,12.1603],[8.7519,12.1512],[8.7491,12.1455],[8.7452,12.1569],[8.7297,12.1531],[8.7192,12.1559],[8.7156,12.1543],[8.7029,12.1434],[8.6918,12.1411],[8.6892,12.147],[8.6704,12.1385],[8.6536,12.1349],[8.6471,12.1349],[8.6464,12.1302],[8.6419,12.1302],[8.64,12.1284],[8.641,12.1265],[8.6437,12.1258],[8.6469,12.1144],[8.6398,12.1104],[8.6366,12.105],[8.6374,12.0987],[8.6409,12.0971],[8.648,12.0832],[8.6344,12.0611],[8.6184,12.043],[8.6105,12.0381],[8.6049,12.0373],[8.6043,12.0259],[8.5985,12.0249],[8.5981,12.0274],[8.5931,12.0266],[8.5918,12.0314],[8.5942,12.0307],[8.5959,12.0321],[8.5934,12.0367],[8.589,12.0343],[8.5905,12.0315],[8.5909,12.0239],[8.5993,12.0237],[8.6019,12.0199],[8.6003,12.012],[8.6138,12.013],[8.6139,12.0048],[8.62,12.0035],[8.6187,11.9994],[8.6144,11.9966],[8.6014,11.9983],[8.6039,11.9827],[8.5988,11.9703]]]}},{"type":"Feature","properties":{"name":"Gwale","state":"Kano","scode":"KN","centroid":[11.9786,8.4816]},"geometry":{"type":"Polygon","coordinates":[[[8.5087,12.0003],[8.5029,11.9939],[8.5015,11.9945],[8.5011,11.9976],[8.4946,11.9969],[8.495,12.005],[8.4992,12.0121],[8.4955,12.0149],[8.4941,12.0139],[8.4927,12.0147],[8.4924,12.0161],[8.4939,12.0167],[8.4916,12.0184],[8.4893,12.0119],[8.4879,12.0121],[8.469,12.0239],[8.4674,12.0048],[8.4655,12.003],[8.4649,11.9995],[8.4638,11.9795],[8.4444,11.9714],[8.4456,11.9589],[8.457,11.9531],[8.4655,11.9637],[8.4686,11.9567],[8.4658,11.9556],[8.4694,11.9552],[8.4708,11.9515],[8.4792,11.9597],[8.4801,11.9624],[8.4865,11.9634],[8.4872,11.9622],[8.4831,11.954],[8.4803,11.9534],[8.4814,11.9505],[8.4803,11.9483],[8.4771,11.9437],[8.4744,11.9444],[8.4727,11.9388],[8.4785,11.934],[8.4809,11.9343],[8.492,11.9437],[8.4969,11.9443],[8.4979,11.9484],[8.501,11.9508],[8.4998,11.9523],[8.5012,11.9534],[8.5024,11.9525],[8.5109,11.9593],[8.5068,11.9615],[8.4983,11.9724],[8.496,11.9797],[8.5061,11.9833],[8.5174,11.9817],[8.5172,11.9842],[8.5145,11.9867],[8.5166,11.9883],[8.5133,11.9929],[8.5128,11.9969],[8.5115,11.997],[8.5128,11.9994],[8.5087,12.0003]]]}},{"type":"Feature","properties":{"name":"Gwarzo","state":"Kano","scode":"KN","centroid":[11.9014,7.9491]},"geometry":{"type":"Polygon","coordinates":[[[8.0296,11.9791],[8.0272,11.9818],[8.023,11.983],[8.0197,11.9885],[8.0098,11.9931],[8.006,11.9959],[8.0053,11.9983],[8.0026,11.9991],[7.9921,11.9937],[7.9848,11.9859],[7.9832,11.9836],[7.9834,11.9731],[7.9721,11.9718],[7.9694,11.9722],[7.9649,11.9761],[7.9542,11.9759],[7.9396,11.9728],[7.921,11.9602],[7.9057,11.966],[7.898,11.9848],[7.8949,11.9851],[7.8921,11.9892],[7.8891,11.9897],[7.887,11.9962],[7.8844,12.021],[7.8656,12.0214],[7.8567,12.0012],[7.8448,11.995],[7.8347,11.9802],[7.8293,11.9686],[7.8334,11.9697],[7.8318,11.964],[7.8262,11.9533],[7.8295,11.922],[7.8437,11.9019],[7.8477,11.8933],[7.8482,11.8861],[7.8651,11.8735],[7.8604,11.8635],[7.8523,11.836],[7.8549,11.8333],[7.853,11.8243],[7.8553,11.8173],[7.855,11.8019],[7.8575,11.7949],[7.8991,11.78],[7.9069,11.7885],[7.9104,11.7996],[7.9054,11.8132],[7.9347,11.818],[7.9503,11.8182],[7.9783,11.823],[7.9916,11.8322],[7.9986,11.8318],[8.005,11.8288],[8.0097,11.8287],[8.0262,11.8333],[8.0311,11.8363],[8.0373,11.8429],[8.0408,11.8444],[8.0482,11.8426],[8.0506,11.8548],[8.0752,11.8673],[8.0736,11.8774],[8.0741,11.8793],[8.0768,11.8798],[8.085,11.8905],[8.0907,11.8933],[8.1172,11.8976],[8.1234,11.8999],[8.112,11.9315],[8.0984,11.935],[8.0973,11.9297],[8.0913,11.9266],[8.0858,11.9263],[8.084,11.9336],[8.0713,11.9327],[8.0584,11.9384],[8.0575,11.9433],[8.0479,11.9443],[8.0468,11.9517],[8.0287,11.9445],[8.0152,11.9425],[8.0141,11.9381],[8.0108,11.9421],[8.0055,11.9412],[8.0069,11.9509],[8.0296,11.9791]]]}},{"type":"Feature","properties":{"name":"Kabo","state":"Kano","scode":"KN","centroid":[11.8879,8.167]},"geometry":{"type":"Polygon","coordinates":[[[8.2821,11.8213],[8.2825,11.8229],[8.2763,11.829],[8.272,11.8306],[8.2689,11.8388],[8.2686,11.8515],[8.2616,11.8722],[8.2709,11.8762],[8.286,11.8749],[8.2886,11.8762],[8.2863,11.8777],[8.2867,11.8799],[8.2819,11.8802],[8.2818,11.8832],[8.2794,11.8836],[8.2795,11.8865],[8.2823,11.8878],[8.2815,11.8892],[8.2783,11.8887],[8.2781,11.8929],[8.2757,11.892],[8.2755,11.8969],[8.2681,11.9013],[8.2672,11.9099],[8.2632,11.9136],[8.2613,11.9135],[8.2592,11.9238],[8.2554,11.9321],[8.2505,11.9272],[8.2446,11.9242],[8.2432,11.9175],[8.2405,11.9159],[8.2298,11.9159],[8.2201,11.9083],[8.2179,11.9089],[8.2161,11.9127],[8.2114,11.9145],[8.2094,11.9189],[8.2014,11.9261],[8.1933,11.9449],[8.1892,11.9479],[8.1839,11.9493],[8.1789,11.956],[8.1735,11.9568],[8.1688,11.9618],[8.1684,11.9641],[8.1608,11.9627],[8.1615,11.9681],[8.16,11.9702],[8.156,11.9706],[8.1544,11.974],[8.1546,11.9862],[8.1419,11.9932],[8.1345,11.9909],[8.1273,12.0011],[8.1228,12.012],[8.1003,11.9982],[8.1027,11.9844],[8.0978,11.976],[8.0858,11.9616],[8.0771,11.9634],[8.0751,11.965],[8.0751,11.9676],[8.0781,11.97],[8.0773,11.9798],[8.066,11.9803],[8.0547,11.9828],[8.0468,11.9816],[8.0384,11.9827],[8.0296,11.9791],[8.0069,11.9509],[8.0055,11.9412],[8.0108,11.9421],[8.0141,11.9381],[8.0152,11.9425],[8.0287,11.9445],[8.0468,11.9517],[8.0479,11.9443],[8.0575,11.9433],[8.0584,11.9384],[8.0713,11.9327],[8.084,11.9336],[8.0858,11.9263],[8.0913,11.9266],[8.0973,11.9297],[8.0984,11.935],[8.112,11.9315],[8.1234,11.8999],[8.1172,11.8976],[8.0907,11.8933],[8.085,11.8905],[8.0768,11.8798],[8.0851,11.8791],[8.0786,11.8483],[8.1074,11.8531],[8.1203,11.8592],[8.1286,11.8519],[8.1373,11.8323],[8.1388,11.8107],[8.1402,11.8044],[8.1447,11.7968],[8.1411,11.7902],[8.1561,11.7887],[8.1582,11.7913],[8.1716,11.7945],[8.1751,11.7939],[8.1875,11.8011],[8.1911,11.8005],[8.1953,11.7959],[8.1978,11.7899],[8.2025,11.7881],[8.2154,11.7886],[8.217,11.7766],[8.2226,11.7717],[8.2263,11.7731],[8.2469,11.7888],[8.2563,11.789],[8.2603,11.7919],[8.2672,11.8104],[8.2776,11.8193],[8.2821,11.8213]]]}},{"type":"Feature","properties":{"name":"Kano Municipal","state":"Kano","scode":"KN","centroid":[11.9819,8.5191]},"geometry":{"type":"Polygon","coordinates":[[[8.5351,11.9911],[8.5277,12.0049],[8.5221,12.0112],[8.5208,12.0119],[8.5166,12.01],[8.5124,12.0054],[8.5098,12.0049],[8.5095,12.0023],[8.508,12.0017],[8.5087,12.0003],[8.5128,11.9994],[8.5115,11.997],[8.5128,11.9969],[8.5133,11.9929],[8.5166,11.9883],[8.5145,11.9867],[8.5172,11.9842],[8.5174,11.9817],[8.5061,11.9833],[8.496,11.9797],[8.4983,11.9724],[8.5068,11.9615],[8.5109,11.9593],[8.5167,11.9552],[8.5211,11.9606],[8.5305,11.9672],[8.5349,11.9749],[8.5404,11.9792],[8.5351,11.9851],[8.5345,11.9895],[8.5351,11.9911]]]}},{"type":"Feature","properties":{"name":"Karaye","state":"Kano","scode":"KN","centroid":[11.7615,7.9965]},"geometry":{"type":"Polygon","coordinates":[[[8.0768,11.8798],[8.0741,11.8793],[8.0736,11.8774],[8.0752,11.8673],[8.0506,11.8548],[8.0482,11.8426],[8.0408,11.8444],[8.0373,11.8429],[8.0311,11.8363],[8.0262,11.8333],[8.0097,11.8287],[8.005,11.8288],[7.9986,11.8318],[7.9916,11.8322],[7.9783,11.823],[7.9503,11.8182],[7.9347,11.818],[7.9054,11.8132],[7.9104,11.7996],[7.9069,11.7885],[7.8991,11.78],[7.8575,11.7949],[7.8608,11.762],[7.8676,11.7564],[7.8694,11.75],[7.8675,11.7433],[7.8768,11.7181],[7.8773,11.7123],[7.8806,11.7093],[7.8883,11.7072],[7.8966,11.6967],[7.8961,11.6944],[7.8916,11.6911],[7.8953,11.6833],[7.8944,11.679],[7.8977,11.6745],[7.8919,11.6675],[7.8929,11.6647],[7.9009,11.6615],[7.9023,11.6532],[7.901,11.6496],[7.9142,11.65],[7.92,11.6464],[7.9206,11.6425],[7.9265,11.6418],[7.9268,11.6448],[7.9348,11.6457],[7.9326,11.6537],[7.9425,11.6531],[7.9431,11.6574],[7.9468,11.6586],[7.9539,11.6553],[7.9582,11.6606],[7.9622,11.6621],[7.9673,11.6618],[7.9721,11.6679],[7.9785,11.6657],[7.9824,11.6681],[7.9699,11.677],[7.9595,11.6871],[7.9586,11.6928],[7.9628,11.693],[7.967,11.6872],[7.9884,11.6864],[8.0279,11.6934],[8.034,11.6862],[8.038,11.6841],[8.0417,11.6842],[8.048,11.68],[8.0541,11.6928],[8.0553,11.7019],[8.0582,11.7045],[8.0596,11.7133],[8.0649,11.7286],[8.0687,11.7303],[8.0703,11.7373],[8.0811,11.751],[8.0828,11.7527],[8.0881,11.7529],[8.1047,11.7702],[8.1107,11.7707],[8.1156,11.7682],[8.1192,11.7694],[8.1333,11.7814],[8.132,11.7836],[8.1336,11.7885],[8.1411,11.7902],[8.1447,11.7968],[8.1402,11.8044],[8.1388,11.8107],[8.1373,11.8323],[8.1286,11.8519],[8.1203,11.8592],[8.1074,11.8531],[8.0786,11.8483],[8.0851,11.8791],[8.0768,11.8798]]]}},{"type":"Feature","properties":{"name":"Kibiya","state":"Kano","scode":"KN","centroid":[11.4978,8.6777]},"geometry":{"type":"Polygon","coordinates":[[[8.7717,11.4704],[8.7742,11.4818],[8.7728,11.4914],[8.7704,11.4939],[8.7706,11.5036],[8.7615,11.5187],[8.7576,11.5279],[8.7582,11.5371],[8.7613,11.5392],[8.764,11.5454],[8.77,11.5534],[8.7623,11.561],[8.7596,11.5671],[8.7585,11.5769],[8.76,11.5842],[8.7555,11.5925],[8.7519,11.6077],[8.7576,11.6107],[8.7567,11.6147],[8.7579,11.6244],[8.7571,11.6257],[8.7544,11.6258],[8.7532,11.6285],[8.7437,11.6301],[8.7171,11.6305],[8.7172,11.6269],[8.7119,11.623],[8.7075,11.6287],[8.6926,11.6292],[8.6867,11.6336],[8.68,11.6341],[8.6752,11.6387],[8.6708,11.6375],[8.6721,11.6345],[8.6723,11.6306],[8.6687,11.6287],[8.6689,11.6262],[8.666,11.6247],[8.6627,11.62],[8.6513,11.6153],[8.6449,11.6103],[8.6431,11.6025],[8.6411,11.6019],[8.6386,11.5977],[8.6388,11.5905],[8.6426,11.5895],[8.6414,11.5854],[8.6438,11.584],[8.6423,11.5804],[8.6439,11.5775],[8.6437,11.5735],[8.6423,11.5711],[8.6441,11.568],[8.6422,11.5649],[8.6465,11.5625],[8.6433,11.5533],[8.6433,11.5462],[8.6448,11.544],[8.6392,11.5428],[8.6287,11.5488],[8.6151,11.5476],[8.6106,11.5383],[8.6131,11.5213],[8.6028,11.5113],[8.6022,11.5041],[8.6039,11.4994],[8.6194,11.5041],[8.6222,11.4959],[8.623,11.4872],[8.6106,11.4829],[8.6123,11.4787],[8.6148,11.4749],[8.6389,11.4562],[8.6295,11.4539],[8.6232,11.4626],[8.6037,11.4667],[8.5969,11.4561],[8.583,11.4418],[8.5787,11.4344],[8.5625,11.419],[8.5629,11.4092],[8.5765,11.3919],[8.5891,11.3862],[8.6002,11.3689],[8.6029,11.3681],[8.6146,11.3496],[8.6426,11.3688],[8.6478,11.3663],[8.6483,11.3703],[8.6582,11.377],[8.6702,11.3888],[8.6717,11.388],[8.6734,11.3944],[8.6696,11.396],[8.6716,11.4071],[8.6856,11.4066],[8.6944,11.4118],[8.7123,11.4175],[8.717,11.4078],[8.736,11.4339],[8.7406,11.4438],[8.749,11.4559],[8.7468,11.4595],[8.7476,11.4641],[8.7448,11.4658],[8.7449,11.4678],[8.7495,11.4672],[8.7651,11.4711],[8.7717,11.4704]]]}},{"type":"Feature","properties":{"name":"Kiru","state":"Kano","scode":"KN","centroid":[11.5816,8.1365]},"geometry":{"type":"Polygon","coordinates":[[[8.3013,11.3467],[8.29,11.354],[8.2869,11.3588],[8.2903,11.3635],[8.2833,11.3697],[8.2775,11.3708],[8.2737,11.3751],[8.2753,11.3785],[8.2727,11.3897],[8.2743,11.3947],[8.2664,11.4055],[8.2688,11.407],[8.2669,11.4131],[8.266,11.4277],[8.2728,11.4375],[8.2629,11.4395],[8.2538,11.4451],[8.2487,11.457],[8.2394,11.4553],[8.2094,11.4399],[8.2048,11.4431],[8.2017,11.4501],[8.2062,11.4526],[8.202,11.4615],[8.2058,11.4656],[8.2033,11.469],[8.2016,11.4803],[8.207,11.4884],[8.2112,11.492],[8.2148,11.5079],[8.2181,11.5119],[8.2174,11.5178],[8.2103,11.5409],[8.2099,11.5553],[8.2149,11.5796],[8.2076,11.5892],[8.209,11.5907],[8.207,11.5958],[8.2095,11.5997],[8.2049,11.6063],[8.1885,11.6081],[8.1922,11.6242],[8.201,11.6294],[8.2031,11.6277],[8.2088,11.6339],[8.2199,11.6305],[8.226,11.6384],[8.2327,11.6436],[8.2163,11.6469],[8.2181,11.6558],[8.2177,11.6604],[8.2228,11.6663],[8.2237,11.6695],[8.2229,11.6734],[8.2189,11.6757],[8.2202,11.6802],[8.212,11.6853],[8.2276,11.7086],[8.2324,11.7125],[8.2706,11.7177],[8.273,11.7243],[8.2524,11.7275],[8.2469,11.7302],[8.2517,11.734],[8.2508,11.7368],[8.2443,11.7352],[8.25,11.7449],[8.2571,11.7511],[8.2595,11.7561],[8.2545,11.7641],[8.2563,11.789],[8.2469,11.7888],[8.2263,11.7731],[8.2226,11.7717],[8.217,11.7766],[8.2154,11.7886],[8.2025,11.7881],[8.1978,11.7899],[8.1953,11.7959],[8.1911,11.8005],[8.1875,11.8011],[8.1751,11.7939],[8.1716,11.7945],[8.1582,11.7913],[8.1561,11.7887],[8.1411,11.7902],[8.1336,11.7885],[8.132,11.7836],[8.1333,11.7814],[8.1192,11.7694],[8.1156,11.7682],[8.1107,11.7707],[8.1047,11.7702],[8.0881,11.7529],[8.0828,11.7527],[8.0811,11.751],[8.0703,11.7373],[8.0687,11.7303],[8.0649,11.7286],[8.0596,11.7133],[8.0582,11.7045],[8.0553,11.7019],[8.0541,11.6928],[8.048,11.68],[8.0417,11.6842],[8.038,11.6841],[8.034,11.6862],[8.0279,11.6934],[7.9884,11.6864],[7.967,11.6872],[7.9628,11.693],[7.9586,11.6928],[7.9595,11.6871],[7.9699,11.677],[7.9824,11.6681],[7.9785,11.6657],[7.9721,11.6679],[7.9673,11.6618],[7.9622,11.6621],[7.9582,11.6606],[7.9539,11.6553],[7.9553,11.614],[7.9636,11.6083],[7.9709,11.6059],[7.975,11.5951],[7.9793,11.5914],[7.9778,11.5887],[7.9802,11.5864],[7.9775,11.5836],[7.982,11.5762],[7.981,11.5733],[7.984,11.562],[7.9816,11.561],[7.9818,11.5565],[7.9802,11.5537],[7.9833,11.5526],[7.9819,11.5478],[7.9831,11.5444],[7.985,11.5437],[7.9861,11.5407],[8.0108,11.5361],[8.0136,11.5339],[8.0201,11.5335],[8.0239,11.5381],[8.0286,11.5394],[8.0312,11.5343],[8.0248,11.5074],[8.0358,11.4934],[8.0391,11.4917],[8.0406,11.487],[8.0447,11.4879],[8.047,11.4865],[8.0512,11.488],[8.0548,11.4909],[8.0568,11.4967],[8.0607,11.4977],[8.0614,11.5006],[8.0672,11.5004],[8.0735,11.5046],[8.0819,11.5055],[8.0835,11.5138],[8.0866,11.5174],[8.0976,11.5201],[8.1015,11.524],[8.103,11.5227],[8.1069,11.5237],[8.11,11.5209],[8.114,11.5223],[8.121,11.5202],[8.1501,11.5192],[8.1618,11.5055],[8.1617,11.4972],[8.1525,11.489],[8.1539,11.4774],[8.1404,11.4568],[8.1433,11.4203],[8.1406,11.4163],[8.1286,11.4113],[8.1137,11.4085],[8.1223,11.3917],[8.1229,11.3867],[8.1499,11.3754],[8.1488,11.3734],[8.1652,11.363],[8.1674,11.3543],[8.1874,11.3406],[8.2002,11.3244],[8.2068,11.3187],[8.2268,11.3259],[8.2374,11.3271],[8.2488,11.3257],[8.2557,11.315],[8.2586,11.3129],[8.2644,11.3132],[8.2713,11.3182],[8.2807,11.3213],[8.2833,11.3189],[8.2963,11.3332],[8.2987,11.3443],[8.3013,11.3467]]]}},{"type":"Feature","properties":{"name":"Kumbotso","state":"Kano","scode":"KN","centroid":[11.9209,8.5157]},"geometry":{"type":"Polygon","coordinates":[[[8.5954,11.9619],[8.5931,11.9557],[8.5906,11.959],[8.5819,11.9506],[8.5787,11.9447],[8.5723,11.9481],[8.5704,11.9458],[8.5657,11.946],[8.5624,11.9392],[8.5633,11.9381],[8.5613,11.9381],[8.559,11.9355],[8.5555,11.938],[8.5537,11.9373],[8.5548,11.941],[8.5363,11.9331],[8.5349,11.9384],[8.5355,11.9484],[8.5381,11.9497],[8.5395,11.9531],[8.5305,11.9672],[8.5211,11.9606],[8.5167,11.9552],[8.5109,11.9593],[8.5024,11.9525],[8.5012,11.9534],[8.4998,11.9523],[8.501,11.9508],[8.4979,11.9484],[8.4969,11.9443],[8.492,11.9437],[8.4809,11.9343],[8.4785,11.934],[8.4727,11.9388],[8.4744,11.9444],[8.4771,11.9437],[8.4803,11.9483],[8.4814,11.9505],[8.4803,11.9534],[8.4831,11.954],[8.4872,11.9622],[8.4865,11.9634],[8.4801,11.9624],[8.4792,11.9597],[8.4708,11.9515],[8.4694,11.9552],[8.4658,11.9556],[8.4686,11.9567],[8.4655,11.9637],[8.457,11.9531],[8.4456,11.9589],[8.4444,11.9714],[8.4256,11.9614],[8.4175,11.9596],[8.4028,11.9475],[8.4018,11.9405],[8.4045,11.9308],[8.4056,11.9148],[8.4038,11.9102],[8.4068,11.9057],[8.4163,11.9029],[8.4241,11.8924],[8.4251,11.888],[8.4313,11.8832],[8.4331,11.8832],[8.4383,11.8888],[8.4499,11.8902],[8.4533,11.8879],[8.4533,11.883],[8.4545,11.8821],[8.4583,11.8827],[8.4655,11.8778],[8.4741,11.8795],[8.4841,11.8711],[8.4932,11.8718],[8.4972,11.8698],[8.5017,11.8643],[8.5059,11.8663],[8.5102,11.8769],[8.5179,11.8799],[8.5217,11.8855],[8.5225,11.89],[8.5354,11.8871],[8.5362,11.8914],[8.5532,11.8902],[8.5564,11.887],[8.5585,11.8808],[8.5661,11.8808],[8.5813,11.8821],[8.5798,11.8846],[8.5886,11.8841],[8.6107,11.8905],[8.6137,11.8924],[8.6117,11.8945],[8.6091,11.9111],[8.6281,11.9138],[8.6355,11.918],[8.6304,11.9276],[8.6317,11.937],[8.6334,11.9499],[8.6319,11.9624],[8.6277,11.9621],[8.6083,11.9694],[8.5988,11.9703],[8.5954,11.9619]]]}},{"type":"Feature","properties":{"name":"Kunchi","state":"Kano","scode":"KN","centroid":[12.4525,8.2649]},"geometry":{"type":"Polygon","coordinates":[[[8.4335,12.3575],[8.4225,12.3632],[8.4125,12.3833],[8.4128,12.3851],[8.4015,12.3957],[8.3733,12.4105],[8.3718,12.4211],[8.3733,12.4264],[8.3656,12.4317],[8.3582,12.4379],[8.3547,12.4797],[8.3354,12.4992],[8.3111,12.5077],[8.3029,12.5282],[8.3,12.5272],[8.2971,12.5336],[8.3012,12.5361],[8.2946,12.5767],[8.2901,12.5888],[8.2886,12.5999],[8.2788,12.6046],[8.2563,12.5962],[8.2462,12.5944],[8.2361,12.5912],[8.2324,12.5849],[8.2283,12.5847],[8.1948,12.5676],[8.1799,12.5641],[8.1814,12.5617],[8.1797,12.5547],[8.1806,12.553],[8.1792,12.5521],[8.1793,12.5489],[8.1766,12.5425],[8.177,12.5383],[8.1756,12.537],[8.178,12.5328],[8.176,12.5302],[8.1778,12.5273],[8.1743,12.5195],[8.1755,12.5175],[8.1782,12.5181],[8.1809,12.5134],[8.1798,12.5107],[8.1835,12.5066],[8.1862,12.508],[8.1904,12.5052],[8.1827,12.5012],[8.179,12.4964],[8.1768,12.4965],[8.1721,12.4932],[8.1688,12.4817],[8.1629,12.4745],[8.1622,12.4624],[8.165,12.4514],[8.1588,12.4473],[8.1567,12.4403],[8.1486,12.4396],[8.1302,12.4412],[8.1082,12.4164],[8.1191,12.4061],[8.131,12.4152],[8.1361,12.4241],[8.1516,12.4276],[8.1597,12.4011],[8.1845,12.4],[8.1794,12.3855],[8.1791,12.3715],[8.1853,12.3577],[8.1881,12.3465],[8.1938,12.3435],[8.1998,12.3544],[8.2346,12.381],[8.2447,12.3689],[8.2464,12.3547],[8.2578,12.347],[8.309,12.3502],[8.3049,12.3321],[8.3327,12.3376],[8.3421,12.3509],[8.3425,12.3564],[8.3508,12.3644],[8.3531,12.3715],[8.3596,12.375],[8.3603,12.3829],[8.3687,12.3905],[8.3775,12.3848],[8.3842,12.3837],[8.3843,12.3754],[8.3835,12.3742],[8.3596,12.371],[8.3601,12.3568],[8.3677,12.3545],[8.3855,12.3457],[8.3976,12.3521],[8.409,12.351],[8.4171,12.352],[8.4335,12.3575]]]}},{"type":"Feature","properties":{"name":"Kura","state":"Kano","scode":"KN","centroid":[11.7877,8.4868]},"geometry":{"type":"Polygon","coordinates":[[[8.4715,11.7172],[8.4747,11.7152],[8.4835,11.7277],[8.4967,11.7332],[8.5027,11.7395],[8.5004,11.7451],[8.5017,11.7588],[8.5298,11.773],[8.5335,11.764],[8.5378,11.7637],[8.5422,11.7722],[8.5556,11.7757],[8.5674,11.7816],[8.575,11.7717],[8.5824,11.7663],[8.5852,11.7619],[8.5848,11.7445],[8.608,11.7481],[8.6183,11.7524],[8.6168,11.7552],[8.6169,11.761],[8.6142,11.7671],[8.6005,11.7861],[8.6037,11.7996],[8.5953,11.8089],[8.584,11.803],[8.5732,11.8138],[8.553,11.8227],[8.5404,11.824],[8.5339,11.8218],[8.5303,11.8239],[8.5259,11.8205],[8.5234,11.8209],[8.5224,11.8216],[8.5233,11.8255],[8.5161,11.8427],[8.5115,11.8431],[8.5097,11.8461],[8.4902,11.8472],[8.4782,11.8429],[8.4659,11.8415],[8.4597,11.8423],[8.4541,11.8457],[8.4481,11.8471],[8.4404,11.8456],[8.43,11.8306],[8.4118,11.8199],[8.3985,11.7964],[8.3846,11.7767],[8.379,11.7577],[8.3902,11.7514],[8.398,11.7513],[8.407,11.7471],[8.4229,11.7477],[8.4269,11.7421],[8.4259,11.7246],[8.4433,11.7349],[8.4553,11.7366],[8.4594,11.7386],[8.463,11.737],[8.4704,11.7332],[8.4715,11.7172]]]}},{"type":"Feature","properties":{"name":"Madobi","state":"Kano","scode":"KN","centroid":[11.8124,8.3575]},"geometry":{"type":"Polygon","coordinates":[[[8.5097,11.8461],[8.5087,11.8494],[8.5038,11.8541],[8.5017,11.8643],[8.4972,11.8698],[8.4932,11.8718],[8.4841,11.8711],[8.4741,11.8795],[8.4655,11.8778],[8.4583,11.8827],[8.4545,11.8821],[8.4533,11.883],[8.4533,11.8879],[8.4499,11.8902],[8.4383,11.8888],[8.4331,11.8832],[8.4313,11.8832],[8.4251,11.888],[8.4241,11.8924],[8.4163,11.9029],[8.4068,11.9057],[8.404,11.9065],[8.3986,11.9114],[8.3934,11.9131],[8.3878,11.9136],[8.3829,11.9118],[8.3811,11.9078],[8.3792,11.8912],[8.3717,11.8865],[8.3612,11.8842],[8.3468,11.8697],[8.3448,11.8614],[8.3414,11.856],[8.3385,11.8543],[8.3329,11.854],[8.3234,11.8581],[8.3229,11.8535],[8.3127,11.8446],[8.3077,11.834],[8.303,11.836],[8.2985,11.8304],[8.2921,11.8295],[8.2821,11.8213],[8.2776,11.8193],[8.2672,11.8104],[8.2603,11.7919],[8.2563,11.789],[8.2545,11.7641],[8.2595,11.7561],[8.2571,11.7511],[8.25,11.7449],[8.2443,11.7352],[8.2508,11.7368],[8.2517,11.734],[8.2469,11.7302],[8.2524,11.7275],[8.273,11.7243],[8.2744,11.73],[8.2786,11.7319],[8.2926,11.7219],[8.3012,11.7201],[8.3107,11.7231],[8.3157,11.721],[8.3187,11.7214],[8.3256,11.7239],[8.3273,11.7274],[8.3317,11.7274],[8.3386,11.7271],[8.346,11.7235],[8.3513,11.725],[8.3719,11.7429],[8.3741,11.7505],[8.379,11.7577],[8.3846,11.7767],[8.3985,11.7964],[8.4118,11.8199],[8.43,11.8306],[8.4404,11.8456],[8.4481,11.8471],[8.4541,11.8457],[8.4597,11.8423],[8.4659,11.8415],[8.4782,11.8429],[8.4902,11.8472],[8.5097,11.8461]]]}},{"type":"Feature","properties":{"name":"Makoda","state":"Kano","scode":"KN","centroid":[12.4209,8.4834]},"geometry":{"type":"Polygon","coordinates":[[[8.5149,12.257],[8.5183,12.2543],[8.5285,12.2521],[8.5375,12.265],[8.5459,12.2816],[8.5626,12.2788],[8.5666,12.2758],[8.5752,12.2538],[8.5902,12.2556],[8.598,12.26],[8.6003,12.2673],[8.5981,12.2796],[8.5923,12.2868],[8.5894,12.2942],[8.5764,12.3025],[8.5674,12.3209],[8.5653,12.3498],[8.5663,12.3518],[8.5472,12.3618],[8.5381,12.3698],[8.5498,12.3792],[8.5493,12.3867],[8.539,12.3815],[8.5322,12.3821],[8.5259,12.3869],[8.5022,12.3859],[8.4991,12.3834],[8.5015,12.3767],[8.494,12.3726],[8.4783,12.3598],[8.4576,12.3519],[8.4465,12.3553],[8.458,12.3696],[8.4741,12.3758],[8.4771,12.3783],[8.4783,12.3822],[8.4833,12.3885],[8.4906,12.3906],[8.495,12.4088],[8.489,12.4147],[8.4888,12.4297],[8.4841,12.445],[8.472,12.4473],[8.4459,12.4454],[8.443,12.4747],[8.4251,12.4878],[8.4333,12.4952],[8.4434,12.4896],[8.4481,12.4991],[8.4447,12.5118],[8.446,12.5144],[8.4721,12.5125],[8.4728,12.5036],[8.4872,12.5041],[8.4891,12.495],[8.4881,12.4885],[8.4905,12.4836],[8.5484,12.486],[8.5515,12.4996],[8.5504,12.5196],[8.5522,12.5313],[8.5489,12.552],[8.5317,12.5521],[8.5263,12.5665],[8.5257,12.5764],[8.54,12.5801],[8.532,12.6007],[8.5077,12.5953],[8.496,12.5944],[8.4924,12.6019],[8.4584,12.5869],[8.4102,12.5047],[8.408,12.4959],[8.4037,12.4887],[8.3979,12.4832],[8.3962,12.4726],[8.3874,12.4703],[8.3847,12.4572],[8.3849,12.4503],[8.3795,12.4424],[8.3769,12.4356],[8.3672,12.4357],[8.3656,12.4317],[8.3733,12.4264],[8.3718,12.4211],[8.3733,12.4105],[8.4015,12.3957],[8.4128,12.3851],[8.4125,12.3833],[8.4225,12.3632],[8.4335,12.3575],[8.4356,12.3566],[8.4352,12.3383],[8.4365,12.3314],[8.439,12.3281],[8.4394,12.3223],[8.446,12.3237],[8.4509,12.3279],[8.451,12.3205],[8.4495,12.3161],[8.4633,12.3118],[8.4672,12.3094],[8.474,12.3016],[8.4794,12.2911],[8.4726,12.2863],[8.4729,12.284],[8.4792,12.2736],[8.4842,12.2605],[8.4941,12.2573],[8.4994,12.2607],[8.5149,12.2648],[8.5149,12.257]]]}},{"type":"Feature","properties":{"name":"Minjibir","state":"Kano","scode":"KN","centroid":[12.1956,8.6134]},"geometry":{"type":"Polygon","coordinates":[[[8.5075,12.1315],[8.5135,12.1331],[8.528,12.1337],[8.5293,12.1354],[8.5363,12.1366],[8.5397,12.1356],[8.5431,12.1366],[8.5456,12.1313],[8.5502,12.131],[8.5527,12.1278],[8.5557,12.1277],[8.5575,12.1215],[8.561,12.1219],[8.5685,12.1151],[8.5676,12.1103],[8.5704,12.1092],[8.571,12.1047],[8.5804,12.0958],[8.5936,12.0938],[8.6027,12.0948],[8.6245,12.0939],[8.6374,12.0987],[8.6366,12.105],[8.6398,12.1104],[8.6469,12.1144],[8.6437,12.1258],[8.641,12.1265],[8.64,12.1284],[8.6419,12.1302],[8.6464,12.1302],[8.6471,12.1349],[8.6536,12.1349],[8.6704,12.1385],[8.6892,12.147],[8.6918,12.1411],[8.7029,12.1434],[8.7156,12.1543],[8.7192,12.1559],[8.7309,12.1866],[8.7331,12.2005],[8.7215,12.2032],[8.7135,12.2109],[8.7178,12.2252],[8.7172,12.2534],[8.7298,12.2526],[8.7287,12.2602],[8.7326,12.2688],[8.7129,12.2647],[8.7048,12.2653],[8.7032,12.2664],[8.703,12.2711],[8.7081,12.2734],[8.7041,12.2884],[8.6962,12.2974],[8.6739,12.306],[8.665,12.2991],[8.6674,12.2898],[8.6675,12.277],[8.6641,12.2723],[8.6561,12.2678],[8.6471,12.2553],[8.6429,12.262],[8.6382,12.2625],[8.6112,12.2531],[8.6088,12.2574],[8.6059,12.2555],[8.6029,12.2599],[8.598,12.26],[8.5902,12.2556],[8.5752,12.2538],[8.5666,12.2758],[8.5626,12.2788],[8.5459,12.2816],[8.5375,12.265],[8.5285,12.2521],[8.5183,12.2543],[8.5149,12.257],[8.5136,12.2481],[8.5079,12.2422],[8.4962,12.2356],[8.4941,12.2298],[8.4947,12.2213],[8.4932,12.2172],[8.4964,12.2152],[8.4984,12.2067],[8.5016,12.2062],[8.5066,12.2121],[8.5181,12.2145],[8.5234,12.2138],[8.5224,12.2043],[8.4973,12.2005],[8.4957,12.1868],[8.4968,12.1759],[8.4908,12.1658],[8.5035,12.1595],[8.5081,12.16],[8.5145,12.1442],[8.507,12.1443],[8.5049,12.1365],[8.5075,12.1315]]]}},{"type":"Feature","properties":{"name":"Nassarawa","state":"Kano","scode":"KN","centroid":[12.0056,8.5737]},"geometry":{"type":"Polygon","coordinates":[[[8.5345,11.9895],[8.5426,11.9868],[8.5496,11.9866],[8.58,11.9668],[8.5869,11.9636],[8.5954,11.9619],[8.5988,11.9703],[8.6039,11.9827],[8.6014,11.9983],[8.6144,11.9966],[8.6187,11.9994],[8.62,12.0035],[8.6139,12.0048],[8.6138,12.013],[8.6003,12.012],[8.6019,12.0199],[8.5993,12.0237],[8.5909,12.0239],[8.5905,12.0315],[8.589,12.0343],[8.5868,12.0398],[8.5781,12.0322],[8.5729,12.0416],[8.5655,12.0347],[8.5611,12.035],[8.5604,12.0385],[8.5578,12.0399],[8.5551,12.0454],[8.5559,12.0487],[8.5528,12.051],[8.5542,12.0513],[8.5535,12.0527],[8.5509,12.0531],[8.5485,12.0533],[8.5492,12.0519],[8.5447,12.0469],[8.5455,12.0454],[8.544,12.0422],[8.5419,12.0398],[8.5402,12.04],[8.5386,12.0364],[8.5358,12.0348],[8.5445,12.0218],[8.5417,12.0047],[8.5432,12.004],[8.5425,11.9991],[8.5445,11.9939],[8.5351,11.9911],[8.5345,11.9895]]]}},{"type":"Feature","properties":{"name":"Rano","state":"Kano","scode":"KN","centroid":[11.493,8.5318]},"geometry":{"type":"Polygon","coordinates":[[[8.6146,11.3496],[8.6029,11.3681],[8.6002,11.3689],[8.5891,11.3862],[8.5765,11.3919],[8.5629,11.4092],[8.5625,11.419],[8.5787,11.4344],[8.583,11.4418],[8.5969,11.4561],[8.6037,11.4667],[8.6232,11.4626],[8.6295,11.4539],[8.6389,11.4562],[8.6148,11.4749],[8.6123,11.4787],[8.6106,11.4829],[8.623,11.4872],[8.6222,11.4959],[8.6194,11.5041],[8.6039,11.4994],[8.6022,11.5041],[8.6028,11.5113],[8.6131,11.5213],[8.6106,11.5383],[8.6151,11.5476],[8.6287,11.5488],[8.6392,11.5428],[8.6448,11.544],[8.6433,11.5462],[8.6433,11.5533],[8.6465,11.5625],[8.6422,11.5649],[8.6441,11.568],[8.6423,11.5711],[8.6437,11.5735],[8.6439,11.5775],[8.6423,11.5804],[8.6438,11.584],[8.6414,11.5854],[8.6426,11.5895],[8.6388,11.5905],[8.6386,11.5977],[8.6411,11.6019],[8.6431,11.6025],[8.6449,11.6103],[8.6513,11.6153],[8.6627,11.62],[8.666,11.6247],[8.6689,11.6262],[8.6687,11.6287],[8.6723,11.6306],[8.6721,11.6345],[8.6499,11.6352],[8.6491,11.6371],[8.6466,11.6369],[8.6408,11.6331],[8.6353,11.635],[8.6318,11.6302],[8.6256,11.6265],[8.617,11.6243],[8.6162,11.618],[8.6077,11.6191],[8.6066,11.6293],[8.598,11.6311],[8.592,11.6305],[8.5926,11.5894],[8.5669,11.5878],[8.5613,11.6088],[8.5545,11.6176],[8.545,11.6184],[8.5435,11.6063],[8.5375,11.6022],[8.5299,11.5996],[8.5197,11.6029],[8.5146,11.5947],[8.5127,11.5903],[8.5184,11.5863],[8.5234,11.5753],[8.515,11.5679],[8.4928,11.5725],[8.4862,11.5547],[8.4704,11.5545],[8.4626,11.5569],[8.4574,11.558],[8.4418,11.5576],[8.4418,11.5694],[8.4391,11.5744],[8.4338,11.5768],[8.4252,11.5551],[8.4243,11.5468],[8.4161,11.5353],[8.4199,11.5278],[8.4271,11.5212],[8.4286,11.5171],[8.4258,11.5097],[8.4262,11.5046],[8.4171,11.5004],[8.4131,11.4932],[8.4131,11.489],[8.3966,11.4679],[8.4082,11.4634],[8.416,11.4646],[8.4254,11.4633],[8.4263,11.4619],[8.4247,11.4603],[8.4246,11.4568],[8.4274,11.4546],[8.4276,11.4499],[8.4307,11.4506],[8.4341,11.4463],[8.433,11.4456],[8.4335,11.4442],[8.4282,11.4442],[8.4228,11.4403],[8.429,11.4353],[8.4333,11.4368],[8.4318,11.4358],[8.4332,11.4333],[8.4282,11.4306],[8.4279,11.4287],[8.4307,11.4259],[8.4334,11.4264],[8.4331,11.4225],[8.4333,11.4201],[8.4426,11.4109],[8.4442,11.4103],[8.4469,11.4127],[8.4495,11.4118],[8.448,11.4099],[8.451,11.4046],[8.4612,11.3979],[8.4668,11.3922],[8.4711,11.393],[8.4751,11.3914],[8.4758,11.3941],[8.4786,11.3944],[8.4806,11.3969],[8.4853,11.3949],[8.4887,11.3984],[8.4878,11.3997],[8.4916,11.4037],[8.4932,11.4037],[8.4941,11.3982],[8.4959,11.397],[8.4946,11.39],[8.4933,11.3891],[8.4971,11.3875],[8.4988,11.3884],[8.5002,11.3863],[8.5024,11.3868],[8.5041,11.3852],[8.5055,11.3881],[8.5067,11.3878],[8.5062,11.3854],[8.5108,11.3812],[8.5195,11.3806],[8.5211,11.3824],[8.5245,11.382],[8.5231,11.3792],[8.52,11.379],[8.5158,11.3743],[8.5198,11.3733],[8.5254,11.3767],[8.5259,11.3746],[8.5246,11.3747],[8.5234,11.3691],[8.5266,11.368],[8.5308,11.3615],[8.5423,11.3533],[8.5459,11.3536],[8.5469,11.351],[8.5619,11.342],[8.5719,11.3389],[8.5802,11.3436],[8.5972,11.3475],[8.6146,11.3496]]]}},{"type":"Feature","properties":{"name":"Rimin Gado","state":"Kano","scode":"KN","centroid":[11.9365,8.2755]},"geometry":{"type":"Polygon","coordinates":[[[8.2821,11.8213],[8.2921,11.8295],[8.2985,11.8304],[8.303,11.836],[8.3077,11.834],[8.3127,11.8446],[8.3229,11.8535],[8.3234,11.8581],[8.3329,11.854],[8.3385,11.8543],[8.3414,11.856],[8.3448,11.8614],[8.3468,11.8697],[8.3612,11.8842],[8.3717,11.8865],[8.3792,11.8912],[8.3811,11.9078],[8.3829,11.9118],[8.3878,11.9136],[8.3934,11.9131],[8.3986,11.9114],[8.404,11.9065],[8.4068,11.9057],[8.4038,11.9102],[8.4056,11.9148],[8.4045,11.9308],[8.3896,11.9374],[8.3719,11.9514],[8.362,11.9467],[8.3564,11.9519],[8.3364,11.9593],[8.3242,11.9564],[8.3207,11.9589],[8.2882,11.9453],[8.2689,11.9468],[8.2673,11.9508],[8.2657,11.9695],[8.2696,11.9722],[8.2738,11.979],[8.2779,11.9825],[8.2915,11.9862],[8.2907,11.9925],[8.2876,11.9927],[8.2803,12.0071],[8.2895,12.0086],[8.2918,12.0151],[8.2952,12.018],[8.2956,12.028],[8.2926,12.0285],[8.2866,12.0266],[8.2807,12.0227],[8.2732,12.0206],[8.2711,12.0182],[8.2668,12.018],[8.2642,12.0225],[8.2599,12.0241],[8.2471,12.0215],[8.2471,12.0174],[8.2404,12.0189],[8.2389,12.021],[8.2347,12.0187],[8.2249,12.0165],[8.2162,12.0169],[8.1989,12.0145],[8.1804,12.0059],[8.1719,12.0129],[8.1663,12.0079],[8.1508,12.0037],[8.1403,12.0041],[8.1419,11.9932],[8.1546,11.9862],[8.1544,11.974],[8.156,11.9706],[8.16,11.9702],[8.1615,11.9681],[8.1608,11.9627],[8.1684,11.9641],[8.1688,11.9618],[8.1735,11.9568],[8.1789,11.956],[8.1839,11.9493],[8.1892,11.9479],[8.1933,11.9449],[8.2014,11.9261],[8.2094,11.9189],[8.2114,11.9145],[8.2161,11.9127],[8.2179,11.9089],[8.2201,11.9083],[8.2298,11.9159],[8.2405,11.9159],[8.2432,11.9175],[8.2446,11.9242],[8.2505,11.9272],[8.2554,11.9321],[8.2592,11.9238],[8.2613,11.9135],[8.2632,11.9136],[8.2672,11.9099],[8.2681,11.9013],[8.2755,11.8969],[8.2757,11.892],[8.2781,11.8929],[8.2783,11.8887],[8.2815,11.8892],[8.2823,11.8878],[8.2795,11.8865],[8.2794,11.8836],[8.2818,11.8832],[8.2819,11.8802],[8.2867,11.8799],[8.2863,11.8777],[8.2886,11.8762],[8.286,11.8749],[8.2709,11.8762],[8.2616,11.8722],[8.2686,11.8515],[8.2689,11.8388],[8.272,11.8306],[8.2763,11.829],[8.2825,11.8229],[8.2821,11.8213]]]}},{"type":"Feature","properties":{"name":"Rogo","state":"Kano","scode":"KN","centroid":[11.516,7.8387]},"geometry":{"type":"Polygon","coordinates":[[[7.8055,11.3717],[7.8062,11.3775],[7.8098,11.3789],[7.8135,11.3785],[7.8195,11.3722],[7.8214,11.3735],[7.8268,11.3696],[7.8329,11.3719],[7.8359,11.3774],[7.8558,11.3781],[7.8571,11.3855],[7.866,11.3818],[7.8789,11.3862],[7.879,11.3919],[7.8823,11.3951],[7.8827,11.3995],[7.8891,11.4052],[7.8966,11.4189],[7.8931,11.4242],[7.8938,11.4272],[7.8968,11.4277],[7.8986,11.4311],[7.9033,11.4323],[7.9069,11.4314],[7.9094,11.4335],[7.9168,11.4353],[7.9177,11.4401],[7.9302,11.4484],[7.9314,11.4533],[7.9419,11.4597],[7.9425,11.4632],[7.945,11.4631],[7.9448,11.4644],[7.9487,11.4662],[7.9565,11.4674],[7.9627,11.4714],[7.9684,11.4787],[7.9779,11.479],[7.9787,11.4833],[7.9802,11.4843],[7.9825,11.483],[7.9886,11.4847],[7.991,11.4876],[7.9948,11.4869],[7.9957,11.4916],[7.9976,11.4893],[7.9995,11.4896],[8.0009,11.4921],[8.0091,11.4908],[8.0123,11.4918],[8.0225,11.4888],[8.0303,11.4941],[8.0358,11.4934],[8.0248,11.5074],[8.0312,11.5343],[8.0286,11.5394],[8.0239,11.5381],[8.0201,11.5335],[8.0136,11.5339],[8.0108,11.5361],[7.9861,11.5407],[7.985,11.5437],[7.9831,11.5444],[7.9819,11.5478],[7.9833,11.5526],[7.9802,11.5537],[7.9818,11.5565],[7.9816,11.561],[7.984,11.562],[7.981,11.5733],[7.982,11.5762],[7.9775,11.5836],[7.9802,11.5864],[7.9778,11.5887],[7.9793,11.5914],[7.975,11.5951],[7.9709,11.6059],[7.9636,11.6083],[7.9553,11.614],[7.9539,11.6553],[7.9468,11.6586],[7.9431,11.6574],[7.9425,11.6531],[7.9326,11.6537],[7.9348,11.6457],[7.9268,11.6448],[7.9265,11.6418],[7.9206,11.6425],[7.92,11.6464],[7.9142,11.65],[7.901,11.6496],[7.897,11.6489],[7.8917,11.655],[7.8789,11.6544],[7.8709,11.6593],[7.866,11.6527],[7.866,11.6489],[7.8578,11.6497],[7.8538,11.6483],[7.8449,11.6418],[7.8412,11.6329],[7.8397,11.6322],[7.8324,11.6319],[7.8282,11.6359],[7.8202,11.6349],[7.8144,11.6381],[7.7979,11.6306],[7.7965,11.6254],[7.7933,11.6255],[7.7868,11.6298],[7.7669,11.6286],[7.7582,11.6237],[7.7395,11.6168],[7.7365,11.6086],[7.722,11.6034],[7.7215,11.5997],[7.7106,11.5974],[7.7069,11.595],[7.7049,11.5925],[7.7068,11.5822],[7.7132,11.5732],[7.7169,11.5717],[7.7185,11.569],[7.7112,11.549],[7.7003,11.5396],[7.698,11.5354],[7.6796,11.5237],[7.6823,11.5165],[7.6826,11.5107],[7.6801,11.5066],[7.6794,11.4922],[7.6752,11.4833],[7.6874,11.4696],[7.6921,11.4605],[7.694,11.454],[7.6931,11.434],[7.6952,11.4315],[7.6945,11.4203],[7.7057,11.426],[7.7223,11.4155],[7.7195,11.4088],[7.7309,11.3982],[7.74,11.3914],[7.7482,11.3876],[7.7504,11.3817],[7.7493,11.3734],[7.7507,11.3714],[7.7548,11.3724],[7.7571,11.3771],[7.76,11.3754],[7.7648,11.3793],[7.7694,11.3791],[7.7755,11.3749],[7.7755,11.3702],[7.7792,11.366],[7.7775,11.3649],[7.7831,11.3611],[7.789,11.3599],[7.7984,11.3767],[7.8005,11.3767],[7.8016,11.3736],[7.8055,11.3717]]]}},{"type":"Feature","properties":{"name":"Shanono","state":"Kano","scode":"KN","centroid":[12.0749,7.9632]},"geometry":{"type":"Polygon","coordinates":[[[7.8656,12.0214],[7.8844,12.021],[7.887,11.9962],[7.8891,11.9897],[7.8921,11.9892],[7.8949,11.9851],[7.898,11.9848],[7.9057,11.966],[7.921,11.9602],[7.9396,11.9728],[7.9542,11.9759],[7.9649,11.9761],[7.9694,11.9722],[7.9721,11.9718],[7.9834,11.9731],[7.9832,11.9836],[7.9848,11.9859],[7.9921,11.9937],[8.0026,11.9991],[8.0053,11.9983],[8.006,11.9959],[8.0098,11.9931],[8.0197,11.9885],[8.023,11.983],[8.0272,11.9818],[8.0296,11.9791],[8.0384,11.9827],[8.0468,11.9816],[8.0547,11.9828],[8.066,11.9803],[8.0773,11.9798],[8.0781,11.97],[8.0751,11.9676],[8.0751,11.965],[8.0771,11.9634],[8.0858,11.9616],[8.0978,11.976],[8.1027,11.9844],[8.1003,11.9982],[8.1228,12.012],[8.1206,12.0152],[8.122,12.0268],[8.1247,12.0334],[8.1237,12.0412],[8.1188,12.0421],[8.1143,12.0451],[8.1172,12.0599],[8.1147,12.0621],[8.112,12.0695],[8.1091,12.0674],[8.1051,12.0674],[8.1045,12.0691],[8.092,12.0683],[8.0882,12.064],[8.0828,12.0623],[8.0631,12.0615],[8.0573,12.0625],[8.0564,12.0542],[8.0493,12.0534],[8.0437,12.0598],[8.0441,12.0676],[8.039,12.0691],[8.0346,12.0631],[8.0318,12.0545],[8.0158,12.0599],[8.0193,12.0685],[8.0152,12.0694],[8.0144,12.0712],[8.0082,12.0693],[8.0095,12.0776],[7.9929,12.0838],[7.9887,12.0906],[7.9847,12.0933],[7.9836,12.0981],[7.9907,12.1162],[8.001,12.1213],[8.0011,12.1289],[7.994,12.1284],[7.9912,12.1532],[7.9923,12.1608],[7.9992,12.1629],[8.0031,12.1781],[8.0021,12.1814],[7.9934,12.1895],[7.9936,12.1923],[7.9673,12.1895],[7.9547,12.1782],[7.9451,12.178],[7.9429,12.1807],[7.9393,12.195],[7.9354,12.2012],[7.929,12.2025],[7.9227,12.1952],[7.9182,12.194],[7.9177,12.1916],[7.9146,12.1917],[7.9094,12.1998],[7.9055,12.202],[7.9083,12.2033],[7.9071,12.2054],[7.9042,12.2066],[7.9035,12.2102],[7.8966,12.215],[7.8941,12.2194],[7.8871,12.2231],[7.8813,12.2224],[7.8781,12.2248],[7.88,12.2341],[7.8764,12.2352],[7.8632,12.2326],[7.8708,12.2237],[7.8708,12.2199],[7.8696,12.216],[7.8644,12.2097],[7.8643,12.2015],[7.861,12.1933],[7.8616,12.1892],[7.8595,12.1788],[7.8555,12.1768],[7.8558,12.1728],[7.8596,12.1695],[7.86,12.1629],[7.8585,12.1593],[7.8543,12.1567],[7.8542,12.1551],[7.8566,12.1508],[7.8553,12.1501],[7.8552,12.1471],[7.8655,12.14],[7.8632,12.132],[7.8632,12.1216],[7.8642,12.1183],[7.8696,12.1155],[7.8713,12.1128],[7.8673,12.1014],[7.8695,12.0963],[7.867,12.0931],[7.8698,12.0902],[7.8682,12.0826],[7.8724,12.0757],[7.8756,12.0651],[7.8798,12.0443],[7.8656,12.0214]]]}},{"type":"Feature","properties":{"name":"Sumaila","state":"Kano","scode":"KN","centroid":[11.2887,8.8807]},"geometry":{"type":"Polygon","coordinates":[[[9.0331,11.528],[9.0242,11.5283],[9.0047,11.525],[9.0035,11.5362],[9.0067,11.54],[9.0019,11.5471],[8.9814,11.5455],[8.9429,11.5554],[8.9347,11.5685],[8.9341,11.5735],[8.9167,11.5739],[8.916,11.5673],[8.9051,11.5574],[8.904,11.5547],[8.8806,11.5563],[8.8804,11.5442],[8.8762,11.5186],[8.8789,11.5059],[8.8712,11.5029],[8.8688,11.497],[8.8461,11.4966],[8.8438,11.4909],[8.8437,11.4825],[8.8354,11.4723],[8.8269,11.4554],[8.8284,11.4441],[8.8498,11.4292],[8.8419,11.4213],[8.8315,11.4141],[8.8278,11.4093],[8.8179,11.4027],[8.8139,11.4011],[8.8002,11.4003],[8.7861,11.3952],[8.7837,11.3906],[8.7936,11.3759],[8.7869,11.3568],[8.7837,11.3308],[8.7794,11.3137],[8.7679,11.3111],[8.7605,11.3044],[8.7579,11.3003],[8.7617,11.2878],[8.7611,11.2852],[8.7524,11.2775],[8.7416,11.2719],[8.7356,11.2728],[8.7347,11.2772],[8.7254,11.2785],[8.7204,11.2774],[8.7169,11.275],[8.7055,11.2544],[8.707,11.2439],[8.7127,11.2318],[8.7136,11.2215],[8.7162,11.214],[8.7448,11.2096],[8.7691,11.2189],[8.7728,11.2173],[8.7734,11.2139],[8.7767,11.2088],[8.7658,11.2061],[8.6835,11.1394],[8.6433,11.14],[8.6441,11.1335],[8.6426,11.1257],[8.6452,11.1145],[8.6516,11.1063],[8.656,11.1046],[8.658,11.1],[8.6569,11.0978],[8.6632,11.0886],[8.6727,11.0836],[8.679,11.0824],[8.6842,11.0769],[8.6876,11.0704],[8.6902,11.0689],[8.6861,11.058],[8.6891,11.0546],[8.6893,11.0515],[8.6863,11.0465],[8.6884,11.0438],[8.6876,11.0391],[8.6935,11.0354],[8.695,11.0264],[8.7046,11.0143],[8.7092,11.0113],[8.7199,11.0118],[8.7284,11.003],[8.737,10.9925],[8.7369,10.9897],[8.7456,10.9804],[8.7519,10.9682],[8.7549,10.966],[8.7554,10.9623],[8.7667,10.9417],[8.7707,10.9418],[8.7733,10.9383],[8.7773,10.9368],[8.7887,10.9423],[8.7897,10.9477],[8.7841,10.9743],[8.7868,10.9939],[8.7829,10.9998],[8.7798,11.0115],[8.7804,11.0193],[8.7842,11.0372],[8.7938,11.0615],[8.7904,11.0682],[8.7942,11.0688],[8.7927,11.0829],[8.7955,11.0837],[8.7985,11.0745],[8.8024,11.0743],[8.8129,11.0918],[8.8119,11.0971],[8.8051,11.1001],[8.8053,11.1037],[8.8087,11.1041],[8.8178,11.0969],[8.8246,11.0958],[8.8456,11.1008],[8.8562,11.0985],[8.8689,11.1025],[8.8764,11.1099],[8.8814,11.1121],[8.8849,11.1109],[8.8934,11.1171],[8.894,11.1214],[8.9011,11.1314],[8.901,11.1354],[8.9098,11.1435],[8.9122,11.1467],[8.9147,11.1544],[8.9197,11.1588],[8.918,11.1597],[8.9205,11.1677],[8.9192,11.1703],[8.921,11.1722],[8.9199,11.1775],[8.9258,11.1803],[8.9402,11.1919],[8.9418,11.1912],[8.9487,11.1944],[8.9488,11.1922],[8.9527,11.1925],[8.9524,11.1951],[8.9559,11.2003],[8.9633,11.2024],[8.9668,11.206],[8.9668,11.2079],[8.9703,11.2086],[8.9736,11.2121],[8.974,11.2159],[8.9779,11.2206],[8.9798,11.2217],[8.9834,11.2205],[8.9852,11.2247],[8.9898,11.2248],[8.9956,11.2275],[8.9958,11.2329],[8.9998,11.2359],[9.0003,11.2401],[9.0036,11.2443],[9.008,11.2465],[9.01,11.2508],[9.0194,11.2577],[9.0182,11.2597],[9.0187,11.2653],[9.0267,11.2771],[9.0348,11.2769],[9.0378,11.2781],[9.0448,11.2859],[9.0511,11.2873],[9.0558,11.2909],[9.0626,11.293],[9.0725,11.3017],[9.0753,11.3062],[9.082,11.3093],[9.0831,11.3139],[9.0849,11.3149],[9.0992,11.3104],[9.1018,11.3068],[9.1149,11.3169],[9.1179,11.3239],[9.1236,11.3263],[9.1241,11.3277],[9.1287,11.3275],[9.1302,11.3288],[9.1261,11.3372],[9.1203,11.3426],[9.1132,11.3627],[9.0961,11.3681],[9.0808,11.3804],[9.0809,11.3832],[9.0709,11.3922],[9.0605,11.397],[9.0631,11.4068],[9.0503,11.4169],[9.0474,11.4219],[9.0614,11.4439],[9.0518,11.4501],[9.0278,11.455],[9.0297,11.4567],[9.0292,11.4583],[9.0312,11.462],[9.0296,11.4646],[9.0312,11.4672],[9.0305,11.4713],[9.0373,11.4787],[9.0376,11.4803],[9.0362,11.4813],[9.0373,11.4854],[9.0434,11.4856],[9.0411,11.4883],[9.0426,11.492],[9.0397,11.4975],[9.0412,11.5015],[9.0399,11.5038],[9.0419,11.5047],[9.0396,11.5073],[9.0389,11.5127],[9.0331,11.528]]]}},{"type":"Feature","properties":{"name":"Takai","state":"Kano","scode":"KN","centroid":[11.4862,9.1612]},"geometry":{"type":"Polygon","coordinates":[[[9.3603,11.5608],[9.3537,11.5725],[9.3274,11.5771],[9.3185,11.5718],[9.3079,11.569],[9.2602,11.5629],[9.2522,11.5646],[9.2401,11.5618],[9.2242,11.5617],[9.2095,11.5586],[9.1954,11.5497],[9.1917,11.5498],[9.175,11.5568],[9.1689,11.5736],[9.1757,11.5833],[9.1763,11.5872],[9.1745,11.5938],[9.1821,11.5975],[9.1742,11.609],[9.1638,11.6139],[9.1615,11.6256],[9.1594,11.6298],[9.1641,11.6356],[9.1603,11.6444],[9.1602,11.6525],[9.1336,11.6529],[9.1314,11.6472],[9.13,11.6467],[9.129,11.6405],[9.1269,11.6391],[9.1272,11.637],[9.1196,11.6303],[9.1124,11.6313],[9.1065,11.6274],[9.0991,11.6281],[9.0774,11.6132],[9.0667,11.5874],[9.062,11.5661],[9.063,11.5518],[9.0574,11.5516],[9.0496,11.5557],[9.0312,11.5561],[9.0331,11.528],[9.0389,11.5127],[9.0396,11.5073],[9.0419,11.5047],[9.0399,11.5038],[9.0412,11.5015],[9.0397,11.4975],[9.0426,11.492],[9.0411,11.4883],[9.0434,11.4856],[9.0373,11.4854],[9.0362,11.4813],[9.0376,11.4803],[9.0373,11.4787],[9.0305,11.4713],[9.0312,11.4672],[9.0296,11.4646],[9.0312,11.462],[9.0292,11.4583],[9.0297,11.4567],[9.0278,11.455],[9.0518,11.4501],[9.0614,11.4439],[9.0474,11.4219],[9.0503,11.4169],[9.0631,11.4068],[9.0605,11.397],[9.0709,11.3922],[9.0809,11.3832],[9.0808,11.3804],[9.0961,11.3681],[9.1132,11.3627],[9.1203,11.3426],[9.1261,11.3372],[9.1302,11.3288],[9.1422,11.3262],[9.1403,11.3216],[9.1415,11.3164],[9.143,11.3156],[9.1614,11.3146],[9.1695,11.3082],[9.1748,11.3063],[9.1804,11.3085],[9.1824,11.3111],[9.1781,11.3183],[9.1868,11.3206],[9.195,11.3266],[9.2084,11.358],[9.2222,11.3738],[9.2249,11.3924],[9.2291,11.3966],[9.2325,11.4057],[9.2321,11.4125],[9.2334,11.4134],[9.2338,11.4197],[9.2276,11.4262],[9.2315,11.4495],[9.2349,11.4524],[9.2477,11.4573],[9.2525,11.4722],[9.2605,11.4761],[9.2762,11.4921],[9.2842,11.5026],[9.2908,11.5063],[9.2986,11.4987],[9.3305,11.5166],[9.3432,11.5317],[9.3603,11.5608]]]}},{"type":"Feature","properties":{"name":"Tarauni","state":"Kano","scode":"KN","centroid":[11.9605,8.5564]},"geometry":{"type":"Polygon","coordinates":[[[8.5345,11.9895],[8.5351,11.9851],[8.5404,11.9792],[8.5349,11.9749],[8.5305,11.9672],[8.5395,11.9531],[8.5381,11.9497],[8.5355,11.9484],[8.5349,11.9384],[8.5363,11.9331],[8.5548,11.941],[8.5537,11.9373],[8.5555,11.938],[8.559,11.9355],[8.5613,11.9381],[8.5633,11.9381],[8.5624,11.9392],[8.5657,11.946],[8.5704,11.9458],[8.5723,11.9481],[8.5787,11.9447],[8.5819,11.9506],[8.5906,11.959],[8.5931,11.9557],[8.5954,11.9619],[8.5869,11.9636],[8.58,11.9668],[8.5496,11.9866],[8.5426,11.9868],[8.5345,11.9895]]]}},{"type":"Feature","properties":{"name":"Tofa","state":"Kano","scode":"KN","centroid":[12.0179,8.3269]},"geometry":{"type":"Polygon","coordinates":[[[8.2508,12.12],[8.2582,12.0856],[8.2685,12.0817],[8.2686,12.0752],[8.266,12.0742],[8.2647,12.0707],[8.2493,12.0508],[8.2582,12.0453],[8.2457,12.0304],[8.2471,12.0215],[8.2599,12.0241],[8.2642,12.0225],[8.2668,12.018],[8.2711,12.0182],[8.2732,12.0206],[8.2807,12.0227],[8.2866,12.0266],[8.2926,12.0285],[8.2956,12.028],[8.2952,12.018],[8.2918,12.0151],[8.2895,12.0086],[8.2803,12.0071],[8.2876,11.9927],[8.2907,11.9925],[8.2915,11.9862],[8.2779,11.9825],[8.2738,11.979],[8.2696,11.9722],[8.2657,11.9695],[8.2673,11.9508],[8.2689,11.9468],[8.2882,11.9453],[8.3207,11.9589],[8.3242,11.9564],[8.3364,11.9593],[8.3564,11.9519],[8.362,11.9467],[8.3719,11.9514],[8.3896,11.9374],[8.4045,11.9308],[8.4018,11.9405],[8.4028,11.9475],[8.401,11.9584],[8.4055,11.9577],[8.4105,11.9623],[8.4129,11.971],[8.4171,11.9789],[8.4134,11.994],[8.407,12.0047],[8.4023,12.0055],[8.4027,12.011],[8.3938,12.0114],[8.3896,12.0164],[8.3877,12.0222],[8.3876,12.0288],[8.3846,12.0339],[8.3797,12.0346],[8.377,12.0375],[8.3732,12.0362],[8.3711,12.0427],[8.3629,12.0475],[8.3618,12.0497],[8.3551,12.0497],[8.3538,12.0807],[8.3553,12.091],[8.3506,12.0935],[8.3494,12.0967],[8.3441,12.0985],[8.3385,12.0797],[8.329,12.0772],[8.3277,12.0836],[8.315,12.0868],[8.3122,12.0894],[8.3087,12.0894],[8.3065,12.0907],[8.3045,12.0951],[8.3003,12.0952],[8.2944,12.1],[8.2902,12.101],[8.2868,12.1077],[8.2811,12.1099],[8.2813,12.1132],[8.2752,12.1129],[8.2722,12.1084],[8.2693,12.1076],[8.2673,12.11],[8.2695,12.1146],[8.2684,12.1156],[8.2635,12.1157],[8.2508,12.12]]]}},{"type":"Feature","properties":{"name":"Tsanyawa","state":"Kano","scode":"KN","centroid":[12.2814,8.0108]},"geometry":{"type":"Polygon","coordinates":[[[7.9992,12.1629],[8.0013,12.1562],[8.0045,12.1538],[8.0053,12.1445],[8.0329,12.1516],[8.0264,12.1669],[8.0334,12.1748],[8.0418,12.1816],[8.0552,12.1797],[8.0743,12.1828],[8.0799,12.1851],[8.0875,12.1854],[8.093,12.1822],[8.0983,12.1837],[8.1072,12.1836],[8.1123,12.1861],[8.1134,12.1878],[8.1122,12.19],[8.114,12.1918],[8.1157,12.1891],[8.1175,12.1897],[8.122,12.188],[8.1252,12.1933],[8.1246,12.1992],[8.1231,12.2026],[8.1193,12.2049],[8.1169,12.2092],[8.115,12.2265],[8.1183,12.2319],[8.1186,12.2528],[8.1217,12.2553],[8.1294,12.2547],[8.1404,12.259],[8.1413,12.2668],[8.1404,12.2763],[8.1139,12.2888],[8.1155,12.2967],[8.1183,12.2986],[8.0962,12.3147],[8.0826,12.3344],[8.0974,12.3409],[8.0978,12.3439],[8.0928,12.3489],[8.0935,12.3527],[8.0909,12.3561],[8.0778,12.3557],[8.0812,12.3663],[8.1103,12.3686],[8.1143,12.3809],[8.1191,12.4061],[8.1082,12.4164],[8.0552,12.4172],[8.0479,12.4126],[8.0336,12.4044],[8.0302,12.3954],[8.0024,12.3936],[7.9993,12.3888],[7.9988,12.3841],[7.9934,12.3813],[7.9873,12.3728],[7.9838,12.3719],[7.9825,12.3725],[7.9828,12.3749],[7.9812,12.3753],[7.9807,12.3729],[7.9724,12.3686],[7.9691,12.363],[7.9681,12.3628],[7.967,12.3659],[7.9653,12.3645],[7.9626,12.365],[7.9535,12.3582],[7.9504,12.3588],[7.9449,12.3492],[7.9337,12.3444],[7.9226,12.3367],[7.9027,12.3325],[7.8924,12.3303],[7.8866,12.3098],[7.885,12.2985],[7.877,12.2896],[7.8645,12.2807],[7.8701,12.2664],[7.8781,12.2534],[7.8764,12.2352],[7.88,12.2341],[7.8781,12.2248],[7.8813,12.2224],[7.8871,12.2231],[7.8941,12.2194],[7.8966,12.215],[7.9035,12.2102],[7.9042,12.2066],[7.9071,12.2054],[7.9083,12.2033],[7.9055,12.202],[7.9094,12.1998],[7.9146,12.1917],[7.9177,12.1916],[7.9182,12.194],[7.9227,12.1952],[7.929,12.2025],[7.9354,12.2012],[7.9393,12.195],[7.9429,12.1807],[7.9451,12.178],[7.9547,12.1782],[7.9673,12.1895],[7.9936,12.1923],[7.9934,12.1895],[8.0021,12.1814],[8.0031,12.1781],[7.9992,12.1629]]]}},{"type":"Feature","properties":{"name":"Tudun Wada","state":"Kano","scode":"KN","centroid":[11.2943,8.5483]},"geometry":{"type":"Polygon","coordinates":[[[8.6433,11.14],[8.6835,11.1394],[8.7658,11.2061],[8.7767,11.2088],[8.7734,11.2139],[8.7728,11.2173],[8.7691,11.2189],[8.7448,11.2096],[8.7162,11.214],[8.7136,11.2215],[8.7127,11.2318],[8.707,11.2439],[8.7055,11.2544],[8.7169,11.275],[8.7204,11.2774],[8.7254,11.2785],[8.7347,11.2772],[8.7356,11.2728],[8.7416,11.2719],[8.7524,11.2775],[8.7611,11.2852],[8.7617,11.2878],[8.7579,11.3003],[8.7605,11.3044],[8.7679,11.3111],[8.7794,11.3137],[8.7837,11.3308],[8.7869,11.3568],[8.7936,11.3759],[8.7837,11.3906],[8.7861,11.3952],[8.7858,11.4042],[8.7949,11.4145],[8.7825,11.4238],[8.7858,11.4348],[8.7738,11.442],[8.7701,11.4525],[8.7717,11.4704],[8.7651,11.4711],[8.7495,11.4672],[8.7449,11.4678],[8.7448,11.4658],[8.7476,11.4641],[8.7468,11.4595],[8.749,11.4559],[8.7406,11.4438],[8.736,11.4339],[8.717,11.4078],[8.7123,11.4175],[8.6944,11.4118],[8.6856,11.4066],[8.6716,11.4071],[8.6696,11.396],[8.6734,11.3944],[8.6717,11.388],[8.6702,11.3888],[8.6582,11.377],[8.6483,11.3703],[8.6478,11.3663],[8.6426,11.3688],[8.6146,11.3496],[8.5972,11.3475],[8.5802,11.3436],[8.5719,11.3389],[8.5619,11.342],[8.5469,11.351],[8.5459,11.3536],[8.5423,11.3533],[8.5308,11.3615],[8.5266,11.368],[8.5234,11.3691],[8.5246,11.3747],[8.5259,11.3746],[8.5254,11.3767],[8.5198,11.3733],[8.5158,11.3743],[8.52,11.379],[8.5231,11.3792],[8.5245,11.382],[8.5211,11.3824],[8.5195,11.3806],[8.5108,11.3812],[8.5062,11.3854],[8.5067,11.3878],[8.5055,11.3881],[8.5041,11.3852],[8.5024,11.3868],[8.5002,11.3863],[8.4988,11.3884],[8.4971,11.3875],[8.4933,11.3891],[8.4946,11.39],[8.4959,11.397],[8.4941,11.3982],[8.4932,11.4037],[8.4916,11.4037],[8.4878,11.3997],[8.4887,11.3984],[8.4853,11.3949],[8.4806,11.3969],[8.4786,11.3944],[8.4758,11.3941],[8.4751,11.3914],[8.4711,11.393],[8.4668,11.3922],[8.4612,11.3979],[8.451,11.4046],[8.448,11.4099],[8.4495,11.4118],[8.4469,11.4127],[8.4442,11.4103],[8.4426,11.4109],[8.4333,11.4201],[8.4331,11.4225],[8.3999,11.4041],[8.3857,11.3766],[8.3796,11.3756],[8.3788,11.367],[8.3733,11.362],[8.3714,11.3662],[8.369,11.3667],[8.3659,11.3641],[8.3602,11.3685],[8.3565,11.3691],[8.3502,11.3646],[8.342,11.3637],[8.3437,11.36],[8.3345,11.3586],[8.3349,11.3543],[8.332,11.3553],[8.3282,11.3545],[8.3232,11.3485],[8.3179,11.3461],[8.3139,11.3446],[8.3073,11.3482],[8.3013,11.3467],[8.2987,11.3443],[8.2963,11.3332],[8.2833,11.3189],[8.2807,11.3213],[8.2713,11.3182],[8.2644,11.3132],[8.26,11.3042],[8.2563,11.3012],[8.2547,11.2958],[8.2573,11.2797],[8.2607,11.2763],[8.2661,11.2774],[8.2731,11.2765],[8.2742,11.2779],[8.2766,11.2778],[8.278,11.2749],[8.2861,11.2682],[8.2878,11.2589],[8.2917,11.256],[8.291,11.2524],[8.2937,11.2495],[8.294,11.2425],[8.2979,11.2342],[8.3082,11.2354],[8.3252,11.2272],[8.334,11.2295],[8.3362,11.2333],[8.3593,11.2266],[8.4029,11.2279],[8.4151,11.2306],[8.428,11.2291],[8.4338,11.2266],[8.4379,11.2168],[8.4378,11.21],[8.4472,11.204],[8.4575,11.1841],[8.4619,11.1718],[8.4647,11.1696],[8.4669,11.1681],[8.4701,11.1693],[8.4834,11.1616],[8.4976,11.1626],[8.5021,11.1589],[8.5061,11.1582],[8.509,11.1586],[8.5146,11.163],[8.5187,11.1623],[8.5202,11.1639],[8.5195,11.1663],[8.5278,11.1689],[8.5409,11.1784],[8.5428,11.1784],[8.5752,11.2116],[8.5766,11.2152],[8.5758,11.2167],[8.5821,11.2191],[8.5838,11.2213],[8.5977,11.2211],[8.6293,11.2237],[8.633,11.2124],[8.6411,11.2],[8.6412,11.1917],[8.6453,11.1842],[8.6421,11.1805],[8.6418,11.1781],[8.6436,11.1731],[8.6436,11.1622],[8.6453,11.1564],[8.6433,11.14]]]}},{"type":"Feature","properties":{"name":"Ungogo","state":"Kano","scode":"KN","centroid":[12.0614,8.508]},"geometry":{"type":"Polygon","coordinates":[[[8.589,12.0343],[8.5934,12.0367],[8.5959,12.0321],[8.5942,12.0307],[8.5918,12.0314],[8.5931,12.0266],[8.5981,12.0274],[8.5985,12.0249],[8.6043,12.0259],[8.6049,12.0373],[8.6105,12.0381],[8.6184,12.043],[8.6344,12.0611],[8.648,12.0832],[8.6409,12.0971],[8.6374,12.0987],[8.6245,12.0939],[8.6027,12.0948],[8.5936,12.0938],[8.5804,12.0958],[8.571,12.1047],[8.5704,12.1092],[8.5676,12.1103],[8.5685,12.1151],[8.561,12.1219],[8.5575,12.1215],[8.5557,12.1277],[8.5527,12.1278],[8.5502,12.131],[8.5456,12.1313],[8.5431,12.1366],[8.5397,12.1356],[8.5363,12.1366],[8.5293,12.1354],[8.528,12.1337],[8.5135,12.1331],[8.5075,12.1315],[8.4995,12.1297],[8.494,12.13],[8.4818,12.124],[8.4758,12.1153],[8.4535,12.0976],[8.4411,12.0928],[8.4404,12.0909],[8.4425,12.0851],[8.4447,12.0832],[8.4432,12.076],[8.4252,12.062],[8.4178,12.0602],[8.4191,12.0583],[8.4166,12.0566],[8.4161,12.0537],[8.4139,12.0533],[8.4137,12.0512],[8.4101,12.0496],[8.4101,12.048],[8.4086,12.0482],[8.4093,12.0456],[8.4077,12.0451],[8.4054,12.0409],[8.407,12.0381],[8.4046,12.0363],[8.4062,12.0352],[8.4059,12.0331],[8.4025,12.0327],[8.4031,12.0293],[8.3994,12.0273],[8.3997,12.0242],[8.397,12.0217],[8.3978,12.0197],[8.3877,12.0222],[8.3896,12.0164],[8.3938,12.0114],[8.4027,12.011],[8.4023,12.0055],[8.407,12.0047],[8.4134,11.994],[8.4171,11.9789],[8.4129,11.971],[8.4105,11.9623],[8.4055,11.9577],[8.401,11.9584],[8.4028,11.9475],[8.4175,11.9596],[8.4256,11.9614],[8.4444,11.9714],[8.4638,11.9795],[8.4649,11.9995],[8.4655,12.003],[8.4674,12.0048],[8.469,12.0239],[8.4729,12.0264],[8.4728,12.0276],[8.4792,12.0292],[8.4844,12.0324],[8.4821,12.0358],[8.4837,12.0365],[8.4779,12.0436],[8.4754,12.0493],[8.471,12.0464],[8.4694,12.0488],[8.4694,12.053],[8.4646,12.0596],[8.4664,12.0604],[8.4644,12.0645],[8.4663,12.0655],[8.4786,12.0698],[8.4898,12.0532],[8.5054,12.0585],[8.504,12.0628],[8.4965,12.0643],[8.4969,12.07],[8.5112,12.0729],[8.5183,12.0696],[8.5195,12.0642],[8.5336,12.0594],[8.535,12.0602],[8.5364,12.059],[8.541,12.061],[8.5421,12.0646],[8.5466,12.065],[8.5523,12.056],[8.5507,12.0549],[8.5509,12.0531],[8.5535,12.0527],[8.5542,12.0513],[8.5528,12.051],[8.5559,12.0487],[8.5551,12.0454],[8.5578,12.0399],[8.5604,12.0385],[8.5611,12.035],[8.5655,12.0347],[8.5729,12.0416],[8.5781,12.0322],[8.5868,12.0398],[8.589,12.0343]]]}},{"type":"Feature","properties":{"name":"Warawa","state":"Kano","scode":"KN","centroid":[11.9083,8.7713]},"geometry":{"type":"Polygon","coordinates":[[[8.8636,11.9614],[8.8476,11.9611],[8.8383,11.974],[8.8301,11.9735],[8.8003,11.9802],[8.794,11.9779],[8.7907,11.9796],[8.7817,11.9684],[8.7762,11.9663],[8.7558,11.9613],[8.7434,11.9635],[8.736,11.962],[8.7336,11.9776],[8.7239,11.9795],[8.717,11.979],[8.7136,11.9864],[8.708,12.0061],[8.7029,12.0109],[8.6926,12.0111],[8.6905,12.0012],[8.6761,11.9841],[8.6725,11.9813],[8.6551,11.9777],[8.6319,11.9624],[8.6334,11.9499],[8.6317,11.937],[8.6497,11.9335],[8.6616,11.9336],[8.6731,11.9371],[8.6748,11.9335],[8.6682,11.9261],[8.6674,11.9212],[8.6663,11.921],[8.6738,11.9076],[8.6839,11.9092],[8.6997,11.9162],[8.7138,11.9199],[8.7245,11.9017],[8.736,11.8938],[8.7377,11.8873],[8.7364,11.8839],[8.7175,11.8818],[8.7075,11.8615],[8.7248,11.8401],[8.7368,11.8442],[8.7387,11.8431],[8.7429,11.8309],[8.7419,11.8256],[8.7475,11.8244],[8.756,11.8304],[8.7568,11.8275],[8.7622,11.8261],[8.7665,11.8293],[8.7704,11.8352],[8.7745,11.8349],[8.7894,11.8191],[8.8074,11.8168],[8.8137,11.8139],[8.8159,11.8122],[8.8143,11.8102],[8.8207,11.7982],[8.8267,11.7952],[8.8319,11.7958],[8.8392,11.8023],[8.8385,11.811],[8.8397,11.8139],[8.8378,11.8182],[8.8382,11.8221],[8.8466,11.8258],[8.8528,11.8254],[8.8641,11.8511],[8.8683,11.8565],[8.8684,11.8633],[8.8723,11.8668],[8.8713,11.8775],[8.8677,11.8805],[8.8638,11.8973],[8.8639,11.9118],[8.8656,11.9272],[8.8637,11.9326],[8.8626,11.9449],[8.8636,11.9614]]]}},{"type":"Feature","properties":{"name":"Wudil","state":"Kano","scode":"KN","centroid":[11.7638,8.8743]},"geometry":{"type":"Polygon","coordinates":[[[8.8639,11.9118],[8.8638,11.8973],[8.8677,11.8805],[8.8713,11.8775],[8.8723,11.8668],[8.8684,11.8633],[8.8683,11.8565],[8.8641,11.8511],[8.8528,11.8254],[8.8466,11.8258],[8.8382,11.8221],[8.8378,11.8182],[8.8397,11.8139],[8.8385,11.811],[8.8392,11.8023],[8.8319,11.7958],[8.8267,11.7952],[8.8207,11.7982],[8.811,11.7989],[8.8001,11.7824],[8.7919,11.7782],[8.7919,11.7734],[8.7901,11.7714],[8.7866,11.7693],[8.7793,11.7694],[8.7731,11.7586],[8.7694,11.7578],[8.7678,11.7593],[8.7619,11.7596],[8.76,11.7578],[8.7584,11.759],[8.7588,11.7488],[8.7571,11.7461],[8.7628,11.7415],[8.7622,11.7393],[8.7592,11.7405],[8.7566,11.7382],[8.7575,11.7288],[8.7563,11.7262],[8.7642,11.7277],[8.7856,11.7243],[8.7905,11.7221],[8.7912,11.7171],[8.7871,11.7073],[8.7882,11.705],[8.7965,11.7015],[8.8026,11.7035],[8.8116,11.6935],[8.8183,11.6929],[8.8197,11.6913],[8.8243,11.6904],[8.8222,11.7013],[8.8182,11.7087],[8.8201,11.7137],[8.8256,11.714],[8.8281,11.7192],[8.8338,11.7182],[8.8401,11.7213],[8.8475,11.7228],[8.8473,11.7285],[8.8561,11.7317],[8.858,11.7337],[8.862,11.7337],[8.8689,11.7275],[8.8632,11.7171],[8.8664,11.7114],[8.8797,11.7154],[8.8805,11.7094],[8.8763,11.706],[8.8748,11.7027],[8.8807,11.6914],[8.8859,11.6934],[8.8843,11.6977],[8.8858,11.6994],[8.8901,11.7001],[8.8935,11.691],[8.9049,11.6922],[8.9044,11.6867],[8.9075,11.6616],[8.9119,11.6552],[8.9108,11.6474],[8.9019,11.6497],[8.9025,11.6374],[8.8982,11.624],[8.8904,11.6285],[8.885,11.6214],[8.8805,11.6184],[8.8666,11.6168],[8.8597,11.6132],[8.8828,11.6074],[8.8893,11.6036],[8.9056,11.6179],[8.9114,11.6213],[8.9312,11.6138],[8.9507,11.6265],[8.9443,11.6326],[8.9352,11.6318],[8.9352,11.635],[8.9426,11.6341],[8.9494,11.6446],[8.9611,11.6569],[8.9613,11.6609],[8.9605,11.6653],[8.956,11.6687],[8.9584,11.6793],[8.9545,11.6938],[8.9453,11.709],[8.9348,11.7069],[8.9182,11.7075],[8.9177,11.718],[8.9115,11.7179],[8.9082,11.7255],[8.9046,11.7279],[8.8994,11.7347],[8.9049,11.7437],[8.9011,11.7511],[8.9015,11.7531],[8.8985,11.753],[8.8984,11.7564],[8.9025,11.7615],[8.9025,11.7634],[8.9008,11.7645],[8.896,11.7626],[8.893,11.7639],[8.8952,11.768],[8.894,11.7706],[8.8928,11.7692],[8.888,11.7686],[8.8884,11.7715],[8.8927,11.7775],[8.8886,11.7813],[8.8936,11.7829],[8.8907,11.7859],[8.8837,11.7884],[8.8832,11.7927],[8.8861,11.8073],[8.902,11.8075],[8.8986,11.8178],[8.9034,11.8236],[8.929,11.8217],[8.9178,11.832],[8.9108,11.8347],[8.909,11.8403],[8.9151,11.8412],[8.9163,11.847],[8.9234,11.8473],[8.9281,11.8508],[8.9458,11.8457],[8.95,11.8546],[8.9561,11.8626],[8.9502,11.876],[8.9483,11.8884],[8.934,11.8926],[8.9314,11.8851],[8.9236,11.884],[8.9173,11.8849],[8.9095,11.8832],[8.9027,11.8838],[8.9075,11.8912],[8.9072,11.9034],[8.9013,11.9029],[8.8971,11.9053],[8.905,11.9208],[8.8886,11.9231],[8.8826,11.913],[8.8639,11.9118]]]}}]}