{"type":"FeatureCollection","features":[{"type":"Feature","properties":{"name":"Adavi","state":"Kogi","scode":"KO","centroid":[7.6856,6.4664]},"geometry":{"type":"Polygon","coordinates":[[[6.2978,7.5336],[6.3007,7.5344],[6.3129,7.5439],[6.3274,7.5477],[6.3702,7.5423],[6.4027,7.5325],[6.4088,7.5272],[6.4097,7.5465],[6.4138,7.5534],[6.4134,7.5686],[6.4309,7.5934],[6.4346,7.61],[6.4539,7.6265],[6.4698,7.6301],[6.4812,7.6289],[6.5039,7.6296],[6.543,7.6863],[6.5596,7.6991],[6.5706,7.7019],[6.5798,7.7147],[6.5927,7.7258],[6.6074,7.7276],[6.6313,7.746],[6.6414,7.7488],[6.6515,7.758],[6.6772,7.7727],[6.6883,7.7809],[6.7094,7.7837],[6.7103,7.7865],[6.7028,7.7998],[6.69,7.8173],[6.678,7.8265],[6.6607,7.8444],[6.6533,7.848],[6.6368,7.849],[6.6164,7.8592],[6.584,7.8249],[6.5674,7.8269],[6.5577,7.8205],[6.5241,7.7919],[6.5178,7.7773],[6.4989,7.7773],[6.4906,7.7708],[6.4842,7.7626],[6.4768,7.7607],[6.4677,7.7534],[6.4594,7.7442],[6.4465,7.735],[6.4355,7.7313],[6.4254,7.7239],[6.4189,7.7138],[6.3987,7.6982],[6.3914,7.6826],[6.3776,7.6642],[6.3711,7.6587],[6.3614,7.64],[6.3451,7.6307],[6.3256,7.6275],[6.2868,7.5939],[6.2583,7.5789],[6.2504,7.582],[6.2583,7.6022],[6.2548,7.6065],[6.2448,7.6028],[6.2404,7.6097],[6.2362,7.6126],[6.2364,7.6141],[6.2255,7.6208],[6.217,7.6176],[6.2065,7.6016],[6.1999,7.5965],[6.2046,7.5881],[6.2007,7.5902],[6.1879,7.5895],[6.1774,7.5867],[6.184,7.5788],[6.1893,7.5753],[6.2014,7.5644],[6.2129,7.56],[6.2234,7.5518],[6.2279,7.5525],[6.2302,7.5577],[6.234,7.5588],[6.2447,7.5523],[6.2478,7.5542],[6.2512,7.5527],[6.2562,7.5484],[6.2692,7.546],[6.2716,7.5488],[6.2776,7.5458],[6.2828,7.5401],[6.2978,7.5336]]]}},{"type":"Feature","properties":{"name":"Ajaokuta","state":"Kogi","scode":"KO","centroid":[7.5067,6.5665]},"geometry":{"type":"Polygon","coordinates":[[[6.2921,7.5004],[6.2955,7.4992],[6.3569,7.4149],[6.3798,7.3982],[6.4239,7.4175],[6.4282,7.4153],[6.4277,7.4105],[6.4322,7.4023],[6.4321,7.3977],[6.4222,7.389],[6.4267,7.382],[6.4325,7.3796],[6.4341,7.3767],[6.4357,7.3597],[6.4425,7.3568],[6.4505,7.3555],[6.4669,7.3653],[6.473,7.3606],[6.4858,7.342],[6.4973,7.333],[6.4996,7.3272],[6.4983,7.3184],[6.4999,7.3108],[6.4997,7.2922],[6.5081,7.2764],[6.508,7.27],[6.5114,7.267],[6.5149,7.267],[6.5299,7.2727],[6.5443,7.2749],[6.5695,7.2753],[6.6377,7.2942],[6.6692,7.24],[6.6747,7.2329],[6.6832,7.2299],[6.6853,7.223],[6.6902,7.2191],[6.6938,7.2432],[6.691,7.2763],[6.6929,7.2947],[6.6993,7.3204],[6.703,7.3489],[6.7085,7.3691],[6.7039,7.3958],[6.703,7.4518],[6.7076,7.4844],[6.7131,7.5125],[6.7103,7.5383],[6.6993,7.5741],[6.6993,7.5897],[6.7094,7.6173],[6.7204,7.6375],[6.7352,7.6504],[6.7443,7.6706],[6.7579,7.7504],[6.7421,7.7842],[6.725,7.7855],[6.7149,7.7809],[6.7103,7.7865],[6.7094,7.7837],[6.6883,7.7809],[6.6772,7.7727],[6.6515,7.758],[6.6414,7.7488],[6.6313,7.746],[6.6074,7.7276],[6.5927,7.7258],[6.5798,7.7147],[6.5706,7.7019],[6.5596,7.6991],[6.543,7.6863],[6.5039,7.6296],[6.4812,7.6289],[6.4698,7.6301],[6.4539,7.6265],[6.4346,7.61],[6.4309,7.5934],[6.4134,7.5686],[6.4138,7.5534],[6.4097,7.5465],[6.4088,7.5272],[6.4027,7.5325],[6.3702,7.5423],[6.3274,7.5477],[6.3129,7.5439],[6.3007,7.5344],[6.2978,7.5336],[6.2956,7.5183],[6.2968,7.5082],[6.2921,7.5004]]]}},{"type":"Feature","properties":{"name":"Ankpa","state":"Kogi","scode":"KO","centroid":[7.4621,7.6114]},"geometry":{"type":"Polygon","coordinates":[[[7.4503,7.5133],[7.4508,7.4956],[7.4463,7.4762],[7.4462,7.4496],[7.448,7.4345],[7.4522,7.4189],[7.46,7.4059],[7.4611,7.4011],[7.4437,7.399],[7.4392,7.396],[7.4351,7.3884],[7.4217,7.3843],[7.4013,7.3821],[7.3943,7.374],[7.3779,7.3751],[7.3775,7.3716],[7.3692,7.3636],[7.3681,7.3604],[7.373,7.3477],[7.3802,7.3393],[7.3827,7.333],[7.3789,7.3315],[7.3798,7.3275],[7.386,7.3173],[7.3954,7.3139],[7.3964,7.3066],[7.4089,7.2986],[7.4193,7.2957],[7.429,7.2944],[7.4397,7.3022],[7.4656,7.2907],[7.4738,7.2886],[7.4827,7.2911],[7.4923,7.2886],[7.5323,7.289],[7.5527,7.2912],[7.5595,7.2941],[7.5646,7.2988],[7.5902,7.3088],[7.6255,7.3196],[7.6291,7.3304],[7.6281,7.3381],[7.6294,7.3472],[7.6506,7.3468],[7.6631,7.3379],[7.6999,7.3183],[7.7135,7.3144],[7.7275,7.3076],[7.7362,7.3093],[7.7429,7.3068],[7.756,7.3048],[7.7605,7.3095],[7.7677,7.3066],[7.7687,7.3019],[7.8026,7.3643],[7.7971,7.376],[7.8001,7.3918],[7.7994,7.4011],[7.7922,7.4099],[7.7929,7.4149],[7.7762,7.4195],[7.7683,7.427],[7.7641,7.4337],[7.7608,7.4516],[7.7586,7.4925],[7.7545,7.5129],[7.7558,7.5304],[7.7374,7.5391],[7.7378,7.5672],[7.7362,7.5994],[7.7318,7.6127],[7.7263,7.6145],[7.7243,7.6205],[7.7326,7.639],[7.7524,7.6397],[7.7524,7.6478],[7.7547,7.6477],[7.7526,7.7082],[7.7374,7.6945],[7.7299,7.695],[7.7243,7.7032],[7.7078,7.706],[7.6853,7.7002],[7.6519,7.6957],[7.6441,7.6853],[7.6406,7.6743],[7.6278,7.6655],[7.6153,7.6523],[7.595,7.6411],[7.5884,7.6562],[7.5817,7.6534],[7.5789,7.65],[7.57,7.6478],[7.5637,7.6445],[7.556,7.6435],[7.551,7.6271],[7.554,7.6159],[7.5624,7.5973],[7.5664,7.5925],[7.5658,7.5873],[7.5519,7.5644],[7.54,7.554],[7.5244,7.5288],[7.5189,7.5261],[7.5162,7.5227],[7.4904,7.5244],[7.4776,7.5183],[7.4503,7.5133]]]}},{"type":"Feature","properties":{"name":"Bassa","state":"Kogi","scode":"KO","centroid":[7.7916,7.0364]},"geometry":{"type":"Polygon","coordinates":[[[7.4458,8.0469],[7.4324,8.0478],[7.3932,8.0439],[7.3056,8.0277],[7.289,8.0222],[7.2538,8.015],[7.1959,7.993],[7.1179,7.959],[7.0728,7.9427],[7.0355,7.9231],[7.0063,7.9025],[6.9665,7.8791],[6.9636,7.8793],[6.9167,7.8646],[6.8496,7.8499],[6.8262,7.8343],[6.799,7.8232],[6.788,7.8113],[6.7694,7.8004],[6.7579,7.7504],[6.7443,7.6706],[6.7352,7.6504],[6.7204,7.6375],[6.7094,7.6173],[6.6993,7.5897],[6.6993,7.5741],[6.7103,7.5383],[6.7131,7.5125],[6.7076,7.4844],[6.7275,7.4784],[6.7391,7.4812],[6.7544,7.4802],[6.7587,7.4773],[6.7654,7.4682],[6.7693,7.4587],[6.7745,7.452],[6.7851,7.4438],[6.7946,7.4419],[6.8076,7.4448],[6.8132,7.453],[6.8145,7.4592],[6.8001,7.4684],[6.7993,7.4835],[6.8075,7.4993],[6.8175,7.5261],[6.8205,7.5535],[6.8191,7.5568],[6.8215,7.5712],[6.8253,7.5822],[6.8411,7.6013],[6.8765,7.62],[6.9091,7.6243],[6.9336,7.6331],[6.9493,7.6425],[6.9613,7.6583],[6.9698,7.6737],[6.9947,7.6803],[7.0055,7.6981],[7.0128,7.6994],[7.0198,7.7038],[7.0846,7.6915],[7.1083,7.6932],[7.1215,7.7005],[7.148,7.7254],[7.1806,7.7685],[7.1982,7.7808],[7.2069,7.7851],[7.2418,7.7832],[7.2909,7.7765],[7.3021,7.7819],[7.3099,7.7948],[7.3113,7.801],[7.3299,7.8206],[7.3467,7.8417],[7.3491,7.847],[7.3463,7.8748],[7.3506,7.9001],[7.3587,7.914],[7.3779,7.9356],[7.3965,7.9748],[7.4095,7.9897],[7.4181,8.0074],[7.4309,8.0227],[7.4458,8.0469]]]}},{"type":"Feature","properties":{"name":"Dekina","state":"Kogi","scode":"KO","centroid":[7.5625,7.1808]},"geometry":{"type":"Polygon","coordinates":[[[7.3491,7.847],[7.3467,7.8417],[7.3299,7.8206],[7.3113,7.801],[7.3099,7.7948],[7.3021,7.7819],[7.2909,7.7765],[7.2418,7.7832],[7.2069,7.7851],[7.1982,7.7808],[7.1806,7.7685],[7.148,7.7254],[7.1215,7.7005],[7.1083,7.6932],[7.0846,7.6915],[7.0198,7.7038],[7.0128,7.6994],[7.0055,7.6981],[6.9947,7.6803],[6.9698,7.6737],[6.9613,7.6583],[6.9493,7.6425],[6.9336,7.6331],[6.9091,7.6243],[6.8765,7.62],[6.8411,7.6013],[6.8253,7.5822],[6.8215,7.5712],[6.8191,7.5568],[6.8205,7.5535],[6.8175,7.5261],[6.8075,7.4993],[6.7993,7.4835],[6.8001,7.4684],[6.8145,7.4592],[6.8132,7.453],[6.8181,7.452],[6.8229,7.4486],[6.8272,7.4429],[6.8373,7.4352],[6.8461,7.4146],[6.8701,7.4114],[6.8759,7.4133],[6.8781,7.416],[6.8837,7.4164],[6.8882,7.4151],[6.9083,7.4161],[6.9182,7.4192],[6.9428,7.4207],[6.9536,7.4197],[6.967,7.4132],[6.9756,7.4136],[6.9828,7.417],[6.9929,7.416],[7.0029,7.4122],[7.0144,7.4127],[7.0207,7.4175],[7.0283,7.4328],[7.0298,7.4457],[7.0421,7.4741],[7.0486,7.4819],[7.1036,7.4813],[7.1211,7.4725],[7.1242,7.4678],[7.1256,7.4556],[7.1377,7.4383],[7.1314,7.4271],[7.1301,7.422],[7.1334,7.4049],[7.1368,7.396],[7.1327,7.3758],[7.1481,7.3558],[7.1645,7.3516],[7.1968,7.3506],[7.2133,7.3519],[7.2357,7.3592],[7.2512,7.3598],[7.3101,7.3533],[7.3319,7.3583],[7.3414,7.3634],[7.3513,7.3643],[7.3599,7.3631],[7.3616,7.3693],[7.3695,7.3766],[7.3779,7.3751],[7.3943,7.374],[7.4013,7.3821],[7.4217,7.3843],[7.4351,7.3884],[7.4392,7.396],[7.4437,7.399],[7.4611,7.4011],[7.46,7.4059],[7.4522,7.4189],[7.448,7.4345],[7.4462,7.4496],[7.4463,7.4762],[7.4508,7.4956],[7.4503,7.5133],[7.4584,7.537],[7.4611,7.553],[7.4572,7.5711],[7.4544,7.5744],[7.4537,7.5886],[7.4401,7.6301],[7.4435,7.6674],[7.4422,7.6878],[7.4286,7.717],[7.4123,7.7367],[7.4021,7.7619],[7.3885,7.787],[7.3831,7.7911],[7.3769,7.8013],[7.3668,7.8115],[7.3552,7.8271],[7.3491,7.847]]]}},{"type":"Feature","properties":{"name":"Ibaji","state":"Kogi","scode":"KO","centroid":[6.8191,6.7745]},"geometry":{"type":"Polygon","coordinates":[[[6.6793,6.972],[6.673,6.9357],[6.6527,6.9078],[6.6462,6.8854],[6.6216,6.8415],[6.6141,6.8308],[6.6108,6.8221],[6.6203,6.8001],[6.6237,6.796],[6.6236,6.7936],[6.6235,6.7908],[6.6317,6.7691],[6.6262,6.7315],[6.6216,6.7223],[6.6179,6.7049],[6.628,6.6746],[6.6528,6.6343],[6.6592,6.6078],[6.6619,6.5729],[6.6617,6.5579],[6.672,6.5675],[6.7157,6.5603],[6.7641,6.5636],[6.7933,6.5723],[6.8081,6.5802],[6.8086,6.5894],[6.809,6.6159],[6.799,6.6795],[6.8003,6.6935],[6.8064,6.7031],[6.8338,6.7222],[6.861,6.7534],[6.8683,6.7553],[6.8783,6.7606],[6.8968,6.7924],[6.9121,6.8007],[6.9234,6.802],[6.9254,6.7925],[6.9299,6.7865],[6.9448,6.7987],[6.9524,6.8081],[6.9522,6.8279],[6.9608,6.8409],[6.9631,6.8597],[6.9608,6.891],[6.9621,6.8976],[6.9654,6.9021],[6.9659,6.9095],[6.9644,6.9619],[6.9538,6.9539],[6.9421,6.9654],[6.9232,6.9752],[6.9047,6.977],[6.8946,6.9878],[6.8926,6.9944],[6.8952,6.9983],[6.9018,7.0013],[6.9058,7.0062],[6.9064,7.0125],[6.9012,7.0161],[6.8834,7.0151],[6.8725,7.022],[6.8692,7.0217],[6.864,7.0115],[6.8469,7.0134],[6.8357,7.0171],[6.8345,7.0409],[6.8197,7.0592],[6.8088,7.0607],[6.8003,7.0523],[6.7947,7.0244],[6.7836,7.0289],[6.7792,7.0293],[6.7707,7.0339],[6.7605,7.031],[6.7542,7.0317],[6.7422,7.0288],[6.7226,7.0215],[6.7193,7.0144],[6.719,7.0096],[6.7172,7.0089],[6.713,7.0027],[6.7038,6.9959],[6.6995,6.9883],[6.6951,6.9856],[6.6896,6.9844],[6.684,6.9748],[6.6793,6.972]]]}},{"type":"Feature","properties":{"name":"Idah","state":"Kogi","scode":"KO","centroid":[7.0649,6.7341]},"geometry":{"type":"Polygon","coordinates":[[[6.6793,6.972],[6.684,6.9748],[6.6896,6.9844],[6.6951,6.9856],[6.6995,6.9883],[6.7038,6.9959],[6.713,7.0027],[6.7172,7.0089],[6.719,7.0096],[6.7193,7.0144],[6.7226,7.0215],[6.7422,7.0288],[6.7542,7.0317],[6.7605,7.031],[6.7707,7.0339],[6.7792,7.0293],[6.7836,7.0289],[6.7947,7.0244],[6.8003,7.0523],[6.7929,7.0425],[6.7854,7.0392],[6.7829,7.0472],[6.784,7.0559],[6.782,7.0638],[6.7836,7.0799],[6.788,7.0891],[6.7858,7.108],[6.7931,7.1144],[6.7937,7.1171],[6.7919,7.1202],[6.789,7.1224],[6.7696,7.123],[6.7646,7.1268],[6.7632,7.1308],[6.7569,7.136],[6.7576,7.1371],[6.7536,7.1396],[6.7503,7.1361],[6.7519,7.1342],[6.7489,7.1304],[6.745,7.1368],[6.7427,7.1375],[6.7379,7.1346],[6.7235,7.1312],[6.7201,7.1237],[6.7158,7.1228],[6.7115,7.1047],[6.6901,7.0683],[6.6773,7.0341],[6.6793,6.972]]]}},{"type":"Feature","properties":{"name":"Igalamela-Odolu","state":"Kogi","scode":"KO","centroid":[7.065,7.0418]},"geometry":{"type":"Polygon","coordinates":[[[7.3514,7.0334],[7.3668,7.0399],[7.3687,7.0503],[7.3687,7.0569],[7.3654,7.0688],[7.3678,7.0831],[7.3672,7.0889],[7.3503,7.0944],[7.3374,7.0961],[7.3272,7.1004],[7.2929,7.1056],[7.2847,7.1125],[7.2837,7.1162],[7.288,7.1267],[7.2982,7.1652],[7.3074,7.1833],[7.2873,7.1718],[7.2725,7.1693],[7.2619,7.1659],[7.2423,7.1683],[7.2274,7.1732],[7.2238,7.1981],[7.2233,7.2251],[7.2139,7.235],[7.2024,7.239],[7.1896,7.2413],[7.1655,7.2396],[7.1621,7.2285],[7.1451,7.2338],[7.1408,7.2383],[7.1369,7.2393],[7.1135,7.2413],[7.0992,7.247],[7.0958,7.2456],[7.0848,7.2485],[7.0767,7.2523],[7.0647,7.2528],[7.0479,7.2638],[7.0441,7.2599],[7.0432,7.2485],[7.0456,7.2413],[7.0412,7.2173],[7.0374,7.2111],[7.0317,7.2058],[7.0197,7.2015],[6.9981,7.1991],[6.99,7.1948],[6.9627,7.1948],[6.9493,7.1924],[6.9426,7.1934],[6.9287,7.1991],[6.9182,7.1996],[6.9019,7.2087],[6.8904,7.2178],[6.8641,7.2298],[6.8444,7.2355],[6.8392,7.235],[6.8277,7.2422],[6.8119,7.2465],[6.8098,7.2519],[6.7902,7.2781],[6.7702,7.2805],[6.765,7.2882],[6.753,7.2896],[6.7457,7.2779],[6.7404,7.2608],[6.7378,7.2416],[6.7292,7.2289],[6.7145,7.2197],[6.6933,7.2165],[6.7008,7.1785],[6.7158,7.1357],[6.7158,7.1228],[6.7201,7.1237],[6.7235,7.1312],[6.7379,7.1346],[6.7427,7.1375],[6.745,7.1368],[6.7489,7.1304],[6.7519,7.1342],[6.7503,7.1361],[6.7536,7.1396],[6.7576,7.1371],[6.7569,7.136],[6.7632,7.1308],[6.7646,7.1268],[6.7696,7.123],[6.789,7.1224],[6.7919,7.1202],[6.7937,7.1171],[6.7931,7.1144],[6.7858,7.108],[6.788,7.0891],[6.7836,7.0799],[6.782,7.0638],[6.784,7.0559],[6.7829,7.0472],[6.7854,7.0392],[6.7929,7.0425],[6.8003,7.0523],[6.8088,7.0607],[6.8197,7.0592],[6.8345,7.0409],[6.8357,7.0171],[6.8469,7.0134],[6.864,7.0115],[6.8692,7.0217],[6.8725,7.022],[6.8834,7.0151],[6.9012,7.0161],[6.9064,7.0125],[6.9058,7.0062],[6.9018,7.0013],[6.8952,6.9983],[6.8926,6.9944],[6.8946,6.9878],[6.9047,6.977],[6.9232,6.9752],[6.9421,6.9654],[6.9538,6.9539],[6.9644,6.9619],[6.9659,6.9095],[6.9654,6.9021],[6.9621,6.8976],[6.9608,6.891],[6.9631,6.8597],[6.9608,6.8409],[6.9632,6.8445],[6.9782,6.85],[6.9868,6.8445],[6.99,6.8335],[6.99,6.8232],[6.9853,6.7988],[6.9861,6.7886],[6.9908,6.7854],[7.005,6.7854],[7.0207,6.7893],[7.0302,6.7854],[7.042,6.783],[7.0554,6.7862],[7.0601,6.7949],[7.0814,6.8004],[7.0932,6.8193],[7.1011,6.8287],[7.1129,6.8374],[7.12,6.8484],[7.1342,6.8547],[7.1468,6.8642],[7.1562,6.8831],[7.1701,6.8839],[7.1759,6.8965],[7.1877,6.9012],[7.2028,6.9023],[7.2101,6.9035],[7.2154,6.9155],[7.2178,6.9253],[7.2329,6.9297],[7.2352,6.9334],[7.2389,6.9414],[7.2381,6.9579],[7.2413,6.9713],[7.2578,6.9808],[7.2933,6.9942],[7.3122,7.0052],[7.3164,7.0105],[7.3272,7.0241],[7.3514,7.0334]]]}},{"type":"Feature","properties":{"name":"Ijumu","state":"Kogi","scode":"KO","centroid":[7.837,5.9625]},"geometry":{"type":"Polygon","coordinates":[[[5.8349,7.924],[5.8323,7.9226],[5.8283,7.9164],[5.8267,7.905],[5.8202,7.896],[5.8014,7.879],[5.7892,7.8619],[5.7795,7.8546],[5.76,7.8342],[5.751,7.8294],[5.7388,7.8253],[5.7373,7.8211],[5.746,7.805],[5.7558,7.7956],[5.768,7.7876],[5.7916,7.7821],[5.773,7.7473],[5.7802,7.7458],[5.801,7.7333],[5.8164,7.7278],[5.8222,7.7331],[5.8277,7.734],[5.8426,7.7286],[5.85,7.7286],[5.8898,7.7436],[5.9194,7.7502],[5.9287,7.7466],[5.9306,7.7448],[5.9306,7.7411],[5.926,7.7318],[5.9215,7.7161],[5.9234,7.7078],[5.929,7.6958],[5.9357,7.6672],[5.9376,7.6488],[5.94,7.6451],[5.9685,7.6055],[5.9722,7.5982],[5.9759,7.5945],[5.9816,7.5825],[5.9965,7.5595],[6.0041,7.5356],[6.0041,7.5292],[6.013,7.5334],[6.0235,7.5473],[6.023,7.5496],[6.0254,7.559],[6.0289,7.5653],[6.0434,7.5775],[6.0485,7.5801],[6.0987,7.5882],[6.0991,7.5943],[6.1048,7.6057],[6.1048,7.6146],[6.1219,7.6472],[6.1211,7.67],[6.1223,7.6823],[6.1072,7.6952],[6.0983,7.7049],[6.0857,7.7386],[6.0538,7.747],[6.0483,7.7573],[6.0537,7.79],[6.0462,7.8001],[6.0414,7.8025],[6.0292,7.8229],[6.0218,7.8407],[6.037,7.8713],[6.0671,7.8631],[6.0695,7.8909],[6.056,7.918],[6.0544,7.9302],[6.0617,7.9587],[6.0658,7.9692],[6.0698,7.988],[6.0796,8.0124],[6.0755,8.0416],[6.0666,8.0563],[6.0633,8.0677],[6.0381,8.1287],[6.0292,8.1449],[6.0271,8.1545],[5.9909,8.1352],[5.9836,8.1156],[5.9771,8.1067],[5.9576,8.0961],[5.9487,8.0847],[5.9438,8.0701],[5.9202,8.0319],[5.908,7.9993],[5.8996,7.9891],[5.8909,7.9814],[5.8738,7.9554],[5.86,7.9392],[5.8437,7.9278],[5.8349,7.924]]]}},{"type":"Feature","properties":{"name":"Kabba/Bunu","state":"Kogi","scode":"KO","centroid":[8.1015,6.2252]},"geometry":{"type":"Polygon","coordinates":[[[6.0827,8.4018],[6.082,8.3905],[6.078,8.3694],[6.0796,8.3637],[6.087,8.354],[6.0861,8.3434],[6.0894,8.3369],[6.0894,8.3247],[6.0837,8.3011],[6.0772,8.2921],[6.0666,8.2645],[6.0666,8.2596],[6.0715,8.245],[6.0731,8.2279],[6.0633,8.2206],[6.0552,8.2108],[6.0552,8.1929],[6.0584,8.1815],[6.0715,8.1628],[6.0641,8.1596],[6.0487,8.1604],[6.0271,8.1545],[6.0292,8.1449],[6.0381,8.1287],[6.0633,8.0677],[6.0666,8.0563],[6.0755,8.0416],[6.0796,8.0124],[6.0698,7.988],[6.0658,7.9692],[6.0617,7.9587],[6.0544,7.9302],[6.056,7.918],[6.0695,7.8909],[6.0671,7.8631],[6.037,7.8713],[6.0218,7.8407],[6.0292,7.8229],[6.0414,7.8025],[6.0462,7.8001],[6.0537,7.79],[6.0483,7.7573],[6.0538,7.747],[6.0857,7.7386],[6.0983,7.7049],[6.1072,7.6952],[6.1223,7.6823],[6.1275,7.6835],[6.1342,7.6886],[6.1428,7.6921],[6.1726,7.7147],[6.1864,7.7184],[6.2038,7.7203],[6.2342,7.7184],[6.259,7.7065],[6.2682,7.7065],[6.2719,7.7295],[6.2682,7.7534],[6.2691,7.7754],[6.2682,7.7828],[6.2774,7.8012],[6.2948,7.814],[6.3004,7.8223],[6.3132,7.8306],[6.3153,7.8333],[6.3233,7.8434],[6.3252,7.8756],[6.3243,7.8876],[6.3298,7.9032],[6.327,7.9161],[6.3197,7.9289],[6.3086,7.94],[6.2939,7.9436],[6.293,7.9538],[6.2875,7.9611],[6.27,7.9694],[6.2599,7.9804],[6.2489,7.997],[6.2434,8.0107],[6.2415,8.0337],[6.2305,8.0457],[6.2204,8.0687],[6.2213,8.076],[6.2268,8.0806],[6.2296,8.0953],[6.2388,8.0999],[6.2516,8.1008],[6.2682,8.0999],[6.2866,8.0953],[6.3298,8.0613],[6.339,8.042],[6.3491,8.0337],[6.3601,8.0273],[6.3656,8.019],[6.3776,8.008],[6.3877,8.0016],[6.4006,8.0112],[6.418,8.0203],[6.4356,8.0159],[6.4488,8.0089],[6.464,8.0062],[6.4511,8.0236],[6.4456,8.0356],[6.4474,8.0494],[6.4474,8.0631],[6.4575,8.0935],[6.4796,8.1257],[6.4842,8.1367],[6.4916,8.145],[6.4962,8.1633],[6.487,8.1882],[6.4814,8.1974],[6.4732,8.2176],[6.4502,8.2424],[6.4438,8.2543],[6.4033,8.3132],[6.396,8.3288],[6.3785,8.3499],[6.3665,8.361],[6.3601,8.3647],[6.3463,8.3867],[6.3141,8.4125],[6.3004,8.4281],[6.2682,8.4492],[6.2415,8.4593],[6.2149,8.4639],[6.1928,8.4649],[6.1634,8.4511],[6.1376,8.4446],[6.1131,8.4415],[6.1113,8.4312],[6.0975,8.4141],[6.0827,8.4018]]]}},{"type":"Feature","properties":{"name":"Kogi","state":"Kogi","scode":"KO","centroid":[8.1462,6.8647]},"geometry":{"type":"Polygon","coordinates":[[[6.9636,7.8793],[6.9599,7.8968],[6.9544,7.905],[6.9526,7.9179],[6.9608,7.9427],[6.9636,7.9602],[6.9783,7.9859],[6.9792,8.0006],[6.9728,8.0199],[6.9709,8.0301],[6.987,8.0779],[6.987,8.0926],[6.9834,8.1155],[7.0027,8.167],[7.0008,8.1817],[6.9925,8.1955],[6.9797,8.2111],[6.9723,8.2249],[6.9705,8.2452],[6.965,8.2654],[6.953,8.2838],[6.9411,8.293],[6.9346,8.3012],[6.9346,8.3104],[6.942,8.3224],[6.9512,8.3463],[6.9558,8.3591],[6.9576,8.3748],[6.9696,8.3913],[6.9808,8.4437],[6.9774,8.4439],[6.9408,8.4589],[6.8279,8.4576],[6.8248,8.4327],[6.8321,8.4253],[6.8321,8.4171],[6.8248,8.4042],[6.8331,8.4014],[6.8377,8.3968],[6.8367,8.3913],[6.8275,8.3794],[6.8229,8.3674],[6.811,8.3518],[6.8073,8.3426],[6.7908,8.3306],[6.7797,8.3316],[6.7724,8.3352],[6.7669,8.3086],[6.7604,8.3058],[6.7512,8.3049],[6.7494,8.2994],[6.7614,8.293],[6.7632,8.2819],[6.7614,8.2727],[6.7494,8.2635],[6.7439,8.2654],[6.7301,8.2838],[6.72,8.2746],[6.7274,8.2524],[6.7181,8.2433],[6.7145,8.2295],[6.7126,8.202],[6.6998,8.1891],[6.6913,8.183],[6.7204,8.1259],[6.7412,8.1088],[6.7618,8.0889],[6.7793,8.0448],[6.7774,7.9979],[6.7848,7.9538],[6.7903,7.9363],[6.7921,7.9151],[6.7903,7.8857],[6.7747,7.8297],[6.7694,7.8004],[6.788,7.8113],[6.799,7.8232],[6.8262,7.8343],[6.8496,7.8499],[6.9167,7.8646],[6.9636,7.8793]]]}},{"type":"Feature","properties":{"name":"Lokoja","state":"Kogi","scode":"KO","centroid":[8.2102,6.4662]},"geometry":{"type":"Polygon","coordinates":[[[6.1131,8.4415],[6.1376,8.4446],[6.1634,8.4511],[6.1928,8.4649],[6.2149,8.4639],[6.2415,8.4593],[6.2682,8.4492],[6.3004,8.4281],[6.3141,8.4125],[6.3463,8.3867],[6.3601,8.3647],[6.3665,8.361],[6.3785,8.3499],[6.396,8.3288],[6.4033,8.3132],[6.4438,8.2543],[6.4502,8.2424],[6.4732,8.2176],[6.4814,8.1974],[6.487,8.1882],[6.4962,8.1633],[6.4916,8.145],[6.4842,8.1367],[6.4796,8.1257],[6.4575,8.0935],[6.4474,8.0631],[6.4474,8.0494],[6.4456,8.0356],[6.4511,8.0236],[6.464,8.0062],[6.4488,8.0089],[6.4356,8.0159],[6.418,8.0203],[6.4006,8.0112],[6.3877,8.0016],[6.3776,8.008],[6.3656,8.019],[6.3601,8.0273],[6.3491,8.0337],[6.339,8.042],[6.3298,8.0613],[6.2866,8.0953],[6.2682,8.0999],[6.2516,8.1008],[6.2388,8.0999],[6.2296,8.0953],[6.2268,8.0806],[6.2213,8.076],[6.2204,8.0687],[6.2305,8.0457],[6.2415,8.0337],[6.2434,8.0107],[6.2489,7.997],[6.2599,7.9804],[6.27,7.9694],[6.2875,7.9611],[6.293,7.9538],[6.2939,7.9436],[6.3086,7.94],[6.3197,7.9289],[6.327,7.9161],[6.3298,7.9032],[6.3243,7.8876],[6.3252,7.8756],[6.3233,7.8434],[6.3153,7.8333],[6.3362,7.8186],[6.3399,7.8113],[6.3445,7.8076],[6.3647,7.8104],[6.3868,7.8113],[6.4244,7.8333],[6.4456,7.8545],[6.4575,7.8572],[6.4891,7.8734],[6.5182,7.8953],[6.5259,7.8996],[6.5408,7.9015],[6.5574,7.9019],[6.5716,7.8874],[6.6164,7.8592],[6.6368,7.849],[6.6533,7.848],[6.6607,7.8444],[6.678,7.8265],[6.69,7.8173],[6.7028,7.7998],[6.7103,7.7865],[6.7149,7.7809],[6.725,7.7855],[6.7421,7.7842],[6.7579,7.7504],[6.7694,7.8004],[6.7747,7.8297],[6.7903,7.8857],[6.7921,7.9151],[6.7903,7.9363],[6.7848,7.9538],[6.7774,7.9979],[6.7793,8.0448],[6.7618,8.0889],[6.7412,8.1088],[6.7204,8.1259],[6.6913,8.183],[6.6883,8.202],[6.6837,8.213],[6.6717,8.2203],[6.6653,8.2268],[6.6414,8.2553],[6.6267,8.2874],[6.6138,8.2994],[6.6083,8.3141],[6.5991,8.3242],[6.5881,8.326],[6.5798,8.3306],[6.5513,8.3693],[6.5274,8.3757],[6.5035,8.4125],[6.4529,8.4483],[6.4313,8.5191],[6.4249,8.5494],[6.408,8.603],[6.3983,8.6294],[6.3799,8.6487],[6.3753,8.6616],[6.3587,8.6846],[6.3153,8.7189],[6.3026,8.7278],[6.2677,8.7388],[6.2466,8.7388],[6.2085,8.7324],[6.1699,8.663],[6.1626,8.6378],[6.1479,8.5963],[6.1333,8.5678],[6.1251,8.5556],[6.1138,8.4613],[6.1131,8.4415]]]}},{"type":"Feature","properties":{"name":"Mopa-Muro","state":"Kogi","scode":"KO","centroid":[8.1495,5.9233]},"geometry":{"type":"Polygon","coordinates":[[[5.8349,7.924],[5.8437,7.9278],[5.86,7.9392],[5.8738,7.9554],[5.8909,7.9814],[5.8996,7.9891],[5.908,7.9993],[5.9202,8.0319],[5.9438,8.0701],[5.9487,8.0847],[5.9576,8.0961],[5.9771,8.1067],[5.9836,8.1156],[5.9909,8.1352],[6.0271,8.1545],[6.0487,8.1604],[6.0641,8.1596],[6.0715,8.1628],[6.0584,8.1815],[6.0552,8.1929],[6.0552,8.2108],[6.0633,8.2206],[6.0731,8.2279],[6.0715,8.245],[6.0666,8.2596],[6.0666,8.2645],[6.0772,8.2921],[6.0837,8.3011],[6.0894,8.3247],[6.0894,8.3369],[6.0861,8.3434],[6.087,8.354],[6.0625,8.3548],[6.0275,8.345],[5.9911,8.3249],[5.9625,8.3133],[5.9505,8.2934],[5.9277,8.2794],[5.9154,8.2683],[5.8995,8.2575],[5.8725,8.22],[5.8505,8.2021],[5.8481,8.1976],[5.8383,8.192],[5.8262,8.1762],[5.8086,8.1326],[5.7963,8.0941],[5.7961,8.0762],[5.7896,8.0501],[5.7725,8.0255],[5.7598,8.0031],[5.764,7.9945],[5.7697,7.9758],[5.7982,7.9579],[5.8055,7.9505],[5.8275,7.9408],[5.8349,7.924]]]}},{"type":"Feature","properties":{"name":"Ofu","state":"Kogi","scode":"KO","centroid":[7.3221,7.0115]},"geometry":{"type":"Polygon","coordinates":[[[6.7076,7.4844],[6.703,7.4518],[6.7039,7.3958],[6.7085,7.3691],[6.703,7.3489],[6.6993,7.3204],[6.6929,7.2947],[6.691,7.2763],[6.6938,7.2432],[6.6902,7.2191],[6.6933,7.2165],[6.7145,7.2197],[6.7292,7.2289],[6.7378,7.2416],[6.7404,7.2608],[6.7457,7.2779],[6.753,7.2896],[6.765,7.2882],[6.7702,7.2805],[6.7902,7.2781],[6.8098,7.2519],[6.8119,7.2465],[6.8277,7.2422],[6.8392,7.235],[6.8444,7.2355],[6.8641,7.2298],[6.8904,7.2178],[6.9019,7.2087],[6.9182,7.1996],[6.9287,7.1991],[6.9426,7.1934],[6.9493,7.1924],[6.9627,7.1948],[6.99,7.1948],[6.9981,7.1991],[7.0197,7.2015],[7.0317,7.2058],[7.0374,7.2111],[7.0412,7.2173],[7.0456,7.2413],[7.0432,7.2485],[7.0441,7.2599],[7.0479,7.2638],[7.0647,7.2528],[7.0767,7.2523],[7.0848,7.2485],[7.0958,7.2456],[7.0992,7.247],[7.1135,7.2413],[7.1369,7.2393],[7.1408,7.2383],[7.1451,7.2338],[7.1621,7.2285],[7.1655,7.2396],[7.1896,7.2413],[7.2024,7.239],[7.2139,7.235],[7.2233,7.2251],[7.2238,7.1981],[7.2274,7.1732],[7.2423,7.1683],[7.2619,7.1659],[7.2725,7.1693],[7.2873,7.1718],[7.3074,7.1833],[7.3249,7.2001],[7.3301,7.2074],[7.3384,7.2317],[7.3463,7.2469],[7.345,7.2534],[7.3479,7.2653],[7.3543,7.2782],[7.3523,7.2906],[7.3555,7.2976],[7.3714,7.3036],[7.381,7.3044],[7.3867,7.3088],[7.3958,7.3032],[7.3964,7.3066],[7.3954,7.3139],[7.386,7.3173],[7.3798,7.3275],[7.3789,7.3315],[7.3827,7.333],[7.3802,7.3393],[7.373,7.3477],[7.3681,7.3604],[7.3692,7.3636],[7.3775,7.3716],[7.3779,7.3751],[7.3695,7.3766],[7.3616,7.3693],[7.3599,7.3631],[7.3513,7.3643],[7.3414,7.3634],[7.3319,7.3583],[7.3101,7.3533],[7.2512,7.3598],[7.2357,7.3592],[7.2133,7.3519],[7.1968,7.3506],[7.1645,7.3516],[7.1481,7.3558],[7.1327,7.3758],[7.1368,7.396],[7.1334,7.4049],[7.1301,7.422],[7.1314,7.4271],[7.1377,7.4383],[7.1256,7.4556],[7.1242,7.4678],[7.1211,7.4725],[7.1036,7.4813],[7.0486,7.4819],[7.0421,7.4741],[7.0298,7.4457],[7.0283,7.4328],[7.0207,7.4175],[7.0144,7.4127],[7.0029,7.4122],[6.9929,7.416],[6.9828,7.417],[6.9756,7.4136],[6.967,7.4132],[6.9536,7.4197],[6.9428,7.4207],[6.9182,7.4192],[6.9083,7.4161],[6.8882,7.4151],[6.8837,7.4164],[6.8781,7.416],[6.8759,7.4133],[6.8701,7.4114],[6.8461,7.4146],[6.8373,7.4352],[6.8272,7.4429],[6.8229,7.4486],[6.8181,7.452],[6.8132,7.453],[6.8076,7.4448],[6.7946,7.4419],[6.7851,7.4438],[6.7745,7.452],[6.7693,7.4587],[6.7654,7.4682],[6.7587,7.4773],[6.7544,7.4802],[6.7391,7.4812],[6.7275,7.4784],[6.7076,7.4844]]]}},{"type":"Feature","properties":{"name":"Ogori/Magongo","state":"Kogi","scode":"KO","centroid":[7.4769,6.1606]},"geometry":{"type":"Polygon","coordinates":[[[6.1583,7.5283],[6.1541,7.5223],[6.1465,7.516],[6.1286,7.5051],[6.1148,7.4988],[6.1101,7.4941],[6.1083,7.4907],[6.1083,7.4842],[6.1101,7.4572],[6.1124,7.4487],[6.1187,7.4463],[6.1279,7.4462],[6.1428,7.4496],[6.1597,7.4476],[6.1709,7.4441],[6.176,7.4341],[6.1799,7.43],[6.1828,7.4294],[6.1863,7.4329],[6.1869,7.4387],[6.2089,7.4496],[6.2196,7.4578],[6.2253,7.4684],[6.2063,7.4704],[6.1981,7.4961],[6.1724,7.5196],[6.1583,7.5283]]]}},{"type":"Feature","properties":{"name":"Okehi","state":"Kogi","scode":"KO","centroid":[7.7277,6.3367]},"geometry":{"type":"Polygon","coordinates":[[[6.1223,7.6823],[6.1211,7.67],[6.1219,7.6472],[6.1048,7.6146],[6.1048,7.6057],[6.0991,7.5943],[6.0987,7.5882],[6.1188,7.5914],[6.1299,7.5645],[6.1336,7.5521],[6.1682,7.563],[6.1712,7.5657],[6.1736,7.5654],[6.177,7.5695],[6.1785,7.5668],[6.1796,7.5678],[6.1788,7.5721],[6.1893,7.5753],[6.184,7.5788],[6.1774,7.5867],[6.1879,7.5895],[6.2007,7.5902],[6.2046,7.5881],[6.1999,7.5965],[6.2065,7.6016],[6.217,7.6176],[6.2255,7.6208],[6.2364,7.6141],[6.2362,7.6126],[6.2404,7.6097],[6.2448,7.6028],[6.2548,7.6065],[6.2583,7.6022],[6.2504,7.582],[6.2583,7.5789],[6.2868,7.5939],[6.3256,7.6275],[6.3451,7.6307],[6.3614,7.64],[6.3711,7.6587],[6.3776,7.6642],[6.3914,7.6826],[6.3987,7.6982],[6.4189,7.7138],[6.4254,7.7239],[6.4355,7.7313],[6.4465,7.735],[6.4594,7.7442],[6.4677,7.7534],[6.4768,7.7607],[6.4842,7.7626],[6.4906,7.7708],[6.4989,7.7773],[6.5178,7.7773],[6.5241,7.7919],[6.5577,7.8205],[6.5674,7.8269],[6.584,7.8249],[6.6164,7.8592],[6.5716,7.8874],[6.5574,7.9019],[6.5408,7.9015],[6.5259,7.8996],[6.5182,7.8953],[6.4891,7.8734],[6.4575,7.8572],[6.4456,7.8545],[6.4244,7.8333],[6.3868,7.8113],[6.3647,7.8104],[6.3445,7.8076],[6.3399,7.8113],[6.3362,7.8186],[6.3153,7.8333],[6.3132,7.8306],[6.3004,7.8223],[6.2948,7.814],[6.2774,7.8012],[6.2682,7.7828],[6.2691,7.7754],[6.2682,7.7534],[6.2719,7.7295],[6.2682,7.7065],[6.259,7.7065],[6.2342,7.7184],[6.2038,7.7203],[6.1864,7.7184],[6.1726,7.7147],[6.1428,7.6921],[6.1342,7.6886],[6.1275,7.6835],[6.1223,7.6823]]]}},{"type":"Feature","properties":{"name":"Okene","state":"Kogi","scode":"KO","centroid":[7.522,6.226]},"geometry":{"type":"Polygon","coordinates":[[[6.1893,7.5753],[6.1788,7.5721],[6.1796,7.5678],[6.1785,7.5668],[6.177,7.5695],[6.1736,7.5654],[6.1712,7.5657],[6.1682,7.563],[6.1336,7.5521],[6.1383,7.5505],[6.1642,7.5502],[6.167,7.5452],[6.1646,7.5383],[6.1583,7.5283],[6.1724,7.5196],[6.1981,7.4961],[6.2063,7.4704],[6.2253,7.4684],[6.2269,7.471],[6.2379,7.4756],[6.2592,7.4789],[6.2678,7.4818],[6.2812,7.501],[6.2921,7.5004],[6.2968,7.5082],[6.2956,7.5183],[6.2978,7.5336],[6.2828,7.5401],[6.2776,7.5458],[6.2716,7.5488],[6.2692,7.546],[6.2562,7.5484],[6.2512,7.5527],[6.2478,7.5542],[6.2447,7.5523],[6.234,7.5588],[6.2302,7.5577],[6.2279,7.5525],[6.2234,7.5518],[6.2129,7.56],[6.2014,7.5644],[6.1893,7.5753]]]}},{"type":"Feature","properties":{"name":"Olamaboro","state":"Kogi","scode":"KO","centroid":[7.1969,7.5331]},"geometry":{"type":"Polygon","coordinates":[[[7.7687,7.3019],[7.7677,7.3066],[7.7605,7.3095],[7.756,7.3048],[7.7429,7.3068],[7.7362,7.3093],[7.7275,7.3076],[7.7135,7.3144],[7.6999,7.3183],[7.6631,7.3379],[7.6506,7.3468],[7.6294,7.3472],[7.6281,7.3381],[7.6291,7.3304],[7.6255,7.3196],[7.5902,7.3088],[7.5646,7.2988],[7.5595,7.2941],[7.5527,7.2912],[7.5323,7.289],[7.4923,7.2886],[7.4827,7.2911],[7.4738,7.2886],[7.4656,7.2907],[7.4397,7.3022],[7.429,7.2944],[7.4193,7.2957],[7.4089,7.2986],[7.3964,7.3066],[7.3958,7.3032],[7.3867,7.3088],[7.381,7.3044],[7.3714,7.3036],[7.3555,7.2976],[7.3523,7.2906],[7.3543,7.2782],[7.3479,7.2653],[7.345,7.2534],[7.3463,7.2469],[7.3384,7.2317],[7.3301,7.2074],[7.3249,7.2001],[7.3074,7.1833],[7.2982,7.1652],[7.288,7.1267],[7.2837,7.1162],[7.2847,7.1125],[7.2929,7.1056],[7.3272,7.1004],[7.3374,7.0961],[7.3503,7.0944],[7.3672,7.0889],[7.3678,7.0831],[7.3654,7.0688],[7.3687,7.0569],[7.3687,7.0503],[7.3668,7.0399],[7.3847,7.0517],[7.3894,7.0651],[7.3868,7.0861],[7.3944,7.0929],[7.4319,7.1016],[7.4355,7.0978],[7.4424,7.0959],[7.4574,7.0959],[7.4647,7.0892],[7.4704,7.0939],[7.4702,7.0868],[7.4825,7.0819],[7.491,7.0737],[7.502,7.069],[7.5257,7.0359],[7.5305,7.0323],[7.5436,7.0401],[7.5807,7.0272],[7.5932,7.018],[7.6011,7.0164],[7.6078,7.0176],[7.6111,7.0272],[7.6036,7.053],[7.5994,7.0793],[7.6019,7.0906],[7.6186,7.1081],[7.6299,7.1248],[7.6374,7.1327],[7.6355,7.1471],[7.6431,7.1583],[7.6724,7.1737],[7.6819,7.1854],[7.691,7.1918],[7.703,7.189],[7.7101,7.1831],[7.718,7.1836],[7.7293,7.1927],[7.7678,7.2063],[7.7794,7.2089],[7.7849,7.215],[7.79,7.2169],[7.7971,7.2331],[7.7942,7.2687],[7.8012,7.2926],[7.7791,7.3007],[7.7687,7.3019]]]}},{"type":"Feature","properties":{"name":"Omala","state":"Kogi","scode":"KO","centroid":[7.8189,7.5372]},"geometry":{"type":"Polygon","coordinates":[[[7.4503,7.5133],[7.4776,7.5183],[7.4904,7.5244],[7.5162,7.5227],[7.5189,7.5261],[7.5244,7.5288],[7.54,7.554],[7.5519,7.5644],[7.5658,7.5873],[7.5664,7.5925],[7.5624,7.5973],[7.554,7.6159],[7.551,7.6271],[7.556,7.6435],[7.5637,7.6445],[7.57,7.6478],[7.5789,7.65],[7.5817,7.6534],[7.5884,7.6562],[7.595,7.6411],[7.6153,7.6523],[7.6278,7.6655],[7.6406,7.6743],[7.6441,7.6853],[7.6519,7.6957],[7.6853,7.7002],[7.7078,7.706],[7.7243,7.7032],[7.7299,7.695],[7.7374,7.6945],[7.7526,7.7082],[7.7526,7.7442],[7.7502,7.7518],[7.7447,7.7687],[7.6929,7.8386],[7.6698,7.8848],[7.6636,7.9059],[7.6643,7.9351],[7.6768,8.0145],[7.6772,8.0166],[7.6249,8.0295],[7.5835,8.0377],[7.5053,8.0472],[7.4585,8.0466],[7.451,8.0486],[7.4458,8.0469],[7.4309,8.0227],[7.4181,8.0074],[7.4095,7.9897],[7.3965,7.9748],[7.3779,7.9356],[7.3587,7.914],[7.3506,7.9001],[7.3463,7.8748],[7.3491,7.847],[7.3552,7.8271],[7.3668,7.8115],[7.3769,7.8013],[7.3831,7.7911],[7.3885,7.787],[7.4021,7.7619],[7.4123,7.7367],[7.4286,7.717],[7.4422,7.6878],[7.4435,7.6674],[7.4401,7.6301],[7.4537,7.5886],[7.4544,7.5744],[7.4572,7.5711],[7.4611,7.553],[7.4584,7.537],[7.4503,7.5133]]]}},{"type":"Feature","properties":{"name":"Yagba East","state":"Kogi","scode":"KO","centroid":[8.1714,5.7756]},"geometry":{"type":"Polygon","coordinates":[[[5.6882,8.4529],[5.69,8.4418],[5.6884,8.4157],[5.6957,8.3857],[5.6949,8.3694],[5.6973,8.3263],[5.7014,8.3051],[5.7014,8.2929],[5.6941,8.2783],[5.6868,8.271],[5.6851,8.2547],[5.6819,8.2441],[5.6689,8.2222],[5.6616,8.214],[5.6445,8.188],[5.6372,8.1677],[5.6363,8.1392],[5.6331,8.1213],[5.6363,8.1075],[5.6372,8.0912],[5.6436,8.074],[5.6563,8.0747],[5.6597,8.0698],[5.6538,8.0643],[5.643,8.0591],[5.6399,8.0538],[5.6472,8.041],[5.6507,8.0236],[5.6625,8.0152],[5.6674,8.0086],[5.6681,8.0023],[5.6632,8.0002],[5.657,7.9943],[5.6507,7.9907],[5.6476,7.9862],[5.6472,7.9661],[5.6455,7.963],[5.6343,7.9585],[5.627,7.9571],[5.6142,7.9623],[5.6096,7.9661],[5.6016,7.9637],[5.5988,7.9585],[5.5988,7.9519],[5.602,7.9428],[5.6041,7.9265],[5.6086,7.9108],[5.6142,7.8656],[5.6232,7.843],[5.6305,7.835],[5.6427,7.8287],[5.6582,7.8279],[5.7102,7.8301],[5.729,7.8283],[5.7373,7.8211],[5.7388,7.8253],[5.751,7.8294],[5.76,7.8342],[5.7795,7.8546],[5.7892,7.8619],[5.8014,7.879],[5.8202,7.896],[5.8267,7.905],[5.8283,7.9164],[5.8323,7.9226],[5.8349,7.924],[5.8275,7.9408],[5.8055,7.9505],[5.7982,7.9579],[5.7697,7.9758],[5.764,7.9945],[5.7598,8.0031],[5.7725,8.0255],[5.7896,8.0501],[5.7961,8.0762],[5.7963,8.0941],[5.8086,8.1326],[5.8262,8.1762],[5.8383,8.192],[5.8481,8.1976],[5.8505,8.2021],[5.8725,8.22],[5.8995,8.2575],[5.9154,8.2683],[5.9277,8.2794],[5.9505,8.2934],[5.9625,8.3133],[5.9911,8.3249],[6.0275,8.345],[6.0625,8.3548],[6.087,8.354],[6.0796,8.3637],[6.078,8.3694],[6.082,8.3905],[6.0827,8.4018],[6.078,8.3979],[6.0601,8.3938],[6.0406,8.393],[6.0137,8.4003],[5.9909,8.4019],[5.9787,8.4052],[5.9568,8.4084],[5.9251,8.4182],[5.9121,8.4239],[5.8494,8.4223],[5.8291,8.4263],[5.8185,8.4271],[5.8055,8.4255],[5.7827,8.4279],[5.7486,8.4377],[5.7047,8.4458],[5.6882,8.4529]]]}},{"type":"Feature","properties":{"name":"Yagba West","state":"Kogi","scode":"KO","centroid":[8.3158,5.539]},"geometry":{"type":"Polygon","coordinates":[[[5.3245,8.3338],[5.3323,8.3312],[5.3358,8.3286],[5.3532,8.3099],[5.3532,8.2868],[5.3567,8.2747],[5.3628,8.2734],[5.3723,8.2742],[5.381,8.2781],[5.3971,8.292],[5.4045,8.292],[5.4184,8.2838],[5.4215,8.2738],[5.4197,8.2677],[5.4219,8.2616],[5.4223,8.2512],[5.4188,8.2355],[5.4223,8.2281],[5.4319,8.2247],[5.4575,8.2064],[5.4662,8.2025],[5.4775,8.2051],[5.4949,8.2147],[5.5013,8.2153],[5.5104,8.2084],[5.5139,8.2124],[5.5236,8.2072],[5.5371,8.2055],[5.5397,8.1986],[5.5397,8.1908],[5.5367,8.1564],[5.5327,8.1468],[5.518,8.1312],[5.5045,8.1238],[5.498,8.1147],[5.498,8.1107],[5.5139,8.1112],[5.5136,8.0838],[5.5073,8.0455],[5.5073,8.0371],[5.5038,8.0236],[5.5059,8.0187],[5.5087,8.0176],[5.516,8.0222],[5.5376,8.0406],[5.5453,8.0441],[5.5508,8.051],[5.5766,8.0712],[5.5992,8.0737],[5.6246,8.0726],[5.6436,8.074],[5.6372,8.0912],[5.6363,8.1075],[5.6331,8.1213],[5.6363,8.1392],[5.6372,8.1677],[5.6445,8.188],[5.6616,8.214],[5.6689,8.2222],[5.6819,8.2441],[5.6851,8.2547],[5.6868,8.271],[5.6941,8.2783],[5.7014,8.2929],[5.7014,8.3051],[5.6973,8.3263],[5.6949,8.3694],[5.6957,8.3857],[5.6884,8.4157],[5.69,8.4418],[5.6882,8.4529],[5.6429,8.4629],[5.5997,8.4889],[5.5745,8.506],[5.5542,8.5125],[5.5444,8.5231],[5.5241,8.5369],[5.5132,8.5385],[5.5146,8.5351],[5.503,8.5345],[5.4962,8.529],[5.4901,8.5182],[5.4766,8.4999],[5.4657,8.4924],[5.4535,8.4863],[5.4464,8.4797],[5.4331,8.4665],[5.4124,8.4524],[5.3966,8.4383],[5.3809,8.4208],[5.3726,8.4092],[5.3477,8.3827],[5.3419,8.3752],[5.3275,8.349],[5.3228,8.3444],[5.3215,8.3411],[5.3245,8.3338]]]}}]}