{"type":"FeatureCollection","features":[{"type":"Feature","properties":{"name":"Bakori","state":"Katsina","scode":"KT","centroid":[11.6444,7.4303]},"geometry":{"type":"Polygon","coordinates":[[[7.5072,11.4903],[7.5393,11.5016],[7.5476,11.5099],[7.5554,11.5114],[7.5634,11.5088],[7.5702,11.5012],[7.5845,11.4962],[7.5822,11.5197],[7.5864,11.533],[7.5798,11.5363],[7.5761,11.5417],[7.578,11.5471],[7.576,11.561],[7.5848,11.5737],[7.5924,11.5703],[7.5947,11.5653],[7.6035,11.5595],[7.6092,11.5602],[7.6145,11.559],[7.6162,11.5568],[7.6217,11.5559],[7.6221,11.5583],[7.6267,11.5596],[7.6334,11.5529],[7.6435,11.5699],[7.6339,11.5787],[7.635,11.5812],[7.6324,11.5836],[7.633,11.5879],[7.6315,11.5899],[7.6236,11.5945],[7.6195,11.6016],[7.617,11.6098],[7.6199,11.6107],[7.6199,11.6216],[7.6139,11.6268],[7.6005,11.6282],[7.5898,11.6352],[7.5807,11.6363],[7.5722,11.6325],[7.568,11.6275],[7.557,11.6188],[7.5529,11.6194],[7.5507,11.6253],[7.5541,11.6446],[7.5535,11.6475],[7.5412,11.6557],[7.5317,11.6574],[7.5251,11.6629],[7.5175,11.6626],[7.5156,11.6649],[7.5127,11.6646],[7.506,11.6694],[7.4988,11.6694],[7.495,11.6712],[7.4805,11.683],[7.4619,11.6905],[7.4503,11.6982],[7.444,11.7111],[7.4371,11.7174],[7.437,11.7285],[7.4349,11.7345],[7.4307,11.742],[7.4276,11.7442],[7.4253,11.7536],[7.4128,11.7677],[7.4102,11.7803],[7.4027,11.792],[7.4023,11.8046],[7.4054,11.8073],[7.4027,11.8111],[7.3991,11.8123],[7.399,11.816],[7.3939,11.8183],[7.3936,11.8223],[7.3918,11.8234],[7.3887,11.8239],[7.3836,11.8203],[7.3752,11.8251],[7.373,11.8222],[7.3657,11.8217],[7.361,11.828],[7.3539,11.8314],[7.3527,11.835],[7.3461,11.8351],[7.3413,11.8418],[7.339,11.8435],[7.336,11.8429],[7.3339,11.8468],[7.3279,11.8463],[7.321,11.8533],[7.3138,11.8549],[7.3111,11.8516],[7.3088,11.8512],[7.3025,11.857],[7.3022,11.8621],[7.2947,11.8556],[7.292,11.8417],[7.2925,11.836],[7.2955,11.8332],[7.2963,11.8278],[7.2931,11.8181],[7.2997,11.809],[7.3002,11.8059],[7.2974,11.8044],[7.2962,11.8009],[7.2989,11.7971],[7.301,11.7885],[7.302,11.776],[7.3004,11.7732],[7.2949,11.7704],[7.2937,11.7672],[7.2948,11.764],[7.2929,11.7626],[7.2894,11.7642],[7.2892,11.7583],[7.284,11.7524],[7.2838,11.7477],[7.2981,11.7276],[7.3131,11.7182],[7.3196,11.7095],[7.3216,11.6873],[7.3312,11.6756],[7.3366,11.6723],[7.3379,11.6684],[7.3381,11.6527],[7.322,11.6448],[7.3229,11.6372],[7.3178,11.6137],[7.3192,11.6107],[7.3241,11.6079],[7.338,11.605],[7.343,11.5977],[7.3418,11.5942],[7.3339,11.5933],[7.321,11.5837],[7.3149,11.5868],[7.3131,11.5756],[7.3044,11.5662],[7.3114,11.5597],[7.3114,11.5553],[7.325,11.5591],[7.3271,11.5536],[7.3272,11.5443],[7.332,11.5241],[7.3385,11.5189],[7.3372,11.5177],[7.3398,11.5135],[7.3445,11.5159],[7.3551,11.5137],[7.4008,11.5269],[7.4207,11.527],[7.4249,11.5325],[7.425,11.5409],[7.4325,11.539],[7.4465,11.5399],[7.4484,11.5424],[7.4563,11.5443],[7.4633,11.5367],[7.4676,11.5289],[7.477,11.526],[7.4811,11.5224],[7.4867,11.5212],[7.4916,11.5219],[7.4999,11.5166],[7.5043,11.5063],[7.5072,11.4903]]]}},{"type":"Feature","properties":{"name":"Batagarawa","state":"Katsina","scode":"KT","centroid":[12.878,7.5759]},"geometry":{"type":"Polygon","coordinates":[[[7.4158,12.8938],[7.4229,12.8873],[7.4207,12.8796],[7.4123,12.8775],[7.4126,12.8634],[7.4346,12.8622],[7.4356,12.8601],[7.4658,12.8596],[7.4753,12.8571],[7.4814,12.8587],[7.4878,12.8548],[7.4829,12.8359],[7.4858,12.8253],[7.4743,12.8239],[7.4754,12.8136],[7.5149,12.8072],[7.5092,12.804],[7.5095,12.7942],[7.5131,12.7836],[7.5156,12.7815],[7.5148,12.7746],[7.524,12.754],[7.5224,12.7488],[7.5228,12.7385],[7.5145,12.7189],[7.5179,12.7167],[7.5176,12.7102],[7.5343,12.7032],[7.5335,12.6963],[7.5439,12.697],[7.5596,12.7013],[7.5638,12.7041],[7.5787,12.702],[7.5833,12.7045],[7.581,12.721],[7.5788,12.7419],[7.5748,12.7545],[7.593,12.7633],[7.6196,12.7924],[7.6333,12.8012],[7.6371,12.8101],[7.6417,12.8148],[7.6645,12.8283],[7.6626,12.852],[7.6477,12.8591],[7.6474,12.8614],[7.6519,12.8697],[7.6538,12.8779],[7.6557,12.8787],[7.6565,12.884],[7.6577,12.8842],[7.6556,12.8892],[7.6561,12.8971],[7.6659,12.9018],[7.6729,12.9077],[7.6674,12.9169],[7.6822,12.9234],[7.6927,12.931],[7.69,12.9342],[7.682,12.9371],[7.6843,12.9398],[7.6841,12.9452],[7.6872,12.9509],[7.695,12.9504],[7.7051,12.9444],[7.7124,12.9466],[7.7187,12.9538],[7.727,12.9579],[7.7288,12.9512],[7.7348,12.9503],[7.7485,12.9524],[7.7535,12.9804],[7.7617,12.9929],[7.7595,12.994],[7.7588,12.9965],[7.7611,13.0037],[7.7355,13.0076],[7.7257,13.0067],[7.7179,13.0078],[7.7173,13.0171],[7.714,13.0253],[7.72,13.0295],[7.7266,13.0367],[7.7151,13.0397],[7.7114,13.0385],[7.6932,13.0203],[7.6896,13.024],[7.687,13.0241],[7.6872,13.0198],[7.6885,13.0191],[7.686,13.0164],[7.6803,13.0139],[7.6771,13.0093],[7.6775,12.9988],[7.6703,12.9747],[7.6497,12.97],[7.6474,12.9663],[7.6416,12.9706],[7.6318,12.9578],[7.6269,12.9634],[7.6122,12.9536],[7.595,12.9517],[7.5873,12.9541],[7.5694,12.9641],[7.5558,12.9766],[7.5337,12.9685],[7.5213,12.9605],[7.5153,12.9594],[7.5139,12.9681],[7.5126,12.9679],[7.5018,12.962],[7.4805,12.9546],[7.472,12.9398],[7.4725,12.9359],[7.464,12.9371],[7.4634,12.9338],[7.4484,12.9334],[7.45,12.93],[7.4411,12.9251],[7.4351,12.9168],[7.4255,12.9135],[7.4215,12.9024],[7.4158,12.8938]]]}},{"type":"Feature","properties":{"name":"Batsari","state":"Katsina","scode":"KT","centroid":[12.8354,7.2542]},"geometry":{"type":"Polygon","coordinates":[[[7.043,12.7196],[7.1225,12.7036],[7.1218,12.6688],[7.134,12.6645],[7.1548,12.6661],[7.1698,12.6693],[7.1738,12.6726],[7.1741,12.6746],[7.1753,12.6745],[7.1755,12.6762],[7.1797,12.6784],[7.1879,12.6806],[7.1893,12.6796],[7.1946,12.6805],[7.1952,12.6828],[7.1996,12.6842],[7.2155,12.6855],[7.218,12.6874],[7.2248,12.6861],[7.2304,12.6878],[7.2601,12.7003],[7.2785,12.7139],[7.2834,12.7085],[7.2743,12.6991],[7.2746,12.6943],[7.2818,12.6869],[7.2875,12.6845],[7.2957,12.6774],[7.3124,12.6772],[7.3251,12.685],[7.3413,12.6887],[7.3548,12.6852],[7.3569,12.6909],[7.3626,12.691],[7.3692,12.6804],[7.3775,12.6817],[7.3823,12.6841],[7.3864,12.6965],[7.3981,12.7104],[7.398,12.7187],[7.3951,12.7296],[7.395,12.7488],[7.4024,12.7625],[7.4029,12.77],[7.4013,12.7812],[7.4053,12.7926],[7.4184,12.812],[7.419,12.8216],[7.4134,12.8293],[7.4153,12.8445],[7.4204,12.8501],[7.4206,12.8524],[7.4197,12.8539],[7.4142,12.8539],[7.4124,12.8554],[7.4126,12.8634],[7.4123,12.8775],[7.4207,12.8796],[7.4229,12.8873],[7.4158,12.8938],[7.3987,12.8977],[7.3978,12.9085],[7.3885,12.9281],[7.4005,12.928],[7.4015,12.932],[7.3993,12.9368],[7.3999,12.9424],[7.3826,12.9558],[7.3842,12.9813],[7.3818,12.9845],[7.3724,12.9861],[7.3714,12.9963],[7.3627,13.0003],[7.3557,12.9957],[7.3518,12.9951],[7.3411,12.9997],[7.3205,13.0044],[7.2984,13.0054],[7.2817,13.0003],[7.2709,13.0074],[7.2633,13.0086],[7.245,13.0211],[7.2409,13.0158],[7.2246,13.0074],[7.2138,13.0057],[7.2025,12.9995],[7.1938,13.0016],[7.1849,13.0006],[7.1802,12.9938],[7.1678,12.9858],[7.1618,12.9733],[7.1539,12.9681],[7.1437,12.953],[7.1398,12.9421],[7.1057,12.9329],[7.1012,12.8984],[7.1235,12.8652],[7.1111,12.78],[7.0607,12.7398],[7.043,12.7196]]]}},{"type":"Feature","properties":{"name":"Baure","state":"Katsina","scode":"KT","centroid":[12.7931,8.7842]},"geometry":{"type":"Polygon","coordinates":[[[8.5522,12.8318],[8.5632,12.8341],[8.5639,12.8253],[8.574,12.8205],[8.5891,12.8086],[8.5871,12.8027],[8.5882,12.7944],[8.5931,12.7773],[8.5944,12.7662],[8.6038,12.7373],[8.6363,12.7373],[8.6518,12.7331],[8.651,12.7276],[8.6639,12.7258],[8.6686,12.7195],[8.6767,12.7159],[8.6781,12.7126],[8.6836,12.708],[8.688,12.6882],[8.7011,12.687],[8.7124,12.6806],[8.7228,12.6827],[8.7229,12.6699],[8.7448,12.6667],[8.7524,12.6727],[8.7593,12.6739],[8.8047,12.6731],[8.8239,12.6744],[8.8286,12.6759],[8.8297,12.6705],[8.831,12.6704],[8.8479,12.6753],[8.8505,12.6788],[8.8646,12.669],[8.8835,12.6961],[8.9084,12.702],[8.9232,12.7071],[8.9513,12.7381],[8.97,12.7756],[8.9713,12.7851],[8.9829,12.8068],[9.015,12.8091],[9.0473,12.8162],[9.0409,12.8461],[9.017,12.8455],[9.0034,12.8404],[8.9959,12.8401],[8.9886,12.8363],[8.9842,12.8358],[8.9775,12.8375],[8.9639,12.8452],[8.9552,12.8556],[8.7079,12.93],[8.7113,12.8892],[8.7217,12.8648],[8.7146,12.8454],[8.7089,12.848],[8.7049,12.8522],[8.7029,12.8576],[8.6884,12.8579],[8.6865,12.8522],[8.6716,12.8508],[8.6727,12.8591],[8.6662,12.8773],[8.6596,12.8808],[8.6259,12.8828],[8.6078,12.8736],[8.6047,12.8693],[8.5934,12.8626],[8.5849,12.8732],[8.5754,12.8683],[8.5769,12.8627],[8.5721,12.8595],[8.5649,12.8694],[8.5531,12.8661],[8.5522,12.8318]]]}},{"type":"Feature","properties":{"name":"Bindawa","state":"Katsina","scode":"KT","centroid":[12.716,7.8942]},"geometry":{"type":"Polygon","coordinates":[[[7.7881,12.7085],[7.7984,12.708],[7.8078,12.7025],[7.8101,12.6977],[7.817,12.6962],[7.815,12.6844],[7.8059,12.6874],[7.7849,12.6903],[7.7819,12.6895],[7.7777,12.6831],[7.7798,12.6768],[7.7783,12.6749],[7.7702,12.6733],[7.7593,12.6773],[7.7597,12.667],[7.7615,12.663],[7.7652,12.6617],[7.773,12.6622],[7.7753,12.6665],[7.7774,12.667],[7.7826,12.6651],[7.7832,12.663],[7.7915,12.6581],[7.7986,12.6409],[7.8003,12.6249],[7.8299,12.6271],[7.834,12.622],[7.8389,12.621],[7.8431,12.6169],[7.8469,12.6173],[7.8497,12.6159],[7.859,12.6166],[7.8628,12.6105],[7.8614,12.6089],[7.8645,12.6052],[7.8653,12.6017],[7.8731,12.6026],[7.8767,12.6073],[7.8814,12.6083],[7.8889,12.6072],[7.8966,12.6089],[7.8983,12.6045],[7.8959,12.5967],[7.8966,12.5943],[7.9111,12.5936],[7.91,12.5844],[7.8968,12.5775],[7.8985,12.5697],[7.9104,12.5654],[7.9144,12.5672],[7.916,12.5767],[7.9183,12.578],[7.9317,12.5728],[7.9327,12.5776],[7.9457,12.5918],[7.9544,12.5952],[7.9621,12.5886],[7.9563,12.5806],[7.9625,12.5772],[7.9738,12.5755],[7.984,12.5771],[7.9929,12.5929],[7.999,12.6165],[7.964,12.6287],[7.9551,12.6275],[7.9562,12.6481],[7.9591,12.6527],[7.9627,12.6538],[7.9613,12.6736],[7.9538,12.6793],[7.9644,12.7011],[7.9665,12.7155],[7.9632,12.731],[7.9548,12.7219],[7.9454,12.7261],[7.9413,12.7292],[7.9378,12.7407],[7.9274,12.7515],[7.9448,12.7543],[7.9767,12.7535],[7.9893,12.7551],[7.9998,12.76],[8.0049,12.7922],[8.0057,12.8164],[8.0214,12.8257],[8.0259,12.8354],[8.0246,12.838],[8.0181,12.8433],[8.0022,12.8468],[7.9868,12.8445],[7.9787,12.8404],[7.966,12.8514],[7.9436,12.8504],[7.9378,12.8466],[7.9273,12.823],[7.922,12.821],[7.9211,12.8189],[7.9179,12.8195],[7.9165,12.8223],[7.9081,12.8232],[7.9051,12.8199],[7.8916,12.8212],[7.884,12.8204],[7.8872,12.8039],[7.8864,12.7952],[7.8776,12.7944],[7.8681,12.8001],[7.8631,12.7948],[7.8505,12.7917],[7.8407,12.8028],[7.8244,12.7892],[7.8196,12.7951],[7.8157,12.8079],[7.8099,12.8201],[7.797,12.8261],[7.7924,12.8116],[7.7821,12.8044],[7.7799,12.8006],[7.7806,12.7863],[7.7919,12.7647],[7.7938,12.755],[7.7753,12.7571],[7.7774,12.743],[7.7906,12.7394],[7.7881,12.7085]]]}},{"type":"Feature","properties":{"name":"Charanchi","state":"Katsina","scode":"KT","centroid":[12.6026,7.6792]},"geometry":{"type":"Polygon","coordinates":[[[7.5335,12.6963],[7.5362,12.6907],[7.5423,12.6863],[7.5482,12.6773],[7.5522,12.6759],[7.5535,12.6721],[7.5619,12.6706],[7.5638,12.6683],[7.562,12.665],[7.563,12.6584],[7.5681,12.6527],[7.5676,12.6478],[7.5694,12.6462],[7.5731,12.6466],[7.5751,12.6486],[7.5823,12.6464],[7.5826,12.6427],[7.5865,12.6423],[7.5911,12.6331],[7.5969,12.6288],[7.6038,12.6292],[7.6087,12.6246],[7.6111,12.6201],[7.6249,12.6178],[7.636,12.6087],[7.6369,12.6065],[7.6277,12.6],[7.6209,12.5875],[7.6208,12.5843],[7.6188,12.5835],[7.6169,12.5792],[7.6182,12.5766],[7.618,12.571],[7.6155,12.5662],[7.6152,12.5625],[7.6217,12.5498],[7.6345,12.5488],[7.6432,12.5416],[7.6439,12.527],[7.6426,12.5226],[7.6335,12.5162],[7.6311,12.5008],[7.6402,12.4877],[7.636,12.4703],[7.6395,12.4615],[7.6316,12.4561],[7.6353,12.4513],[7.6324,12.4356],[7.6414,12.4245],[7.6488,12.4285],[7.6558,12.4246],[7.6583,12.4196],[7.6802,12.4129],[7.6824,12.402],[7.6759,12.3931],[7.684,12.3814],[7.6995,12.3773],[7.7128,12.4256],[7.7173,12.4343],[7.734,12.4548],[7.7361,12.4598],[7.7341,12.4655],[7.7235,12.474],[7.7154,12.4986],[7.7334,12.5138],[7.7508,12.5067],[7.7569,12.5228],[7.7378,12.5246],[7.7373,12.5294],[7.742,12.5414],[7.7413,12.5458],[7.7385,12.5465],[7.7384,12.5493],[7.7272,12.5584],[7.7238,12.5632],[7.723,12.5654],[7.7255,12.5786],[7.7107,12.5793],[7.7088,12.5909],[7.7096,12.597],[7.711,12.5989],[7.7122,12.5979],[7.7135,12.5993],[7.7125,12.6027],[7.7142,12.6067],[7.7134,12.6118],[7.7228,12.6114],[7.7273,12.6096],[7.7479,12.6125],[7.7542,12.5979],[7.7629,12.5949],[7.7768,12.5958],[7.7772,12.5972],[7.7741,12.6004],[7.7711,12.6077],[7.7825,12.6083],[7.8003,12.6249],[7.7986,12.6409],[7.7915,12.6581],[7.7832,12.663],[7.7826,12.6651],[7.7774,12.667],[7.7753,12.6665],[7.773,12.6622],[7.7652,12.6617],[7.7615,12.663],[7.7597,12.667],[7.7593,12.6773],[7.7702,12.6733],[7.7783,12.6749],[7.7798,12.6768],[7.7777,12.6831],[7.7819,12.6895],[7.7849,12.6903],[7.8059,12.6874],[7.815,12.6844],[7.817,12.6962],[7.8101,12.6977],[7.8078,12.7025],[7.7984,12.708],[7.7881,12.7085],[7.7879,12.695],[7.7811,12.6941],[7.7734,12.7034],[7.769,12.7044],[7.7546,12.7025],[7.7505,12.7056],[7.7469,12.7159],[7.734,12.7241],[7.7329,12.7341],[7.7252,12.7469],[7.7104,12.7351],[7.7069,12.7276],[7.6946,12.719],[7.682,12.7158],[7.6802,12.7164],[7.6711,12.7284],[7.666,12.7288],[7.6554,12.7421],[7.6525,12.7435],[7.6301,12.745],[7.6173,12.7374],[7.6003,12.7337],[7.5873,12.7288],[7.581,12.721],[7.5833,12.7045],[7.5787,12.702],[7.5638,12.7041],[7.5596,12.7013],[7.5439,12.697],[7.5335,12.6963]]]}},{"type":"Feature","properties":{"name":"Dan Musa","state":"Katsina","scode":"KT","centroid":[12.2372,7.2841]},"geometry":{"type":"Polygon","coordinates":[[[7.5252,12.1074],[7.5297,12.118],[7.5346,12.1222],[7.5344,12.13],[7.5413,12.1788],[7.5309,12.1794],[7.529,12.1835],[7.5313,12.1914],[7.5288,12.1936],[7.5311,12.2087],[7.5333,12.2094],[7.5339,12.2125],[7.5299,12.2237],[7.5347,12.2263],[7.5395,12.2353],[7.5401,12.2408],[7.5426,12.2456],[7.5411,12.2491],[7.5385,12.2489],[7.5379,12.251],[7.5397,12.2547],[7.5432,12.2573],[7.5417,12.2636],[7.5422,12.2685],[7.5284,12.2662],[7.5164,12.266],[7.5031,12.2708],[7.4996,12.2555],[7.4684,12.2574],[7.4579,12.2594],[7.4431,12.2576],[7.4405,12.2672],[7.4311,12.2662],[7.4261,12.274],[7.4205,12.2766],[7.411,12.2743],[7.3998,12.2636],[7.396,12.2688],[7.389,12.2858],[7.3914,12.2966],[7.3866,12.3036],[7.3842,12.3045],[7.3784,12.3036],[7.3765,12.3078],[7.3548,12.3077],[7.353,12.3168],[7.3482,12.3211],[7.3346,12.32],[7.328,12.3205],[7.3187,12.3237],[7.314,12.3186],[7.3085,12.3222],[7.3046,12.3229],[7.3011,12.3211],[7.3001,12.315],[7.2955,12.3133],[7.2821,12.3199],[7.2787,12.3247],[7.2799,12.3303],[7.2785,12.3324],[7.2718,12.3358],[7.2708,12.3416],[7.2638,12.3409],[7.263,12.3421],[7.265,12.3458],[7.2641,12.3475],[7.2378,12.3456],[7.2295,12.3379],[7.2251,12.3356],[7.2246,12.3372],[7.2104,12.3439],[7.1988,12.3373],[7.1968,12.3381],[7.1896,12.3619],[7.1716,12.4514],[7.111,12.4374],[7.0659,12.4317],[7.0747,12.375],[7.0847,12.3475],[7.0828,12.3294],[7.0933,12.2826],[7.1395,12.2432],[7.1504,12.2316],[7.15,12.207],[7.1568,12.1851],[7.1456,12.1472],[7.1351,12.1318],[7.1279,12.1245],[7.1261,12.1135],[7.1172,12.094],[7.1333,12.0903],[7.1364,12.0856],[7.1366,12.0779],[7.1303,12.0684],[7.139,12.0701],[7.1397,12.0682],[7.1416,12.0679],[7.1428,12.0704],[7.1506,12.0703],[7.1527,12.0735],[7.166,12.0769],[7.1713,12.0864],[7.1767,12.087],[7.1783,12.0892],[7.2109,12.0949],[7.2349,12.0968],[7.2537,12.1019],[7.2645,12.1189],[7.2707,12.1425],[7.2796,12.1536],[7.291,12.1545],[7.3025,12.1526],[7.3187,12.1529],[7.319,12.1477],[7.331,12.1362],[7.3377,12.1342],[7.3456,12.1252],[7.3587,12.1178],[7.3663,12.1208],[7.3704,12.121],[7.375,12.127],[7.3882,12.129],[7.3881,12.1359],[7.4035,12.1339],[7.4154,12.1357],[7.4344,12.1424],[7.4537,12.1294],[7.457,12.1251],[7.4629,12.1092],[7.4631,12.0971],[7.4834,12.0936],[7.4943,12.0855],[7.4967,12.0895],[7.5252,12.1074]]]}},{"type":"Feature","properties":{"name":"Dandume","state":"Katsina","scode":"KT","centroid":[11.4096,7.2052]},"geometry":{"type":"Polygon","coordinates":[[[7.1948,11.2576],[7.21,11.2611],[7.2151,11.27],[7.2221,11.2761],[7.2274,11.2786],[7.2496,11.2729],[7.2527,11.2729],[7.2605,11.2785],[7.2657,11.2781],[7.2733,11.2744],[7.284,11.2755],[7.2896,11.2843],[7.3044,11.2888],[7.3083,11.2929],[7.3074,11.3052],[7.3104,11.313],[7.3072,11.3213],[7.3039,11.3412],[7.3034,11.3601],[7.3075,11.3662],[7.3088,11.3744],[7.295,11.3842],[7.2991,11.4046],[7.3087,11.4052],[7.3207,11.4127],[7.3187,11.4319],[7.3137,11.4496],[7.309,11.4583],[7.2858,11.4726],[7.2801,11.4743],[7.2741,11.4808],[7.2487,11.4982],[7.2498,11.5048],[7.2464,11.5079],[7.2386,11.5042],[7.2368,11.5],[7.2457,11.4807],[7.2455,11.4732],[7.2469,11.4695],[7.2369,11.4678],[7.2343,11.4686],[7.236,11.4814],[7.2333,11.4842],[7.2184,11.4847],[7.2048,11.4883],[7.2021,11.4932],[7.2047,11.4965],[7.1951,11.5006],[7.1898,11.5007],[7.1852,11.4986],[7.1878,11.5143],[7.1845,11.5249],[7.1762,11.5384],[7.177,11.5443],[7.1746,11.5474],[7.1742,11.5566],[7.175,11.5597],[7.1771,11.5603],[7.1753,11.5671],[7.1767,11.5763],[7.1629,11.5759],[7.1473,11.5788],[7.1354,11.5784],[7.1298,11.5661],[7.1238,11.56],[7.1078,11.5509],[7.1054,11.5285],[7.1065,11.5198],[7.1053,11.5033],[7.1118,11.4755],[7.0948,11.4633],[7.0925,11.463],[7.071,11.4439],[7.0857,11.4304],[7.1197,11.4284],[7.1305,11.4041],[7.1506,11.3905],[7.1492,11.3839],[7.1436,11.3773],[7.1345,11.3882],[7.125,11.382],[7.1327,11.3575],[7.1554,11.3173],[7.1616,11.3029],[7.1788,11.2869],[7.1871,11.2819],[7.1928,11.2738],[7.1948,11.2576]]]}},{"type":"Feature","properties":{"name":"Danja","state":"Katsina","scode":"KT","centroid":[11.3997,7.5445]},"geometry":{"type":"Polygon","coordinates":[[[7.7507,11.3714],[7.7493,11.3734],[7.7504,11.3817],[7.7482,11.3876],[7.74,11.3914],[7.7309,11.3982],[7.7195,11.4088],[7.7223,11.4155],[7.7057,11.426],[7.6945,11.4203],[7.6952,11.4315],[7.6882,11.4286],[7.6801,11.4227],[7.6678,11.4055],[7.6446,11.4018],[7.6417,11.4037],[7.6346,11.4176],[7.6142,11.4075],[7.6093,11.4038],[7.5989,11.3913],[7.5883,11.3913],[7.5876,11.4144],[7.564,11.4146],[7.5445,11.4229],[7.5397,11.4318],[7.5327,11.4362],[7.5139,11.4344],[7.5068,11.4266],[7.4975,11.4256],[7.4777,11.4283],[7.498,11.4461],[7.5037,11.4641],[7.5072,11.4903],[7.5043,11.5063],[7.4999,11.5166],[7.4916,11.5219],[7.4867,11.5212],[7.4811,11.5224],[7.477,11.526],[7.4676,11.5289],[7.4633,11.5367],[7.4563,11.5443],[7.4484,11.5424],[7.4465,11.5399],[7.4325,11.539],[7.425,11.5409],[7.4249,11.5325],[7.4207,11.527],[7.4008,11.5269],[7.394,11.4959],[7.3872,11.4738],[7.3916,11.4562],[7.3911,11.4461],[7.3872,11.4421],[7.3882,11.421],[7.3829,11.4152],[7.3705,11.4091],[7.3726,11.3991],[7.3794,11.3813],[7.3836,11.3782],[7.3871,11.3715],[7.39,11.3702],[7.3923,11.3748],[7.3979,11.378],[7.4055,11.3753],[7.4276,11.374],[7.4544,11.3784],[7.4676,11.3777],[7.4725,11.376],[7.483,11.3576],[7.4895,11.3522],[7.4964,11.3516],[7.5056,11.3565],[7.5203,11.3616],[7.5219,11.3535],[7.5217,11.3404],[7.5299,11.3392],[7.5383,11.3345],[7.5509,11.3314],[7.5622,11.3232],[7.574,11.3191],[7.6075,11.2718],[7.6187,11.2777],[7.6279,11.2835],[7.6479,11.29],[7.6517,11.293],[7.6538,11.292],[7.658,11.293],[7.664,11.2975],[7.6643,11.3],[7.6688,11.2969],[7.6753,11.3062],[7.6845,11.3063],[7.6835,11.3097],[7.6898,11.3088],[7.7062,11.31],[7.7066,11.3181],[7.7077,11.3183],[7.7084,11.3158],[7.7157,11.318],[7.7187,11.3213],[7.7171,11.3225],[7.7212,11.325],[7.7165,11.3361],[7.718,11.3368],[7.7133,11.3484],[7.7177,11.3646],[7.7205,11.3697],[7.7301,11.3716],[7.7416,11.3683],[7.7507,11.3714]]]}},{"type":"Feature","properties":{"name":"Daura","state":"Katsina","scode":"KT","centroid":[12.9787,8.2885]},"geometry":{"type":"Polygon","coordinates":[[[8.366,13.0171],[8.3626,13.0302],[8.3634,13.0486],[8.3751,13.0697],[8.3792,13.071],[8.3806,13.0735],[8.3714,13.0823],[8.3571,13.0756],[8.3416,13.0607],[8.3105,13.0564],[8.3147,13.0464],[8.3061,13.0458],[8.2866,13.0298],[8.274,13.0226],[8.2531,13.0212],[8.2431,13.016],[8.2334,13.008],[8.2494,12.9906],[8.2467,12.9882],[8.2327,12.9861],[8.2192,12.9811],[8.2034,13.0032],[8.1993,13.0052],[8.1998,13.0082],[8.2079,13.0131],[8.2113,13.0207],[8.2118,13.0236],[8.2075,13.0295],[8.1926,13.0292],[8.1799,13.0171],[8.1721,13.0128],[8.1784,13.0047],[8.1944,12.9902],[8.1971,12.9847],[8.2069,12.9739],[8.2214,12.9625],[8.2294,12.9241],[8.2299,12.9096],[8.2506,12.8799],[8.2582,12.8894],[8.264,12.9007],[8.2734,12.9009],[8.2972,12.9107],[8.3116,12.9093],[8.3275,12.9131],[8.3432,12.9205],[8.3452,12.9237],[8.346,12.939],[8.3375,12.9529],[8.3458,12.9572],[8.3516,12.9687],[8.3532,12.9763],[8.3471,12.98],[8.3468,12.9889],[8.3557,13.0112],[8.361,13.0119],[8.366,13.0171]]]}},{"type":"Feature","properties":{"name":"Dutsi","state":"Katsina","scode":"KT","centroid":[12.9134,8.1517]},"geometry":{"type":"Polygon","coordinates":[[[8.2506,12.8799],[8.2299,12.9096],[8.2294,12.9241],[8.2214,12.9625],[8.2069,12.9739],[8.1971,12.9847],[8.1944,12.9902],[8.1784,13.0047],[8.1721,13.0128],[8.1619,13.0307],[8.161,13.0385],[8.1562,13.0357],[8.1521,13.0303],[8.1225,13.0165],[8.1112,13.0134],[8.0975,13.0068],[8.0791,13.0067],[8.0744,13.0095],[8.0583,13.0089],[8.0483,13.0033],[8.0506,12.9966],[8.0553,12.9897],[8.0601,12.9863],[8.056,12.9806],[8.0519,12.9694],[8.0487,12.9553],[8.06,12.9505],[8.0601,12.9435],[8.0639,12.9396],[8.0722,12.9374],[8.0839,12.9237],[8.0876,12.8876],[8.0839,12.8837],[8.0735,12.8773],[8.0772,12.8649],[8.08,12.8638],[8.0923,12.8645],[8.0943,12.8574],[8.095,12.8103],[8.1083,12.8048],[8.1162,12.8026],[8.1312,12.8162],[8.1416,12.811],[8.1521,12.8186],[8.1789,12.8113],[8.1925,12.8157],[8.211,12.8175],[8.2301,12.8262],[8.2421,12.8261],[8.2436,12.8368],[8.2478,12.8486],[8.2524,12.8529],[8.2628,12.8565],[8.2583,12.8711],[8.2506,12.8799]]]}},{"type":"Feature","properties":{"name":"Dutsin Ma","state":"Katsina","scode":"KT","centroid":[12.4197,7.5099]},"geometry":{"type":"Polygon","coordinates":[[[7.6091,12.343],[7.6283,12.3786],[7.6343,12.4017],[7.6334,12.4172],[7.6414,12.4245],[7.6324,12.4356],[7.6353,12.4513],[7.6316,12.4561],[7.6395,12.4615],[7.636,12.4703],[7.6402,12.4877],[7.6311,12.5008],[7.6335,12.5162],[7.6426,12.5226],[7.6439,12.527],[7.6432,12.5416],[7.6345,12.5488],[7.6217,12.5498],[7.6152,12.5625],[7.6155,12.5662],[7.575,12.5626],[7.576,12.5608],[7.5748,12.5559],[7.5772,12.5527],[7.5781,12.5482],[7.5634,12.5459],[7.5558,12.5429],[7.549,12.5433],[7.5475,12.5473],[7.5482,12.5552],[7.5264,12.5635],[7.5193,12.5536],[7.514,12.5531],[7.4983,12.5535],[7.4841,12.559],[7.4795,12.5578],[7.468,12.5606],[7.4607,12.5449],[7.4468,12.5249],[7.4484,12.5224],[7.4439,12.5119],[7.4297,12.5179],[7.4252,12.5263],[7.4183,12.5242],[7.4159,12.5255],[7.4044,12.5255],[7.4186,12.5078],[7.4221,12.5005],[7.42,12.492],[7.4081,12.4909],[7.4003,12.4852],[7.3992,12.4765],[7.414,12.4636],[7.4165,12.4454],[7.4135,12.4407],[7.4137,12.4352],[7.4195,12.4195],[7.4213,12.3938],[7.4173,12.393],[7.4135,12.3836],[7.4086,12.3845],[7.4074,12.3784],[7.4121,12.3739],[7.4097,12.3716],[7.4082,12.3626],[7.4156,12.3524],[7.4128,12.3484],[7.4079,12.3471],[7.4033,12.337],[7.3941,12.3349],[7.3919,12.3421],[7.3865,12.3439],[7.3838,12.3406],[7.3739,12.3411],[7.3702,12.3388],[7.3709,12.3349],[7.3694,12.3337],[7.3593,12.334],[7.356,12.3287],[7.3436,12.3253],[7.3389,12.3257],[7.3346,12.32],[7.3482,12.3211],[7.353,12.3168],[7.3548,12.3077],[7.3765,12.3078],[7.3784,12.3036],[7.3842,12.3045],[7.3866,12.3036],[7.3914,12.2966],[7.389,12.2858],[7.396,12.2688],[7.3998,12.2636],[7.411,12.2743],[7.4205,12.2766],[7.4261,12.274],[7.4311,12.2662],[7.4405,12.2672],[7.4431,12.2576],[7.4579,12.2594],[7.4684,12.2574],[7.4996,12.2555],[7.5031,12.2708],[7.5164,12.266],[7.5284,12.2662],[7.5422,12.2685],[7.5451,12.2712],[7.5364,12.2848],[7.5326,12.2871],[7.5295,12.292],[7.5239,12.3079],[7.5262,12.3169],[7.5251,12.319],[7.5174,12.323],[7.5158,12.3355],[7.5172,12.3426],[7.5157,12.3666],[7.5802,12.3526],[7.5889,12.347],[7.5931,12.3492],[7.6001,12.3476],[7.6002,12.351],[7.6026,12.3509],[7.6091,12.343]]]}},{"type":"Feature","properties":{"name":"Faskari","state":"Katsina","scode":"KT","centroid":[11.6983,7.1007]},"geometry":{"type":"Polygon","coordinates":[[[7.1078,11.5509],[7.1238,11.56],[7.1298,11.5661],[7.1354,11.5784],[7.1473,11.5788],[7.1629,11.5759],[7.1767,11.5763],[7.1758,11.5841],[7.1709,11.5987],[7.1925,11.5879],[7.2017,11.5859],[7.2082,11.5879],[7.2214,11.5867],[7.236,11.5889],[7.2681,11.5753],[7.2785,11.5748],[7.2851,11.5721],[7.2924,11.5729],[7.3044,11.5662],[7.3131,11.5756],[7.3149,11.5868],[7.321,11.5837],[7.3339,11.5933],[7.3418,11.5942],[7.343,11.5977],[7.338,11.605],[7.3241,11.6079],[7.3192,11.6107],[7.3178,11.6137],[7.3229,11.6372],[7.322,11.6448],[7.3381,11.6527],[7.3379,11.6684],[7.3366,11.6723],[7.3312,11.6756],[7.3216,11.6873],[7.3196,11.7095],[7.3131,11.7182],[7.2981,11.7276],[7.2838,11.7477],[7.284,11.7524],[7.2892,11.7583],[7.2894,11.7642],[7.2929,11.7626],[7.2948,11.764],[7.2937,11.7672],[7.2949,11.7704],[7.3004,11.7732],[7.302,11.776],[7.301,11.7885],[7.2989,11.7971],[7.2962,11.8009],[7.2974,11.8044],[7.3002,11.8059],[7.2997,11.809],[7.2931,11.8181],[7.2963,11.8278],[7.2955,11.8332],[7.2925,11.836],[7.292,11.8417],[7.2947,11.8556],[7.3022,11.8621],[7.3039,11.8637],[7.3029,11.8692],[7.2867,11.8812],[7.2857,11.8847],[7.2785,11.8916],[7.279,11.8966],[7.2734,11.9019],[7.2643,11.9144],[7.2581,11.9191],[7.2563,11.9247],[7.2526,11.9292],[7.2466,11.9326],[7.2264,11.9135],[7.2171,11.9129],[7.2053,11.9085],[7.206,11.9069],[7.1998,11.9005],[7.1931,11.9007],[7.191,11.9037],[7.1916,11.9068],[7.1825,11.9095],[7.1714,11.9106],[7.165,11.909],[7.1458,11.9124],[7.1408,11.9113],[7.1447,11.8873],[7.1471,11.881],[7.1462,11.8659],[7.1418,11.8493],[7.1008,11.8205],[7.0748,11.8175],[7.0724,11.8086],[7.0626,11.8045],[7.06,11.7899],[7.0497,11.7885],[7.0426,11.7904],[7.0373,11.8009],[7.0214,11.8111],[7.0173,11.8156],[6.9988,11.8106],[6.9937,11.811],[6.9922,11.8127],[6.9909,11.8108],[6.9878,11.8102],[6.9857,11.8124],[6.9821,11.8094],[6.9777,11.8081],[6.9771,11.8091],[6.9734,11.8032],[6.9636,11.8044],[6.9527,11.8003],[6.947,11.8036],[6.9435,11.7977],[6.9344,11.7949],[6.9333,11.7934],[6.9286,11.7929],[6.9225,11.7874],[6.9174,11.7859],[6.9099,11.7858],[6.9022,11.7989],[6.9004,11.7939],[6.9022,11.789],[6.8961,11.7875],[6.8954,11.7834],[6.8913,11.7791],[6.892,11.7762],[6.8862,11.7613],[6.8825,11.7584],[6.8831,11.7554],[6.8858,11.7523],[6.884,11.7447],[6.8855,11.7354],[6.884,11.7168],[6.8808,11.7109],[6.8812,11.7056],[6.869,11.6785],[6.8658,11.663],[6.8552,11.6419],[6.852,11.6207],[6.8544,11.5952],[6.8568,11.589],[6.8674,11.5776],[6.8761,11.5744],[6.904,11.5532],[6.9073,11.5296],[6.8959,11.5052],[6.9011,11.4918],[6.9132,11.4935],[6.9634,11.5105],[7.0035,11.5353],[7.0339,11.5313],[7.0398,11.5334],[7.0517,11.5511],[7.058,11.5507],[7.0739,11.5624],[7.0966,11.5589],[7.1078,11.5509]]]}},{"type":"Feature","properties":{"name":"Funtua","state":"Katsina","scode":"KT","centroid":[11.456,7.3043]},"geometry":{"type":"Polygon","coordinates":[[[7.2896,11.2843],[7.2976,11.2736],[7.3202,11.2651],[7.3412,11.2624],[7.3578,11.2643],[7.3646,11.2903],[7.3643,11.3113],[7.3666,11.3228],[7.3701,11.3332],[7.3806,11.3494],[7.39,11.3702],[7.3871,11.3715],[7.3836,11.3782],[7.3794,11.3813],[7.3726,11.3991],[7.3705,11.4091],[7.3829,11.4152],[7.3882,11.421],[7.3872,11.4421],[7.3911,11.4461],[7.3916,11.4562],[7.3872,11.4738],[7.394,11.4959],[7.4008,11.5269],[7.3551,11.5137],[7.3445,11.5159],[7.3398,11.5135],[7.3372,11.5177],[7.3385,11.5189],[7.332,11.5241],[7.3272,11.5443],[7.3271,11.5536],[7.325,11.5591],[7.3114,11.5553],[7.3114,11.5597],[7.3044,11.5662],[7.2924,11.5729],[7.2851,11.5721],[7.2785,11.5748],[7.2681,11.5753],[7.236,11.5889],[7.2214,11.5867],[7.2082,11.5879],[7.2017,11.5859],[7.1925,11.5879],[7.1709,11.5987],[7.1758,11.5841],[7.1767,11.5763],[7.1753,11.5671],[7.1771,11.5603],[7.175,11.5597],[7.1742,11.5566],[7.1746,11.5474],[7.177,11.5443],[7.1762,11.5384],[7.1845,11.5249],[7.1878,11.5143],[7.1852,11.4986],[7.1898,11.5007],[7.1951,11.5006],[7.2047,11.4965],[7.2021,11.4932],[7.2048,11.4883],[7.2184,11.4847],[7.2333,11.4842],[7.236,11.4814],[7.2343,11.4686],[7.2369,11.4678],[7.2469,11.4695],[7.2455,11.4732],[7.2457,11.4807],[7.2368,11.5],[7.2386,11.5042],[7.2464,11.5079],[7.2498,11.5048],[7.2487,11.4982],[7.2741,11.4808],[7.2801,11.4743],[7.2858,11.4726],[7.309,11.4583],[7.3137,11.4496],[7.3187,11.4319],[7.3207,11.4127],[7.3087,11.4052],[7.2991,11.4046],[7.295,11.3842],[7.3088,11.3744],[7.3075,11.3662],[7.3034,11.3601],[7.3039,11.3412],[7.3072,11.3213],[7.3104,11.313],[7.3074,11.3052],[7.3083,11.2929],[7.3044,11.2888],[7.2896,11.2843]]]}},{"type":"Feature","properties":{"name":"Ingawa","state":"Katsina","scode":"KT","centroid":[12.6135,8.0924]},"geometry":{"type":"Polygon","coordinates":[[[8.1416,12.811],[8.1312,12.8162],[8.1162,12.8026],[8.1083,12.8048],[8.1081,12.8012],[8.1024,12.7971],[8.098,12.7884],[8.1073,12.7807],[8.0979,12.7681],[8.0676,12.7677],[8.0597,12.7481],[8.0417,12.7387],[8.0382,12.7383],[8.0307,12.7328],[8.0273,12.7284],[8.0243,12.7272],[8.0147,12.705],[7.9889,12.7276],[7.9933,12.7407],[7.9641,12.7432],[7.9632,12.731],[7.9665,12.7155],[7.9644,12.7011],[7.9538,12.6793],[7.9613,12.6736],[7.9627,12.6538],[7.9591,12.6527],[7.9562,12.6481],[7.9551,12.6275],[7.964,12.6287],[7.999,12.6165],[7.9929,12.5929],[7.984,12.5771],[7.989,12.5624],[7.9993,12.5581],[8.0074,12.5521],[8.0265,12.5576],[8.0266,12.5735],[8.0369,12.5737],[8.0428,12.5713],[8.0444,12.5615],[8.0435,12.5584],[8.0326,12.5465],[8.0448,12.5392],[8.0608,12.5388],[8.0672,12.5368],[8.0664,12.5308],[8.0608,12.529],[8.0624,12.5239],[8.0569,12.517],[8.0589,12.507],[8.0581,12.4918],[8.0563,12.4888],[8.053,12.487],[8.0543,12.4815],[8.049,12.4777],[8.0481,12.4682],[8.0448,12.4657],[8.0504,12.4588],[8.0517,12.4552],[8.0497,12.4555],[8.0485,12.4531],[8.0482,12.4487],[8.0433,12.4347],[8.0435,12.4213],[8.0479,12.4126],[8.0552,12.4172],[8.1082,12.4164],[8.1302,12.4412],[8.1486,12.4396],[8.1567,12.4403],[8.1588,12.4473],[8.165,12.4514],[8.1622,12.4624],[8.1629,12.4745],[8.1688,12.4817],[8.1721,12.4932],[8.1768,12.4965],[8.179,12.4964],[8.1827,12.5012],[8.1904,12.5052],[8.1862,12.508],[8.1835,12.5066],[8.1798,12.5107],[8.1809,12.5134],[8.1782,12.5181],[8.1755,12.5175],[8.1743,12.5195],[8.1778,12.5273],[8.176,12.5302],[8.178,12.5328],[8.1756,12.537],[8.177,12.5383],[8.1766,12.5425],[8.1793,12.5489],[8.1792,12.5521],[8.1806,12.553],[8.1797,12.5547],[8.1814,12.5617],[8.1799,12.5641],[8.1948,12.5676],[8.2283,12.5847],[8.2324,12.5849],[8.2361,12.5912],[8.2462,12.5944],[8.237,12.609],[8.2305,12.6125],[8.2035,12.6216],[8.1904,12.624],[8.1904,12.6287],[8.1853,12.6299],[8.1835,12.6352],[8.1821,12.6518],[8.1532,12.6554],[8.1604,12.6671],[8.16,12.684],[8.1539,12.6906],[8.1433,12.7153],[8.1445,12.7213],[8.1668,12.729],[8.1851,12.7325],[8.1849,12.7351],[8.1792,12.7485],[8.182,12.7503],[8.1802,12.7561],[8.1721,12.7511],[8.1629,12.7639],[8.1523,12.7968],[8.1279,12.7968],[8.1278,12.8011],[8.1416,12.811]]]}},{"type":"Feature","properties":{"name":"Jibia","state":"Katsina","scode":"KT","centroid":[13.0368,7.3658]},"geometry":{"type":"Polygon","coordinates":[[[7.0607,12.7398],[7.1111,12.78],[7.1235,12.8652],[7.1012,12.8984],[7.1057,12.9329],[7.1398,12.9421],[7.1437,12.953],[7.1539,12.9681],[7.1618,12.9733],[7.1678,12.9858],[7.1802,12.9938],[7.1849,13.0006],[7.1938,13.0016],[7.2025,12.9995],[7.2138,13.0057],[7.2246,13.0074],[7.2409,13.0158],[7.245,13.0211],[7.2633,13.0086],[7.2709,13.0074],[7.2817,13.0003],[7.2984,13.0054],[7.3205,13.0044],[7.3411,12.9997],[7.3518,12.9951],[7.3557,12.9957],[7.3627,13.0003],[7.3714,12.9963],[7.3724,12.9861],[7.3818,12.9845],[7.3842,12.9813],[7.3826,12.9558],[7.3999,12.9424],[7.3993,12.9368],[7.4015,12.932],[7.4005,12.928],[7.3885,12.9281],[7.3978,12.9085],[7.3987,12.8977],[7.4158,12.8938],[7.4215,12.9024],[7.4255,12.9135],[7.4351,12.9168],[7.4411,12.9251],[7.45,12.93],[7.4484,12.9334],[7.4634,12.9338],[7.464,12.9371],[7.4725,12.9359],[7.472,12.9398],[7.4805,12.9546],[7.5018,12.962],[7.5126,12.9679],[7.5139,12.9681],[7.5153,12.9594],[7.5213,12.9605],[7.5337,12.9685],[7.5558,12.9766],[7.5674,12.9922],[7.561,13.0076],[7.5648,13.0121],[7.57,13.0153],[7.56,13.024],[7.5625,13.0279],[7.5638,13.0367],[7.5666,13.0405],[7.5756,13.0438],[7.5768,13.058],[7.6005,13.0615],[7.5967,13.0841],[7.6004,13.1189],[7.6358,13.1222],[7.6556,13.1269],[7.6497,13.1334],[7.6321,13.159],[7.6453,13.1817],[7.6478,13.1907],[7.6461,13.2064],[7.6147,13.2363],[7.3797,13.0997],[7.2642,13.1186],[7.2301,13.1254],[7.2189,13.1256],[7.1884,13.0922],[7.1475,13.0428],[7.0906,12.9953],[7.0513,12.9955],[7.0517,12.9896],[7.049,12.9868],[7.0505,12.9814],[7.0502,12.9703],[7.0487,12.9687],[7.0493,12.9612],[7.0566,12.9555],[7.0598,12.9511],[7.0579,12.9499],[7.0562,12.9439],[7.0522,12.9433],[7.0509,12.9417],[7.052,12.9382],[7.0502,12.9374],[7.0492,12.9347],[7.0551,12.9304],[7.0603,12.9183],[7.0621,12.9191],[7.0614,12.9128],[7.0654,12.9126],[7.0645,12.9102],[7.0656,12.9075],[7.0639,12.9031],[7.0662,12.8925],[7.0651,12.8857],[7.0664,12.8817],[7.065,12.8772],[7.0649,12.8595],[7.0629,12.8436],[7.0633,12.8381],[7.0686,12.8322],[7.0561,12.8233],[7.0665,12.8106],[7.0664,12.7996],[7.0604,12.7617],[7.0607,12.7398]]]}},{"type":"Feature","properties":{"name":"Kafur","state":"Katsina","scode":"KT","centroid":[11.6416,7.6959]},"geometry":{"type":"Polygon","coordinates":[[[7.6952,11.4315],[7.6931,11.434],[7.694,11.454],[7.6921,11.4605],[7.6874,11.4696],[7.6752,11.4833],[7.6794,11.4922],[7.6801,11.5066],[7.6826,11.5107],[7.6823,11.5165],[7.6796,11.5237],[7.698,11.5354],[7.7003,11.5396],[7.7112,11.549],[7.7185,11.569],[7.7169,11.5717],[7.7132,11.5732],[7.7068,11.5822],[7.7049,11.5925],[7.7069,11.595],[7.7106,11.5974],[7.7215,11.5997],[7.722,11.6034],[7.7365,11.6086],[7.7395,11.6168],[7.7582,11.6237],[7.7669,11.6286],[7.7868,11.6298],[7.7933,11.6255],[7.7965,11.6254],[7.7979,11.6306],[7.8144,11.6381],[7.8202,11.6349],[7.8282,11.6359],[7.8324,11.6319],[7.8397,11.6322],[7.8412,11.6329],[7.8449,11.6418],[7.8538,11.6483],[7.8578,11.6497],[7.866,11.6489],[7.866,11.6527],[7.8709,11.6593],[7.8789,11.6544],[7.8917,11.655],[7.897,11.6489],[7.901,11.6496],[7.9023,11.6532],[7.9009,11.6615],[7.8929,11.6647],[7.8919,11.6675],[7.8977,11.6745],[7.8944,11.679],[7.8953,11.6833],[7.8916,11.6911],[7.8961,11.6944],[7.8966,11.6967],[7.8883,11.7072],[7.8806,11.7093],[7.8773,11.7123],[7.8768,11.7181],[7.8675,11.7433],[7.8694,11.75],[7.8676,11.7564],[7.8608,11.762],[7.8575,11.7949],[7.855,11.8019],[7.8553,11.8173],[7.853,11.8243],[7.847,11.828],[7.8388,11.8272],[7.8316,11.8324],[7.8263,11.833],[7.8224,11.8356],[7.8114,11.8291],[7.8099,11.8309],[7.7914,11.8377],[7.7751,11.8467],[7.7653,11.8577],[7.7597,11.8481],[7.7574,11.8478],[7.7477,11.8508],[7.7432,11.849],[7.7111,11.8521],[7.7128,11.8397],[7.6867,11.8342],[7.6788,11.8259],[7.682,11.8174],[7.6925,11.8129],[7.6944,11.8025],[7.6696,11.7862],[7.6777,11.7738],[7.679,11.768],[7.6771,11.7507],[7.6657,11.7405],[7.6532,11.71],[7.6169,11.7036],[7.6099,11.699],[7.59,11.6916],[7.5816,11.7078],[7.5807,11.7143],[7.5754,11.7255],[7.564,11.7359],[7.5504,11.7404],[7.5438,11.6915],[7.533,11.6783],[7.522,11.6719],[7.5292,11.6682],[7.5331,11.6702],[7.5372,11.6616],[7.5317,11.6574],[7.5412,11.6557],[7.5535,11.6475],[7.5541,11.6446],[7.5507,11.6253],[7.5529,11.6194],[7.557,11.6188],[7.568,11.6275],[7.5722,11.6325],[7.5807,11.6363],[7.5898,11.6352],[7.6005,11.6282],[7.6139,11.6268],[7.6199,11.6216],[7.6199,11.6107],[7.617,11.6098],[7.6195,11.6016],[7.6236,11.5945],[7.6315,11.5899],[7.633,11.5879],[7.6324,11.5836],[7.635,11.5812],[7.6339,11.5787],[7.6435,11.5699],[7.6334,11.5529],[7.6267,11.5596],[7.6221,11.5583],[7.6217,11.5559],[7.6162,11.5568],[7.6145,11.559],[7.6092,11.5602],[7.6035,11.5595],[7.5947,11.5653],[7.5924,11.5703],[7.5848,11.5737],[7.576,11.561],[7.578,11.5471],[7.5761,11.5417],[7.5798,11.5363],[7.5864,11.533],[7.5822,11.5197],[7.5845,11.4962],[7.5702,11.5012],[7.5634,11.5088],[7.5554,11.5114],[7.5476,11.5099],[7.5393,11.5016],[7.5072,11.4903],[7.5037,11.4641],[7.498,11.4461],[7.4777,11.4283],[7.4975,11.4256],[7.5068,11.4266],[7.5139,11.4344],[7.5327,11.4362],[7.5397,11.4318],[7.5445,11.4229],[7.564,11.4146],[7.5876,11.4144],[7.5883,11.3913],[7.5989,11.3913],[7.6093,11.4038],[7.6142,11.4075],[7.6346,11.4176],[7.6417,11.4037],[7.6446,11.4018],[7.6678,11.4055],[7.6801,11.4227],[7.6882,11.4286],[7.6952,11.4315]]]}},{"type":"Feature","properties":{"name":"Kaita","state":"Katsina","scode":"KT","centroid":[13.1732,7.7649]},"geometry":{"type":"Polygon","coordinates":[[[7.8197,13.3523],[7.7961,13.3373],[7.7784,13.3229],[7.7589,13.3104],[7.726,13.2972],[7.6867,13.2782],[7.6147,13.2363],[7.6461,13.2064],[7.6478,13.1907],[7.6453,13.1817],[7.6321,13.159],[7.6497,13.1334],[7.6556,13.1269],[7.6358,13.1222],[7.6004,13.1189],[7.5967,13.0841],[7.6005,13.0615],[7.6182,13.0575],[7.6424,13.0549],[7.6433,13.0861],[7.6658,13.0832],[7.6693,13.081],[7.6728,13.0488],[7.6588,13.0408],[7.6619,13.0287],[7.67,13.028],[7.67,13.0254],[7.6762,13.0257],[7.6773,13.0326],[7.6885,13.0298],[7.6908,13.0272],[7.6896,13.024],[7.6932,13.0203],[7.7114,13.0385],[7.7151,13.0397],[7.7266,13.0367],[7.7426,13.0388],[7.7465,13.0312],[7.7521,13.0269],[7.7622,13.0266],[7.7704,13.0295],[7.7731,13.036],[7.7822,13.0479],[7.7886,13.0517],[7.7954,13.0631],[7.8176,13.0843],[7.8248,13.0863],[7.838,13.0848],[7.8425,13.0822],[7.849,13.0968],[7.8639,13.0901],[7.8787,13.1151],[7.9042,13.1276],[7.9138,13.1445],[7.9187,13.1452],[7.9194,13.1506],[7.9221,13.1561],[7.9248,13.1725],[7.9314,13.1723],[7.9421,13.1825],[7.9421,13.1866],[7.9393,13.1931],[7.9377,13.2091],[7.9386,13.2155],[7.9464,13.2175],[7.9443,13.2403],[7.9327,13.2465],[7.8843,13.2472],[7.8612,13.2401],[7.856,13.2454],[7.8531,13.2558],[7.8554,13.2608],[7.848,13.2802],[7.829,13.277],[7.8184,13.2862],[7.8123,13.3089],[7.8188,13.3251],[7.8197,13.3523]]]}},{"type":"Feature","properties":{"name":"Kankara","state":"Katsina","scode":"KT","centroid":[11.9706,7.398]},"geometry":{"type":"Polygon","coordinates":[[[7.4943,12.0855],[7.4834,12.0936],[7.4631,12.0971],[7.4629,12.1092],[7.457,12.1251],[7.4537,12.1294],[7.4344,12.1424],[7.4154,12.1357],[7.4035,12.1339],[7.3881,12.1359],[7.3882,12.129],[7.375,12.127],[7.3704,12.121],[7.3663,12.1208],[7.3587,12.1178],[7.3456,12.1252],[7.3377,12.1342],[7.331,12.1362],[7.319,12.1477],[7.3187,12.1529],[7.3025,12.1526],[7.291,12.1545],[7.2796,12.1536],[7.2707,12.1425],[7.2645,12.1189],[7.2537,12.1019],[7.2349,12.0968],[7.2109,12.0949],[7.1783,12.0892],[7.1767,12.087],[7.1713,12.0864],[7.166,12.0769],[7.1527,12.0735],[7.1506,12.0703],[7.1428,12.0704],[7.1416,12.0679],[7.1397,12.0682],[7.139,12.0701],[7.1303,12.0684],[7.1317,12.0649],[7.1376,12.0619],[7.1414,12.0651],[7.1435,12.064],[7.1473,12.0475],[7.1503,12.0418],[7.1487,12.033],[7.1533,12.0296],[7.1539,12.0256],[7.16,12.022],[7.1705,12.0203],[7.1716,12.0143],[7.1765,12.0084],[7.1804,12.0079],[7.186,12.002],[7.192,12.0015],[7.1954,11.9994],[7.1969,11.9984],[7.1973,11.9926],[7.1988,11.9902],[7.2082,11.988],[7.2108,11.9855],[7.2119,11.9797],[7.2095,11.9759],[7.2111,11.9642],[7.2205,11.9609],[7.2203,11.9498],[7.2223,11.9496],[7.2235,11.9518],[7.2255,11.9522],[7.2379,11.9455],[7.2438,11.9389],[7.2466,11.9326],[7.2526,11.9292],[7.2563,11.9247],[7.2581,11.9191],[7.2643,11.9144],[7.2734,11.9019],[7.279,11.8966],[7.2785,11.8916],[7.2857,11.8847],[7.2867,11.8812],[7.3029,11.8692],[7.3039,11.8637],[7.3022,11.8621],[7.3025,11.857],[7.3088,11.8512],[7.3111,11.8516],[7.3138,11.8549],[7.321,11.8533],[7.3279,11.8463],[7.3339,11.8468],[7.336,11.8429],[7.339,11.8435],[7.3413,11.8418],[7.3461,11.8351],[7.3527,11.835],[7.3539,11.8314],[7.361,11.828],[7.3657,11.8217],[7.373,11.8222],[7.3752,11.8251],[7.3836,11.8203],[7.3887,11.8239],[7.3918,11.8234],[7.3936,11.8223],[7.3939,11.8183],[7.399,11.816],[7.3991,11.8123],[7.4027,11.8111],[7.4054,11.8073],[7.4126,11.806],[7.4173,11.8031],[7.4265,11.8143],[7.4377,11.808],[7.451,11.8072],[7.4557,11.8036],[7.461,11.8037],[7.4739,11.7959],[7.4864,11.8003],[7.492,11.7995],[7.5004,11.7946],[7.511,11.7948],[7.5199,11.792],[7.5205,11.8151],[7.5424,11.8203],[7.5658,11.8231],[7.5693,11.8124],[7.5707,11.8154],[7.5746,11.815],[7.5802,11.8173],[7.5979,11.8161],[7.6008,11.8299],[7.6179,11.8368],[7.6351,11.8382],[7.6425,11.845],[7.6454,11.8728],[7.6448,11.8866],[7.6424,11.8904],[7.6367,11.9102],[7.6263,11.9156],[7.6223,11.9205],[7.6071,11.9267],[7.6055,11.9314],[7.5959,11.9319],[7.5775,11.9398],[7.5747,11.9535],[7.5712,11.9621],[7.554,11.9596],[7.5355,11.9637],[7.5166,11.9618],[7.515,11.9626],[7.5106,11.9746],[7.5239,11.9905],[7.5364,12.0142],[7.5474,12.0215],[7.5583,12.0173],[7.5626,12.0212],[7.5643,12.0311],[7.5602,12.0328],[7.5521,12.0415],[7.541,12.0485],[7.5129,12.0321],[7.5092,12.0467],[7.5141,12.0496],[7.5109,12.0706],[7.4943,12.0855]]]}},{"type":"Feature","properties":{"name":"Kankia","state":"Katsina","scode":"KT","centroid":[12.443,7.7919]},"geometry":{"type":"Polygon","coordinates":[[[7.8632,12.2326],[7.8764,12.2352],[7.8781,12.2534],[7.8701,12.2664],[7.8645,12.2807],[7.877,12.2896],[7.885,12.2985],[7.8866,12.3098],[7.8924,12.3303],[7.9027,12.3325],[7.8947,12.3385],[7.8579,12.3378],[7.8584,12.3349],[7.8549,12.3233],[7.855,12.3193],[7.8449,12.317],[7.8324,12.3213],[7.8299,12.3321],[7.8306,12.3362],[7.8204,12.3404],[7.8051,12.3501],[7.8029,12.3536],[7.797,12.3546],[7.7942,12.3579],[7.7972,12.3599],[7.7986,12.3631],[7.7983,12.3725],[7.8369,12.3765],[7.8415,12.354],[7.861,12.3611],[7.866,12.3697],[7.8752,12.3739],[7.8785,12.3732],[7.8831,12.3864],[7.8809,12.3906],[7.8648,12.3849],[7.8589,12.3941],[7.8607,12.3988],[7.8729,12.4052],[7.8776,12.4107],[7.8768,12.4146],[7.8795,12.4252],[7.8733,12.4323],[7.8782,12.4439],[7.8703,12.4477],[7.8604,12.4483],[7.854,12.4533],[7.8492,12.4534],[7.8495,12.4749],[7.8535,12.4797],[7.8732,12.4933],[7.8851,12.4934],[7.8916,12.4974],[7.8885,12.5024],[7.9063,12.5176],[7.9022,12.5192],[7.9,12.5238],[7.9117,12.5306],[7.9266,12.533],[7.9385,12.5386],[7.9363,12.5461],[7.9403,12.5507],[7.9435,12.5584],[7.9381,12.5643],[7.9318,12.5683],[7.9317,12.5728],[7.9183,12.578],[7.916,12.5767],[7.9144,12.5672],[7.9104,12.5654],[7.8985,12.5697],[7.8968,12.5775],[7.91,12.5844],[7.9111,12.5936],[7.8966,12.5943],[7.8959,12.5967],[7.8983,12.6045],[7.8966,12.6089],[7.8889,12.6072],[7.8814,12.6083],[7.8767,12.6073],[7.8731,12.6026],[7.8653,12.6017],[7.8645,12.6052],[7.8614,12.6089],[7.8628,12.6105],[7.859,12.6166],[7.8497,12.6159],[7.8469,12.6173],[7.8431,12.6169],[7.8389,12.621],[7.834,12.622],[7.8299,12.6271],[7.8003,12.6249],[7.7825,12.6083],[7.7711,12.6077],[7.7741,12.6004],[7.7772,12.5972],[7.7768,12.5958],[7.7629,12.5949],[7.7542,12.5979],[7.7479,12.6125],[7.7273,12.6096],[7.7228,12.6114],[7.7134,12.6118],[7.7142,12.6067],[7.7125,12.6027],[7.7135,12.5993],[7.7122,12.5979],[7.711,12.5989],[7.7096,12.597],[7.7088,12.5909],[7.7107,12.5793],[7.7255,12.5786],[7.723,12.5654],[7.7238,12.5632],[7.7272,12.5584],[7.7384,12.5493],[7.7385,12.5465],[7.7413,12.5458],[7.742,12.5414],[7.7373,12.5294],[7.7378,12.5246],[7.7569,12.5228],[7.7508,12.5067],[7.7334,12.5138],[7.7154,12.4986],[7.7235,12.474],[7.7341,12.4655],[7.7361,12.4598],[7.734,12.4548],[7.7173,12.4343],[7.7128,12.4256],[7.6995,12.3773],[7.684,12.3814],[7.6759,12.3931],[7.6824,12.402],[7.6802,12.4129],[7.6583,12.4196],[7.6558,12.4246],[7.6488,12.4285],[7.6414,12.4245],[7.6334,12.4172],[7.6343,12.4017],[7.6283,12.3786],[7.6091,12.343],[7.615,12.3462],[7.6198,12.3464],[7.6208,12.349],[7.6247,12.3487],[7.6373,12.3394],[7.6458,12.3388],[7.6496,12.3408],[7.6521,12.3443],[7.6631,12.339],[7.6743,12.3368],[7.6798,12.3322],[7.6792,12.325],[7.6899,12.3203],[7.698,12.3141],[7.7088,12.3091],[7.7169,12.303],[7.7321,12.3026],[7.7562,12.308],[7.7597,12.3074],[7.7598,12.3048],[7.7728,12.3031],[7.7746,12.2965],[7.7785,12.2919],[7.7866,12.2742],[7.7899,12.2695],[7.7989,12.264],[7.8052,12.2647],[7.8101,12.2636],[7.8307,12.2667],[7.8331,12.26],[7.8425,12.2483],[7.8546,12.2393],[7.8574,12.235],[7.8568,12.2323],[7.8632,12.2326]]]}},{"type":"Feature","properties":{"name":"Katsina","state":"Katsina","scode":"KT","centroid":[13.0126,7.6205]},"geometry":{"type":"Polygon","coordinates":[[[7.5558,12.9766],[7.5694,12.9641],[7.5873,12.9541],[7.595,12.9517],[7.6122,12.9536],[7.6269,12.9634],[7.6318,12.9578],[7.6416,12.9706],[7.6474,12.9663],[7.6497,12.97],[7.6703,12.9747],[7.6775,12.9988],[7.6771,13.0093],[7.6803,13.0139],[7.686,13.0164],[7.6885,13.0191],[7.6872,13.0198],[7.687,13.0241],[7.6896,13.024],[7.6908,13.0272],[7.6885,13.0298],[7.6773,13.0326],[7.6762,13.0257],[7.67,13.0254],[7.67,13.028],[7.6619,13.0287],[7.6588,13.0408],[7.6728,13.0488],[7.6693,13.081],[7.6658,13.0832],[7.6433,13.0861],[7.6424,13.0549],[7.6182,13.0575],[7.6005,13.0615],[7.5768,13.058],[7.5756,13.0438],[7.5666,13.0405],[7.5638,13.0367],[7.5625,13.0279],[7.56,13.024],[7.57,13.0153],[7.5648,13.0121],[7.561,13.0076],[7.5674,12.9922],[7.5558,12.9766]]]}},{"type":"Feature","properties":{"name":"Kurfi","state":"Katsina","scode":"KT","centroid":[12.6677,7.4746]},"geometry":{"type":"Polygon","coordinates":[[[7.4126,12.8634],[7.4124,12.8554],[7.4142,12.8539],[7.4197,12.8539],[7.4206,12.8524],[7.4204,12.8501],[7.4153,12.8445],[7.4134,12.8293],[7.419,12.8216],[7.4184,12.812],[7.4053,12.7926],[7.4013,12.7812],[7.4029,12.77],[7.4024,12.7625],[7.395,12.7488],[7.3951,12.7296],[7.398,12.7187],[7.3981,12.7104],[7.3864,12.6965],[7.3823,12.6841],[7.3775,12.6817],[7.3692,12.6804],[7.3705,12.6774],[7.3756,12.6745],[7.383,12.6646],[7.3869,12.6549],[7.3877,12.6432],[7.3835,12.637],[7.3862,12.6307],[7.385,12.6225],[7.3691,12.5985],[7.3659,12.5838],[7.3622,12.5799],[7.3583,12.5704],[7.3677,12.5621],[7.3713,12.5616],[7.3731,12.5595],[7.3728,12.5563],[7.3768,12.5541],[7.3791,12.5561],[7.3824,12.5566],[7.3937,12.5675],[7.3989,12.5763],[7.4024,12.5682],[7.3993,12.559],[7.4038,12.5562],[7.4039,12.5543],[7.3991,12.5311],[7.4044,12.5255],[7.4159,12.5255],[7.4183,12.5242],[7.4252,12.5263],[7.4297,12.5179],[7.4439,12.5119],[7.4484,12.5224],[7.4468,12.5249],[7.4607,12.5449],[7.468,12.5606],[7.4795,12.5578],[7.4841,12.559],[7.4983,12.5535],[7.514,12.5531],[7.5193,12.5536],[7.5264,12.5635],[7.5482,12.5552],[7.5475,12.5473],[7.549,12.5433],[7.5558,12.5429],[7.5634,12.5459],[7.5781,12.5482],[7.5772,12.5527],[7.5748,12.5559],[7.576,12.5608],[7.575,12.5626],[7.6155,12.5662],[7.618,12.571],[7.6182,12.5766],[7.6169,12.5792],[7.6188,12.5835],[7.6208,12.5843],[7.6209,12.5875],[7.6277,12.6],[7.6369,12.6065],[7.636,12.6087],[7.6249,12.6178],[7.6111,12.6201],[7.6087,12.6246],[7.6038,12.6292],[7.5969,12.6288],[7.5911,12.6331],[7.5865,12.6423],[7.5826,12.6427],[7.5823,12.6464],[7.5751,12.6486],[7.5731,12.6466],[7.5694,12.6462],[7.5676,12.6478],[7.5681,12.6527],[7.563,12.6584],[7.562,12.665],[7.5638,12.6683],[7.5619,12.6706],[7.5535,12.6721],[7.5522,12.6759],[7.5482,12.6773],[7.5423,12.6863],[7.5362,12.6907],[7.5335,12.6963],[7.5343,12.7032],[7.5176,12.7102],[7.5179,12.7167],[7.5145,12.7189],[7.5228,12.7385],[7.5224,12.7488],[7.524,12.754],[7.5148,12.7746],[7.5156,12.7815],[7.5131,12.7836],[7.5095,12.7942],[7.5092,12.804],[7.5149,12.8072],[7.4754,12.8136],[7.4743,12.8239],[7.4858,12.8253],[7.4829,12.8359],[7.4878,12.8548],[7.4814,12.8587],[7.4753,12.8571],[7.4658,12.8596],[7.4356,12.8601],[7.4346,12.8622],[7.4126,12.8634]]]}},{"type":"Feature","properties":{"name":"Kusada","state":"Katsina","scode":"KT","centroid":[12.4519,7.9496]},"geometry":{"type":"Polygon","coordinates":[[[7.9317,12.5728],[7.9318,12.5683],[7.9381,12.5643],[7.9435,12.5584],[7.9403,12.5507],[7.9363,12.5461],[7.9385,12.5386],[7.9266,12.533],[7.9117,12.5306],[7.9,12.5238],[7.9022,12.5192],[7.9063,12.5176],[7.8885,12.5024],[7.8916,12.4974],[7.8851,12.4934],[7.8732,12.4933],[7.8535,12.4797],[7.8495,12.4749],[7.8492,12.4534],[7.854,12.4533],[7.8604,12.4483],[7.8703,12.4477],[7.8782,12.4439],[7.8733,12.4323],[7.8795,12.4252],[7.8768,12.4146],[7.8776,12.4107],[7.8729,12.4052],[7.8607,12.3988],[7.8589,12.3941],[7.8648,12.3849],[7.8809,12.3906],[7.8831,12.3864],[7.8785,12.3732],[7.8752,12.3739],[7.866,12.3697],[7.861,12.3611],[7.8415,12.354],[7.8369,12.3765],[7.7983,12.3725],[7.7986,12.3631],[7.7972,12.3599],[7.7942,12.3579],[7.797,12.3546],[7.8029,12.3536],[7.8051,12.3501],[7.8204,12.3404],[7.8306,12.3362],[7.8299,12.3321],[7.8324,12.3213],[7.8449,12.317],[7.855,12.3193],[7.8549,12.3233],[7.8584,12.3349],[7.8579,12.3378],[7.8947,12.3385],[7.9027,12.3325],[7.9226,12.3367],[7.9337,12.3444],[7.9449,12.3492],[7.9504,12.3588],[7.9535,12.3582],[7.9626,12.365],[7.9653,12.3645],[7.967,12.3659],[7.9681,12.3628],[7.9691,12.363],[7.9724,12.3686],[7.9807,12.3729],[7.9812,12.3753],[7.9828,12.3749],[7.9825,12.3725],[7.9838,12.3719],[7.9873,12.3728],[7.9934,12.3813],[7.9988,12.3841],[7.9993,12.3888],[8.0024,12.3936],[8.0302,12.3954],[8.0336,12.4044],[8.0479,12.4126],[8.0435,12.4213],[8.0433,12.4347],[8.0482,12.4487],[8.0485,12.4531],[8.0497,12.4555],[8.0517,12.4552],[8.0504,12.4588],[8.0448,12.4657],[8.0481,12.4682],[8.049,12.4777],[8.0543,12.4815],[8.053,12.487],[8.0563,12.4888],[8.0581,12.4918],[8.0589,12.507],[8.0569,12.517],[8.0624,12.5239],[8.0608,12.529],[8.0664,12.5308],[8.0672,12.5368],[8.0608,12.5388],[8.0448,12.5392],[8.0326,12.5465],[8.0435,12.5584],[8.0444,12.5615],[8.0428,12.5713],[8.0369,12.5737],[8.0266,12.5735],[8.0265,12.5576],[8.0074,12.5521],[7.9993,12.5581],[7.989,12.5624],[7.984,12.5771],[7.9738,12.5755],[7.9625,12.5772],[7.9563,12.5806],[7.9621,12.5886],[7.9544,12.5952],[7.9457,12.5918],[7.9327,12.5776],[7.9317,12.5728]]]}},{"type":"Feature","properties":{"name":"Mai'Adua","state":"Katsina","scode":"KT","centroid":[13.1373,8.2271]},"geometry":{"type":"Polygon","coordinates":[[[8.4134,13.038],[8.4305,13.0609],[8.4349,13.0776],[8.4344,13.0819],[8.4086,13.0883],[8.351,13.1382],[8.2872,13.1983],[8.2515,13.2176],[8.2358,13.2192],[8.2261,13.2236],[8.1414,13.2806],[8.1306,13.2908],[8.1247,13.2986],[8.1233,13.3031],[8.062,13.3168],[8.0622,13.2996],[8.0691,13.2775],[8.0807,13.2549],[8.0873,13.2253],[8.1002,13.2056],[8.1207,13.164],[8.1228,13.14],[8.1145,13.1209],[8.115,13.1133],[8.1266,13.1064],[8.1285,13.1016],[8.1344,13.0971],[8.1414,13.0881],[8.1437,13.0826],[8.1515,13.0807],[8.1547,13.076],[8.1577,13.0708],[8.161,13.0385],[8.1619,13.0307],[8.1721,13.0128],[8.1799,13.0171],[8.1926,13.0292],[8.2075,13.0295],[8.2118,13.0236],[8.2113,13.0207],[8.2079,13.0131],[8.1998,13.0082],[8.1993,13.0052],[8.2034,13.0032],[8.2192,12.9811],[8.2327,12.9861],[8.2467,12.9882],[8.2494,12.9906],[8.2334,13.008],[8.2431,13.016],[8.2531,13.0212],[8.274,13.0226],[8.2866,13.0298],[8.3061,13.0458],[8.3147,13.0464],[8.3105,13.0564],[8.3416,13.0607],[8.3571,13.0756],[8.3714,13.0823],[8.3806,13.0735],[8.3792,13.071],[8.3751,13.0697],[8.3634,13.0486],[8.3626,13.0302],[8.366,13.0171],[8.3729,13.017],[8.3949,13.0225],[8.4134,13.038]]]}},{"type":"Feature","properties":{"name":"Malumfashi","state":"Katsina","scode":"KT","centroid":[11.8662,7.6552]},"geometry":{"type":"Polygon","coordinates":[[[7.5712,11.9621],[7.5747,11.9535],[7.5775,11.9398],[7.5959,11.9319],[7.6055,11.9314],[7.6071,11.9267],[7.6223,11.9205],[7.6263,11.9156],[7.6367,11.9102],[7.6424,11.8904],[7.6448,11.8866],[7.6454,11.8728],[7.6425,11.845],[7.6351,11.8382],[7.6179,11.8368],[7.6008,11.8299],[7.5979,11.8161],[7.5802,11.8173],[7.5746,11.815],[7.5707,11.8154],[7.5693,11.8124],[7.5658,11.8231],[7.5424,11.8203],[7.5205,11.8151],[7.5199,11.792],[7.511,11.7948],[7.5004,11.7946],[7.492,11.7995],[7.4864,11.8003],[7.4739,11.7959],[7.461,11.8037],[7.4557,11.8036],[7.451,11.8072],[7.4377,11.808],[7.4265,11.8143],[7.4173,11.8031],[7.4126,11.806],[7.4054,11.8073],[7.4023,11.8046],[7.4027,11.792],[7.4102,11.7803],[7.4128,11.7677],[7.4253,11.7536],[7.4276,11.7442],[7.4307,11.742],[7.4349,11.7345],[7.437,11.7285],[7.4371,11.7174],[7.444,11.7111],[7.4503,11.6982],[7.4619,11.6905],[7.4805,11.683],[7.495,11.6712],[7.4988,11.6694],[7.506,11.6694],[7.5127,11.6646],[7.5156,11.6649],[7.5175,11.6626],[7.5251,11.6629],[7.5317,11.6574],[7.5372,11.6616],[7.5331,11.6702],[7.5292,11.6682],[7.522,11.6719],[7.533,11.6783],[7.5438,11.6915],[7.5504,11.7404],[7.564,11.7359],[7.5754,11.7255],[7.5807,11.7143],[7.5816,11.7078],[7.59,11.6916],[7.6099,11.699],[7.6169,11.7036],[7.6532,11.71],[7.6657,11.7405],[7.6771,11.7507],[7.679,11.768],[7.6777,11.7738],[7.6696,11.7862],[7.6944,11.8025],[7.6925,11.8129],[7.682,11.8174],[7.6788,11.8259],[7.6867,11.8342],[7.7128,11.8397],[7.7111,11.8521],[7.7432,11.849],[7.7477,11.8508],[7.7574,11.8478],[7.7597,11.8481],[7.7653,11.8577],[7.7751,11.8467],[7.7914,11.8377],[7.8099,11.8309],[7.8114,11.8291],[7.8224,11.8356],[7.8263,11.833],[7.8316,11.8324],[7.8388,11.8272],[7.847,11.828],[7.853,11.8243],[7.8549,11.8333],[7.8523,11.836],[7.8604,11.8635],[7.8651,11.8735],[7.8482,11.8861],[7.8477,11.8933],[7.8437,11.9019],[7.8295,11.922],[7.8262,11.9533],[7.8318,11.964],[7.8334,11.9697],[7.8293,11.9686],[7.8347,11.9802],[7.8448,11.995],[7.8567,12.0012],[7.8656,12.0214],[7.8345,12.0232],[7.8059,12.0185],[7.7933,12.0131],[7.7369,12.0089],[7.7374,12.0205],[7.7306,12.0428],[7.7262,12.0476],[7.7283,12.0607],[7.7166,12.0617],[7.7083,12.0421],[7.6779,12.05],[7.671,12.05],[7.6705,12.0539],[7.6666,12.0604],[7.6497,12.0577],[7.6401,12.0505],[7.6319,12.0406],[7.6202,12.0422],[7.6139,12.0086],[7.6149,11.994],[7.6097,11.9804],[7.602,11.9686],[7.5986,11.9603],[7.5948,11.9573],[7.5889,11.9565],[7.5793,11.96],[7.5591,11.9814],[7.5562,11.9803],[7.5712,11.9621]]]}},{"type":"Feature","properties":{"name":"Mani","state":"Katsina","scode":"KT","centroid":[12.8879,7.9242]},"geometry":{"type":"Polygon","coordinates":[[[7.8639,13.0901],[7.849,13.0968],[7.8425,13.0822],[7.8391,13.0742],[7.8337,13.0679],[7.8305,13.0541],[7.8072,13.0338],[7.7979,13.0278],[7.7949,13.0205],[7.7935,13.0095],[7.7907,13.0049],[7.7933,12.999],[7.7928,12.9863],[7.8035,12.9606],[7.8084,12.9427],[7.7935,12.9377],[7.7781,12.9009],[7.7722,12.8903],[7.7661,12.8833],[7.7657,12.8793],[7.7785,12.8577],[7.7858,12.8331],[7.797,12.8261],[7.8099,12.8201],[7.8157,12.8079],[7.8196,12.7951],[7.8244,12.7892],[7.8407,12.8028],[7.8505,12.7917],[7.8631,12.7948],[7.8681,12.8001],[7.8776,12.7944],[7.8864,12.7952],[7.8872,12.8039],[7.884,12.8204],[7.8916,12.8212],[7.9051,12.8199],[7.9081,12.8232],[7.9165,12.8223],[7.9179,12.8195],[7.9211,12.8189],[7.922,12.821],[7.9273,12.823],[7.9378,12.8466],[7.9436,12.8504],[7.966,12.8514],[7.9787,12.8404],[7.9868,12.8445],[8.0022,12.8468],[8.0181,12.8433],[8.0246,12.838],[8.0259,12.8354],[8.0214,12.8257],[8.0057,12.8164],[8.0049,12.7922],[7.9998,12.76],[7.9893,12.7551],[7.9767,12.7535],[7.9448,12.7543],[7.9274,12.7515],[7.9378,12.7407],[7.9413,12.7292],[7.9454,12.7261],[7.9548,12.7219],[7.9632,12.731],[7.9641,12.7432],[7.9933,12.7407],[7.9889,12.7276],[8.0147,12.705],[8.0243,12.7272],[8.0273,12.7284],[8.0307,12.7328],[8.0382,12.7383],[8.0417,12.7387],[8.0597,12.7481],[8.0676,12.7677],[8.0979,12.7681],[8.1073,12.7807],[8.098,12.7884],[8.1024,12.7971],[8.1081,12.8012],[8.1083,12.8048],[8.095,12.8103],[8.0943,12.8574],[8.0923,12.8645],[8.08,12.8638],[8.0772,12.8649],[8.0735,12.8773],[8.0839,12.8837],[8.0876,12.8876],[8.0839,12.9237],[8.0722,12.9374],[8.0639,12.9396],[8.0609,12.9376],[8.0502,12.9236],[8.0384,12.9157],[8.0091,12.9194],[8.0044,12.9209],[7.9903,12.9307],[7.9776,12.9323],[7.9648,12.9235],[7.9547,12.914],[7.944,12.9247],[7.9511,12.9323],[7.9353,12.9676],[7.9234,12.9699],[7.8987,12.9783],[7.9012,12.9938],[7.9055,13.0056],[7.8904,13.016],[7.8813,13.0278],[7.8759,13.0393],[7.8746,13.054],[7.8755,13.0737],[7.8639,13.0901]]]}},{"type":"Feature","properties":{"name":"Mashi","state":"Katsina","scode":"KT","centroid":[13.1391,7.9919]},"geometry":{"type":"Polygon","coordinates":[[[7.8639,13.0901],[7.8755,13.0737],[7.8746,13.054],[7.8759,13.0393],[7.8813,13.0278],[7.8904,13.016],[7.9055,13.0056],[7.9012,12.9938],[7.8987,12.9783],[7.9234,12.9699],[7.9353,12.9676],[7.9511,12.9323],[7.944,12.9247],[7.9547,12.914],[7.9648,12.9235],[7.9776,12.9323],[7.9903,12.9307],[8.0044,12.9209],[8.0091,12.9194],[8.0384,12.9157],[8.0502,12.9236],[8.0609,12.9376],[8.0639,12.9396],[8.0601,12.9435],[8.06,12.9505],[8.0487,12.9553],[8.0519,12.9694],[8.056,12.9806],[8.0601,12.9863],[8.0553,12.9897],[8.0506,12.9966],[8.0483,13.0033],[8.0583,13.0089],[8.0744,13.0095],[8.0791,13.0067],[8.0975,13.0068],[8.1112,13.0134],[8.1225,13.0165],[8.1521,13.0303],[8.1562,13.0357],[8.161,13.0385],[8.1577,13.0708],[8.1547,13.076],[8.1515,13.0807],[8.1437,13.0826],[8.1414,13.0881],[8.1344,13.0971],[8.1285,13.1016],[8.1266,13.1064],[8.115,13.1133],[8.1145,13.1209],[8.1228,13.14],[8.1207,13.164],[8.1002,13.2056],[8.0873,13.2253],[8.0807,13.2549],[8.0691,13.2775],[8.0622,13.2996],[8.062,13.3168],[8.0406,13.3213],[7.8197,13.3523],[7.8188,13.3251],[7.8123,13.3089],[7.8184,13.2862],[7.829,13.277],[7.848,13.2802],[7.8554,13.2608],[7.8531,13.2558],[7.856,13.2454],[7.8612,13.2401],[7.8843,13.2472],[7.9327,13.2465],[7.9443,13.2403],[7.9464,13.2175],[7.9386,13.2155],[7.9377,13.2091],[7.9393,13.1931],[7.9421,13.1866],[7.9421,13.1825],[7.9314,13.1723],[7.9248,13.1725],[7.9221,13.1561],[7.9194,13.1506],[7.9187,13.1452],[7.9138,13.1445],[7.9042,13.1276],[7.8787,13.1151],[7.8639,13.0901]]]}},{"type":"Feature","properties":{"name":"Matazu","state":"Katsina","scode":"KT","centroid":[12.2437,7.6388]},"geometry":{"type":"Polygon","coordinates":[[[7.7989,12.264],[7.7899,12.2695],[7.7866,12.2742],[7.7785,12.2919],[7.7746,12.2965],[7.7728,12.3031],[7.7598,12.3048],[7.7597,12.3074],[7.7562,12.308],[7.7321,12.3026],[7.7169,12.303],[7.7088,12.3091],[7.698,12.3141],[7.6899,12.3203],[7.6792,12.325],[7.6798,12.3322],[7.6743,12.3368],[7.6631,12.339],[7.6521,12.3443],[7.6496,12.3408],[7.6458,12.3388],[7.6373,12.3394],[7.6247,12.3487],[7.6208,12.349],[7.6198,12.3464],[7.615,12.3462],[7.6091,12.343],[7.6026,12.3509],[7.6002,12.351],[7.6001,12.3476],[7.5931,12.3492],[7.5889,12.347],[7.5802,12.3526],[7.5157,12.3666],[7.5172,12.3426],[7.5158,12.3355],[7.5174,12.323],[7.5251,12.319],[7.5262,12.3169],[7.5239,12.3079],[7.5295,12.292],[7.5326,12.2871],[7.5364,12.2848],[7.5451,12.2712],[7.5422,12.2685],[7.5417,12.2636],[7.5432,12.2573],[7.5397,12.2547],[7.5379,12.251],[7.5385,12.2489],[7.5411,12.2491],[7.5426,12.2456],[7.5401,12.2408],[7.5395,12.2353],[7.5347,12.2263],[7.5299,12.2237],[7.5339,12.2125],[7.5333,12.2094],[7.5311,12.2087],[7.5288,12.1936],[7.5313,12.1914],[7.529,12.1835],[7.5309,12.1794],[7.5413,12.1788],[7.5344,12.13],[7.5346,12.1222],[7.5297,12.118],[7.5252,12.1074],[7.5424,12.1058],[7.5742,12.133],[7.6232,12.1365],[7.6364,12.1446],[7.6513,12.148],[7.6692,12.1464],[7.6719,12.1653],[7.6905,12.1623],[7.7108,12.1671],[7.7184,12.1719],[7.7223,12.1786],[7.7297,12.1795],[7.7297,12.1838],[7.7363,12.183],[7.7353,12.1799],[7.7559,12.1914],[7.7751,12.2066],[7.7934,12.2059],[7.7984,12.2182],[7.777,12.2297],[7.7785,12.2467],[7.7834,12.2491],[7.795,12.2514],[7.7988,12.2596],[7.7989,12.264]]]}},{"type":"Feature","properties":{"name":"Musawa","state":"Katsina","scode":"KT","centroid":[12.0991,7.7131]},"geometry":{"type":"Polygon","coordinates":[[[7.4943,12.0855],[7.5109,12.0706],[7.5141,12.0496],[7.5092,12.0467],[7.5129,12.0321],[7.541,12.0485],[7.5521,12.0415],[7.5602,12.0328],[7.5643,12.0311],[7.5626,12.0212],[7.5583,12.0173],[7.5474,12.0215],[7.5364,12.0142],[7.5239,11.9905],[7.5106,11.9746],[7.515,11.9626],[7.5166,11.9618],[7.5355,11.9637],[7.554,11.9596],[7.5712,11.9621],[7.5562,11.9803],[7.5591,11.9814],[7.5793,11.96],[7.5889,11.9565],[7.5948,11.9573],[7.5986,11.9603],[7.602,11.9686],[7.6097,11.9804],[7.6149,11.994],[7.6139,12.0086],[7.6202,12.0422],[7.6319,12.0406],[7.6401,12.0505],[7.6497,12.0577],[7.6666,12.0604],[7.6705,12.0539],[7.671,12.05],[7.6779,12.05],[7.7083,12.0421],[7.7166,12.0617],[7.7283,12.0607],[7.7262,12.0476],[7.7306,12.0428],[7.7374,12.0205],[7.7369,12.0089],[7.7933,12.0131],[7.8059,12.0185],[7.8345,12.0232],[7.8656,12.0214],[7.8798,12.0443],[7.8756,12.0651],[7.8724,12.0757],[7.8682,12.0826],[7.8698,12.0902],[7.867,12.0931],[7.8695,12.0963],[7.8673,12.1014],[7.8713,12.1128],[7.8696,12.1155],[7.8642,12.1183],[7.8632,12.1216],[7.8632,12.132],[7.8655,12.14],[7.8552,12.1471],[7.8553,12.1501],[7.8566,12.1508],[7.8542,12.1551],[7.8543,12.1567],[7.8585,12.1593],[7.86,12.1629],[7.8596,12.1695],[7.8558,12.1728],[7.8555,12.1768],[7.8595,12.1788],[7.8616,12.1892],[7.861,12.1933],[7.8643,12.2015],[7.8644,12.2097],[7.8696,12.216],[7.8708,12.2199],[7.8708,12.2237],[7.8632,12.2326],[7.8568,12.2323],[7.8574,12.235],[7.8546,12.2393],[7.8425,12.2483],[7.8331,12.26],[7.8307,12.2667],[7.8101,12.2636],[7.8052,12.2647],[7.7989,12.264],[7.7988,12.2596],[7.795,12.2514],[7.7834,12.2491],[7.7785,12.2467],[7.777,12.2297],[7.7984,12.2182],[7.7934,12.2059],[7.7751,12.2066],[7.7559,12.1914],[7.7353,12.1799],[7.7363,12.183],[7.7297,12.1838],[7.7297,12.1795],[7.7223,12.1786],[7.7184,12.1719],[7.7108,12.1671],[7.6905,12.1623],[7.6719,12.1653],[7.6692,12.1464],[7.6513,12.148],[7.6364,12.1446],[7.6232,12.1365],[7.5742,12.133],[7.5424,12.1058],[7.5252,12.1074],[7.4967,12.0895],[7.4943,12.0855]]]}},{"type":"Feature","properties":{"name":"Rimi","state":"Katsina","scode":"KT","centroid":[12.8541,7.7231]},"geometry":{"type":"Polygon","coordinates":[[[7.581,12.721],[7.5873,12.7288],[7.6003,12.7337],[7.6173,12.7374],[7.6301,12.745],[7.6525,12.7435],[7.6554,12.7421],[7.666,12.7288],[7.6711,12.7284],[7.6802,12.7164],[7.682,12.7158],[7.6946,12.719],[7.7069,12.7276],[7.7104,12.7351],[7.7252,12.7469],[7.7329,12.7341],[7.734,12.7241],[7.7469,12.7159],[7.7505,12.7056],[7.7546,12.7025],[7.769,12.7044],[7.7734,12.7034],[7.7811,12.6941],[7.7879,12.695],[7.7881,12.7085],[7.7906,12.7394],[7.7774,12.743],[7.7753,12.7571],[7.7938,12.755],[7.7919,12.7647],[7.7806,12.7863],[7.7799,12.8006],[7.7821,12.8044],[7.7924,12.8116],[7.797,12.8261],[7.7858,12.8331],[7.7785,12.8577],[7.7657,12.8793],[7.7661,12.8833],[7.7722,12.8903],[7.7781,12.9009],[7.7935,12.9377],[7.8084,12.9427],[7.8035,12.9606],[7.7928,12.9863],[7.7933,12.999],[7.7907,13.0049],[7.7935,13.0095],[7.7949,13.0205],[7.7979,13.0278],[7.8072,13.0338],[7.8305,13.0541],[7.8337,13.0679],[7.8391,13.0742],[7.8425,13.0822],[7.838,13.0848],[7.8248,13.0863],[7.8176,13.0843],[7.7954,13.0631],[7.7886,13.0517],[7.7822,13.0479],[7.7731,13.036],[7.7704,13.0295],[7.7622,13.0266],[7.7521,13.0269],[7.7465,13.0312],[7.7426,13.0388],[7.7266,13.0367],[7.72,13.0295],[7.714,13.0253],[7.7173,13.0171],[7.7179,13.0078],[7.7257,13.0067],[7.7355,13.0076],[7.7611,13.0037],[7.7588,12.9965],[7.7595,12.994],[7.7617,12.9929],[7.7535,12.9804],[7.7485,12.9524],[7.7348,12.9503],[7.7288,12.9512],[7.727,12.9579],[7.7187,12.9538],[7.7124,12.9466],[7.7051,12.9444],[7.695,12.9504],[7.6872,12.9509],[7.6841,12.9452],[7.6843,12.9398],[7.682,12.9371],[7.69,12.9342],[7.6927,12.931],[7.6822,12.9234],[7.6674,12.9169],[7.6729,12.9077],[7.6659,12.9018],[7.6561,12.8971],[7.6556,12.8892],[7.6577,12.8842],[7.6565,12.884],[7.6557,12.8787],[7.6538,12.8779],[7.6519,12.8697],[7.6474,12.8614],[7.6477,12.8591],[7.6626,12.852],[7.6645,12.8283],[7.6417,12.8148],[7.6371,12.8101],[7.6333,12.8012],[7.6196,12.7924],[7.593,12.7633],[7.5748,12.7545],[7.5788,12.7419],[7.581,12.721]]]}},{"type":"Feature","properties":{"name":"Sabuwa","state":"Katsina","scode":"KT","centroid":[11.3498,7.0579]},"geometry":{"type":"Polygon","coordinates":[[[6.8894,11.3836],[6.8977,11.3813],[6.898,11.3841],[6.9193,11.3849],[6.9345,11.3754],[6.9403,11.3742],[6.9496,11.3659],[6.9613,11.3588],[6.9755,11.3574],[6.9885,11.3607],[7.0062,11.3618],[7.0136,11.3492],[7.0134,11.346],[7.0099,11.3474],[7.0082,11.3408],[7.0096,11.3309],[7.0076,11.311],[7.0087,11.2938],[6.997,11.2811],[6.9841,11.2706],[6.9724,11.2556],[6.9677,11.2452],[6.9757,11.239],[6.9991,11.2268],[7.0255,11.2096],[7.0402,11.2048],[7.0469,11.2048],[7.0584,11.2003],[7.0614,11.2078],[7.069,11.2033],[7.0767,11.1953],[7.0846,11.181],[7.0899,11.1748],[7.0958,11.1695],[7.1187,11.1561],[7.1234,11.145],[7.1293,11.1382],[7.1443,11.1301],[7.1521,11.1288],[7.1616,11.1309],[7.173,11.1349],[7.2003,11.1517],[7.2001,11.1732],[7.2065,11.1856],[7.2197,11.1942],[7.2185,11.1999],[7.2114,11.2024],[7.2027,11.2222],[7.2006,11.2285],[7.199,11.2434],[7.1953,11.2522],[7.1948,11.2576],[7.1928,11.2738],[7.1871,11.2819],[7.1788,11.2869],[7.1616,11.3029],[7.1554,11.3173],[7.1327,11.3575],[7.125,11.382],[7.1345,11.3882],[7.1436,11.3773],[7.1492,11.3839],[7.1506,11.3905],[7.1305,11.4041],[7.1197,11.4284],[7.0857,11.4304],[7.071,11.4439],[7.0925,11.463],[7.0948,11.4633],[7.1118,11.4755],[7.1053,11.5033],[7.1065,11.5198],[7.1054,11.5285],[7.1078,11.5509],[7.0966,11.5589],[7.0739,11.5624],[7.058,11.5507],[7.0517,11.5511],[7.0398,11.5334],[7.0339,11.5313],[7.0035,11.5353],[6.9634,11.5105],[6.9132,11.4935],[6.9011,11.4918],[6.9073,11.4751],[6.9008,11.4588],[6.8869,11.4312],[6.8869,11.3962],[6.8894,11.3836]]]}},{"type":"Feature","properties":{"name":"Safana","state":"Katsina","scode":"KT","centroid":[12.5269,7.235]},"geometry":{"type":"Polygon","coordinates":[[[7.3346,12.32],[7.3389,12.3257],[7.3436,12.3253],[7.356,12.3287],[7.3593,12.334],[7.3694,12.3337],[7.3709,12.3349],[7.3702,12.3388],[7.3739,12.3411],[7.3838,12.3406],[7.3865,12.3439],[7.3919,12.3421],[7.3941,12.3349],[7.4033,12.337],[7.4079,12.3471],[7.4128,12.3484],[7.4156,12.3524],[7.4082,12.3626],[7.4097,12.3716],[7.4121,12.3739],[7.4074,12.3784],[7.4086,12.3845],[7.4135,12.3836],[7.4173,12.393],[7.4213,12.3938],[7.4195,12.4195],[7.4137,12.4352],[7.4135,12.4407],[7.4165,12.4454],[7.414,12.4636],[7.3992,12.4765],[7.4003,12.4852],[7.4081,12.4909],[7.42,12.492],[7.4221,12.5005],[7.4186,12.5078],[7.4044,12.5255],[7.3991,12.5311],[7.4039,12.5543],[7.4038,12.5562],[7.3993,12.559],[7.4024,12.5682],[7.3989,12.5763],[7.3937,12.5675],[7.3824,12.5566],[7.3791,12.5561],[7.3768,12.5541],[7.3728,12.5563],[7.3731,12.5595],[7.3713,12.5616],[7.3677,12.5621],[7.3583,12.5704],[7.3622,12.5799],[7.3659,12.5838],[7.3691,12.5985],[7.385,12.6225],[7.3862,12.6307],[7.3835,12.637],[7.3877,12.6432],[7.3869,12.6549],[7.383,12.6646],[7.3756,12.6745],[7.3705,12.6774],[7.3692,12.6804],[7.3626,12.691],[7.3569,12.6909],[7.3548,12.6852],[7.3413,12.6887],[7.3251,12.685],[7.3124,12.6772],[7.2957,12.6774],[7.2875,12.6845],[7.2818,12.6869],[7.2746,12.6943],[7.2743,12.6991],[7.2834,12.7085],[7.2785,12.7139],[7.2601,12.7003],[7.2304,12.6878],[7.2248,12.6861],[7.218,12.6874],[7.2155,12.6855],[7.1996,12.6842],[7.1952,12.6828],[7.1946,12.6805],[7.1893,12.6796],[7.1879,12.6806],[7.1797,12.6784],[7.1755,12.6762],[7.1753,12.6745],[7.1741,12.6746],[7.1738,12.6726],[7.1698,12.6693],[7.1548,12.6661],[7.134,12.6645],[7.1218,12.6688],[7.1225,12.7036],[7.043,12.7196],[6.989,12.6734],[7.035,12.6614],[7.0393,12.6587],[7.0445,12.6589],[7.0472,12.6377],[7.046,12.6196],[7.0516,12.587],[7.0502,12.5751],[7.0521,12.5534],[7.0512,12.5399],[7.0537,12.5293],[7.0537,12.5163],[7.0594,12.4886],[7.0659,12.4317],[7.111,12.4374],[7.1716,12.4514],[7.1896,12.3619],[7.1968,12.3381],[7.1988,12.3373],[7.2104,12.3439],[7.2246,12.3372],[7.2251,12.3356],[7.2295,12.3379],[7.2378,12.3456],[7.2641,12.3475],[7.265,12.3458],[7.263,12.3421],[7.2638,12.3409],[7.2708,12.3416],[7.2718,12.3358],[7.2785,12.3324],[7.2799,12.3303],[7.2787,12.3247],[7.2821,12.3199],[7.2955,12.3133],[7.3001,12.315],[7.3011,12.3211],[7.3046,12.3229],[7.3085,12.3222],[7.314,12.3186],[7.3187,12.3237],[7.328,12.3205],[7.3346,12.32]]]}},{"type":"Feature","properties":{"name":"Sandamu","state":"Katsina","scode":"KT","centroid":[12.902,8.3768]},"geometry":{"type":"Polygon","coordinates":[[[8.2421,12.8261],[8.245,12.8279],[8.2606,12.8301],[8.2923,12.8291],[8.3375,12.836],[8.3524,12.8255],[8.3608,12.8241],[8.3706,12.8255],[8.3984,12.8259],[8.4229,12.8209],[8.4354,12.8152],[8.4441,12.8161],[8.4523,12.819],[8.4698,12.8281],[8.4788,12.8307],[8.5021,12.8338],[8.5046,12.8439],[8.5026,12.8449],[8.4642,12.8445],[8.4556,12.8787],[8.4474,12.8912],[8.4478,12.8996],[8.4487,12.9042],[8.4526,12.91],[8.4656,12.9234],[8.4703,12.9263],[8.4584,12.9429],[8.4567,12.9508],[8.4467,12.9539],[8.4406,12.9705],[8.4369,12.9746],[8.4395,12.9886],[8.4234,13.0022],[8.4189,13.0265],[8.4134,13.038],[8.3949,13.0225],[8.3729,13.017],[8.366,13.0171],[8.361,13.0119],[8.3557,13.0112],[8.3468,12.9889],[8.3471,12.98],[8.3532,12.9763],[8.3516,12.9687],[8.3458,12.9572],[8.3375,12.9529],[8.346,12.939],[8.3452,12.9237],[8.3432,12.9205],[8.3275,12.9131],[8.3116,12.9093],[8.2972,12.9107],[8.2734,12.9009],[8.264,12.9007],[8.2582,12.8894],[8.2506,12.8799],[8.2583,12.8711],[8.2628,12.8565],[8.2524,12.8529],[8.2478,12.8486],[8.2436,12.8368],[8.2421,12.8261]]]}},{"type":"Feature","properties":{"name":"Zango","state":"Katsina","scode":"KT","centroid":[12.9559,8.5484]},"geometry":{"type":"Polygon","coordinates":[[[8.5021,12.8338],[8.5522,12.8318],[8.5531,12.8661],[8.5649,12.8694],[8.5721,12.8595],[8.5769,12.8627],[8.5754,12.8683],[8.5849,12.8732],[8.5934,12.8626],[8.6047,12.8693],[8.6078,12.8736],[8.6259,12.8828],[8.6596,12.8808],[8.6662,12.8773],[8.6727,12.8591],[8.6716,12.8508],[8.6865,12.8522],[8.6884,12.8579],[8.7029,12.8576],[8.7049,12.8522],[8.7089,12.848],[8.7146,12.8454],[8.7217,12.8648],[8.7113,12.8892],[8.7079,12.93],[8.6636,12.9433],[8.6289,13.0063],[8.615,13.0219],[8.5643,13.0599],[8.5419,13.075],[8.5164,13.0836],[8.4975,13.0858],[8.4711,13.0839],[8.4492,13.0781],[8.4344,13.0819],[8.4349,13.0776],[8.4305,13.0609],[8.4134,13.038],[8.4189,13.0265],[8.4234,13.0022],[8.4395,12.9886],[8.4369,12.9746],[8.4406,12.9705],[8.4467,12.9539],[8.4567,12.9508],[8.4584,12.9429],[8.4703,12.9263],[8.4656,12.9234],[8.4526,12.91],[8.4487,12.9042],[8.4478,12.8996],[8.4474,12.8912],[8.4556,12.8787],[8.4642,12.8445],[8.5026,12.8449],[8.5046,12.8439],[8.5021,12.8338]]]}}]}