{"type":"FeatureCollection","features":[{"type":"Feature","properties":{"name":"Asa","state":"Kwara","scode":"KW","centroid":[8.445,4.4213]},"geometry":{"type":"Polygon","coordinates":[[[4.638,8.3269],[4.6504,8.3514],[4.6619,8.3589],[4.6494,8.3731],[4.6438,8.3767],[4.6369,8.379],[4.6292,8.3716],[4.6178,8.3813],[4.6167,8.392],[4.6148,8.3954],[4.6114,8.3996],[4.6094,8.3995],[4.6101,8.4006],[4.6028,8.4039],[4.5998,8.4082],[4.5982,8.4204],[4.6005,8.4242],[4.598,8.4267],[4.5934,8.4241],[4.5899,8.4256],[4.5896,8.4222],[4.588,8.4225],[4.5858,8.4199],[4.5836,8.4143],[4.5748,8.4085],[4.5523,8.4122],[4.5311,8.4064],[4.5195,8.41],[4.5132,8.4096],[4.5094,8.4079],[4.5024,8.4076],[4.4918,8.4034],[4.4848,8.4076],[4.4745,8.4086],[4.4533,8.4304],[4.4494,8.4539],[4.4428,8.4687],[4.44,8.4821],[4.4436,8.4901],[4.4702,8.5027],[4.4734,8.5122],[4.4773,8.5221],[4.4707,8.5259],[4.468,8.5293],[4.4694,8.5326],[4.473,8.5344],[4.4712,8.5369],[4.4747,8.5418],[4.4791,8.5614],[4.4786,8.5647],[4.4281,8.5834],[4.4193,8.5979],[4.4189,8.6132],[4.3948,8.6562],[4.3425,8.6902],[4.3409,8.7178],[4.3011,8.7466],[4.2579,8.7342],[4.2346,8.8047],[4.195,8.8163],[4.1904,8.7533],[4.2134,8.6826],[4.2091,8.6807],[4.269,8.5558],[4.3481,8.3912],[4.3917,8.304],[4.418,8.2734],[4.4406,8.254],[4.4406,8.2506],[4.4597,8.2336],[4.4616,8.2274],[4.4719,8.2164],[4.4805,8.2105],[4.4839,8.2027],[4.4941,8.1667],[4.4941,8.1334],[4.4954,8.1171],[4.5056,8.092],[4.5274,8.0761],[4.5299,8.0796],[4.5331,8.0933],[4.5393,8.1043],[4.5493,8.1088],[4.5502,8.1115],[4.5576,8.1154],[4.5607,8.1181],[4.5613,8.1209],[4.5683,8.1257],[4.5729,8.1264],[4.5737,8.1313],[4.5721,8.1363],[4.5723,8.1412],[4.5673,8.1495],[4.5684,8.1525],[4.5843,8.1591],[4.5946,8.1711],[4.5977,8.1861],[4.5929,8.1986],[4.5848,8.2127],[4.5831,8.22],[4.5831,8.235],[4.5908,8.2513],[4.6011,8.2634],[4.6221,8.2814],[4.629,8.3088],[4.638,8.3269]]]}},{"type":"Feature","properties":{"name":"Baruten","state":"Kwara","scode":"KW","centroid":[9.254,3.3431]},"geometry":{"type":"Polygon","coordinates":[[[2.7564,8.5752],[2.8024,8.6104],[2.8884,8.6088],[2.9207,8.6119],[2.9422,8.638],[3.0145,8.7103],[3.0514,8.7287],[3.1036,8.7502],[3.1636,8.8086],[3.1836,8.8117],[3.1974,8.7963],[3.2374,8.7825],[3.2819,8.804],[3.388,8.8425],[3.4192,8.8621],[3.5248,8.9285],[3.6,8.9569],[3.601,8.9634],[3.5998,8.9766],[3.5944,8.9891],[3.5933,8.9954],[3.5957,8.9993],[3.6079,8.9993],[3.6175,9.0032],[3.6384,8.9989],[3.6541,9.0015],[3.6605,8.9985],[3.6738,9.0046],[3.6871,9.0034],[3.6915,8.9966],[3.7204,9.016],[3.7431,9.0469],[3.7523,9.0869],[3.7538,9.1207],[3.7707,9.1468],[3.7558,9.2045],[3.7469,9.2596],[3.724,9.3648],[3.7186,9.4169],[3.7171,9.5303],[3.6767,9.6325],[3.6991,9.6989],[3.7987,10.0281],[3.7969,10.0661],[3.794,10.0625],[3.7846,10.0625],[3.7802,10.0523],[3.7882,10.0384],[3.7882,10.0341],[3.7838,10.0312],[3.7751,10.0333],[3.7722,10.0406],[3.7715,10.0472],[3.762,10.0588],[3.7503,10.0683],[3.7431,10.0843],[3.7351,10.0879],[3.7343,10.0799],[3.7365,10.0748],[3.7365,10.0683],[3.7307,10.0683],[3.7154,10.0894],[3.7147,10.1018],[3.7125,10.1083],[3.6843,10.1567],[3.68,10.1202],[3.6758,10.1033],[3.6094,9.9481],[3.5589,9.8803],[3.5253,9.8442],[3.5211,9.8444],[3.5019,9.8533],[3.4769,9.8569],[3.3666,9.8373],[3.3529,9.8241],[3.3412,9.8079],[3.3335,9.7913],[3.3312,9.781],[3.3311,9.7558],[3.3372,9.735],[3.3528,9.7031],[3.2856,9.6364],[3.2456,9.5866],[3.2051,9.5314],[3.1714,9.4964],[3.1417,9.4411],[3.1419,9.4292],[3.145,9.4189],[3.1522,9.4056],[3.1669,9.3658],[3.1664,9.3028],[3.1304,9.1923],[3.095,9.0906],[2.9875,9.0611],[2.9679,9.0813],[2.9051,9.0792],[2.8142,9.0652],[2.7947,9.0569],[2.7894,9.0439],[2.7831,9.0167],[2.7453,8.7953],[2.743,8.7708],[2.7564,8.5752]]]}},{"type":"Feature","properties":{"name":"Edu","state":"Kwara","scode":"KW","centroid":[8.9166,5.1685]},"geometry":{"type":"Polygon","coordinates":[[[5.4136,8.6862],[5.4186,8.6821],[5.4336,8.6919],[5.4425,8.7106],[5.4519,8.7209],[5.4621,8.74],[5.4559,8.7546],[5.4414,8.7663],[5.4304,8.7847],[5.4232,8.8294],[5.4305,8.8487],[5.5486,8.9122],[5.5436,8.9167],[5.5396,8.9306],[5.5254,8.9401],[5.5119,8.9442],[5.4854,8.9448],[5.4739,8.9476],[5.4664,8.9543],[5.4576,8.9686],[5.425,8.9788],[5.4081,8.9788],[5.3911,8.9828],[5.3755,8.9903],[5.3701,8.9964],[5.3484,8.9984],[5.3321,8.9957],[5.3233,8.9923],[5.3077,9.0005],[5.2975,9.0032],[5.2866,9.01],[5.2724,9.0147],[5.2378,9.0188],[5.2256,9.0269],[5.209,9.0351],[5.1968,9.0541],[5.1717,9.0873],[5.1595,9.107],[5.1079,9.1355],[5.0652,9.1626],[5.0482,9.1877],[5.0326,9.1979],[5.0163,9.2053],[4.9967,9.2074],[4.9716,9.2006],[4.9621,9.1931],[4.9234,9.1762],[4.9112,9.1714],[4.8861,9.1673],[4.8766,9.1612],[4.8761,9.1576],[4.884,9.1409],[4.8895,9.1361],[4.8861,9.1246],[4.8915,9.1192],[4.8976,9.1171],[4.8996,9.1063],[4.9003,9.0866],[4.8983,9.0826],[4.8976,9.0751],[4.8922,9.0697],[4.8908,9.0636],[4.8929,9.0595],[4.8904,9.0568],[4.9028,9.0278],[4.9078,9.0195],[4.9078,8.9938],[4.897,8.9756],[4.8932,8.9475],[4.8712,8.9266],[4.8636,8.9014],[4.8725,8.8887],[4.8746,8.8771],[4.878,8.8699],[4.8873,8.8664],[4.8962,8.8603],[4.9071,8.8662],[4.9252,8.867],[4.9601,8.8529],[4.9684,8.8479],[4.972,8.841],[4.9708,8.8379],[4.9711,8.8303],[4.9759,8.8267],[4.9761,8.8214],[4.9865,8.8238],[4.9898,8.8231],[4.9974,8.8288],[5.0115,8.8296],[5.0297,8.8263],[5.0513,8.8172],[5.0786,8.7674],[5.0811,8.7567],[5.0902,8.7376],[5.0985,8.7293],[5.1093,8.726],[5.1209,8.7169],[5.14,8.7094],[5.1566,8.7003],[5.1624,8.6945],[5.1931,8.6895],[5.237,8.6605],[5.2577,8.6555],[5.2743,8.6563],[5.2901,8.6696],[5.3266,8.7053],[5.339,8.7094],[5.349,8.6967],[5.3557,8.6768],[5.3808,8.6777],[5.3924,8.6854],[5.4024,8.6886],[5.4136,8.6862]]]}},{"type":"Feature","properties":{"name":"Ekiti","state":"Kwara","scode":"KW","centroid":[8.111,5.3461]},"geometry":{"type":"Polygon","coordinates":[[[5.3658,8.0919],[5.3712,8.0965],[5.3873,8.1021],[5.4212,8.1055],[5.4491,8.1059],[5.498,8.1107],[5.498,8.1147],[5.5045,8.1238],[5.518,8.1312],[5.5327,8.1468],[5.5367,8.1564],[5.5397,8.1908],[5.5397,8.1986],[5.5371,8.2055],[5.5236,8.2072],[5.5139,8.2124],[5.5104,8.2084],[5.5013,8.2153],[5.4949,8.2147],[5.4775,8.2051],[5.4662,8.2025],[5.4575,8.2064],[5.451,8.2004],[5.4319,8.1875],[5.3673,8.1804],[5.3462,8.1712],[5.3231,8.168],[5.2963,8.1611],[5.2767,8.1534],[5.2247,8.1449],[5.2086,8.1168],[5.2002,8.0985],[5.1837,8.0726],[5.1655,8.0557],[5.1626,8.0495],[5.1819,8.0363],[5.1883,8.0295],[5.1916,8.0224],[5.1958,8.0182],[5.2029,8.0171],[5.2308,8.022],[5.2482,8.0198],[5.2568,8.0182],[5.2624,8.0129],[5.2829,8.0085],[5.3177,8.0077],[5.3324,8.0096],[5.352,8.0257],[5.3606,8.0385],[5.3614,8.0434],[5.3587,8.0634],[5.3587,8.0739],[5.3606,8.0829],[5.3658,8.0919]]]}},{"type":"Feature","properties":{"name":"Ifelodun","state":"Kwara","scode":"KW","centroid":[8.5389,5.0569]},"geometry":{"type":"Polygon","coordinates":[[[4.7474,8.2097],[4.7554,8.2108],[4.7672,8.216],[4.7893,8.2338],[4.798,8.2481],[4.8169,8.3026],[4.8169,8.3147],[4.8198,8.3341],[4.8157,8.3442],[4.8202,8.359],[4.8567,8.3677],[4.8906,8.3703],[4.9072,8.3699],[4.9415,8.3564],[4.9554,8.3555],[4.9854,8.3468],[4.9976,8.3464],[5.0354,8.3499],[5.0484,8.3529],[5.0658,8.3594],[5.0871,8.3642],[5.1345,8.3642],[5.1424,8.3594],[5.1524,8.346],[5.178,8.2925],[5.1758,8.2521],[5.1867,8.2473],[5.198,8.2494],[5.2206,8.2494],[5.2341,8.2547],[5.2399,8.2551],[5.2458,8.2573],[5.2558,8.2655],[5.281,8.2738],[5.2997,8.2955],[5.3062,8.3007],[5.321,8.3251],[5.3245,8.3338],[5.3215,8.3411],[5.3228,8.3444],[5.3275,8.349],[5.3419,8.3752],[5.3477,8.3827],[5.3726,8.4092],[5.3809,8.4208],[5.3966,8.4383],[5.4124,8.4524],[5.4331,8.4665],[5.4464,8.4797],[5.4356,8.4922],[5.4256,8.5162],[5.4207,8.5336],[5.419,8.5693],[5.424,8.6132],[5.4232,8.6406],[5.4207,8.6588],[5.4136,8.6862],[5.4024,8.6886],[5.3924,8.6854],[5.3808,8.6777],[5.3557,8.6768],[5.349,8.6967],[5.339,8.7094],[5.3266,8.7053],[5.2901,8.6696],[5.2743,8.6563],[5.2577,8.6555],[5.237,8.6605],[5.1931,8.6895],[5.1624,8.6945],[5.1566,8.7003],[5.14,8.7094],[5.1209,8.7169],[5.1093,8.726],[5.0985,8.7293],[5.0902,8.7376],[5.0811,8.7567],[5.0786,8.7674],[5.0513,8.8172],[5.0297,8.8263],[5.0115,8.8296],[4.9974,8.8288],[4.9898,8.8231],[4.9865,8.8238],[4.9761,8.8214],[4.9759,8.8267],[4.9711,8.8303],[4.9708,8.8379],[4.972,8.841],[4.9684,8.8479],[4.9601,8.8529],[4.9252,8.867],[4.9071,8.8662],[4.8962,8.8603],[4.8873,8.8664],[4.878,8.8699],[4.8746,8.8771],[4.8725,8.8887],[4.8636,8.9014],[4.8712,8.9266],[4.8932,8.9475],[4.897,8.9756],[4.9078,8.9938],[4.9078,9.0195],[4.9028,9.0278],[4.8904,9.0568],[4.8846,9.0577],[4.8776,9.0477],[4.88,9.0427],[4.8776,9.0212],[4.8519,9.0137],[4.851,8.998],[4.8394,8.9922],[4.8303,8.9905],[4.8278,8.9847],[4.8129,8.9747],[4.8046,8.9623],[4.8021,8.9515],[4.8002,8.9531],[4.796,8.9535],[4.7955,8.9495],[4.7907,8.9508],[4.7813,8.9216],[4.7917,8.8916],[4.8087,8.8794],[4.8154,8.8462],[4.8261,8.8305],[4.8353,8.8139],[4.8626,8.7832],[4.8701,8.765],[4.8808,8.7464],[4.8956,8.7474],[4.9062,8.742],[4.9071,8.7282],[4.9174,8.716],[4.9323,8.7086],[4.9439,8.6986],[4.9663,8.6903],[4.9741,8.6672],[4.9499,8.6503],[4.944,8.6398],[4.9334,8.6048],[4.9204,8.5979],[4.9218,8.5867],[4.9146,8.5725],[4.8928,8.554],[4.8651,8.5729],[4.8544,8.554],[4.8314,8.5473],[4.7916,8.5489],[4.7704,8.5459],[4.7642,8.5428],[4.7518,8.5308],[4.7511,8.5229],[4.7458,8.5108],[4.751,8.5022],[4.7495,8.4977],[4.7518,8.4942],[4.7505,8.4896],[4.7516,8.4874],[4.7546,8.4874],[4.761,8.482],[4.7661,8.4816],[4.7684,8.479],[4.7697,8.4743],[4.7672,8.4732],[4.764,8.4645],[4.7679,8.4591],[4.7679,8.4572],[4.7647,8.4569],[4.7677,8.4531],[4.7658,8.4513],[4.7664,8.4483],[4.7639,8.4479],[4.7635,8.4451],[4.7619,8.4448],[4.7615,8.4392],[4.7667,8.4296],[4.7662,8.4264],[4.769,8.4251],[4.7711,8.4204],[4.7832,8.4129],[4.7715,8.4123],[4.7576,8.4065],[4.7367,8.3872],[4.7239,8.3814],[4.7,8.4035],[4.68,8.4158],[4.6727,8.399],[4.6699,8.3956],[4.6683,8.3959],[4.6584,8.3984],[4.6533,8.4025],[4.6311,8.4129],[4.6322,8.4257],[4.627,8.4295],[4.6211,8.4227],[4.6161,8.4235],[4.6092,8.4275],[4.6131,8.4325],[4.6052,8.4338],[4.6011,8.4364],[4.6001,8.4335],[4.5936,8.4362],[4.5951,8.4308],[4.598,8.4267],[4.6005,8.4242],[4.5982,8.4204],[4.5998,8.4082],[4.6028,8.4039],[4.6101,8.4006],[4.6094,8.3995],[4.6114,8.3996],[4.6148,8.3954],[4.6167,8.392],[4.6178,8.3813],[4.6292,8.3716],[4.6369,8.379],[4.6438,8.3767],[4.6494,8.3731],[4.6619,8.3589],[4.6504,8.3514],[4.638,8.3269],[4.6414,8.3281],[4.6502,8.3237],[4.6671,8.3085],[4.6714,8.3017],[4.679,8.3115],[4.6847,8.3147],[4.6912,8.3153],[4.6878,8.2933],[4.6883,8.286],[4.7057,8.2551],[4.7375,8.2307],[4.7474,8.2097]]]}},{"type":"Feature","properties":{"name":"Ilorin East","state":"Kwara","scode":"KW","centroid":[8.6088,4.8091]},"geometry":{"type":"MultiPolygon","coordinates":[[[[4.5488,8.4943],[4.5505,8.4948],[4.5514,8.5002],[4.5527,8.5002],[4.5557,8.4975],[4.5589,8.4989],[4.5613,8.4982],[4.5615,8.4995],[4.568,8.4929],[4.5641,8.4877],[4.5612,8.488],[4.5606,8.4806],[4.5628,8.4801],[4.5665,8.4723],[4.5827,8.474],[4.5875,8.4683],[4.5944,8.474],[4.5962,8.4718],[4.5987,8.4739],[4.5916,8.4778],[4.5927,8.4822],[4.5883,8.4829],[4.5934,8.4883],[4.5939,8.4945],[4.5738,8.5017],[4.5748,8.5052],[4.5698,8.5066],[4.5709,8.5158],[4.5698,8.5171],[4.5715,8.5191],[4.5709,8.5229],[4.5722,8.5234],[4.5711,8.5256],[4.5729,8.5272],[4.5711,8.5315],[4.5676,8.534],[4.5678,8.5419],[4.5691,8.5437],[4.5669,8.5437],[4.5645,8.548],[4.5579,8.5508],[4.5538,8.5482],[4.5524,8.5377],[4.5532,8.5283],[4.5412,8.529],[4.5329,8.5245],[4.5349,8.5204],[4.5319,8.5182],[4.5325,8.5164],[4.5376,8.5144],[4.5392,8.5118],[4.5384,8.5109],[4.5454,8.5083],[4.5483,8.504],[4.5462,8.5024],[4.543,8.5033],[4.541,8.5],[4.5414,8.4974],[4.5486,8.496],[4.5488,8.4943]]],[[[4.7684,8.479],[4.7661,8.4816],[4.761,8.482],[4.7546,8.4874],[4.7516,8.4874],[4.7505,8.4896],[4.7518,8.4942],[4.7495,8.4977],[4.751,8.5022],[4.7458,8.5108],[4.7511,8.5229],[4.7518,8.5308],[4.7642,8.5428],[4.7704,8.5459],[4.7916,8.5489],[4.8314,8.5473],[4.8544,8.554],[4.8651,8.5729],[4.8928,8.554],[4.9146,8.5725],[4.9218,8.5867],[4.9204,8.5979],[4.9334,8.6048],[4.944,8.6398],[4.9499,8.6503],[4.9741,8.6672],[4.9663,8.6903],[4.9439,8.6986],[4.9323,8.7086],[4.9174,8.716],[4.9071,8.7282],[4.9062,8.742],[4.8956,8.7474],[4.8808,8.7464],[4.861,8.7373],[4.8454,8.7244],[4.8406,8.7135],[4.825,8.6932],[4.7809,8.662],[4.7653,8.6471],[4.7416,8.6308],[4.7219,8.6138],[4.707,8.5982],[4.6792,8.5745],[4.6526,8.5708],[4.6486,8.5612],[4.6409,8.5538],[4.6378,8.5518],[4.6332,8.5516],[4.6168,8.5429],[4.6045,8.5409],[4.6046,8.5388],[4.6021,8.5365],[4.6009,8.5296],[4.6016,8.5241],[4.6044,8.5225],[4.6057,8.5236],[4.6059,8.5205],[4.6076,8.5194],[4.6098,8.5212],[4.6123,8.5205],[4.6342,8.5095],[4.6584,8.5187],[4.6684,8.5173],[4.6794,8.5022],[4.6921,8.4885],[4.6987,8.4859],[4.7156,8.4855],[4.7302,8.4824],[4.7684,8.479]]]]}},{"type":"Feature","properties":{"name":"Ilorin South","state":"Kwara","scode":"KW","centroid":[8.478,4.6368]},"geometry":{"type":"MultiPolygon","coordinates":[[[[4.5488,8.4943],[4.5477,8.4933],[4.553,8.4827],[4.5606,8.4806],[4.5612,8.488],[4.5641,8.4877],[4.568,8.4929],[4.5615,8.4995],[4.5613,8.4982],[4.5589,8.4989],[4.5557,8.4975],[4.5527,8.5002],[4.5514,8.5002],[4.5505,8.4948],[4.5488,8.4943]]],[[[4.5665,8.4723],[4.5712,8.4639],[4.5841,8.4505],[4.5854,8.445],[4.5936,8.4362],[4.6001,8.4335],[4.6011,8.4364],[4.6052,8.4338],[4.6131,8.4325],[4.6092,8.4275],[4.6161,8.4235],[4.6211,8.4227],[4.627,8.4295],[4.6322,8.4257],[4.6311,8.4129],[4.6533,8.4025],[4.6584,8.3984],[4.6683,8.3959],[4.6699,8.3956],[4.6727,8.399],[4.68,8.4158],[4.7,8.4035],[4.7239,8.3814],[4.7367,8.3872],[4.7576,8.4065],[4.7715,8.4123],[4.7832,8.4129],[4.7711,8.4204],[4.769,8.4251],[4.7662,8.4264],[4.7667,8.4296],[4.7615,8.4392],[4.7619,8.4448],[4.7635,8.4451],[4.7639,8.4479],[4.7664,8.4483],[4.7658,8.4513],[4.7677,8.4531],[4.7647,8.4569],[4.7679,8.4572],[4.7679,8.4591],[4.764,8.4645],[4.7672,8.4732],[4.7697,8.4743],[4.7684,8.479],[4.7302,8.4824],[4.7156,8.4855],[4.6987,8.4859],[4.6921,8.4885],[4.6794,8.5022],[4.6684,8.5173],[4.6584,8.5187],[4.6342,8.5095],[4.6123,8.5205],[4.6098,8.5212],[4.6076,8.5194],[4.6059,8.5205],[4.6057,8.5236],[4.6044,8.5225],[4.6016,8.5241],[4.6009,8.5296],[4.6021,8.5365],[4.5988,8.5414],[4.5971,8.5416],[4.5958,8.5456],[4.5969,8.5466],[4.5913,8.5531],[4.5906,8.5578],[4.5894,8.5592],[4.5873,8.5577],[4.5864,8.5625],[4.5832,8.5659],[4.586,8.5722],[4.5783,8.5732],[4.5731,8.5777],[4.5642,8.5791],[4.5566,8.5782],[4.5486,8.5802],[4.543,8.575],[4.5332,8.5723],[4.5086,8.5703],[4.4985,8.5667],[4.4929,8.5606],[4.4852,8.5591],[4.4791,8.5614],[4.4747,8.5418],[4.4712,8.5369],[4.473,8.5344],[4.4694,8.5326],[4.468,8.5293],[4.4707,8.5259],[4.4773,8.5221],[4.4734,8.5122],[4.4786,8.5076],[4.4976,8.506],[4.499,8.5089],[4.5026,8.508],[4.5082,8.5094],[4.5107,8.5142],[4.5121,8.5134],[4.5131,8.5171],[4.5116,8.5173],[4.5104,8.5214],[4.5127,8.5237],[4.5128,8.5265],[4.5215,8.5207],[4.5216,8.5153],[4.5243,8.5163],[4.5329,8.5245],[4.5412,8.529],[4.5532,8.5283],[4.5524,8.5377],[4.5538,8.5482],[4.5579,8.5508],[4.5645,8.548],[4.5669,8.5437],[4.5691,8.5437],[4.5678,8.5419],[4.5676,8.534],[4.5711,8.5315],[4.5729,8.5272],[4.5711,8.5256],[4.5722,8.5234],[4.5709,8.5229],[4.5715,8.5191],[4.5698,8.5171],[4.5709,8.5158],[4.5698,8.5066],[4.5748,8.5052],[4.5738,8.5017],[4.5939,8.4945],[4.5934,8.4883],[4.5883,8.4829],[4.5927,8.4822],[4.5916,8.4778],[4.5987,8.4739],[4.5962,8.4718],[4.5944,8.474],[4.5875,8.4683],[4.5827,8.474],[4.5665,8.4723]]]]}},{"type":"Feature","properties":{"name":"Ilorin West","state":"Kwara","scode":"KW","centroid":[8.4569,4.5134]},"geometry":{"type":"Polygon","coordinates":[[[4.5329,8.5245],[4.5243,8.5163],[4.5216,8.5153],[4.5215,8.5207],[4.5128,8.5265],[4.5127,8.5237],[4.5104,8.5214],[4.5116,8.5173],[4.5131,8.5171],[4.5121,8.5134],[4.5107,8.5142],[4.5082,8.5094],[4.5026,8.508],[4.499,8.5089],[4.4976,8.506],[4.4786,8.5076],[4.4734,8.5122],[4.4702,8.5027],[4.4436,8.4901],[4.44,8.4821],[4.4428,8.4687],[4.4494,8.4539],[4.4533,8.4304],[4.4745,8.4086],[4.4848,8.4076],[4.4918,8.4034],[4.5024,8.4076],[4.5094,8.4079],[4.5132,8.4096],[4.5195,8.41],[4.5311,8.4064],[4.5523,8.4122],[4.5748,8.4085],[4.5836,8.4143],[4.5858,8.4199],[4.588,8.4225],[4.5896,8.4222],[4.5899,8.4256],[4.5934,8.4241],[4.598,8.4267],[4.5951,8.4308],[4.5936,8.4362],[4.5854,8.445],[4.5841,8.4505],[4.5712,8.4639],[4.5665,8.4723],[4.5628,8.4801],[4.5606,8.4806],[4.553,8.4827],[4.5477,8.4933],[4.5488,8.4943],[4.5486,8.496],[4.5414,8.4974],[4.541,8.5],[4.543,8.5033],[4.5462,8.5024],[4.5483,8.504],[4.5454,8.5083],[4.5384,8.5109],[4.5392,8.5118],[4.5376,8.5144],[4.5325,8.5164],[4.5319,8.5182],[4.5349,8.5204],[4.5329,8.5245]]]}},{"type":"Feature","properties":{"name":"Irepodun","state":"Kwara","scode":"KW","centroid":[8.1812,4.9331]},"geometry":{"type":"Polygon","coordinates":[[[4.7993,8.0651],[4.8088,8.0617],[4.8186,8.0536],[4.83,8.0555],[4.8525,8.0681],[4.8575,8.0726],[4.8548,8.086],[4.8518,8.0917],[4.8541,8.0955],[4.8777,8.0913],[4.8872,8.0909],[4.9132,8.0856],[4.9269,8.0799],[4.9395,8.0681],[4.9497,8.0555],[4.9608,8.0524],[4.9669,8.0467],[4.9684,8.0376],[4.9707,8.0326],[4.9692,8.0242],[4.9717,8.0237],[4.9732,8.0214],[4.9771,8.0259],[4.9805,8.0269],[4.9834,8.0323],[4.9952,8.0295],[4.999,8.0303],[5.01,8.0501],[5.0207,8.0593],[5.029,8.0639],[5.0325,8.0681],[5.0397,8.0719],[5.0443,8.07],[5.0496,8.0646],[5.0534,8.0578],[5.0549,8.0492],[5.0665,8.0545],[5.0788,8.0641],[5.0858,8.0876],[5.0904,8.0945],[5.1197,8.1129],[5.1237,8.1191],[5.1329,8.1233],[5.1592,8.1228],[5.1811,8.1403],[5.1888,8.1521],[5.1907,8.1585],[5.1907,8.1642],[5.1848,8.1815],[5.166,8.1881],[5.163,8.1937],[5.1578,8.195],[5.1532,8.1999],[5.1325,8.2093],[5.1226,8.2078],[5.1103,8.1954],[5.109,8.1864],[5.0959,8.1629],[5.0893,8.1547],[5.0811,8.1486],[5.0732,8.1451],[5.0441,8.1442],[5.0119,8.1503],[4.978,8.1764],[4.9641,8.1842],[4.9337,8.2211],[4.926,8.2267],[4.9275,8.2353],[4.9331,8.2483],[4.9302,8.2707],[4.937,8.2778],[4.9382,8.2939],[4.9329,8.3282],[4.9302,8.3372],[4.9196,8.3502],[4.9166,8.3589],[4.9072,8.3699],[4.8906,8.3703],[4.8567,8.3677],[4.8202,8.359],[4.8157,8.3442],[4.8198,8.3341],[4.8169,8.3147],[4.8169,8.3026],[4.798,8.2481],[4.7893,8.2338],[4.7672,8.216],[4.7554,8.2108],[4.7474,8.2097],[4.7376,8.2076],[4.7353,8.2032],[4.7393,8.1971],[4.7595,8.1941],[4.7859,8.1801],[4.7995,8.1637],[4.806,8.1484],[4.8105,8.1433],[4.815,8.1311],[4.8147,8.118],[4.8192,8.1016],[4.8167,8.0839],[4.8194,8.0817],[4.7993,8.0651]]]}},{"type":"Feature","properties":{"name":"Isin","state":"Kwara","scode":"KW","centroid":[8.2611,5.0577]},"geometry":{"type":"Polygon","coordinates":[[[4.9072,8.3699],[4.9166,8.3589],[4.9196,8.3502],[4.9302,8.3372],[4.9329,8.3282],[4.9382,8.2939],[4.937,8.2778],[4.9302,8.2707],[4.9331,8.2483],[4.9275,8.2353],[4.926,8.2267],[4.9337,8.2211],[4.9641,8.1842],[4.978,8.1764],[5.0119,8.1503],[5.0441,8.1442],[5.0732,8.1451],[5.0811,8.1486],[5.0893,8.1547],[5.0959,8.1629],[5.109,8.1864],[5.1103,8.1954],[5.1226,8.2078],[5.1325,8.2093],[5.1532,8.1999],[5.1578,8.195],[5.163,8.1937],[5.166,8.1881],[5.1848,8.1815],[5.1898,8.1856],[5.1945,8.1939],[5.1945,8.2],[5.198,8.2142],[5.2176,8.236],[5.2241,8.2377],[5.2276,8.2403],[5.2399,8.2551],[5.2341,8.2547],[5.2206,8.2494],[5.198,8.2494],[5.1867,8.2473],[5.1758,8.2521],[5.178,8.2925],[5.1524,8.346],[5.1424,8.3594],[5.1345,8.3642],[5.0871,8.3642],[5.0658,8.3594],[5.0484,8.3529],[5.0354,8.3499],[4.9976,8.3464],[4.9854,8.3468],[4.9554,8.3555],[4.9415,8.3564],[4.9072,8.3699]]]}},{"type":"Feature","properties":{"name":"Kaiama","state":"Kwara","scode":"KW","centroid":[9.4267,4.1342]},"geometry":{"type":"Polygon","coordinates":[[[3.7707,9.1468],[3.7953,9.1653],[3.8261,9.1822],[3.863,9.1883],[3.9214,9.1729],[3.9444,9.1483],[3.9721,9.0776],[3.9906,9.0484],[4.0121,9.0346],[4.2105,8.97],[4.2534,8.967],[4.2903,8.9916],[4.3164,8.9977],[4.3256,8.9946],[4.3349,8.9808],[4.4281,9.0361],[4.4592,9.0468],[4.471,9.0532],[4.4882,9.0597],[4.5021,9.0683],[4.5241,9.0742],[4.5499,9.0747],[4.588,9.0827],[4.6035,9.0843],[4.61,9.0817],[4.6364,9.0814],[4.6695,9.0716],[4.6703,9.0647],[4.6795,9.0589],[4.6831,9.0734],[4.7211,9.0655],[4.7231,9.0754],[4.736,9.0847],[4.7488,9.088],[4.7566,9.1346],[4.7646,9.1499],[4.7519,9.1799],[4.7519,9.1995],[4.7572,9.2244],[4.7545,9.2479],[4.7375,9.2689],[4.7139,9.2781],[4.6851,9.2925],[4.6393,9.3082],[4.6171,9.3304],[4.6097,9.3618],[4.5784,9.3881],[4.5012,9.4404],[4.4436,9.5098],[4.3872,9.5622],[4.3506,9.5884],[4.2825,9.6945],[4.2065,9.7822],[4.1712,9.8202],[4.1529,9.8621],[4.1411,9.8608],[4.128,9.8516],[4.1188,9.8555],[4.1227,9.8608],[4.1241,9.8752],[4.1149,9.8817],[4.0952,9.8778],[4.0952,9.8673],[4.0835,9.8516],[4.0808,9.8516],[4.0782,9.8542],[4.0704,9.8568],[4.0573,9.8568],[4.052,9.8634],[4.0389,9.8647],[4.0272,9.8568],[4.0219,9.8568],[4.0167,9.8686],[4.0128,9.8856],[4.0114,9.8987],[4.0023,9.9066],[3.9853,9.8935],[3.98,9.9066],[3.9673,9.903],[3.9623,9.9079],[3.946,9.9079],[3.9362,9.9161],[3.9345,9.9275],[3.9427,9.9324],[3.9591,9.9341],[3.9607,9.9374],[3.9689,9.9423],[3.9705,9.9488],[3.9656,9.957],[3.9591,9.9603],[3.9411,9.9619],[3.9345,9.9668],[3.9362,9.9734],[3.9411,9.9766],[3.9525,9.9783],[3.9542,9.9832],[3.9492,9.9914],[3.9345,9.9996],[3.9214,9.9996],[3.91,9.9897],[3.887,9.9881],[3.887,10.0045],[3.8903,10.0159],[3.9034,10.0192],[3.8903,10.0307],[3.8723,10.0421],[3.8641,10.0503],[3.851,10.0552],[3.833,10.047],[3.8233,10.0543],[3.818,10.0668],[3.7991,10.0712],[3.7969,10.0661],[3.7987,10.0281],[3.6991,9.6989],[3.6767,9.6325],[3.7171,9.5303],[3.7186,9.4169],[3.724,9.3648],[3.7469,9.2596],[3.7558,9.2045],[3.7707,9.1468]]]}},{"type":"Feature","properties":{"name":"Moro","state":"Kwara","scode":"KW","centroid":[8.8419,4.5776]},"geometry":{"type":"Polygon","coordinates":[[[4.3349,8.9808],[4.3349,8.9577],[4.321,8.9424],[4.258,8.9009],[4.2211,8.8609],[4.195,8.8163],[4.2346,8.8047],[4.2579,8.7342],[4.3011,8.7466],[4.3409,8.7178],[4.3425,8.6902],[4.3948,8.6562],[4.4189,8.6132],[4.4193,8.5979],[4.4281,8.5834],[4.4786,8.5647],[4.4791,8.5614],[4.4852,8.5591],[4.4929,8.5606],[4.4985,8.5667],[4.5086,8.5703],[4.5332,8.5723],[4.543,8.575],[4.5486,8.5802],[4.5566,8.5782],[4.5642,8.5791],[4.5731,8.5777],[4.5783,8.5732],[4.586,8.5722],[4.5832,8.5659],[4.5864,8.5625],[4.5873,8.5577],[4.5894,8.5592],[4.5906,8.5578],[4.5913,8.5531],[4.5969,8.5466],[4.5958,8.5456],[4.5971,8.5416],[4.5988,8.5414],[4.6021,8.5365],[4.6046,8.5388],[4.6045,8.5409],[4.6168,8.5429],[4.6332,8.5516],[4.6378,8.5518],[4.6409,8.5538],[4.6486,8.5612],[4.6526,8.5708],[4.6792,8.5745],[4.707,8.5982],[4.7219,8.6138],[4.7416,8.6308],[4.7653,8.6471],[4.7809,8.662],[4.825,8.6932],[4.8406,8.7135],[4.8454,8.7244],[4.861,8.7373],[4.8808,8.7464],[4.8701,8.765],[4.8626,8.7832],[4.8353,8.8139],[4.8261,8.8305],[4.8154,8.8462],[4.8087,8.8794],[4.7917,8.8916],[4.7813,8.9216],[4.7907,8.9508],[4.7955,8.9495],[4.796,8.9535],[4.8002,8.9531],[4.8021,8.9515],[4.8046,8.9623],[4.8129,8.9747],[4.8278,8.9847],[4.8303,8.9905],[4.8394,8.9922],[4.851,8.998],[4.8519,9.0137],[4.8776,9.0212],[4.88,9.0427],[4.8776,9.0477],[4.8846,9.0577],[4.8904,9.0568],[4.8929,9.0595],[4.8908,9.0636],[4.8922,9.0697],[4.8976,9.0751],[4.8983,9.0826],[4.9003,9.0866],[4.8996,9.1063],[4.8976,9.1171],[4.8915,9.1192],[4.8861,9.1246],[4.8895,9.1361],[4.884,9.1409],[4.8761,9.1576],[4.8652,9.1503],[4.8572,9.1487],[4.8481,9.1412],[4.8282,9.1342],[4.8152,9.1316],[4.8126,9.1321],[4.8076,9.1364],[4.7853,9.1353],[4.7725,9.1476],[4.7687,9.1535],[4.7646,9.1499],[4.7566,9.1346],[4.7488,9.088],[4.736,9.0847],[4.7231,9.0754],[4.7211,9.0655],[4.6831,9.0734],[4.6795,9.0589],[4.6703,9.0647],[4.6695,9.0716],[4.6364,9.0814],[4.61,9.0817],[4.6035,9.0843],[4.588,9.0827],[4.5499,9.0747],[4.5241,9.0742],[4.5021,9.0683],[4.4882,9.0597],[4.471,9.0532],[4.4592,9.0468],[4.4281,9.0361],[4.3349,8.9808]]]}},{"type":"Feature","properties":{"name":"Offa","state":"Kwara","scode":"KW","centroid":[8.1644,4.6993]},"geometry":{"type":"Polygon","coordinates":[[[4.6504,8.1625],[4.6506,8.1444],[4.6593,8.1445],[4.6718,8.1383],[4.6721,8.133],[4.6741,8.1307],[4.6792,8.132],[4.6845,8.1246],[4.6972,8.1315],[4.7096,8.1275],[4.715,8.1232],[4.7278,8.1236],[4.7584,8.1377],[4.7545,8.1408],[4.7541,8.1438],[4.7573,8.1505],[4.7538,8.1526],[4.7434,8.1524],[4.7386,8.1483],[4.7332,8.155],[4.7342,8.1591],[4.7405,8.1588],[4.739,8.1604],[4.7391,8.1645],[4.7373,8.167],[4.7315,8.1618],[4.7273,8.1649],[4.7285,8.1675],[4.7267,8.1686],[4.7298,8.1737],[4.7258,8.1756],[4.7235,8.1936],[4.7116,8.2107],[4.6938,8.2174],[4.6873,8.2149],[4.6697,8.1981],[4.6637,8.1818],[4.6504,8.1625]]]}},{"type":"Feature","properties":{"name":"Oke Ero","state":"Kwara","scode":"KW","centroid":[8.1907,5.2726]},"geometry":{"type":"Polygon","coordinates":[[[5.0576,8.0395],[5.0618,8.0382],[5.0724,8.031],[5.0757,8.025],[5.0844,8.0242],[5.1179,8.0626],[5.1423,8.0619],[5.1626,8.0495],[5.1655,8.0557],[5.1837,8.0726],[5.2002,8.0985],[5.2086,8.1168],[5.2247,8.1449],[5.2767,8.1534],[5.2963,8.1611],[5.3231,8.168],[5.3462,8.1712],[5.3673,8.1804],[5.4319,8.1875],[5.451,8.2004],[5.4575,8.2064],[5.4319,8.2247],[5.4223,8.2281],[5.4188,8.2355],[5.4223,8.2512],[5.4219,8.2616],[5.4197,8.2677],[5.4215,8.2738],[5.4184,8.2838],[5.4045,8.292],[5.3971,8.292],[5.381,8.2781],[5.3723,8.2742],[5.3628,8.2734],[5.3567,8.2747],[5.3532,8.2868],[5.3532,8.3099],[5.3358,8.3286],[5.3323,8.3312],[5.3245,8.3338],[5.321,8.3251],[5.3062,8.3007],[5.2997,8.2955],[5.281,8.2738],[5.2558,8.2655],[5.2458,8.2573],[5.2399,8.2551],[5.2276,8.2403],[5.2241,8.2377],[5.2176,8.236],[5.198,8.2142],[5.1945,8.2],[5.1945,8.1939],[5.1898,8.1856],[5.1848,8.1815],[5.1907,8.1642],[5.1907,8.1585],[5.1888,8.1521],[5.1811,8.1403],[5.1592,8.1228],[5.1329,8.1233],[5.1237,8.1191],[5.1197,8.1129],[5.0904,8.0945],[5.0858,8.0876],[5.0788,8.0641],[5.0665,8.0545],[5.0549,8.0492],[5.0576,8.0395]]]}},{"type":"Feature","properties":{"name":"Oyun","state":"Kwara","scode":"KW","centroid":[8.1578,4.6755]},"geometry":{"type":"Polygon","coordinates":[[[4.7993,8.0651],[4.8194,8.0817],[4.8167,8.0839],[4.8192,8.1016],[4.8147,8.118],[4.815,8.1311],[4.8105,8.1433],[4.806,8.1484],[4.7995,8.1637],[4.7859,8.1801],[4.7595,8.1941],[4.7393,8.1971],[4.7353,8.2032],[4.7376,8.2076],[4.7474,8.2097],[4.7375,8.2307],[4.7057,8.2551],[4.6883,8.286],[4.6878,8.2933],[4.6912,8.3153],[4.6847,8.3147],[4.679,8.3115],[4.6714,8.3017],[4.6671,8.3085],[4.6502,8.3237],[4.6414,8.3281],[4.638,8.3269],[4.629,8.3088],[4.6221,8.2814],[4.6011,8.2634],[4.5908,8.2513],[4.5831,8.235],[4.5831,8.22],[4.5848,8.2127],[4.5929,8.1986],[4.5977,8.1861],[4.5946,8.1711],[4.5843,8.1591],[4.5684,8.1525],[4.5673,8.1495],[4.5723,8.1412],[4.5721,8.1363],[4.5737,8.1313],[4.5729,8.1264],[4.5683,8.1257],[4.5613,8.1209],[4.5607,8.1181],[4.5576,8.1154],[4.5502,8.1115],[4.5493,8.1088],[4.5393,8.1043],[4.5331,8.0933],[4.5299,8.0796],[4.5274,8.0761],[4.5573,8.0587],[4.569,8.0548],[4.5981,8.0639],[4.603,8.0681],[4.6217,8.0757],[4.629,8.0745],[4.6339,8.0715],[4.6324,8.0612],[4.6339,8.057],[4.6374,8.0536],[4.6484,8.0536],[4.6595,8.0456],[4.6656,8.0433],[4.6736,8.0459],[4.6751,8.0498],[4.6873,8.057],[4.6922,8.0562],[4.6996,8.0491],[4.7044,8.0482],[4.7117,8.0597],[4.7212,8.0642],[4.7353,8.0635],[4.7548,8.065],[4.7662,8.0681],[4.7792,8.0684],[4.7856,8.0684],[4.7993,8.0651]],[[4.6504,8.1625],[4.6637,8.1818],[4.6697,8.1981],[4.6873,8.2149],[4.6938,8.2174],[4.7116,8.2107],[4.7235,8.1936],[4.7258,8.1756],[4.7298,8.1737],[4.7267,8.1686],[4.7285,8.1675],[4.7273,8.1649],[4.7315,8.1618],[4.7373,8.167],[4.7391,8.1645],[4.739,8.1604],[4.7405,8.1588],[4.7342,8.1591],[4.7332,8.155],[4.7386,8.1483],[4.7434,8.1524],[4.7538,8.1526],[4.7573,8.1505],[4.7541,8.1438],[4.7545,8.1408],[4.7584,8.1377],[4.7278,8.1236],[4.715,8.1232],[4.7096,8.1275],[4.6972,8.1315],[4.6845,8.1246],[4.6792,8.132],[4.6741,8.1307],[4.6721,8.133],[4.6718,8.1383],[4.6593,8.1445],[4.6506,8.1444],[4.6504,8.1625]]]}},{"type":"Feature","properties":{"name":"Pategi","state":"Kwara","scode":"KW","centroid":[8.628,5.7797]},"geometry":{"type":"Polygon","coordinates":[[[5.4464,8.4797],[5.4535,8.4863],[5.4657,8.4924],[5.4766,8.4999],[5.4901,8.5182],[5.4962,8.529],[5.503,8.5345],[5.5146,8.5351],[5.5132,8.5385],[5.5241,8.5369],[5.5444,8.5231],[5.5542,8.5125],[5.5745,8.506],[5.5997,8.4889],[5.6429,8.4629],[5.6882,8.4529],[5.7047,8.4458],[5.7486,8.4377],[5.7827,8.4279],[5.8055,8.4255],[5.8185,8.4271],[5.8291,8.4263],[5.8494,8.4223],[5.9121,8.4239],[5.9251,8.4182],[5.9568,8.4084],[5.9787,8.4052],[5.9909,8.4019],[6.0137,8.4003],[6.0406,8.393],[6.0601,8.3938],[6.078,8.3979],[6.0827,8.4018],[6.0975,8.4141],[6.1113,8.4312],[6.1131,8.4415],[6.1138,8.4613],[6.1251,8.5556],[6.1333,8.5678],[6.1479,8.5963],[6.1626,8.6378],[6.1699,8.663],[6.2085,8.7324],[6.2032,8.7346],[6.1853,8.7297],[6.1691,8.7215],[6.1495,8.7207],[6.1316,8.7516],[6.1272,8.7533],[6.1146,8.7581],[6.0845,8.7606],[6.0332,8.759],[5.9999,8.7516],[5.9787,8.75],[5.9747,8.7565],[5.9438,8.7484],[5.9283,8.7427],[5.9015,8.75],[5.8868,8.7468],[5.7958,8.7419],[5.7746,8.7533],[5.7608,8.7736],[5.7421,8.798],[5.7282,8.82],[5.7128,8.8289],[5.6916,8.8281],[5.6656,8.8305],[5.642,8.8354],[5.6193,8.8525],[5.6054,8.8679],[5.6014,8.8769],[5.5631,8.8988],[5.5486,8.9122],[5.4305,8.8487],[5.4232,8.8294],[5.4304,8.7847],[5.4414,8.7663],[5.4559,8.7546],[5.4621,8.74],[5.4519,8.7209],[5.4425,8.7106],[5.4336,8.6919],[5.4186,8.6821],[5.4136,8.6862],[5.4207,8.6588],[5.4232,8.6406],[5.424,8.6132],[5.419,8.5693],[5.4207,8.5336],[5.4256,8.5162],[5.4356,8.4922],[5.4464,8.4797]]]}}]}