{"type":"FeatureCollection","features":[{"type":"Feature","properties":{"name":"Agege","state":"Lagos","scode":"LA","centroid":[6.6239,3.3162]},"geometry":{"type":"Polygon","coordinates":[[[3.3158,6.6054],[3.3205,6.6079],[3.3266,6.6082],[3.3331,6.6018],[3.333,6.6139],[3.3357,6.6142],[3.3355,6.6168],[3.3368,6.6175],[3.3346,6.6258],[3.3367,6.6265],[3.3274,6.6289],[3.3226,6.6274],[3.3145,6.6479],[3.306,6.6478],[3.2981,6.6251],[3.2983,6.6227],[3.3032,6.6174],[3.3063,6.6104],[3.3158,6.6054]]]}},{"type":"Feature","properties":{"name":"Ajeromi/Ifelodun","state":"Lagos","scode":"LA","centroid":[6.4554,3.3372]},"geometry":{"type":"Polygon","coordinates":[[[3.3388,6.4746],[3.3197,6.4609],[3.3156,6.4598],[3.316,6.4547],[3.3213,6.4436],[3.3345,6.4401],[3.3371,6.4381],[3.3491,6.437],[3.3492,6.4438],[3.3515,6.4489],[3.351,6.4548],[3.3561,6.4552],[3.3564,6.4595],[3.3555,6.4666],[3.3509,6.4674],[3.3505,6.4729],[3.346,6.4711],[3.3388,6.4746]]]}},{"type":"Feature","properties":{"name":"Alimosho","state":"Lagos","scode":"LA","centroid":[6.574,3.2556]},"geometry":{"type":"Polygon","coordinates":[[[3.1996,6.5319],[3.2032,6.5239],[3.2062,6.5233],[3.2085,6.513],[3.2142,6.5066],[3.2133,6.5013],[3.2157,6.4979],[3.2169,6.4974],[3.2171,6.5],[3.2202,6.4991],[3.2233,6.5013],[3.2333,6.4943],[3.2373,6.4859],[3.241,6.4847],[3.2372,6.4815],[3.2373,6.4802],[3.2398,6.4797],[3.2395,6.4744],[3.244,6.4722],[3.2464,6.4771],[3.2702,6.4781],[3.2845,6.4864],[3.29,6.4916],[3.2902,6.502],[3.2925,6.5068],[3.2818,6.5215],[3.2871,6.5254],[3.2886,6.5333],[3.288,6.5411],[3.2859,6.5451],[3.2872,6.5554],[3.2857,6.5578],[3.2869,6.5612],[3.2864,6.568],[3.2881,6.5706],[3.2947,6.5727],[3.3007,6.5719],[3.3057,6.5682],[3.3075,6.5717],[3.307,6.5772],[3.3087,6.5776],[3.3088,6.5881],[3.3099,6.6006],[3.3156,6.6014],[3.3158,6.6054],[3.3063,6.6104],[3.3032,6.6174],[3.2983,6.6227],[3.2981,6.6251],[3.306,6.6478],[3.2944,6.6559],[3.29,6.6628],[3.2832,6.6633],[3.2736,6.6698],[3.2706,6.6749],[3.2699,6.6816],[3.2574,6.693],[3.2561,6.6819],[3.2443,6.6658],[3.2384,6.6608],[3.2378,6.6198],[3.2274,6.6078],[3.2246,6.6018],[3.2118,6.5947],[3.2051,6.5886],[3.2044,6.5862],[3.1933,6.5778],[3.1917,6.5696],[3.1921,6.5677],[3.1936,6.5689],[3.1953,6.567],[3.198,6.5612],[3.2001,6.5505],[3.1986,6.5458],[3.2012,6.5441],[3.2003,6.5363],[3.2014,6.5326],[3.1996,6.5319]]]}},{"type":"Feature","properties":{"name":"Amuwo Odofin","state":"Lagos","scode":"LA","centroid":[6.4366,3.2785]},"geometry":{"type":"Polygon","coordinates":[[[3.3371,6.4381],[3.3345,6.4401],[3.3213,6.4436],[3.316,6.4547],[3.3156,6.4598],[3.3253,6.4729],[3.3273,6.478],[3.3271,6.4836],[3.3215,6.4958],[3.3196,6.4954],[3.3173,6.4898],[3.3152,6.4888],[3.2903,6.4828],[3.29,6.4916],[3.2845,6.4864],[3.2702,6.4781],[3.2464,6.4771],[3.244,6.4722],[3.2395,6.4744],[3.2398,6.4797],[3.2373,6.4802],[3.2372,6.4815],[3.2337,6.4786],[3.2348,6.4737],[3.2378,6.4706],[3.2379,6.4582],[3.2309,6.4593],[3.2302,6.442],[3.2273,6.4421],[3.2158,6.4351],[3.201,6.4345],[3.1994,6.432],[3.1993,6.4195],[3.2018,6.4148],[3.2017,6.4021],[3.3022,6.402],[3.335,6.4009],[3.3596,6.3977],[3.3545,6.4245],[3.3321,6.4299],[3.3317,6.4374],[3.3371,6.4381]]]}},{"type":"Feature","properties":{"name":"Apapa","state":"Lagos","scode":"LA","centroid":[6.4355,3.371]},"geometry":{"type":"Polygon","coordinates":[[[3.3645,6.4762],[3.3634,6.4739],[3.3613,6.4748],[3.3592,6.473],[3.3562,6.4732],[3.3528,6.4783],[3.3491,6.4778],[3.348,6.4791],[3.3388,6.4746],[3.346,6.4711],[3.3505,6.4729],[3.3509,6.4674],[3.3555,6.4666],[3.3564,6.4595],[3.3561,6.4552],[3.351,6.4548],[3.3515,6.4489],[3.3492,6.4438],[3.3491,6.437],[3.3371,6.4381],[3.3317,6.4374],[3.3321,6.4299],[3.3545,6.4245],[3.3596,6.3977],[3.3771,6.398],[3.3801,6.4074],[3.3844,6.4099],[3.4003,6.4104],[3.403,6.4292],[3.403,6.4393],[3.3815,6.4541],[3.3798,6.4601],[3.3815,6.4635],[3.3794,6.4662],[3.3778,6.4694],[3.3723,6.4694],[3.3705,6.474],[3.3645,6.4762]]]}},{"type":"Feature","properties":{"name":"Badagry","state":"Lagos","scode":"LA","centroid":[6.441,2.9146]},"geometry":{"type":"Polygon","coordinates":[[[2.892,6.5115],[2.8855,6.5114],[2.8894,6.4865],[2.8888,6.4813],[2.8843,6.4743],[2.8765,6.4699],[2.8646,6.4693],[2.86,6.4668],[2.8581,6.4632],[2.8582,6.4491],[2.8395,6.4488],[2.8314,6.4449],[2.8183,6.4546],[2.7937,6.4621],[2.7823,6.4606],[2.7734,6.454],[2.7592,6.4525],[2.7377,6.4526],[2.7298,6.4598],[2.723,6.4615],[2.7046,6.4598],[2.6988,6.4588],[2.6992,6.4316],[2.7015,6.4118],[2.6998,6.3752],[2.706,6.375],[2.7991,6.3876],[2.844,6.3916],[2.9252,6.3945],[2.9922,6.3947],[3.0208,6.397],[3.0239,6.4046],[3.031,6.4098],[3.0477,6.4139],[3.0622,6.4155],[3.0684,6.4099],[3.0822,6.411],[3.0943,6.4086],[3.1063,6.4108],[3.1089,6.4271],[3.1064,6.4293],[3.1061,6.4347],[3.1041,6.435],[3.0998,6.4394],[3.0922,6.4676],[3.103,6.4674],[3.1118,6.4708],[3.1151,6.4753],[3.1155,6.4808],[3.1121,6.4907],[3.1026,6.4984],[3.103,6.4996],[3.0936,6.5001],[3.0772,6.4924],[3.0723,6.4972],[3.0598,6.5018],[2.9542,6.5018],[2.954,6.5127],[2.9503,6.5141],[2.9377,6.5132],[2.9351,6.5163],[2.9314,6.512],[2.9347,6.5104],[2.935,6.5086],[2.93,6.5086],[2.9265,6.5047],[2.9248,6.5082],[2.9265,6.5119],[2.9243,6.5127],[2.9189,6.5129],[2.9174,6.5115],[2.892,6.5115]]]}},{"type":"Feature","properties":{"name":"Epe","state":"Lagos","scode":"LA","centroid":[6.5538,3.9694]},"geometry":{"type":"Polygon","coordinates":[[[4.085,6.6798],[3.9825,6.6827],[3.9788,6.6919],[3.9121,6.6812],[3.903,6.6816],[3.699,6.6841],[3.6992,6.6787],[3.6971,6.6732],[3.6925,6.6685],[3.6906,6.663],[3.6908,6.6576],[3.6873,6.6536],[3.6838,6.64],[3.6895,6.6343],[3.6908,6.6317],[3.69,6.6286],[3.6926,6.627],[3.6941,6.6278],[3.6968,6.6253],[3.697,6.6226],[3.6997,6.6185],[3.7006,6.6097],[3.697,6.6069],[3.7007,6.5976],[3.6899,6.5908],[3.6875,6.5865],[3.684,6.5853],[3.6826,6.5823],[3.6789,6.5808],[3.6754,6.5758],[3.6695,6.5728],[3.6623,6.5622],[3.6572,6.5577],[3.6418,6.5515],[3.6355,6.5447],[3.6329,6.5397],[3.629,6.5248],[3.6162,6.5134],[3.627,6.5053],[3.629,6.4989],[3.6272,6.4955],[3.6191,6.4915],[3.619,6.4886],[3.6215,6.4874],[3.6306,6.4859],[3.6399,6.4802],[3.643,6.4822],[3.6465,6.4889],[3.6543,6.4934],[3.667,6.4915],[3.6821,6.4875],[3.7212,6.495],[3.7883,6.5001],[3.8468,6.5128],[3.8664,6.5115],[3.861,6.5262],[3.8534,6.5369],[3.8845,6.5371],[3.8949,6.5329],[3.8933,6.5205],[3.8953,6.5034],[3.9031,6.5073],[3.9105,6.5089],[3.9209,6.5063],[3.929,6.51],[3.9406,6.5105],[3.9481,6.5065],[3.9486,6.5004],[3.9663,6.5027],[3.9707,6.5015],[3.9791,6.4937],[3.9886,6.4906],[3.993,6.4902],[3.9991,6.4924],[4.0041,6.4804],[4.0121,6.4728],[4.0219,6.4716],[4.0273,6.4658],[4.039,6.4664],[4.041,6.4652],[4.0448,6.46],[4.0537,6.4523],[4.0564,6.4478],[4.0706,6.4345],[4.0767,6.4381],[4.0781,6.4369],[4.0826,6.4374],[4.0961,6.4311],[4.1027,6.425],[4.11,6.423],[4.1296,6.4309],[4.1439,6.4338],[4.1527,6.4282],[4.1596,6.4212],[4.1687,6.4206],[4.2018,6.4251],[4.21,6.4193],[4.2154,6.4103],[4.2244,6.4014],[4.2305,6.3981],[4.2557,6.3941],[4.2742,6.3829],[4.279,6.3782],[4.3508,6.3704],[4.3597,6.3678],[4.3672,6.4071],[4.3686,6.4385],[4.3537,6.4511],[4.3284,6.4481],[4.321,6.4514],[4.3122,6.4453],[4.2913,6.4501],[4.2848,6.4559],[4.2763,6.4559],[4.2659,6.452],[4.2641,6.4451],[4.2601,6.4442],[4.2507,6.4493],[4.2476,6.4552],[4.2384,6.4565],[4.2349,6.4591],[4.2308,6.4686],[4.2248,6.4734],[4.2049,6.4721],[4.2021,6.4755],[4.1958,6.4762],[4.183,6.483],[4.1734,6.4844],[4.1693,6.4875],[4.1679,6.4991],[4.1636,6.507],[4.1735,6.512],[4.1817,6.5207],[4.1979,6.5287],[4.2086,6.5299],[4.2256,6.5397],[4.2327,6.5469],[4.2393,6.5623],[4.241,6.5716],[4.2359,6.5782],[4.2224,6.5957],[4.2136,6.5989],[4.1932,6.5953],[4.1778,6.6041],[4.1633,6.5952],[4.1562,6.5888],[4.1444,6.5822],[4.1318,6.5798],[4.1282,6.5744],[4.1213,6.5699],[4.1168,6.5558],[4.1095,6.5542],[4.1013,6.5577],[4.101,6.5679],[4.0988,6.5719],[4.0905,6.5696],[4.0717,6.5713],[4.0696,6.5726],[4.0702,6.5762],[4.0612,6.5852],[4.0586,6.596],[4.0584,6.6087],[4.0545,6.6152],[4.0547,6.622],[4.0576,6.6208],[4.0624,6.6286],[4.0585,6.6345],[4.0628,6.6364],[4.0706,6.6318],[4.0762,6.6334],[4.0792,6.6357],[4.0833,6.6362],[4.0933,6.6462],[4.09,6.6475],[4.0964,6.6526],[4.0939,6.6664],[4.0969,6.6715],[4.0913,6.6797],[4.085,6.6798]]]}},{"type":"Feature","properties":{"name":"Eti Osa","state":"Lagos","scode":"LA","centroid":[6.4527,3.5433]},"geometry":{"type":"Polygon","coordinates":[[[3.403,6.4393],[3.403,6.4292],[3.4003,6.4104],[3.3844,6.4099],[3.3801,6.4074],[3.3771,6.398],[3.4017,6.3986],[3.4046,6.4119],[3.4088,6.4161],[3.4301,6.4222],[3.4304,6.4238],[3.44,6.4186],[3.4609,6.4201],[3.4678,6.4173],[3.4773,6.4177],[3.4818,6.4193],[3.4918,6.4183],[3.4967,6.4195],[3.6282,6.4219],[3.6305,6.4302],[3.6425,6.4442],[3.6657,6.4679],[3.6734,6.474],[3.6734,6.4823],[3.667,6.4915],[3.6543,6.4934],[3.6465,6.4889],[3.643,6.4822],[3.6399,6.4802],[3.6306,6.4859],[3.6215,6.4874],[3.619,6.4886],[3.6191,6.4915],[3.6272,6.4955],[3.629,6.4989],[3.627,6.5053],[3.6162,6.5134],[3.6012,6.5165],[3.5728,6.5118],[3.5743,6.5034],[3.5788,6.5012],[3.5795,6.4958],[3.5655,6.4781],[3.5536,6.4685],[3.5516,6.4671],[3.5506,6.4691],[3.5383,6.4695],[3.5346,6.4681],[3.5313,6.4644],[3.534,6.4603],[3.5282,6.4618],[3.5237,6.4652],[3.5209,6.4616],[3.5176,6.4615],[3.5212,6.4631],[3.5221,6.4655],[3.5181,6.4685],[3.5128,6.4689],[3.5103,6.4659],[3.5091,6.4577],[3.5045,6.4542],[3.4947,6.4548],[3.4949,6.4559],[3.492,6.4566],[3.492,6.4497],[3.4934,6.4481],[3.4919,6.4471],[3.4875,6.4517],[3.4898,6.4538],[3.4863,6.4576],[3.4847,6.4539],[3.482,6.4583],[3.4763,6.4603],[3.4795,6.4637],[3.4832,6.4609],[3.4869,6.4669],[3.4827,6.4701],[3.4756,6.4604],[3.4628,6.4612],[3.4602,6.4654],[3.4459,6.4689],[3.4437,6.4663],[3.4462,6.4639],[3.4405,6.4657],[3.4384,6.4633],[3.4368,6.4653],[3.4361,6.4637],[3.4304,6.4645],[3.4273,6.4676],[3.4221,6.4681],[3.4166,6.4637],[3.4114,6.4617],[3.4041,6.4616],[3.4041,6.4584],[3.4071,6.4571],[3.4085,6.4538],[3.4072,6.4462],[3.4031,6.4414],[3.403,6.4393]]]}},{"type":"Feature","properties":{"name":"Ibeju Lekki","state":"Lagos","scode":"LA","centroid":[6.4555,3.9006]},"geometry":{"type":"Polygon","coordinates":[[[3.667,6.4915],[3.6734,6.4823],[3.6734,6.474],[3.6657,6.4679],[3.6425,6.4442],[3.6305,6.4302],[3.6282,6.4219],[3.7148,6.4241],[3.8054,6.4353],[3.8602,6.4357],[3.8719,6.4341],[3.8964,6.4337],[3.9755,6.4258],[4.077,6.4106],[4.0846,6.408],[4.1922,6.3881],[4.2593,6.3792],[4.279,6.3782],[4.2742,6.3829],[4.2557,6.3941],[4.2305,6.3981],[4.2244,6.4014],[4.2154,6.4103],[4.21,6.4193],[4.2018,6.4251],[4.1687,6.4206],[4.1596,6.4212],[4.1527,6.4282],[4.1439,6.4338],[4.1296,6.4309],[4.11,6.423],[4.1027,6.425],[4.0961,6.4311],[4.0826,6.4374],[4.0781,6.4369],[4.0767,6.4381],[4.0706,6.4345],[4.0564,6.4478],[4.0537,6.4523],[4.0448,6.46],[4.041,6.4652],[4.039,6.4664],[4.0273,6.4658],[4.0219,6.4716],[4.0121,6.4728],[4.0041,6.4804],[3.9991,6.4924],[3.993,6.4902],[3.9886,6.4906],[3.9791,6.4937],[3.9707,6.5015],[3.9663,6.5027],[3.9486,6.5004],[3.9481,6.5065],[3.9406,6.5105],[3.929,6.51],[3.9209,6.5063],[3.9105,6.5089],[3.9031,6.5073],[3.8953,6.5034],[3.8933,6.5205],[3.8949,6.5329],[3.8845,6.5371],[3.8534,6.5369],[3.861,6.5262],[3.8664,6.5115],[3.8468,6.5128],[3.7883,6.5001],[3.7212,6.495],[3.6821,6.4875],[3.667,6.4915]]]}},{"type":"Feature","properties":{"name":"Ifako/Ijaye","state":"Lagos","scode":"LA","centroid":[6.6636,3.3094]},"geometry":{"type":"Polygon","coordinates":[[[3.2574,6.693],[3.2699,6.6816],[3.2706,6.6749],[3.2736,6.6698],[3.2832,6.6633],[3.29,6.6628],[3.2944,6.6559],[3.306,6.6478],[3.3145,6.6479],[3.3226,6.6274],[3.3274,6.6289],[3.3367,6.6265],[3.3432,6.6359],[3.3432,6.6448],[3.3412,6.6495],[3.3417,6.651],[3.3501,6.6575],[3.3534,6.6582],[3.3484,6.6612],[3.345,6.6726],[3.3281,6.6717],[3.3172,6.6757],[3.3155,6.6743],[3.3124,6.6747],[3.3069,6.6791],[3.2855,6.6868],[3.2783,6.694],[3.2725,6.6984],[3.2645,6.7004],[3.2577,6.697],[3.2574,6.693]]]}},{"type":"Feature","properties":{"name":"Ikeja","state":"Lagos","scode":"LA","centroid":[6.6033,3.3495]},"geometry":{"type":"Polygon","coordinates":[[[3.3669,6.5585],[3.3668,6.568],[3.3682,6.5727],[3.383,6.5935],[3.3783,6.5995],[3.3766,6.6005],[3.3753,6.5995],[3.3695,6.6075],[3.3666,6.605],[3.3586,6.6108],[3.3631,6.6157],[3.3657,6.6166],[3.3641,6.6225],[3.3646,6.6298],[3.3675,6.636],[3.3727,6.6411],[3.3706,6.6417],[3.3637,6.6494],[3.3527,6.6523],[3.3521,6.656],[3.354,6.6573],[3.3534,6.6582],[3.3501,6.6575],[3.3417,6.651],[3.3412,6.6495],[3.3432,6.6448],[3.3432,6.6359],[3.3367,6.6265],[3.3346,6.6258],[3.3368,6.6175],[3.3355,6.6168],[3.3357,6.6142],[3.333,6.6139],[3.3331,6.6018],[3.3266,6.6082],[3.3205,6.6079],[3.3158,6.6054],[3.3156,6.6014],[3.3099,6.6006],[3.3088,6.5881],[3.3151,6.5879],[3.3157,6.5806],[3.3214,6.5827],[3.3305,6.5805],[3.331,6.5826],[3.3339,6.5828],[3.3342,6.5893],[3.3376,6.5903],[3.3518,6.5557],[3.3583,6.5583],[3.3669,6.5585]]]}},{"type":"Feature","properties":{"name":"Ikorodu","state":"Lagos","scode":"LA","centroid":[6.6119,3.5672]},"geometry":{"type":"Polygon","coordinates":[[[3.4432,6.6859],[3.4392,6.6828],[3.4398,6.6755],[3.4435,6.6739],[3.4442,6.6711],[3.4425,6.6685],[3.4421,6.6628],[3.4477,6.6618],[3.4481,6.6549],[3.4521,6.6409],[3.4312,6.6406],[3.4403,6.6329],[3.4452,6.6261],[3.4498,6.6249],[3.4524,6.6227],[3.4527,6.6216],[3.4426,6.6138],[3.4408,6.6108],[3.4418,6.6071],[3.4449,6.606],[3.4618,6.5911],[3.4647,6.592],[3.4653,6.5957],[3.4666,6.5964],[3.4668,6.5988],[3.4643,6.6019],[3.4732,6.6013],[3.4772,6.6079],[3.4815,6.6064],[3.4824,6.6023],[3.4792,6.598],[3.4813,6.5968],[3.4879,6.601],[3.4821,6.5823],[3.4703,6.5614],[3.4706,6.5546],[3.4723,6.553],[3.4717,6.5494],[3.4685,6.5436],[3.4665,6.5436],[3.4675,6.5356],[3.4807,6.5219],[3.4896,6.5162],[3.4958,6.5193],[3.4969,6.5225],[3.508,6.5188],[3.5123,6.5146],[3.5243,6.5136],[3.5411,6.5235],[3.5552,6.5187],[3.561,6.5223],[3.5611,6.5245],[3.5652,6.5256],[3.5689,6.5349],[3.5766,6.5429],[3.5851,6.5481],[3.5884,6.5486],[3.5921,6.546],[3.6001,6.5455],[3.6079,6.5486],[3.6184,6.5475],[3.6285,6.5387],[3.6329,6.5397],[3.6355,6.5447],[3.6418,6.5515],[3.6572,6.5577],[3.6623,6.5622],[3.6695,6.5728],[3.6754,6.5758],[3.6789,6.5808],[3.6826,6.5823],[3.684,6.5853],[3.6875,6.5865],[3.6899,6.5908],[3.7007,6.5976],[3.697,6.6069],[3.7006,6.6097],[3.6997,6.6185],[3.697,6.6226],[3.6968,6.6253],[3.6941,6.6278],[3.6926,6.627],[3.69,6.6286],[3.6908,6.6317],[3.6895,6.6343],[3.6838,6.64],[3.6873,6.6536],[3.6908,6.6576],[3.6906,6.663],[3.6925,6.6685],[3.6971,6.6732],[3.6992,6.6787],[3.699,6.6841],[3.6924,6.6828],[3.4614,6.6833],[3.459,6.6735],[3.4432,6.6859]]]}},{"type":"Feature","properties":{"name":"Kosofe","state":"Lagos","scode":"LA","centroid":[6.6018,3.3997]},"geometry":{"type":"Polygon","coordinates":[[[3.3669,6.5585],[3.37,6.5574],[3.3801,6.5483],[3.3968,6.5502],[3.3998,6.5398],[3.4027,6.533],[3.4048,6.533],[3.408,6.5488],[3.4018,6.5645],[3.3979,6.5667],[3.3994,6.5688],[3.4035,6.5687],[3.4041,6.5722],[3.4065,6.5742],[3.4186,6.5778],[3.4186,6.5847],[3.4077,6.5831],[3.4056,6.5842],[3.4065,6.5894],[3.4052,6.595],[3.419,6.5907],[3.4298,6.5952],[3.43,6.5998],[3.4333,6.6042],[3.4418,6.6071],[3.4408,6.6108],[3.4426,6.6138],[3.4527,6.6216],[3.4524,6.6227],[3.4498,6.6249],[3.4452,6.6261],[3.4403,6.6329],[3.4312,6.6406],[3.3925,6.6385],[3.3908,6.6398],[3.3822,6.6391],[3.3839,6.6411],[3.3784,6.6393],[3.3727,6.6411],[3.3675,6.636],[3.3646,6.6298],[3.3641,6.6225],[3.3657,6.6166],[3.3631,6.6157],[3.3586,6.6108],[3.3666,6.605],[3.3695,6.6075],[3.3753,6.5995],[3.3766,6.6005],[3.3783,6.5995],[3.383,6.5935],[3.3682,6.5727],[3.3668,6.568],[3.3669,6.5585]]]}},{"type":"Feature","properties":{"name":"Lagos Island","state":"Lagos","scode":"LA","centroid":[6.4538,3.395]},"geometry":{"type":"Polygon","coordinates":[[[3.403,6.4393],[3.4031,6.4414],[3.4072,6.4462],[3.4085,6.4538],[3.4071,6.4571],[3.4041,6.4584],[3.3987,6.4595],[3.3921,6.4659],[3.3816,6.4623],[3.3815,6.4635],[3.3798,6.4601],[3.3815,6.4541],[3.403,6.4393]]]}},{"type":"Feature","properties":{"name":"Lagos Mainland","state":"Lagos","scode":"LA","centroid":[6.5004,3.383]},"geometry":{"type":"Polygon","coordinates":[[[3.3794,6.4662],[3.3834,6.4684],[3.3848,6.4707],[3.3843,6.4749],[3.3899,6.4786],[3.3937,6.4848],[3.3931,6.4885],[3.3899,6.4928],[3.3979,6.4909],[3.4043,6.507],[3.4051,6.5154],[3.3998,6.524],[3.382,6.524],[3.3809,6.5266],[3.3761,6.529],[3.3723,6.5255],[3.3706,6.5263],[3.3675,6.5244],[3.3675,6.52],[3.3655,6.5173],[3.3679,6.5164],[3.3721,6.5064],[3.3687,6.5053],[3.3672,6.5014],[3.3676,6.4959],[3.3653,6.4906],[3.3633,6.49],[3.3691,6.4822],[3.3663,6.4806],[3.3645,6.4762],[3.3705,6.474],[3.3723,6.4694],[3.3778,6.4694],[3.3794,6.4662]]]}},{"type":"Feature","properties":{"name":"Mushin","state":"Lagos","scode":"LA","centroid":[6.532,3.3498]},"geometry":{"type":"Polygon","coordinates":[[[3.3675,6.5244],[3.3669,6.5585],[3.3583,6.5583],[3.3518,6.5557],[3.3411,6.5513],[3.338,6.5485],[3.3344,6.517],[3.3253,6.5099],[3.3223,6.5016],[3.3266,6.4986],[3.3377,6.5111],[3.3486,6.5126],[3.3486,6.5156],[3.3517,6.5153],[3.3523,6.5182],[3.3585,6.5128],[3.3608,6.5147],[3.3625,6.5194],[3.3646,6.5204],[3.3655,6.5173],[3.3675,6.52],[3.3675,6.5244]]]}},{"type":"Feature","properties":{"name":"Ojo","state":"Lagos","scode":"LA","centroid":[6.4555,3.1573]},"geometry":{"type":"Polygon","coordinates":[[[3.103,6.4996],[3.1026,6.4984],[3.1121,6.4907],[3.1155,6.4808],[3.1151,6.4753],[3.1118,6.4708],[3.103,6.4674],[3.0922,6.4676],[3.0998,6.4394],[3.1041,6.435],[3.1061,6.4347],[3.1064,6.4293],[3.1089,6.4271],[3.1063,6.4108],[3.0943,6.4086],[3.0822,6.411],[3.0684,6.4099],[3.0622,6.4155],[3.0477,6.4139],[3.031,6.4098],[3.0239,6.4046],[3.0208,6.397],[3.0369,6.3966],[3.1812,6.4024],[3.2017,6.4021],[3.2018,6.4148],[3.1993,6.4195],[3.1994,6.432],[3.201,6.4345],[3.2158,6.4351],[3.2273,6.4421],[3.2302,6.442],[3.2309,6.4593],[3.2379,6.4582],[3.2378,6.4706],[3.2348,6.4737],[3.2337,6.4786],[3.2372,6.4815],[3.241,6.4847],[3.2373,6.4859],[3.2333,6.4943],[3.2233,6.5013],[3.2202,6.4991],[3.2171,6.5],[3.2169,6.4974],[3.2157,6.4979],[3.2133,6.5013],[3.2142,6.5066],[3.2085,6.513],[3.2062,6.5233],[3.2032,6.5239],[3.1996,6.5319],[3.1962,6.5304],[3.1887,6.5307],[3.1844,6.527],[3.1753,6.5148],[3.1634,6.5111],[3.1604,6.5081],[3.1552,6.508],[3.151,6.5059],[3.1455,6.5059],[3.1423,6.5078],[3.1159,6.5049],[3.1086,6.5033],[3.103,6.4996]]]}},{"type":"Feature","properties":{"name":"Oshodi/Isolo","state":"Lagos","scode":"LA","centroid":[6.539,3.3134]},"geometry":{"type":"Polygon","coordinates":[[[3.3518,6.5557],[3.3376,6.5903],[3.3342,6.5893],[3.3339,6.5828],[3.331,6.5826],[3.3305,6.5805],[3.3214,6.5827],[3.3157,6.5806],[3.3151,6.5879],[3.3088,6.5881],[3.3087,6.5776],[3.307,6.5772],[3.3075,6.5717],[3.3057,6.5682],[3.3007,6.5719],[3.2947,6.5727],[3.2881,6.5706],[3.2864,6.568],[3.2869,6.5612],[3.2857,6.5578],[3.2872,6.5554],[3.2859,6.5451],[3.288,6.5411],[3.2886,6.5333],[3.2871,6.5254],[3.2818,6.5215],[3.2925,6.5068],[3.2902,6.502],[3.29,6.4916],[3.2903,6.4828],[3.3152,6.4888],[3.3173,6.4898],[3.3196,6.4954],[3.3215,6.4958],[3.3223,6.5016],[3.3253,6.5099],[3.3344,6.517],[3.338,6.5485],[3.3411,6.5513],[3.3518,6.5557]]]}},{"type":"Feature","properties":{"name":"Shomolu","state":"Lagos","scode":"LA","centroid":[6.5381,3.3831]},"geometry":{"type":"Polygon","coordinates":[[[3.3998,6.524],[3.4015,6.5306],[3.3998,6.5398],[3.3968,6.5502],[3.3801,6.5483],[3.37,6.5574],[3.3669,6.5585],[3.3675,6.5244],[3.3706,6.5263],[3.3723,6.5255],[3.3761,6.529],[3.3809,6.5266],[3.382,6.524],[3.3998,6.524]]]}},{"type":"Feature","properties":{"name":"Surulere","state":"Lagos","scode":"LA","centroid":[6.4929,3.3465]},"geometry":{"type":"Polygon","coordinates":[[[3.3655,6.5173],[3.3646,6.5204],[3.3625,6.5194],[3.3608,6.5147],[3.3585,6.5128],[3.3523,6.5182],[3.3517,6.5153],[3.3486,6.5156],[3.3486,6.5126],[3.3377,6.5111],[3.3266,6.4986],[3.3223,6.5016],[3.3215,6.4958],[3.3271,6.4836],[3.3273,6.478],[3.3253,6.4729],[3.3156,6.4598],[3.3197,6.4609],[3.3388,6.4746],[3.348,6.4791],[3.3491,6.4778],[3.3528,6.4783],[3.3562,6.4732],[3.3592,6.473],[3.3613,6.4748],[3.3634,6.4739],[3.3645,6.4762],[3.3663,6.4806],[3.3691,6.4822],[3.3633,6.49],[3.3653,6.4906],[3.3676,6.4959],[3.3672,6.5014],[3.3687,6.5053],[3.3721,6.5064],[3.3679,6.5164],[3.3655,6.5173]]]}}]}