{"type":"FeatureCollection","features":[{"type":"Feature","properties":{"name":"Akwanga","state":"Nasarawa","scode":"NA","centroid":[9.0007,8.3439]},"geometry":{"type":"Polygon","coordinates":[[[8.1553,9.0415],[8.1784,9.0193],[8.1816,9.0035],[8.1863,8.9932],[8.1851,8.9843],[8.188,8.9741],[8.1865,8.9528],[8.2044,8.9469],[8.2086,8.9412],[8.2157,8.9246],[8.2219,8.9199],[8.2303,8.9101],[8.2354,8.9028],[8.2388,8.8941],[8.239,8.8868],[8.2365,8.8836],[8.2349,8.8765],[8.235,8.855],[8.2267,8.8388],[8.2819,8.8199],[8.309,8.8123],[8.3105,8.8082],[8.3134,8.809],[8.3206,8.8058],[8.3266,8.8141],[8.3347,8.8213],[8.3386,8.8228],[8.3438,8.8299],[8.3504,8.8318],[8.3497,8.8334],[8.3513,8.8338],[8.3515,8.8355],[8.3504,8.8367],[8.3571,8.8387],[8.3594,8.8379],[8.3615,8.8394],[8.3605,8.8461],[8.3587,8.8476],[8.3561,8.856],[8.3563,8.8574],[8.3589,8.8586],[8.3595,8.8641],[8.3699,8.8685],[8.3777,8.8751],[8.3819,8.8807],[8.4218,8.8861],[8.4898,8.8803],[8.5214,8.8706],[8.5249,8.875],[8.5281,8.8759],[8.53,8.8806],[8.5282,8.9021],[8.5228,8.9182],[8.5233,8.9256],[8.5204,8.935],[8.5186,8.9495],[8.5141,8.9587],[8.5083,8.9786],[8.5043,9.0014],[8.4986,9.0113],[8.4907,9.0377],[8.4766,9.0554],[8.4739,9.073],[8.4466,9.1126],[8.4308,9.1258],[8.4184,9.1399],[8.3955,9.162],[8.3873,9.1757],[8.3646,9.1814],[8.3433,9.1945],[8.3381,9.1924],[8.334,9.1851],[8.3283,9.1811],[8.3185,9.1804],[8.3088,9.1864],[8.3009,9.1885],[8.2851,9.1849],[8.2584,9.1829],[8.2535,9.1472],[8.2328,9.1048],[8.1919,9.0524],[8.1553,9.0415]]]}},{"type":"Feature","properties":{"name":"Awe","state":"Nasarawa","scode":"NA","centroid":[8.2482,9.2275]},"geometry":{"type":"Polygon","coordinates":[[[9.3355,7.9855],[9.346,8.0019],[9.4041,8.0456],[9.4154,8.0619],[9.414,8.0711],[9.4034,8.0801],[9.395,8.0937],[9.3926,8.1018],[9.3919,8.1328],[9.3869,8.1488],[9.3914,8.1558],[9.4006,8.1594],[9.4063,8.1653],[9.4118,8.1769],[9.4058,8.1872],[9.3905,8.2018],[9.3821,8.2058],[9.3712,8.2151],[9.3467,8.2261],[9.3296,8.2363],[9.3234,8.2535],[9.3255,8.2638],[9.3425,8.2837],[9.3545,8.315],[9.3566,8.3266],[9.3633,8.3405],[9.377,8.35],[9.3897,8.3491],[9.4202,8.3324],[9.4832,8.3061],[9.4925,8.3039],[9.5041,8.3053],[9.518,8.3021],[9.5469,8.305],[9.5922,8.2967],[9.6097,8.2913],[9.6154,8.2948],[9.6175,8.3029],[9.6138,8.3178],[9.6119,8.35],[9.6168,8.3718],[9.605,8.3858],[9.6016,8.3927],[9.5945,8.3932],[9.5886,8.3968],[9.5592,8.4015],[9.5323,8.4141],[9.528,8.4153],[9.5203,8.415],[9.4702,8.4312],[9.4421,8.4456],[9.4362,8.4501],[9.4269,8.4534],[9.4082,8.4641],[9.3885,8.4728],[9.3806,8.4783],[9.3553,8.483],[9.3516,8.4809],[9.3439,8.4805],[9.3363,8.4783],[9.3212,8.4697],[9.3116,8.4694],[9.2907,8.4627],[9.2889,8.4607],[9.2733,8.4639],[9.2639,8.4596],[9.2619,8.4614],[9.2543,8.4592],[9.212,8.4573],[9.2023,8.4588],[9.1826,8.4676],[9.177,8.4635],[9.1749,8.4672],[9.1525,8.4527],[9.1458,8.4434],[9.1386,8.4383],[9.1324,8.4287],[9.1285,8.4304],[9.1275,8.4337],[9.1244,8.4341],[9.1215,8.4382],[9.1011,8.4389],[9.0972,8.4406],[9.0968,8.4483],[9.1032,8.4642],[9.1014,8.4736],[9.0883,8.4836],[9.0801,8.488],[9.0758,8.486],[9.0699,8.4877],[9.0664,8.4925],[9.0599,8.4969],[9.0592,8.5123],[9.0494,8.5197],[9.0434,8.5184],[9.0368,8.5125],[9.0264,8.5128],[9.0195,8.5099],[9.0136,8.5121],[9.0103,8.5153],[9.0051,8.5137],[8.996,8.5184],[8.9866,8.4843],[8.9801,8.4693],[8.9689,8.4558],[8.9642,8.4336],[8.9568,8.4142],[8.9557,8.4062],[8.9696,8.4057],[8.9814,8.4021],[9.0086,8.4004],[9.0099,8.3658],[9.0128,8.3442],[9.0133,8.328],[9.0128,8.3207],[9.0094,8.3113],[9.003,8.3059],[8.9943,8.2936],[8.9731,8.2809],[8.9591,8.2814],[8.9617,8.2708],[8.96,8.2555],[8.9457,8.2501],[8.9421,8.2434],[8.9443,8.2311],[8.9476,8.2226],[8.9601,8.2106],[8.9655,8.2015],[8.9822,8.1892],[8.9959,8.1696],[9.0087,8.1608],[9.0234,8.1392],[9.0351,8.1161],[9.0484,8.0975],[9.0538,8.0877],[9.057,8.0776],[9.0625,8.0745],[9.1147,8.008],[9.1344,7.9886],[9.1458,7.9701],[9.1791,7.9081],[9.2204,7.9265],[9.2507,7.9447],[9.2811,7.9559],[9.3355,7.9855]]]}},{"type":"Feature","properties":{"name":"Doma","state":"Nasarawa","scode":"NA","centroid":[8.1582,8.2558]},"geometry":{"type":"Polygon","coordinates":[[[8.2152,7.8346],[8.2748,7.8146],[8.3455,7.7843],[8.3722,7.77],[8.3855,7.768],[8.4032,7.7662],[8.412,7.7685],[8.4206,7.7742],[8.419,7.7782],[8.4201,7.7826],[8.4155,7.792],[8.4158,7.8],[8.4103,7.8081],[8.4067,7.8177],[8.406,7.8296],[8.4015,7.8382],[8.3985,7.8574],[8.3919,7.8788],[8.3911,7.8905],[8.389,7.8926],[8.374,7.8992],[8.3479,7.9282],[8.3397,7.961],[8.3444,7.9734],[8.3603,7.9623],[8.3603,7.9873],[8.3635,8.0166],[8.3711,8.0463],[8.3909,8.0783],[8.4266,8.1122],[8.4663,8.1392],[8.5037,8.1582],[8.5127,8.1578],[8.516,8.1652],[8.5209,8.1848],[8.516,8.1951],[8.5155,8.2029],[8.5096,8.2162],[8.5077,8.2373],[8.5087,8.2608],[8.5082,8.279],[8.5101,8.2922],[8.505,8.3869],[8.4996,8.4046],[8.4762,8.41],[8.4661,8.4164],[8.4469,8.4518],[8.4268,8.4653],[8.4119,8.4727],[8.3307,8.4835],[8.3004,8.4957],[8.2406,8.5079],[8.2286,8.4978],[8.228,8.49],[8.2226,8.4844],[8.1704,8.4866],[8.1586,8.4841],[8.1551,8.4811],[8.1474,8.469],[8.1608,8.444],[8.1696,8.4389],[8.184,8.4215],[8.1823,8.4094],[8.1766,8.4038],[8.1613,8.4087],[8.1566,8.4058],[8.1592,8.3936],[8.1525,8.391],[8.1474,8.3859],[8.1399,8.3888],[8.1352,8.3856],[8.1405,8.3776],[8.1367,8.3758],[8.1292,8.3802],[8.1191,8.3744],[8.1197,8.3708],[8.1166,8.3671],[8.1095,8.3688],[8.1116,8.3743],[8.1079,8.3768],[8.097,8.3693],[8.0925,8.3627],[8.0931,8.355],[8.09,8.3546],[8.0943,8.3447],[8.0935,8.3431],[8.0873,8.3473],[8.084,8.3482],[8.0806,8.3461],[8.0749,8.3507],[8.0723,8.3503],[8.0722,8.3487],[8.0773,8.3435],[8.0725,8.3381],[8.0698,8.3398],[8.0676,8.339],[8.073,8.3239],[8.0705,8.3175],[8.0719,8.3141],[8.0713,8.3125],[8.0662,8.3166],[8.065,8.3114],[8.0629,8.312],[8.0608,8.3179],[8.0565,8.3091],[8.0606,8.3054],[8.065,8.3044],[8.0665,8.3022],[8.0668,8.2953],[8.0683,8.2927],[8.074,8.289],[8.0694,8.286],[8.0697,8.2843],[8.0743,8.2811],[8.0661,8.2783],[8.0599,8.2817],[8.0562,8.2801],[8.0602,8.2726],[8.0514,8.2618],[8.0533,8.2527],[8.0517,8.2504],[8.0474,8.2529],[8.0436,8.253],[8.0428,8.2467],[8.0398,8.2437],[8.0447,8.2357],[8.0479,8.2348],[8.0521,8.2396],[8.0538,8.2379],[8.0537,8.2318],[8.0491,8.2279],[8.0494,8.225],[8.0479,8.2238],[8.0441,8.224],[8.0383,8.2209],[8.0399,8.2179],[8.0387,8.2149],[8.0336,8.2133],[8.0335,8.2051],[8.0315,8.2024],[8.033,8.1979],[8.0302,8.195],[8.0316,8.1903],[8.03,8.1869],[8.0248,8.1845],[8.0261,8.1808],[8.0369,8.1792],[8.0375,8.1774],[8.0316,8.1772],[8.0284,8.1737],[8.0392,8.165],[8.0387,8.1596],[8.0403,8.1566],[8.0465,8.1532],[8.0486,8.1426],[8.057,8.1378],[8.0556,8.1291],[8.0512,8.1219],[8.0511,8.1188],[8.0408,8.1139],[8.0395,8.1104],[8.0396,8.0942],[8.036,8.0963],[8.0344,8.0956],[8.0291,8.0879],[8.0292,8.0805],[8.0228,8.0766],[8.0168,8.0779],[8.013,8.0805],[8.0069,8.0783],[8.0051,8.0702],[8.0,8.0628],[8.0003,8.0592],[7.9973,8.0562],[8.0038,8.0481],[7.9979,8.0374],[7.9949,8.0356],[7.9916,8.0358],[7.989,8.0293],[7.9859,8.0281],[7.9845,8.0249],[7.9855,8.0202],[7.9917,8.0109],[7.9842,8.0015],[7.9827,7.9964],[7.9849,7.9931],[7.9876,7.975],[7.9987,7.9617],[8.0219,7.9449],[8.0408,7.8964],[8.0724,7.8774],[8.0952,7.869],[8.1138,7.8639],[8.1599,7.8597],[8.1804,7.8526],[8.1831,7.8532],[8.2152,7.8346]]]}},{"type":"Feature","properties":{"name":"Karu","state":"Nasarawa","scode":"NA","centroid":[9.0367,7.7857]},"geometry":{"type":"Polygon","coordinates":[[[7.5531,8.7623],[7.5643,8.757],[7.5841,8.7515],[7.5982,8.7494],[7.6244,8.7506],[7.6381,8.733],[7.6432,8.7369],[7.6575,8.7407],[7.6666,8.7182],[7.6781,8.7074],[7.6803,8.7029],[7.7001,8.6943],[7.7074,8.6957],[7.7274,8.6929],[7.7418,8.7036],[7.754,8.7151],[7.7604,8.7181],[7.7836,8.7106],[7.812,8.6905],[7.8303,8.6858],[7.8544,8.6716],[7.8553,8.6688],[7.8952,8.6423],[7.9001,8.6436],[7.9058,8.665],[7.9067,8.6737],[7.904,8.6802],[7.925,8.6979],[7.9249,8.7115],[7.9353,8.7231],[7.9249,8.7676],[7.8985,8.787],[7.8928,8.7973],[7.8843,8.7927],[7.8685,8.7731],[7.8624,8.7633],[7.843,8.7504],[7.8231,8.7526],[7.8074,8.7506],[7.784,8.7605],[7.7761,8.7799],[7.7789,8.7914],[7.7846,8.8038],[7.776,8.8324],[7.7801,8.8702],[7.7848,8.8736],[7.7886,8.8887],[7.8079,8.898],[7.8209,8.9105],[7.828,8.9128],[7.8393,8.9218],[7.863,8.9231],[7.8658,8.931],[7.8718,8.941],[7.875,8.9506],[7.878,8.9675],[7.8777,8.9739],[7.8821,8.9871],[7.8817,8.9999],[7.8925,9.0173],[7.9119,9.0118],[7.9161,9.0196],[7.9233,9.0282],[7.9321,9.0445],[7.9466,9.0615],[7.9581,9.066],[7.9738,9.0639],[7.9933,9.0798],[8.0012,9.0894],[8.0099,9.11],[8.0236,9.1249],[8.0283,9.1285],[8.0475,9.1363],[8.057,9.1457],[8.0602,9.1443],[8.0694,9.1493],[8.0708,9.1546],[8.0872,9.2307],[8.0781,9.2463],[8.0609,9.2658],[8.0149,9.2849],[7.9967,9.2947],[7.9839,9.2979],[7.9406,9.3142],[7.9191,9.3174],[7.8974,9.3059],[7.8725,9.29],[7.8268,9.2764],[7.8084,9.2728],[7.7929,9.2756],[7.7639,9.2959],[7.7312,9.3261],[7.7241,9.3293],[7.6676,9.3037],[7.5887,9.1291],[7.5892,9.1009],[7.5947,8.8564],[7.5917,8.8349],[7.5531,8.7623]]]}},{"type":"Feature","properties":{"name":"Keana","state":"Nasarawa","scode":"NA","centroid":[8.1719,8.7878]},"geometry":{"type":"Polygon","coordinates":[[[9.057,8.0776],[9.0538,8.0877],[9.0484,8.0975],[9.0351,8.1161],[9.0234,8.1392],[9.0087,8.1608],[8.9959,8.1696],[8.9822,8.1892],[8.9655,8.2015],[8.9601,8.2106],[8.9476,8.2226],[8.9443,8.2311],[8.9421,8.2434],[8.9457,8.2501],[8.96,8.2555],[8.9617,8.2708],[8.9591,8.2814],[8.9444,8.2799],[8.9297,8.276],[8.891,8.2731],[8.8841,8.276],[8.8699,8.2775],[8.8586,8.2844],[8.8277,8.2898],[8.8081,8.2883],[8.7875,8.278],[8.7674,8.2657],[8.7445,8.2593],[8.727,8.2584],[8.6933,8.2598],[8.6612,8.2647],[8.6422,8.2646],[8.5946,8.2526],[8.5383,8.2549],[8.5305,8.2532],[8.5087,8.2608],[8.5077,8.2373],[8.5096,8.2162],[8.5155,8.2029],[8.516,8.1951],[8.5209,8.1848],[8.516,8.1652],[8.5127,8.1578],[8.5244,8.1573],[8.5605,8.1401],[8.588,8.1289],[8.6371,8.1162],[8.6967,8.0964],[8.7805,8.0752],[8.9108,8.0563],[8.9641,8.0613],[9.0254,8.0626],[9.057,8.0776]]]}},{"type":"Feature","properties":{"name":"Keffi","state":"Nasarawa","scode":"NA","centroid":[8.8361,7.8389]},"geometry":{"type":"Polygon","coordinates":[[[7.863,8.9231],[7.8393,8.9218],[7.828,8.9128],[7.8209,8.9105],[7.8079,8.898],[7.7886,8.8887],[7.7848,8.8736],[7.7801,8.8702],[7.776,8.8324],[7.7846,8.8038],[7.7789,8.7914],[7.7761,8.7799],[7.784,8.7605],[7.8074,8.7506],[7.8231,8.7526],[7.843,8.7504],[7.8624,8.7633],[7.8685,8.7731],[7.8843,8.7927],[7.8928,8.7973],[7.9031,8.8122],[7.8918,8.8303],[7.8918,8.8322],[7.8896,8.8337],[7.8892,8.8401],[7.8976,8.8391],[7.9024,8.8432],[7.9084,8.8436],[7.9091,8.8478],[7.9126,8.8468],[7.915,8.8542],[7.9099,8.8689],[7.9038,8.8698],[7.9012,8.8677],[7.8961,8.8696],[7.8943,8.8767],[7.8938,8.9008],[7.8881,8.906],[7.8869,8.9111],[7.8755,8.9195],[7.863,8.9231]]]}},{"type":"Feature","properties":{"name":"Kokona","state":"Nasarawa","scode":"NA","centroid":[8.81,8.0576]},"geometry":{"type":"Polygon","coordinates":[[[8.0708,9.1546],[8.0694,9.1493],[8.0602,9.1443],[8.057,9.1457],[8.0475,9.1363],[8.0283,9.1285],[8.0236,9.1249],[8.0099,9.11],[8.0012,9.0894],[7.9933,9.0798],[7.9738,9.0639],[7.9581,9.066],[7.9466,9.0615],[7.9321,9.0445],[7.9233,9.0282],[7.9161,9.0196],[7.9119,9.0118],[7.8925,9.0173],[7.8817,8.9999],[7.8821,8.9871],[7.8777,8.9739],[7.878,8.9675],[7.875,8.9506],[7.8718,8.941],[7.8658,8.931],[7.863,8.9231],[7.8755,8.9195],[7.8869,8.9111],[7.8881,8.906],[7.8938,8.9008],[7.8943,8.8767],[7.8961,8.8696],[7.9012,8.8677],[7.9038,8.8698],[7.9099,8.8689],[7.915,8.8542],[7.9126,8.8468],[7.9091,8.8478],[7.9084,8.8436],[7.9024,8.8432],[7.8976,8.8391],[7.8892,8.8401],[7.8896,8.8337],[7.8918,8.8322],[7.8918,8.8303],[7.9031,8.8122],[7.8928,8.7973],[7.8985,8.787],[7.9249,8.7676],[7.9353,8.7231],[7.9249,8.7115],[7.925,8.6979],[7.904,8.6802],[7.9067,8.6737],[7.9058,8.665],[7.9001,8.6436],[7.9277,8.6145],[7.942,8.6043],[7.9799,8.5943],[7.9963,8.5872],[8.0016,8.5758],[8.0022,8.5657],[8.0152,8.5574],[8.0406,8.5508],[8.0443,8.5433],[8.0458,8.5443],[8.0617,8.5316],[8.0675,8.531],[8.0712,8.5286],[8.0866,8.53],[8.0892,8.528],[8.096,8.5278],[8.0978,8.5254],[8.0993,8.527],[8.1012,8.5265],[8.1028,8.5242],[8.1013,8.5199],[8.1049,8.5162],[8.1042,8.5135],[8.1073,8.5097],[8.1075,8.5073],[8.1099,8.5055],[8.1151,8.5067],[8.12,8.5052],[8.118,8.5001],[8.1207,8.4994],[8.1228,8.4966],[8.1278,8.4973],[8.1307,8.4932],[8.1353,8.493],[8.1474,8.469],[8.1551,8.4811],[8.1586,8.4841],[8.1704,8.4866],[8.2226,8.4844],[8.228,8.49],[8.2286,8.4978],[8.2406,8.5079],[8.229,8.5165],[8.2183,8.5269],[8.1886,8.5435],[8.1745,8.5405],[8.1571,8.5392],[8.1552,8.559],[8.1683,8.5862],[8.1906,8.6244],[8.1858,8.648],[8.1862,8.6827],[8.1828,8.6864],[8.1727,8.7119],[8.182,8.719],[8.1847,8.7284],[8.1936,8.732],[8.1884,8.7576],[8.1973,8.7693],[8.2205,8.7747],[8.2322,8.782],[8.2345,8.7888],[8.2218,8.7959],[8.2145,8.8216],[8.2267,8.8388],[8.235,8.855],[8.2349,8.8765],[8.2365,8.8836],[8.239,8.8868],[8.2388,8.8941],[8.2354,8.9028],[8.2303,8.9101],[8.2219,8.9199],[8.2157,8.9246],[8.2086,8.9412],[8.2044,8.9469],[8.1865,8.9528],[8.188,8.9741],[8.1851,8.9843],[8.1863,8.9932],[8.1816,9.0035],[8.1784,9.0193],[8.1553,9.0415],[8.1376,9.0362],[8.0991,9.0397],[8.0616,9.0521],[8.0708,9.1546]]]}},{"type":"Feature","properties":{"name":"Lafia","state":"Nasarawa","scode":"NA","centroid":[8.6355,8.7158]},"geometry":{"type":"Polygon","coordinates":[[[8.2406,8.5079],[8.3004,8.4957],[8.3307,8.4835],[8.4119,8.4727],[8.4268,8.4653],[8.4469,8.4518],[8.4661,8.4164],[8.4762,8.41],[8.4996,8.4046],[8.531,8.3971],[8.555,8.4026],[8.5663,8.4026],[8.5899,8.4129],[8.5991,8.4281],[8.6075,8.4374],[8.6139,8.4668],[8.6232,8.4756],[8.633,8.4791],[8.6575,8.4786],[8.6649,8.4766],[8.6806,8.4776],[8.7061,8.482],[8.7247,8.4732],[8.7325,8.4629],[8.7492,8.458],[8.7708,8.4393],[8.7756,8.4372],[8.7806,8.431],[8.8294,8.404],[8.8569,8.4006],[8.8715,8.403],[8.8829,8.4021],[8.8941,8.4079],[8.9142,8.4055],[8.9221,8.403],[8.9557,8.4062],[8.9568,8.4142],[8.9642,8.4336],[8.9689,8.4558],[8.9801,8.4693],[8.9866,8.4843],[8.996,8.5184],[8.9825,8.5273],[8.9751,8.5375],[8.975,8.5414],[8.9785,8.5492],[8.984,8.5532],[8.9841,8.5582],[8.9874,8.5645],[8.981,8.5782],[8.9832,8.5851],[8.9834,8.5966],[8.9778,8.6052],[8.97,8.6056],[8.9583,8.6122],[8.9512,8.6213],[8.9498,8.6339],[8.9423,8.6522],[8.9402,8.6672],[8.9348,8.6679],[8.9257,8.6772],[8.9139,8.6862],[8.9107,8.703],[8.9028,8.7193],[8.8921,8.7329],[8.8919,8.7404],[8.896,8.7483],[8.9044,8.755],[8.9047,8.7581],[8.9011,8.7639],[8.9006,8.7755],[8.9079,8.7836],[8.924,8.7825],[8.9327,8.7855],[8.9383,8.7937],[8.9451,8.7996],[8.9506,8.8158],[8.9511,8.8271],[8.9498,8.8356],[8.9553,8.8416],[8.9588,8.8495],[8.974,8.8541],[8.9856,8.8526],[8.9896,8.8509],[8.9991,8.8532],[9.003,8.8515],[9.0106,8.8538],[9.0162,8.8579],[9.0235,8.8659],[9.0318,8.8952],[9.0445,8.9132],[9.046,8.9229],[9.0625,8.9391],[9.0682,8.9413],[9.0719,8.9453],[9.0735,8.9531],[9.0712,8.9607],[9.0671,8.9663],[9.0684,8.9799],[9.0707,8.9878],[9.067,9.0079],[9.0627,9.0182],[9.0541,9.0249],[9.045,9.0271],[9.0392,9.0268],[9.0239,9.0242],[9.0202,9.0221],[9.0009,9.0213],[8.9953,9.019],[8.9668,9.015],[8.9549,9.0173],[8.9511,9.0152],[8.9182,9.0171],[8.9075,8.9506],[8.9,8.9216],[8.8846,8.8979],[8.8574,8.8837],[8.8412,8.8774],[8.8362,8.8276],[8.829,8.794],[8.8187,8.7997],[8.8172,8.8138],[8.8099,8.8246],[8.7976,8.8263],[8.7609,8.8356],[8.6965,8.8337],[8.6885,8.8322],[8.6848,8.8356],[8.666,8.8321],[8.6575,8.8273],[8.6408,8.8248],[8.6386,8.8256],[8.6339,8.8228],[8.6272,8.8229],[8.6175,8.817],[8.6167,8.7983],[8.6158,8.7958],[8.6131,8.794],[8.6104,8.7861],[8.611,8.7698],[8.6783,8.7077],[8.6695,8.6959],[8.6407,8.6695],[8.6074,8.6524],[8.5992,8.6537],[8.5946,8.6577],[8.5712,8.663],[8.5208,8.6614],[8.5025,8.6522],[8.4663,8.6535],[8.4498,8.6451],[8.441,8.6316],[8.4244,8.6192],[8.4031,8.6108],[8.351,8.6131],[8.2836,8.5817],[8.2785,8.5694],[8.2612,8.5542],[8.2411,8.553],[8.1683,8.5862],[8.1552,8.559],[8.1571,8.5392],[8.1745,8.5405],[8.1886,8.5435],[8.2183,8.5269],[8.229,8.5165],[8.2406,8.5079]]]}},{"type":"Feature","properties":{"name":"Nasarawa","state":"Nasarawa","scode":"NA","centroid":[8.338,7.7465]},"geometry":{"type":"Polygon","coordinates":[[[7.4776,8.6313],[7.4357,8.5864],[7.4536,8.5699],[7.4629,8.5542],[7.467,8.5171],[7.4644,8.4798],[7.4616,8.4639],[7.4638,8.4292],[7.4662,8.418],[7.4606,8.3936],[7.4617,8.3826],[7.4517,8.3597],[7.4427,8.3168],[7.4374,8.299],[7.4356,8.2425],[7.4298,8.2282],[7.4115,8.2062],[7.4048,8.1953],[7.3928,8.1635],[7.3736,8.1223],[7.3664,8.1143],[7.3499,8.1043],[7.3414,8.0967],[7.3208,8.0848],[7.3181,8.076],[7.3127,8.0663],[7.3208,8.0557],[7.3172,8.0418],[7.3056,8.0277],[7.3932,8.0439],[7.4324,8.0478],[7.4458,8.0469],[7.451,8.0486],[7.4585,8.0466],[7.5053,8.0472],[7.5835,8.0377],[7.6249,8.0295],[7.6772,8.0166],[7.6768,8.0145],[7.6975,8.0137],[7.7607,8.0034],[7.8384,7.9853],[7.8673,7.9862],[7.877,7.9834],[7.9031,7.969],[7.9729,7.9392],[7.9947,7.923],[8.0408,7.8964],[8.0219,7.9449],[7.9987,7.9617],[7.9876,7.975],[7.9849,7.9931],[7.9827,7.9964],[7.9842,8.0015],[7.9917,8.0109],[7.9855,8.0202],[7.9845,8.0249],[7.9859,8.0281],[7.989,8.0293],[7.9916,8.0358],[7.9949,8.0356],[7.9979,8.0374],[8.0038,8.0481],[7.9973,8.0562],[8.0003,8.0592],[8.0,8.0628],[8.0051,8.0702],[8.0069,8.0783],[8.013,8.0805],[8.0168,8.0779],[8.0228,8.0766],[8.0292,8.0805],[8.0291,8.0879],[8.0344,8.0956],[8.036,8.0963],[8.0396,8.0942],[8.0395,8.1104],[8.0408,8.1139],[8.0511,8.1188],[8.0512,8.1219],[8.0556,8.1291],[8.057,8.1378],[8.0486,8.1426],[8.0465,8.1532],[8.0403,8.1566],[8.0387,8.1596],[8.0392,8.165],[8.0284,8.1737],[8.0316,8.1772],[8.0375,8.1774],[8.0369,8.1792],[8.0261,8.1808],[8.0248,8.1845],[8.03,8.1869],[8.0316,8.1903],[8.0302,8.195],[8.033,8.1979],[8.0315,8.2024],[8.0335,8.2051],[8.0336,8.2133],[8.0387,8.2149],[8.0399,8.2179],[8.0383,8.2209],[8.0441,8.224],[8.0479,8.2238],[8.0494,8.225],[8.0491,8.2279],[8.0537,8.2318],[8.0538,8.2379],[8.0521,8.2396],[8.0479,8.2348],[8.0447,8.2357],[8.0398,8.2437],[8.0428,8.2467],[8.0436,8.253],[8.0474,8.2529],[8.0517,8.2504],[8.0533,8.2527],[8.0514,8.2618],[8.0602,8.2726],[8.0562,8.2801],[8.0599,8.2817],[8.0661,8.2783],[8.0743,8.2811],[8.0697,8.2843],[8.0694,8.286],[8.074,8.289],[8.0683,8.2927],[8.0668,8.2953],[8.0665,8.3022],[8.065,8.3044],[8.0606,8.3054],[8.0565,8.3091],[8.0608,8.3179],[8.0629,8.312],[8.065,8.3114],[8.0662,8.3166],[8.0713,8.3125],[8.0719,8.3141],[8.0705,8.3175],[8.073,8.3239],[8.0676,8.339],[8.0698,8.3398],[8.0725,8.3381],[8.0773,8.3435],[8.0722,8.3487],[8.0723,8.3503],[8.0749,8.3507],[8.0806,8.3461],[8.084,8.3482],[8.0873,8.3473],[8.0935,8.3431],[8.0943,8.3447],[8.09,8.3546],[8.0931,8.355],[8.0925,8.3627],[8.097,8.3693],[8.1079,8.3768],[8.1116,8.3743],[8.1095,8.3688],[8.1166,8.3671],[8.1197,8.3708],[8.1191,8.3744],[8.1292,8.3802],[8.1367,8.3758],[8.1405,8.3776],[8.1352,8.3856],[8.1399,8.3888],[8.1474,8.3859],[8.1525,8.391],[8.1592,8.3936],[8.1566,8.4058],[8.1613,8.4087],[8.1766,8.4038],[8.1823,8.4094],[8.184,8.4215],[8.1696,8.4389],[8.1608,8.444],[8.1474,8.469],[8.1353,8.493],[8.1307,8.4932],[8.1278,8.4973],[8.1228,8.4966],[8.1207,8.4994],[8.118,8.5001],[8.12,8.5052],[8.1151,8.5067],[8.1099,8.5055],[8.1075,8.5073],[8.1073,8.5097],[8.1042,8.5135],[8.1049,8.5162],[8.1013,8.5199],[8.1028,8.5242],[8.1012,8.5265],[8.0993,8.527],[8.0978,8.5254],[8.096,8.5278],[8.0892,8.528],[8.0866,8.53],[8.0712,8.5286],[8.0675,8.531],[8.0617,8.5316],[8.0458,8.5443],[8.0443,8.5433],[8.0406,8.5508],[8.0152,8.5574],[8.0022,8.5657],[8.0016,8.5758],[7.9963,8.5872],[7.9799,8.5943],[7.942,8.6043],[7.9277,8.6145],[7.9001,8.6436],[7.8952,8.6423],[7.8553,8.6688],[7.8544,8.6716],[7.8303,8.6858],[7.812,8.6905],[7.7836,8.7106],[7.7604,8.7181],[7.754,8.7151],[7.7418,8.7036],[7.7274,8.6929],[7.7074,8.6957],[7.7001,8.6943],[7.6803,8.7029],[7.6781,8.7074],[7.6666,8.7182],[7.6575,8.7407],[7.6432,8.7369],[7.6381,8.733],[7.6244,8.7506],[7.5982,8.7494],[7.5841,8.7515],[7.5643,8.757],[7.5531,8.7623],[7.502,8.6687],[7.496,8.6543],[7.4776,8.6313]]]}},{"type":"Feature","properties":{"name":"Nasarawa Egon","state":"Nasarawa","scode":"NA","centroid":[8.7252,8.3936]},"geometry":{"type":"Polygon","coordinates":[[[8.1683,8.5862],[8.2411,8.553],[8.2612,8.5542],[8.2785,8.5694],[8.2836,8.5817],[8.351,8.6131],[8.4031,8.6108],[8.4244,8.6192],[8.441,8.6316],[8.4498,8.6451],[8.4663,8.6535],[8.5025,8.6522],[8.5208,8.6614],[8.5712,8.663],[8.5946,8.6577],[8.5992,8.6537],[8.6074,8.6524],[8.6407,8.6695],[8.6695,8.6959],[8.6783,8.7077],[8.611,8.7698],[8.6104,8.7861],[8.6131,8.794],[8.6158,8.7958],[8.6167,8.7983],[8.6175,8.817],[8.6131,8.8182],[8.6069,8.8132],[8.5929,8.8066],[8.5861,8.8051],[8.5797,8.8004],[8.5728,8.8031],[8.5612,8.8014],[8.5572,8.8022],[8.5533,8.8079],[8.5431,8.8108],[8.534,8.8174],[8.5099,8.8263],[8.505,8.834],[8.5011,8.8342],[8.4993,8.8402],[8.5002,8.8453],[8.5056,8.8499],[8.5088,8.8555],[8.5138,8.8562],[8.5181,8.8594],[8.5215,8.864],[8.5214,8.8706],[8.4898,8.8803],[8.4218,8.8861],[8.3819,8.8807],[8.3777,8.8751],[8.3699,8.8685],[8.3595,8.8641],[8.3589,8.8586],[8.3563,8.8574],[8.3561,8.856],[8.3587,8.8476],[8.3605,8.8461],[8.3615,8.8394],[8.3594,8.8379],[8.3571,8.8387],[8.3504,8.8367],[8.3515,8.8355],[8.3513,8.8338],[8.3497,8.8334],[8.3504,8.8318],[8.3438,8.8299],[8.3386,8.8228],[8.3347,8.8213],[8.3266,8.8141],[8.3206,8.8058],[8.3134,8.809],[8.3105,8.8082],[8.309,8.8123],[8.2819,8.8199],[8.2267,8.8388],[8.2145,8.8216],[8.2218,8.7959],[8.2345,8.7888],[8.2322,8.782],[8.2205,8.7747],[8.1973,8.7693],[8.1884,8.7576],[8.1936,8.732],[8.1847,8.7284],[8.182,8.719],[8.1727,8.7119],[8.1828,8.6864],[8.1862,8.6827],[8.1858,8.648],[8.1906,8.6244],[8.1683,8.5862]]]}},{"type":"Feature","properties":{"name":"Obi","state":"Nasarawa","scode":"NA","centroid":[8.3516,8.7382]},"geometry":{"type":"Polygon","coordinates":[[[8.9591,8.2814],[8.9731,8.2809],[8.9943,8.2936],[9.003,8.3059],[9.0094,8.3113],[9.0128,8.3207],[9.0133,8.328],[9.0128,8.3442],[9.0099,8.3658],[9.0086,8.4004],[8.9814,8.4021],[8.9696,8.4057],[8.9557,8.4062],[8.9221,8.403],[8.9142,8.4055],[8.8941,8.4079],[8.8829,8.4021],[8.8715,8.403],[8.8569,8.4006],[8.8294,8.404],[8.7806,8.431],[8.7756,8.4372],[8.7708,8.4393],[8.7492,8.458],[8.7325,8.4629],[8.7247,8.4732],[8.7061,8.482],[8.6806,8.4776],[8.6649,8.4766],[8.6575,8.4786],[8.633,8.4791],[8.6232,8.4756],[8.6139,8.4668],[8.6075,8.4374],[8.5991,8.4281],[8.5899,8.4129],[8.5663,8.4026],[8.555,8.4026],[8.531,8.3971],[8.4996,8.4046],[8.505,8.3869],[8.5101,8.2922],[8.5082,8.279],[8.5087,8.2608],[8.5305,8.2532],[8.5383,8.2549],[8.5946,8.2526],[8.6422,8.2646],[8.6612,8.2647],[8.6933,8.2598],[8.727,8.2584],[8.7445,8.2593],[8.7674,8.2657],[8.7875,8.278],[8.8081,8.2883],[8.8277,8.2898],[8.8586,8.2844],[8.8699,8.2775],[8.8841,8.276],[8.891,8.2731],[8.9297,8.276],[8.9444,8.2799],[8.9591,8.2814]]]}},{"type":"Feature","properties":{"name":"Toto","state":"Nasarawa","scode":"NA","centroid":[8.24,7.1947]},"geometry":{"type":"Polygon","coordinates":[[[6.9808,8.4437],[6.9696,8.3913],[6.9576,8.3748],[6.9558,8.3591],[6.9512,8.3463],[6.942,8.3224],[6.9346,8.3104],[6.9346,8.3012],[6.9411,8.293],[6.953,8.2838],[6.965,8.2654],[6.9705,8.2452],[6.9723,8.2249],[6.9797,8.2111],[6.9925,8.1955],[7.0008,8.1817],[7.0027,8.167],[6.9834,8.1155],[6.987,8.0926],[6.987,8.0779],[6.9709,8.0301],[6.9728,8.0199],[6.9792,8.0006],[6.9783,7.9859],[6.9636,7.9602],[6.9608,7.9427],[6.9526,7.9179],[6.9544,7.905],[6.9599,7.8968],[6.9636,7.8793],[6.9665,7.8791],[7.0063,7.9025],[7.0355,7.9231],[7.0728,7.9427],[7.1179,7.959],[7.1959,7.993],[7.2538,8.015],[7.289,8.0222],[7.3056,8.0277],[7.3172,8.0418],[7.3208,8.0557],[7.3127,8.0663],[7.3181,8.076],[7.3208,8.0848],[7.3414,8.0967],[7.3499,8.1043],[7.3664,8.1143],[7.3736,8.1223],[7.3928,8.1635],[7.4048,8.1953],[7.4115,8.2062],[7.4298,8.2282],[7.4356,8.2425],[7.4374,8.299],[7.4427,8.3168],[7.4517,8.3597],[7.4617,8.3826],[7.4606,8.3936],[7.4662,8.418],[7.4638,8.4292],[7.4616,8.4639],[7.4644,8.4798],[7.467,8.5171],[7.4629,8.5542],[7.4536,8.5699],[7.4357,8.5864],[7.4181,8.5699],[7.396,8.5384],[7.3803,8.5215],[7.3653,8.4877],[7.3133,8.4736],[7.2705,8.4644],[7.1334,8.4495],[7.1397,8.4432],[7.141,8.4353],[7.1242,8.4228],[7.0835,8.4193],[7.0863,8.4327],[7.0799,8.4431],[7.0359,8.4397],[6.9808,8.4437]]]}},{"type":"Feature","properties":{"name":"Wamba","state":"Nasarawa","scode":"NA","centroid":[8.972,8.6979]},"geometry":{"type":"Polygon","coordinates":[[[8.5043,9.0014],[8.5083,8.9786],[8.5141,8.9587],[8.5186,8.9495],[8.5204,8.935],[8.5233,8.9256],[8.5228,8.9182],[8.5282,8.9021],[8.53,8.8806],[8.5281,8.8759],[8.5249,8.875],[8.5214,8.8706],[8.5215,8.864],[8.5181,8.8594],[8.5138,8.8562],[8.5088,8.8555],[8.5056,8.8499],[8.5002,8.8453],[8.4993,8.8402],[8.5011,8.8342],[8.505,8.834],[8.5099,8.8263],[8.534,8.8174],[8.5431,8.8108],[8.5533,8.8079],[8.5572,8.8022],[8.5612,8.8014],[8.5728,8.8031],[8.5797,8.8004],[8.5861,8.8051],[8.5929,8.8066],[8.6069,8.8132],[8.6131,8.8182],[8.6175,8.817],[8.6272,8.8229],[8.6339,8.8228],[8.6386,8.8256],[8.6408,8.8248],[8.6575,8.8273],[8.666,8.8321],[8.6848,8.8356],[8.6885,8.8322],[8.6965,8.8337],[8.7609,8.8356],[8.7976,8.8263],[8.8099,8.8246],[8.8172,8.8138],[8.8187,8.7997],[8.829,8.794],[8.8362,8.8276],[8.8412,8.8774],[8.8574,8.8837],[8.8846,8.8979],[8.9,8.9216],[8.9075,8.9506],[8.9182,9.0171],[8.8949,9.0224],[8.8854,9.0216],[8.8755,9.0254],[8.862,9.0267],[8.8502,9.03],[8.8117,9.0303],[8.806,9.0327],[8.7982,9.0316],[8.7899,9.0428],[8.7895,9.0524],[8.7994,9.0712],[8.7919,9.0834],[8.7802,9.0868],[8.7688,9.0953],[8.7685,9.0979],[8.7601,9.1052],[8.7616,9.1132],[8.7613,9.1207],[8.7675,9.1363],[8.7676,9.1574],[8.765,9.1652],[8.7611,9.167],[8.749,9.178],[8.7081,9.1878],[8.6908,9.187],[8.687,9.1849],[8.6773,9.1864],[8.6733,9.1901],[8.6675,9.1899],[8.6615,9.1954],[8.6578,9.2077],[8.6548,9.1873],[8.6498,9.1731],[8.6303,9.137],[8.6207,9.1149],[8.5936,9.0906],[8.5707,9.0633],[8.5668,9.0608],[8.564,9.0522],[8.5677,9.0495],[8.5696,9.044],[8.5758,9.042],[8.5763,9.0344],[8.564,9.0327],[8.5622,9.0302],[8.5621,9.0267],[8.5576,9.0259],[8.5541,9.0204],[8.5476,9.0142],[8.5333,9.0044],[8.514,9.0007],[8.5043,9.0014]]]}}]}