{"type":"FeatureCollection","features":[{"type":"Feature","properties":{"name":"Agaie","state":"Niger","scode":"NI","centroid":[8.9477,6.4312]},"geometry":{"type":"Polygon","coordinates":[[[6.408,8.603],[6.4393,8.5948],[6.468,8.5791],[6.4864,8.5791],[6.501,8.5878],[6.5357,8.6279],[6.5406,8.6419],[6.546,8.6658],[6.5447,8.6803],[6.5465,8.6907],[6.5433,8.7058],[6.5389,8.7145],[6.533,8.7356],[6.5346,8.7486],[6.5443,8.766],[6.5611,8.7757],[6.5758,8.7865],[6.5915,8.8353],[6.599,8.8429],[6.5985,8.8537],[6.5871,8.8792],[6.579,8.9328],[6.585,8.9685],[6.5945,8.9798],[6.5842,8.9902],[6.5762,9.0014],[6.5665,9.0289],[6.5594,9.0344],[6.562,9.0511],[6.5453,9.0673],[6.5471,9.1082],[6.5313,9.1386],[6.526,9.1622],[6.5246,9.1775],[6.5314,9.196],[6.5353,9.2209],[6.5292,9.23],[6.5268,9.23],[6.5258,9.235],[6.5199,9.2426],[6.5115,9.2493],[6.5073,9.2569],[6.5082,9.2636],[6.5056,9.2687],[6.4913,9.283],[6.488,9.2964],[6.4719,9.3005],[6.4476,9.2993],[6.4258,9.305],[6.4002,9.3001],[6.3786,9.2417],[6.3702,9.2342],[6.3542,9.2274],[6.3513,9.2363],[6.3279,9.2352],[6.3096,9.2094],[6.3155,9.1762],[6.2716,9.1791],[6.2665,9.1629],[6.2846,9.1464],[6.2928,9.1295],[6.2938,9.1036],[6.3236,9.0785],[6.3254,9.0558],[6.3161,9.0501],[6.2925,9.0504],[6.2526,9.0782],[6.2477,9.0315],[6.2495,9.0304],[6.2645,9.0294],[6.261,8.99],[6.2661,8.9752],[6.2663,8.9658],[6.264,8.9579],[6.2798,8.9371],[6.272,8.9031],[6.2604,8.8945],[6.2713,8.873],[6.26,8.8545],[6.2601,8.8524],[6.2637,8.8504],[6.2943,8.8535],[6.3081,8.8629],[6.3418,8.834],[6.3432,8.8306],[6.3319,8.8249],[6.3169,8.7875],[6.3183,8.7853],[6.334,8.7752],[6.3336,8.7681],[6.3307,8.7618],[6.3303,8.756],[6.3204,8.7499],[6.3153,8.7189],[6.3587,8.6846],[6.3753,8.6616],[6.3799,8.6487],[6.3983,8.6294],[6.408,8.603]]]}},{"type":"Feature","properties":{"name":"Agwara","state":"Niger","scode":"NI","centroid":[10.7372,4.5097]},"geometry":{"type":"Polygon","coordinates":[[[4.3358,10.9187],[4.3122,10.8451],[4.2862,10.821],[4.362,10.7567],[4.3422,10.6862],[4.3519,10.674],[4.3531,10.6706],[4.3497,10.6533],[4.3445,10.6325],[4.3367,10.6204],[4.3341,10.6083],[4.3246,10.5823],[4.3098,10.5546],[4.3124,10.5477],[4.3358,10.5555],[4.3601,10.5546],[4.4051,10.5433],[4.4202,10.5477],[4.4194,10.5623],[4.4211,10.565],[4.4429,10.5648],[4.4514,10.5669],[4.4527,10.5584],[4.4557,10.5529],[4.4569,10.5339],[4.4619,10.5225],[4.4649,10.5224],[4.4706,10.5461],[4.478,10.5661],[4.4897,10.5826],[4.4983,10.5921],[4.5101,10.5352],[4.5851,10.5639],[4.5937,10.57],[4.5935,10.5717],[4.5969,10.576],[4.5981,10.5764],[4.5992,10.5702],[4.6008,10.5707],[4.602,10.5773],[4.6031,10.577],[4.6072,10.5827],[4.6067,10.584],[4.6029,10.585],[4.6071,10.5865],[4.6105,10.586],[4.6156,10.5906],[4.6173,10.588],[4.6172,10.5932],[4.6192,10.5955],[4.621,10.5955],[4.6195,10.5997],[4.6208,10.6004],[4.6244,10.5975],[4.6241,10.6005],[4.6255,10.6011],[4.6258,10.6036],[4.6297,10.6088],[4.6338,10.6114],[4.6438,10.619],[4.6461,10.6166],[4.6513,10.6185],[4.6588,10.6295],[4.6715,10.6411],[4.6908,10.6629],[4.6909,10.6694],[4.688,10.6835],[4.6892,10.692],[4.6878,10.6937],[4.6895,10.6946],[4.6931,10.7019],[4.6975,10.7189],[4.695,10.7305],[4.6959,10.7432],[4.6925,10.7447],[4.6948,10.7507],[4.6945,10.7758],[4.6964,10.7903],[4.6993,10.7985],[4.6981,10.8012],[4.6997,10.8018],[4.7021,10.8141],[4.7074,10.8243],[4.7097,10.8327],[4.7096,10.8517],[4.7204,10.8594],[4.7227,10.8669],[4.7202,10.8797],[4.7156,10.8903],[4.706,10.9],[4.695,10.9193],[4.6935,10.9191],[4.6903,10.9168],[4.6778,10.9172],[4.6761,10.9163],[4.6738,10.9174],[4.6575,10.9005],[4.6457,10.8937],[4.643,10.8945],[4.6353,10.8912],[4.6303,10.8915],[4.6298,10.8906],[4.6279,10.8912],[4.6266,10.8941],[4.6253,10.8927],[4.6164,10.8907],[4.6148,10.8885],[4.6092,10.8889],[4.608,10.8878],[4.6056,10.8895],[4.6022,10.8882],[4.5997,10.8892],[4.598,10.8929],[4.5935,10.8929],[4.5685,10.9087],[4.5398,10.92],[4.524,10.9162],[4.4503,10.8859],[4.4072,10.8772],[4.3811,10.88],[4.3622,10.8891],[4.3385,10.9035],[4.3358,10.9187]]]}},{"type":"Feature","properties":{"name":"Bida","state":"Niger","scode":"NI","centroid":[9.0314,5.962]},"geometry":{"type":"Polygon","coordinates":[[[6.1258,9.078],[6.0874,9.0768],[6.0753,9.086],[6.0629,9.0895],[6.0548,9.0898],[6.0447,9.1021],[6.0324,9.1089],[6.028,9.1149],[6.0296,9.1328],[6.026,9.1475],[6.0172,9.1522],[6.0008,9.1519],[5.9968,9.1349],[5.9361,9.157],[5.9104,9.1587],[5.8553,9.1369],[5.8374,9.1316],[5.8293,9.1058],[5.8234,9.0955],[5.8198,9.0719],[5.8099,9.0463],[5.816,9.0318],[5.8181,9.0004],[5.8248,8.9901],[5.8328,8.9852],[5.8337,8.9766],[5.8381,8.9677],[5.8566,8.9634],[5.8601,8.9424],[5.8797,8.927],[5.9209,8.9317],[5.9441,8.9225],[5.9613,8.9174],[5.9787,8.9173],[6.018,8.9282],[6.0196,8.9322],[6.0261,8.9319],[6.034,8.9313],[6.0396,8.929],[6.0486,8.929],[6.052,8.9266],[6.0716,8.9218],[6.0757,8.9189],[6.098,8.9127],[6.1094,8.9139],[6.1134,8.9289],[6.1127,8.9646],[6.0982,8.9804],[6.0991,8.9831],[6.1064,8.982],[6.1098,8.9832],[6.1062,8.9867],[6.1041,8.9934],[6.0969,8.9978],[6.0948,9.0059],[6.1014,9.0049],[6.0973,9.0126],[6.1005,9.0173],[6.0946,9.0184],[6.0928,9.0221],[6.0968,9.0278],[6.0963,9.0301],[6.1,9.0313],[6.1009,9.0393],[6.1044,9.0483],[6.1062,9.0502],[6.1103,9.0495],[6.1154,9.0517],[6.1257,9.0708],[6.1258,9.078]]]}},{"type":"Feature","properties":{"name":"Borgu","state":"Niger","scode":"NI","centroid":[10.2914,4.1631]},"geometry":{"type":"Polygon","coordinates":[[[3.7969,10.0661],[3.7991,10.0712],[3.818,10.0668],[3.8233,10.0543],[3.833,10.047],[3.851,10.0552],[3.8641,10.0503],[3.8723,10.0421],[3.8903,10.0307],[3.9034,10.0192],[3.8903,10.0159],[3.887,10.0045],[3.887,9.9881],[3.91,9.9897],[3.9214,9.9996],[3.9345,9.9996],[3.9492,9.9914],[3.9542,9.9832],[3.9525,9.9783],[3.9411,9.9766],[3.9362,9.9734],[3.9345,9.9668],[3.9411,9.9619],[3.9591,9.9603],[3.9656,9.957],[3.9705,9.9488],[3.9689,9.9423],[3.9607,9.9374],[3.9591,9.9341],[3.9427,9.9324],[3.9345,9.9275],[3.9362,9.9161],[3.946,9.9079],[3.9623,9.9079],[3.9673,9.903],[3.98,9.9066],[3.9853,9.8935],[4.0023,9.9066],[4.0114,9.8987],[4.0128,9.8856],[4.0167,9.8686],[4.0219,9.8568],[4.0272,9.8568],[4.0389,9.8647],[4.052,9.8634],[4.0573,9.8568],[4.0704,9.8568],[4.0782,9.8542],[4.0808,9.8516],[4.0835,9.8516],[4.0952,9.8673],[4.0952,9.8778],[4.1149,9.8817],[4.1241,9.8752],[4.1227,9.8608],[4.1188,9.8555],[4.128,9.8516],[4.1411,9.8608],[4.1529,9.8621],[4.1712,9.8202],[4.2065,9.7822],[4.2825,9.6945],[4.3506,9.5884],[4.3872,9.5622],[4.4436,9.5098],[4.5012,9.4404],[4.5784,9.3881],[4.6097,9.3618],[4.6118,9.3707],[4.6136,9.3932],[4.6119,9.428],[4.5714,9.4955],[4.5476,9.5597],[4.5679,9.5992],[4.5846,9.6486],[4.6097,9.6989],[4.6337,9.7408],[4.6385,9.7613],[4.6367,9.7772],[4.639,9.7941],[4.6257,9.818],[4.6212,9.8191],[4.6196,9.8193],[4.6049,9.8452],[4.6018,9.8596],[4.5949,9.8702],[4.5905,9.8733],[4.5843,9.8746],[4.5799,9.8796],[4.5924,9.9027],[4.5918,9.9127],[4.5868,9.9258],[4.5831,9.942],[4.5787,9.9495],[4.5724,9.9757],[4.5743,9.9913],[4.5806,10.0063],[4.5855,10.0338],[4.5706,10.0694],[4.53,10.1006],[4.5269,10.1112],[4.5275,10.143],[4.5518,10.1949],[4.5674,10.2229],[4.5687,10.246],[4.5661,10.246],[4.5661,10.2568],[4.56,10.2681],[4.5418,10.2871],[4.5184,10.2984],[4.4908,10.314],[4.483,10.3287],[4.4864,10.3685],[4.4795,10.4213],[4.4856,10.4698],[4.4985,10.5174],[4.5101,10.5352],[4.4983,10.5921],[4.4897,10.5826],[4.478,10.5661],[4.4706,10.5461],[4.4649,10.5224],[4.4619,10.5225],[4.4569,10.5339],[4.4557,10.5529],[4.4527,10.5584],[4.4514,10.5669],[4.4429,10.5648],[4.4211,10.565],[4.4194,10.5623],[4.4202,10.5477],[4.4051,10.5433],[4.3601,10.5546],[4.3358,10.5555],[4.3124,10.5477],[4.3098,10.5546],[4.3246,10.5823],[4.3341,10.6083],[4.3367,10.6204],[4.3445,10.6325],[4.3497,10.6533],[4.3531,10.6706],[4.3519,10.674],[4.3422,10.6862],[4.362,10.7567],[4.2862,10.821],[4.3122,10.8451],[4.3358,10.9187],[4.3298,10.9514],[4.3141,10.9499],[4.3016,10.9487],[4.2772,10.9544],[4.2751,10.9609],[4.2633,10.9767],[4.2637,10.9829],[4.2566,10.9903],[4.2589,10.998],[4.266,11.012],[4.2656,11.019],[4.2671,11.0253],[4.2439,11.024],[4.2254,11.0193],[4.2149,11.0222],[4.184,11.0246],[4.1004,11.0263],[4.0684,11.022],[3.998,11.0179],[3.9959,11.0163],[3.993,11.0165],[3.9531,10.9657],[3.9328,10.943],[3.8023,10.9461],[3.7732,10.9201],[3.77,10.9197],[3.7753,10.8986],[3.7594,10.8475],[3.7467,10.8267],[3.7458,10.8203],[3.7486,10.8031],[3.7539,10.7944],[3.7856,10.7569],[3.8261,10.7142],[3.8356,10.7097],[3.8488,10.6828],[3.855,10.585],[3.8128,10.4494],[3.7936,10.4056],[3.7894,10.4028],[3.7592,10.415],[3.7014,10.4494],[3.6953,10.4503],[3.6839,10.4481],[3.64,10.4156],[3.6372,10.4117],[3.5819,10.2753],[3.6442,10.1994],[3.6767,10.1839],[3.6806,10.1808],[3.6839,10.1706],[3.6843,10.1567],[3.7125,10.1083],[3.7147,10.1018],[3.7154,10.0894],[3.7307,10.0683],[3.7365,10.0683],[3.7365,10.0748],[3.7343,10.0799],[3.7351,10.0879],[3.7431,10.0843],[3.7503,10.0683],[3.762,10.0588],[3.7715,10.0472],[3.7722,10.0406],[3.7751,10.0333],[3.7838,10.0312],[3.7882,10.0341],[3.7882,10.0384],[3.7802,10.0523],[3.7846,10.0625],[3.794,10.0625],[3.7969,10.0661]]]}},{"type":"Feature","properties":{"name":"Bosso","state":"Niger","scode":"NI","centroid":[9.6509,6.4098]},"geometry":{"type":"Polygon","coordinates":[[[6.477,9.4411],[6.4737,9.4672],[6.4779,9.4781],[6.488,9.4798],[6.4905,9.4823],[6.4947,9.4958],[6.4964,9.5126],[6.5023,9.5176],[6.5169,9.5193],[6.5234,9.5216],[6.5318,9.532],[6.546,9.5276],[6.5501,9.531],[6.5575,9.5329],[6.5628,9.5394],[6.5699,9.5404],[6.5755,9.5335],[6.5813,9.5353],[6.5896,9.5347],[6.5917,9.5339],[6.5928,9.5314],[6.5988,9.5347],[6.602,9.5383],[6.6078,9.5377],[6.62,9.5412],[6.6218,9.5398],[6.627,9.5398],[6.6267,9.5482],[6.6315,9.5538],[6.6243,9.5655],[6.6373,9.5895],[6.6537,9.5981],[6.6546,9.6297],[6.65,9.6592],[6.6406,9.6785],[6.6169,9.6964],[6.6143,9.6997],[6.5902,9.7083],[6.5788,9.7218],[6.5724,9.7409],[6.5625,9.7611],[6.5796,9.7701],[6.6091,9.783],[6.6288,9.788],[6.5987,9.7996],[6.5944,9.8323],[6.6106,9.8422],[6.6153,9.8614],[6.6033,9.8618],[6.5636,9.8711],[6.5284,9.8826],[6.4976,9.8959],[6.4805,9.877],[6.4733,9.8665],[6.4612,9.8609],[6.4315,9.8545],[6.3946,9.8754],[6.3729,9.893],[6.3415,9.9107],[6.3247,9.9091],[6.315,9.8986],[6.3095,9.8952],[6.3009,9.8957],[6.2845,9.9047],[6.2752,9.9051],[6.2684,9.908],[6.26,9.9137],[6.2528,9.9112],[6.2494,9.9157],[6.2369,9.917],[6.2344,9.8935],[6.2655,9.8441],[6.3013,9.8155],[6.3067,9.8059],[6.3036,9.7757],[6.2862,9.7267],[6.2831,9.7033],[6.2548,9.701],[6.2171,9.7103],[6.2102,9.705],[6.2026,9.6933],[6.2072,9.6579],[6.2037,9.6329],[6.1848,9.6283],[6.1799,9.6215],[6.1833,9.5779],[6.2165,9.5566],[6.221,9.5337],[6.1946,9.5179],[6.1896,9.5122],[6.2012,9.4618],[6.2111,9.4599],[6.2361,9.4674],[6.2897,9.4251],[6.2971,9.4281],[6.3373,9.3984],[6.3949,9.3673],[6.41,9.376],[6.4373,9.4116],[6.4716,9.4406],[6.477,9.4411]],[[6.5723,9.5724],[6.5743,9.5686],[6.5636,9.5618],[6.552,9.5611],[6.551,9.558],[6.544,9.5584],[6.5427,9.5626],[6.531,9.5664],[6.5261,9.5634],[6.5155,9.5638],[6.5096,9.5627],[6.5081,9.5613],[6.5089,9.5693],[6.507,9.5708],[6.5067,9.5738],[6.5014,9.5771],[6.4959,9.5829],[6.5034,9.6074],[6.5007,9.6146],[6.503,9.6217],[6.5044,9.6211],[6.5051,9.626],[6.5095,9.6337],[6.5136,9.6373],[6.5061,9.6513],[6.5061,9.6549],[6.5133,9.6692],[6.5182,9.6664],[6.5342,9.6511],[6.5416,9.6547],[6.5457,9.6515],[6.5514,9.6585],[6.5542,9.6595],[6.5587,9.6583],[6.5498,9.6346],[6.5524,9.6343],[6.5544,9.631],[6.5577,9.6293],[6.5588,9.6318],[6.5617,9.6329],[6.5634,9.6384],[6.567,9.6389],[6.5669,9.6372],[6.5719,9.6333],[6.5708,9.6196],[6.5792,9.6183],[6.5747,9.6035],[6.5995,9.5986],[6.5984,9.5938],[6.5888,9.5924],[6.5798,9.5755],[6.5723,9.5724]]]}},{"type":"Feature","properties":{"name":"Chanchaga","state":"Niger","scode":"NI","centroid":[9.6062,6.5395]},"geometry":{"type":"Polygon","coordinates":[[[6.5723,9.5724],[6.5798,9.5755],[6.5888,9.5924],[6.5984,9.5938],[6.5995,9.5986],[6.5747,9.6035],[6.5792,9.6183],[6.5708,9.6196],[6.5719,9.6333],[6.5669,9.6372],[6.567,9.6389],[6.5634,9.6384],[6.5617,9.6329],[6.5588,9.6318],[6.5577,9.6293],[6.5544,9.631],[6.5524,9.6343],[6.5498,9.6346],[6.5587,9.6583],[6.5542,9.6595],[6.5514,9.6585],[6.5457,9.6515],[6.5416,9.6547],[6.5342,9.6511],[6.5182,9.6664],[6.5133,9.6692],[6.5061,9.6549],[6.5061,9.6513],[6.5136,9.6373],[6.5095,9.6337],[6.5051,9.626],[6.5044,9.6211],[6.503,9.6217],[6.5007,9.6146],[6.5034,9.6074],[6.4959,9.5829],[6.5014,9.5771],[6.5067,9.5738],[6.507,9.5708],[6.5089,9.5693],[6.5081,9.5613],[6.5096,9.5627],[6.5155,9.5638],[6.5261,9.5634],[6.531,9.5664],[6.5427,9.5626],[6.544,9.5584],[6.551,9.558],[6.552,9.5611],[6.5636,9.5618],[6.5743,9.5686],[6.5723,9.5724]]]}},{"type":"Feature","properties":{"name":"Edati","state":"Niger","scode":"NI","centroid":[9.0518,5.6683]},"geometry":{"type":"Polygon","coordinates":[[[5.8374,9.1316],[5.8433,9.1449],[5.8425,9.1495],[5.8363,9.165],[5.8303,9.1717],[5.8091,9.1704],[5.7833,9.1907],[5.7696,9.187],[5.7522,9.1869],[5.7129,9.1899],[5.6772,9.2005],[5.6423,9.1898],[5.6335,9.1894],[5.6152,9.1831],[5.6086,9.1716],[5.6042,9.1681],[5.5857,9.1616],[5.5766,9.1563],[5.5455,9.1515],[5.5071,9.1408],[5.5003,9.1388],[5.515,9.1195],[5.512,9.1134],[5.5028,9.1053],[5.4982,9.1038],[5.4896,9.1043],[5.4759,9.1099],[5.4637,9.1094],[5.4424,9.1033],[5.4327,9.1028],[5.4142,9.0814],[5.4071,9.0672],[5.4106,9.0631],[5.4284,9.0626],[5.4446,9.0482],[5.4519,9.0355],[5.4519,9.0261],[5.4717,9.0131],[5.4852,9.0186],[5.4919,9.0251],[5.496,9.019],[5.5026,9.0164],[5.5052,9.0058],[5.5272,8.9797],[5.561,8.9712],[5.57,8.9638],[5.5869,8.9539],[5.6089,8.9529],[5.6166,8.9508],[5.6264,8.9429],[5.6509,8.927],[5.6844,8.9164],[5.6956,8.9179],[5.7113,8.9138],[5.7222,8.9158],[5.739,8.9092],[5.7512,8.9016],[5.7598,8.9021],[5.7887,8.8827],[5.7771,8.8655],[5.8117,8.8511],[5.8217,8.8707],[5.8168,8.9126],[5.8295,8.9314],[5.8322,8.938],[5.8375,8.9443],[5.8381,8.9677],[5.8337,8.9766],[5.8328,8.9852],[5.8248,8.9901],[5.8181,9.0004],[5.816,9.0318],[5.8099,9.0463],[5.8198,9.0719],[5.8234,9.0955],[5.8293,9.1058],[5.8374,9.1316]]]}},{"type":"Feature","properties":{"name":"Gbako","state":"Niger","scode":"NI","centroid":[9.3236,6.0217]},"geometry":{"type":"Polygon","coordinates":[[[6.2012,9.4618],[6.1896,9.5122],[6.1645,9.5118],[6.1492,9.5388],[6.0955,9.5586],[6.0877,9.548],[6.0368,9.5309],[6.0151,9.5368],[6.0058,9.5414],[5.9894,9.5534],[5.979,9.5564],[5.9724,9.5564],[5.951,9.5512],[5.9348,9.5394],[5.9267,9.5306],[5.9245,9.5262],[5.923,9.5166],[5.9123,9.5019],[5.9082,9.4886],[5.8992,9.4769],[5.8942,9.4584],[5.8963,9.4343],[5.8958,9.4189],[5.8753,9.403],[5.8618,9.3692],[5.8575,9.3431],[5.856,9.3147],[5.8458,9.3002],[5.8416,9.2708],[5.8339,9.2496],[5.8327,9.2339],[5.842,9.2136],[5.847,9.2068],[5.8303,9.1717],[5.8363,9.165],[5.8425,9.1495],[5.8433,9.1449],[5.8374,9.1316],[5.8553,9.1369],[5.9104,9.1587],[5.9361,9.157],[5.9968,9.1349],[6.0008,9.1519],[6.0172,9.1522],[6.026,9.1475],[6.0296,9.1328],[6.028,9.1149],[6.0324,9.1089],[6.0447,9.1021],[6.0548,9.0898],[6.0629,9.0895],[6.0753,9.086],[6.0874,9.0768],[6.1258,9.078],[6.1437,9.1109],[6.1428,9.139],[6.1554,9.1505],[6.165,9.172],[6.1736,9.1852],[6.2032,9.1946],[6.2212,9.2306],[6.1419,9.2496],[6.1369,9.2615],[6.1375,9.2887],[6.1399,9.3014],[6.1593,9.3176],[6.1625,9.3387],[6.1668,9.3901],[6.1583,9.4338],[6.1584,9.4466],[6.2012,9.4618]]]}},{"type":"Feature","properties":{"name":"Gurara","state":"Niger","scode":"NI","centroid":[9.3405,7.0169]},"geometry":{"type":"Polygon","coordinates":[[[7.0921,9.2106],[7.1105,9.2254],[7.1204,9.2408],[7.1501,9.2708],[7.1525,9.2942],[7.1913,9.284],[7.1945,9.2616],[7.1986,9.253],[7.2072,9.2478],[7.2186,9.2535],[7.2263,9.2605],[7.2308,9.2668],[7.2409,9.2669],[7.2375,9.2735],[7.2436,9.288],[7.2535,9.2893],[7.2334,9.2949],[7.2338,9.2964],[7.2323,9.2973],[7.2202,9.2979],[7.2233,9.3023],[7.2238,9.3085],[7.2306,9.3095],[7.2305,9.3152],[7.2323,9.3177],[7.2224,9.3323],[7.2214,9.3753],[7.2009,9.4598],[7.219,9.4927],[7.1949,9.4964],[7.1853,9.4933],[7.1777,9.4928],[7.1734,9.4868],[7.162,9.4792],[7.1393,9.4787],[7.1301,9.4803],[7.1257,9.4846],[7.1176,9.4819],[7.1144,9.4776],[7.0997,9.4771],[7.0992,9.4691],[7.1049,9.4538],[7.0669,9.4141],[7.0519,9.4022],[7.0394,9.3875],[7.0217,9.3821],[6.9824,9.3815],[6.9781,9.389],[6.9735,9.3935],[6.9427,9.3769],[6.9383,9.372],[6.9253,9.3769],[6.921,9.3823],[6.9015,9.3947],[6.8831,9.3915],[6.8739,9.3915],[6.8636,9.398],[6.8555,9.3996],[6.8387,9.3926],[6.8372,9.3873],[6.8238,9.3812],[6.8108,9.3807],[6.7973,9.3715],[6.7837,9.3698],[6.7696,9.366],[6.755,9.366],[6.7409,9.3579],[6.7312,9.359],[6.7231,9.3525],[6.7209,9.3265],[6.716,9.3124],[6.716,9.2983],[6.7236,9.2891],[6.7631,9.2843],[6.768,9.2756],[6.768,9.2675],[6.7794,9.2659],[6.7881,9.2702],[7.0153,9.269],[7.0301,9.2577],[7.0921,9.2106]]]}},{"type":"Feature","properties":{"name":"Katcha","state":"Niger","scode":"NI","centroid":[9.1194,6.2503]},"geometry":{"type":"Polygon","coordinates":[[[6.2085,8.7324],[6.2466,8.7388],[6.2677,8.7388],[6.3026,8.7278],[6.3153,8.7189],[6.3204,8.7499],[6.3303,8.756],[6.3307,8.7618],[6.3336,8.7681],[6.334,8.7752],[6.3183,8.7853],[6.3169,8.7875],[6.3319,8.8249],[6.3432,8.8306],[6.3418,8.834],[6.3081,8.8629],[6.2943,8.8535],[6.2637,8.8504],[6.2601,8.8524],[6.26,8.8545],[6.2713,8.873],[6.2604,8.8945],[6.272,8.9031],[6.2798,8.9371],[6.264,8.9579],[6.2663,8.9658],[6.2661,8.9752],[6.261,8.99],[6.2645,9.0294],[6.2495,9.0304],[6.2477,9.0315],[6.2526,9.0782],[6.2925,9.0504],[6.3161,9.0501],[6.3254,9.0558],[6.3236,9.0785],[6.2938,9.1036],[6.2928,9.1295],[6.2846,9.1464],[6.2665,9.1629],[6.2716,9.1791],[6.3155,9.1762],[6.3096,9.2094],[6.3279,9.2352],[6.3513,9.2363],[6.3542,9.2274],[6.3702,9.2342],[6.3786,9.2417],[6.4002,9.3001],[6.4258,9.305],[6.4476,9.2993],[6.4719,9.3005],[6.488,9.2964],[6.5031,9.3141],[6.5048,9.3267],[6.5015,9.3335],[6.5048,9.3444],[6.5031,9.3637],[6.5065,9.3763],[6.4896,9.4117],[6.4863,9.4234],[6.4807,9.4237],[6.4812,9.4352],[6.477,9.4411],[6.4716,9.4406],[6.4373,9.4116],[6.41,9.376],[6.3949,9.3673],[6.3373,9.3984],[6.2971,9.4281],[6.2897,9.4251],[6.2361,9.4674],[6.2111,9.4599],[6.2012,9.4618],[6.1584,9.4466],[6.1583,9.4338],[6.1668,9.3901],[6.1625,9.3387],[6.1593,9.3176],[6.1399,9.3014],[6.1375,9.2887],[6.1369,9.2615],[6.1419,9.2496],[6.2212,9.2306],[6.2032,9.1946],[6.1736,9.1852],[6.165,9.172],[6.1554,9.1505],[6.1428,9.139],[6.1437,9.1109],[6.1258,9.078],[6.1257,9.0708],[6.1154,9.0517],[6.1103,9.0495],[6.1062,9.0502],[6.1044,9.0483],[6.1009,9.0393],[6.1,9.0313],[6.0963,9.0301],[6.0968,9.0278],[6.0928,9.0221],[6.0946,9.0184],[6.1005,9.0173],[6.0973,9.0126],[6.1014,9.0049],[6.0948,9.0059],[6.0969,8.9978],[6.1041,8.9934],[6.1062,8.9867],[6.1098,8.9832],[6.1064,8.982],[6.0991,8.9831],[6.0982,8.9804],[6.1127,8.9646],[6.1134,8.9289],[6.1263,8.9274],[6.126,8.9133],[6.1161,8.8852],[6.1356,8.8443],[6.1275,8.8078],[6.1272,8.7533],[6.1316,8.7516],[6.1495,8.7207],[6.1691,8.7215],[6.1853,8.7297],[6.2032,8.7346],[6.2085,8.7324]]]}},{"type":"Feature","properties":{"name":"Kontagora","state":"Niger","scode":"NI","centroid":[10.4075,5.491]},"geometry":{"type":"Polygon","coordinates":[[[5.1677,10.2839],[5.191,10.2754],[5.2403,10.262],[5.2713,10.2587],[5.293,10.2512],[5.3256,10.2428],[5.3357,10.2428],[5.3524,10.2478],[5.3792,10.2528],[5.3901,10.2512],[5.4068,10.2461],[5.4126,10.242],[5.416,10.2328],[5.457,10.1943],[5.467,10.1943],[5.4996,10.2052],[5.5122,10.206],[5.5406,10.2169],[5.5808,10.2185],[5.6126,10.216],[5.6511,10.2152],[5.6971,10.2286],[5.7171,10.2369],[5.6835,10.2645],[5.6714,10.2771],[5.6633,10.2984],[5.6918,10.3297],[5.6981,10.343],[5.6962,10.3639],[5.6827,10.4082],[5.6852,10.4543],[5.6809,10.4788],[5.6802,10.5016],[5.6747,10.5126],[5.6778,10.5231],[5.6735,10.5397],[5.6557,10.5624],[5.6415,10.5833],[5.6335,10.5845],[5.6225,10.6011],[5.6213,10.6239],[5.6077,10.6613],[5.5997,10.6785],[5.5899,10.6841],[5.5703,10.7031],[5.5401,10.6896],[5.5292,10.6869],[5.5086,10.604],[5.4621,10.5609],[5.4591,10.5641],[5.4546,10.5624],[5.4301,10.5602],[5.4239,10.5616],[5.4072,10.5593],[5.4056,10.561],[5.4067,10.5641],[5.3993,10.5688],[5.3985,10.5722],[5.3939,10.5767],[5.394,10.5857],[5.3894,10.589],[5.3817,10.5982],[5.3546,10.6118],[5.3509,10.6157],[5.3437,10.6192],[5.3408,10.6023],[5.3374,10.5966],[5.3382,10.591],[5.3265,10.5699],[5.3223,10.5557],[5.3281,10.4787],[5.3549,10.4143],[5.3546,10.407],[5.3494,10.4048],[5.3468,10.399],[5.3379,10.3863],[5.3386,10.3794],[5.3438,10.3751],[5.3407,10.3716],[5.3273,10.3633],[5.3219,10.355],[5.3086,10.349],[5.269,10.3489],[5.2452,10.3619],[5.2244,10.3566],[5.2077,10.3457],[5.1935,10.3323],[5.1763,10.308],[5.173,10.2888],[5.1677,10.2839]]]}},{"type":"Feature","properties":{"name":"Lapai","state":"Niger","scode":"NI","centroid":[8.7303,6.6596]},"geometry":{"type":"Polygon","coordinates":[[[6.408,8.603],[6.4249,8.5494],[6.4313,8.5191],[6.4529,8.4483],[6.5035,8.4125],[6.5274,8.3757],[6.5513,8.3693],[6.5798,8.3306],[6.5881,8.326],[6.5991,8.3242],[6.6083,8.3141],[6.6138,8.2994],[6.6267,8.2874],[6.6414,8.2553],[6.6653,8.2268],[6.6717,8.2203],[6.6837,8.213],[6.6883,8.202],[6.6913,8.183],[6.6998,8.1891],[6.7126,8.202],[6.7145,8.2295],[6.7181,8.2433],[6.7274,8.2524],[6.72,8.2746],[6.7301,8.2838],[6.7439,8.2654],[6.7494,8.2635],[6.7614,8.2727],[6.7632,8.2819],[6.7614,8.293],[6.7494,8.2994],[6.7512,8.3049],[6.7604,8.3058],[6.7669,8.3086],[6.7724,8.3352],[6.7797,8.3316],[6.7908,8.3306],[6.8073,8.3426],[6.811,8.3518],[6.8229,8.3674],[6.8275,8.3794],[6.8367,8.3913],[6.8377,8.3968],[6.8331,8.4014],[6.8248,8.4042],[6.8321,8.4171],[6.8321,8.4253],[6.8248,8.4327],[6.8279,8.4576],[6.7846,8.4576],[6.7825,8.5715],[6.78,8.5803],[6.7813,8.7439],[6.7901,8.7901],[6.7923,8.8403],[6.7831,8.8489],[6.7881,9.2702],[6.7794,9.2659],[6.768,9.2675],[6.768,9.2756],[6.7631,9.2843],[6.7236,9.2891],[6.7247,9.2778],[6.7166,9.2604],[6.7067,9.2499],[6.7014,9.2404],[6.6949,9.2393],[6.6857,9.2333],[6.6824,9.2198],[6.6727,9.2187],[6.6342,9.2209],[6.6283,9.2269],[6.625,9.2361],[6.6218,9.2371],[6.6185,9.2361],[6.6126,9.2301],[6.5996,9.2274],[6.5866,9.2333],[6.5671,9.2328],[6.5508,9.2241],[6.5353,9.2209],[6.5314,9.196],[6.5246,9.1775],[6.526,9.1622],[6.5313,9.1386],[6.5471,9.1082],[6.5453,9.0673],[6.562,9.0511],[6.5594,9.0344],[6.5665,9.0289],[6.5762,9.0014],[6.5842,8.9902],[6.5945,8.9798],[6.585,8.9685],[6.579,8.9328],[6.5871,8.8792],[6.5985,8.8537],[6.599,8.8429],[6.5915,8.8353],[6.5758,8.7865],[6.5611,8.7757],[6.5443,8.766],[6.5346,8.7486],[6.533,8.7356],[6.5389,8.7145],[6.5433,8.7058],[6.5465,8.6907],[6.5447,8.6803],[6.546,8.6658],[6.5406,8.6419],[6.5357,8.6279],[6.501,8.5878],[6.4864,8.5791],[6.468,8.5791],[6.4393,8.5948],[6.408,8.603]]]}},{"type":"Feature","properties":{"name":"Lavun","state":"Niger","scode":"NI","centroid":[9.4554,5.5639]},"geometry":{"type":"MultiPolygon","coordinates":[[[[6.1272,8.7533],[6.1275,8.8078],[6.1356,8.8443],[6.1161,8.8852],[6.126,8.9133],[6.1263,8.9274],[6.1134,8.9289],[6.1094,8.9139],[6.098,8.9127],[6.0757,8.9189],[6.0716,8.9218],[6.052,8.9266],[6.0486,8.929],[6.0396,8.929],[6.034,8.9313],[6.0261,8.9319],[6.0196,8.9322],[6.018,8.9282],[5.9787,8.9173],[5.9613,8.9174],[5.9441,8.9225],[5.9209,8.9317],[5.8797,8.927],[5.8601,8.9424],[5.8566,8.9634],[5.8381,8.9677],[5.8375,8.9443],[5.8322,8.938],[5.8295,8.9314],[5.8168,8.9126],[5.8217,8.8707],[5.8117,8.8511],[5.8069,8.8416],[5.8015,8.8103],[5.7912,8.8004],[5.7785,8.7941],[5.7608,8.7736],[5.7746,8.7533],[5.7958,8.7419],[5.8868,8.7468],[5.9015,8.75],[5.9283,8.7427],[5.9438,8.7484],[5.9747,8.7565],[5.9787,8.75],[5.9999,8.7516],[6.0332,8.759],[6.0845,8.7606],[6.1146,8.7581],[6.1272,8.7533]]],[[[5.5071,9.1408],[5.5455,9.1515],[5.5766,9.1563],[5.5857,9.1616],[5.6042,9.1681],[5.6086,9.1716],[5.6152,9.1831],[5.6335,9.1894],[5.6423,9.1898],[5.6772,9.2005],[5.7129,9.1899],[5.7522,9.1869],[5.7696,9.187],[5.7833,9.1907],[5.8091,9.1704],[5.8303,9.1717],[5.847,9.2068],[5.842,9.2136],[5.8327,9.2339],[5.8339,9.2496],[5.8416,9.2708],[5.8458,9.3002],[5.856,9.3147],[5.8575,9.3431],[5.8618,9.3692],[5.8753,9.403],[5.8958,9.4189],[5.8963,9.4343],[5.8942,9.4584],[5.8992,9.4769],[5.9082,9.4886],[5.9123,9.5019],[5.9015,9.4954],[5.8939,9.4888],[5.8816,9.4877],[5.8651,9.4899],[5.8383,9.5079],[5.8335,9.5097],[5.8207,9.5093],[5.803,9.4921],[5.7983,9.4822],[5.7906,9.4826],[5.7803,9.4895],[5.7517,9.5141],[5.7421,9.5266],[5.7388,9.5347],[5.7361,9.5361],[5.7352,9.5383],[5.7362,9.5408],[5.7322,9.5556],[5.7311,9.5688],[5.7198,9.586],[5.7139,9.6014],[5.7076,9.6106],[5.6955,9.6191],[5.6925,9.625],[5.6859,9.6258],[5.6456,9.6543],[5.6372,9.6646],[5.6181,9.6752],[5.6012,9.6794],[5.5814,9.7023],[5.563,9.7113],[5.5475,9.6946],[5.538,9.6948],[5.5306,9.6894],[5.5265,9.6949],[5.5163,9.704],[5.5122,9.7146],[5.5103,9.7364],[5.5016,9.7497],[5.4986,9.7668],[5.4841,9.7918],[5.4805,9.7951],[5.469,9.7977],[5.453,9.7944],[5.4475,9.7952],[5.4339,9.8043],[5.43,9.8085],[5.4311,9.8018],[5.4298,9.7979],[5.4223,9.7887],[5.416,9.7755],[5.4077,9.7646],[5.4052,9.759],[5.3913,9.7427],[5.3739,9.7314],[5.3713,9.7236],[5.3709,9.7152],[5.3636,9.7064],[5.3605,9.6954],[5.3557,9.69],[5.3283,9.6909],[5.3125,9.6847],[5.3069,9.6855],[5.3,9.6748],[5.2921,9.6711],[5.2851,9.6542],[5.2785,9.6448],[5.2709,9.6295],[5.2723,9.6197],[5.2702,9.6126],[5.2577,9.6009],[5.2544,9.5945],[5.2563,9.5901],[5.2299,9.5741],[5.2227,9.5752],[5.2172,9.5688],[5.1957,9.5696],[5.18,9.5785],[5.1679,9.5762],[5.1525,9.5688],[5.1368,9.5421],[5.1289,9.5362],[5.1345,9.5343],[5.1383,9.5283],[5.1659,9.5163],[5.1799,9.5223],[5.1998,9.5235],[5.2086,9.5221],[5.219,9.5145],[5.221,9.5086],[5.3297,9.517],[5.3319,9.4851],[5.3508,9.4392],[5.3504,9.4366],[5.3595,9.4162],[5.3742,9.4061],[5.4016,9.3603],[5.4111,9.3554],[5.4413,9.2632],[5.452,9.2632],[5.5074,9.2352],[5.4973,9.2063],[5.4664,9.1783],[5.4671,9.1696],[5.5,9.1608],[5.5071,9.1408]]]]}},{"type":"Feature","properties":{"name":"Magama","state":"Niger","scode":"NI","centroid":[10.3697,4.9758]},"geometry":{"type":"Polygon","coordinates":[[[4.53,10.1006],[4.5706,10.0694],[4.5855,10.0338],[4.5806,10.0063],[4.5743,9.9913],[4.5724,9.9757],[4.5787,9.9495],[4.5831,9.942],[4.5868,9.9258],[4.5918,9.9127],[4.5924,9.9027],[4.5799,9.8796],[4.5843,9.8746],[4.5905,9.8733],[4.5949,9.8702],[4.6018,9.8596],[4.6049,9.8452],[4.6196,9.8193],[4.6212,9.8191],[4.6368,9.8525],[4.6484,9.8601],[4.672,9.8846],[4.6839,9.8949],[4.6909,9.9166],[4.6943,9.9354],[4.7211,9.9561],[4.7366,9.9761],[4.7595,9.9904],[4.7939,9.9989],[4.8205,9.9848],[4.8399,9.9684],[4.8642,9.9582],[4.8899,9.9649],[4.9039,9.9843],[4.906,10.026],[4.9095,10.0362],[4.9095,10.0638],[4.912,10.0788],[4.9128,10.1031],[4.9178,10.1173],[4.9212,10.1441],[4.9287,10.1642],[4.9513,10.1725],[4.9789,10.1993],[5.009,10.201],[5.0375,10.2077],[5.0885,10.2236],[5.1086,10.2328],[5.1328,10.2553],[5.1562,10.2712],[5.1677,10.2839],[5.173,10.2888],[5.1763,10.308],[5.1935,10.3323],[5.2077,10.3457],[5.2244,10.3566],[5.2452,10.3619],[5.269,10.3489],[5.3086,10.349],[5.3219,10.355],[5.3273,10.3633],[5.3407,10.3716],[5.3438,10.3751],[5.3386,10.3794],[5.3379,10.3863],[5.3468,10.399],[5.3494,10.4048],[5.3546,10.407],[5.3549,10.4143],[5.3281,10.4787],[5.3223,10.5557],[5.3265,10.5699],[5.3382,10.591],[5.3374,10.5966],[5.3408,10.6023],[5.3437,10.6192],[5.3393,10.6192],[5.3352,10.6226],[5.3301,10.6218],[5.3258,10.6267],[5.3249,10.637],[5.3127,10.6349],[5.3127,10.6418],[5.3065,10.648],[5.3022,10.6644],[5.2966,10.6715],[5.2955,10.6798],[5.286,10.688],[5.2684,10.692],[5.2449,10.6999],[5.2379,10.7096],[5.2345,10.7138],[5.2236,10.7188],[5.2202,10.7188],[5.2161,10.7146],[5.2069,10.7138],[5.1977,10.7255],[5.1843,10.7305],[5.1792,10.7338],[5.1742,10.7422],[5.165,10.7439],[5.15,10.7497],[5.1441,10.7481],[5.1374,10.7422],[5.1324,10.743],[5.1232,10.7397],[5.1124,10.7405],[5.1073,10.7456],[5.1081,10.7573],[5.1009,10.7598],[5.101,10.7613],[5.0947,10.7614],[5.088,10.7568],[5.0848,10.7589],[5.0784,10.7482],[5.0661,10.7471],[5.0634,10.7446],[5.0613,10.7399],[5.0553,10.738],[5.0479,10.7372],[5.0393,10.7414],[5.0299,10.7498],[5.0269,10.7504],[5.0138,10.7384],[5.012,10.7239],[5.0085,10.7217],[5.0031,10.7221],[4.9868,10.7171],[4.9793,10.7171],[4.9735,10.7104],[4.9652,10.7075],[4.955,10.7062],[4.9507,10.6986],[4.951,10.6938],[4.9495,10.6914],[4.9417,10.6887],[4.9327,10.6889],[4.9302,10.6937],[4.9275,10.6947],[4.9205,10.6891],[4.9083,10.6902],[4.9006,10.6952],[4.8966,10.7048],[4.8937,10.7066],[4.8736,10.7024],[4.8702,10.7035],[4.8662,10.708],[4.8625,10.7082],[4.8462,10.6992],[4.8438,10.6995],[4.8406,10.7037],[4.8364,10.7058],[4.8257,10.7084],[4.8095,10.6979],[4.807,10.6929],[4.8145,10.6744],[4.812,10.6619],[4.8028,10.6527],[4.7961,10.6293],[4.802,10.6134],[4.8145,10.6042],[4.8237,10.595],[4.822,10.559],[4.8195,10.5381],[4.8187,10.5071],[4.8329,10.4879],[4.8451,10.4787],[4.8534,10.4603],[4.8759,10.4593],[4.9062,10.4542],[4.932,10.4395],[4.9503,10.3897],[4.9465,10.2853],[4.8715,10.2183],[4.7939,10.2607],[4.7777,10.2566],[4.7287,10.2482],[4.697,10.2403],[4.6694,10.2261],[4.6711,10.2118],[4.6465,10.205],[4.6504,10.1986],[4.6495,10.1815],[4.6392,10.1378],[4.6248,10.1027],[4.53,10.1006]]]}},{"type":"Feature","properties":{"name":"Mariga","state":"Niger","scode":"NI","centroid":[10.6856,5.8115]},"geometry":{"type":"Polygon","coordinates":[[[5.4306,10.9906],[5.4324,10.9758],[5.4306,10.9644],[5.409,10.9582],[5.3829,10.9564],[5.3816,10.9412],[5.4258,10.9212],[5.4297,10.9174],[5.4312,10.8852],[5.4109,10.8797],[5.4062,10.8825],[5.4133,10.9084],[5.3901,10.9139],[5.3661,10.9062],[5.3556,10.8769],[5.3564,10.8625],[5.3604,10.8376],[5.3661,10.8151],[5.3645,10.8063],[5.3602,10.8083],[5.3556,10.8006],[5.3548,10.783],[5.2692,10.7351],[5.2379,10.7096],[5.2449,10.6999],[5.2684,10.692],[5.286,10.688],[5.2955,10.6798],[5.2966,10.6715],[5.3022,10.6644],[5.3065,10.648],[5.3127,10.6418],[5.3127,10.6349],[5.3249,10.637],[5.3258,10.6267],[5.3301,10.6218],[5.3352,10.6226],[5.3393,10.6192],[5.3437,10.6192],[5.3509,10.6157],[5.3546,10.6118],[5.3817,10.5982],[5.3894,10.589],[5.394,10.5857],[5.3939,10.5767],[5.3985,10.5722],[5.3993,10.5688],[5.4067,10.5641],[5.4056,10.561],[5.4072,10.5593],[5.4239,10.5616],[5.4301,10.5602],[5.4546,10.5624],[5.4591,10.5641],[5.4621,10.5609],[5.5086,10.604],[5.5292,10.6869],[5.5401,10.6896],[5.5703,10.7031],[5.5899,10.6841],[5.5997,10.6785],[5.6077,10.6613],[5.6213,10.6239],[5.6225,10.6011],[5.6335,10.5845],[5.6415,10.5833],[5.6557,10.5624],[5.6735,10.5397],[5.6778,10.5231],[5.6747,10.5126],[5.6802,10.5016],[5.6809,10.4788],[5.6852,10.4543],[5.6827,10.4082],[5.6962,10.3639],[5.6981,10.343],[5.6918,10.3297],[5.6633,10.2984],[5.6714,10.2771],[5.6835,10.2645],[5.7171,10.2369],[5.7361,10.2235],[5.7576,10.1856],[5.8073,10.1616],[5.8246,10.1606],[5.8786,10.1667],[5.9028,10.1575],[5.9338,10.1374],[5.9472,10.1215],[5.9723,10.0956],[5.9823,10.0906],[5.9915,10.083],[5.9992,10.0704],[6.0054,10.0753],[6.0223,10.0753],[6.0258,10.0839],[6.0357,10.0888],[6.0432,10.0844],[6.0516,10.0752],[6.0573,10.0735],[6.0601,10.0769],[6.0579,10.0848],[6.0525,10.0909],[6.0431,10.0941],[6.0303,10.1043],[6.0247,10.1115],[6.0142,10.1115],[6.011,10.1179],[6.012,10.1205],[6.0203,10.1241],[6.0299,10.1258],[6.0317,10.1279],[6.0313,10.1406],[6.0199,10.1492],[6.0175,10.1589],[6.0223,10.1669],[6.0211,10.1838],[6.0251,10.195],[6.0235,10.2135],[6.0187,10.2288],[6.0315,10.236],[6.0379,10.2472],[6.042,10.2737],[6.054,10.2882],[6.0588,10.2978],[6.0556,10.3067],[6.0452,10.3147],[6.041,10.3396],[6.045,10.3637],[6.041,10.375],[6.0418,10.3846],[6.0379,10.3974],[6.0395,10.4079],[6.0442,10.4183],[6.0452,10.4328],[6.0476,10.4424],[6.054,10.4536],[6.0628,10.4601],[6.0817,10.4689],[6.0922,10.5218],[6.0943,10.531],[6.0936,10.5462],[6.0997,10.5475],[6.109,10.5452],[6.1144,10.5486],[6.12,10.5501],[6.1245,10.5542],[6.1256,10.5623],[6.1287,10.5688],[6.1299,10.5777],[6.134,10.5901],[6.1275,10.5963],[6.1171,10.6021],[6.1147,10.6068],[6.1214,10.6286],[6.1234,10.6322],[6.1275,10.6344],[6.127,10.6386],[6.1308,10.646],[6.1305,10.6577],[6.1331,10.6605],[6.1331,10.6674],[6.1402,10.6705],[6.141,10.6732],[6.1372,10.6792],[6.1326,10.679],[6.1258,10.6853],[6.1176,10.6868],[6.1142,10.6919],[6.1164,10.6942],[6.1119,10.7004],[6.1075,10.7018],[6.0989,10.7017],[6.0969,10.6982],[6.0928,10.699],[6.0944,10.7055],[6.0938,10.7106],[6.1037,10.7162],[6.1073,10.721],[6.1071,10.7277],[6.1106,10.7319],[6.1116,10.7361],[6.1167,10.7403],[6.1165,10.7429],[6.111,10.7499],[6.1131,10.7602],[6.1039,10.7695],[6.102,10.7747],[6.1057,10.7775],[6.1101,10.7897],[6.1112,10.7997],[6.1135,10.8052],[6.1126,10.8139],[6.1223,10.815],[6.1268,10.8186],[6.1303,10.818],[6.1364,10.8253],[6.1304,10.8339],[6.122,10.8361],[6.1226,10.8449],[6.1488,10.855],[6.1541,10.8547],[6.1567,10.8528],[6.1606,10.854],[6.1628,10.8561],[6.1637,10.86],[6.1624,10.8656],[6.164,10.8682],[6.1578,10.8851],[6.1646,10.8931],[6.2092,10.9018],[6.2178,10.9051],[6.233,10.9221],[6.234,10.9266],[6.2321,10.9332],[6.2375,10.9453],[6.2418,10.9453],[6.2482,10.9486],[6.251,10.9483],[6.2544,10.9554],[6.2608,10.9595],[6.2623,10.9629],[6.2654,10.9636],[6.2665,10.9661],[6.2423,10.9886],[6.2235,10.9965],[6.2083,11.0048],[6.1961,11.0177],[6.1626,11.043],[6.1275,11.0539],[6.12,11.0597],[6.1127,11.0613],[6.066,11.055],[6.0464,11.0544],[6.0399,11.0665],[6.0327,11.0753],[6.0263,11.101],[6.0167,11.1183],[6.014,11.1297],[6.0159,11.138],[6.0006,11.1436],[5.9777,11.167],[5.915,11.1451],[5.9068,11.1371],[5.8975,11.1136],[5.8923,11.1108],[5.8679,11.1069],[5.8552,11.0986],[5.8358,11.0933],[5.8261,11.0931],[5.809,11.0875],[5.8003,11.0825],[5.7752,11.06],[5.7691,11.0494],[5.7656,11.0394],[5.7569,11.0289],[5.7401,11.0234],[5.7348,11.0062],[5.729,10.9984],[5.7034,10.9897],[5.68,10.9757],[5.6651,10.9735],[5.6365,10.965],[5.585,10.9668],[5.5783,10.9689],[5.5753,10.9651],[5.5748,10.9607],[5.5729,10.9606],[5.571,10.9572],[5.5716,10.9537],[5.5678,10.952],[5.5642,10.9542],[5.5602,10.9521],[5.5595,10.9493],[5.5562,10.9474],[5.5509,10.9526],[5.546,10.9535],[5.5421,10.9597],[5.5385,10.959],[5.536,10.9623],[5.5342,10.9716],[5.531,10.9776],[5.5245,10.9831],[5.5224,10.9905],[5.5197,10.9899],[5.5189,10.992],[5.5151,10.9936],[5.5103,10.9865],[5.5102,10.981],[5.5086,10.981],[5.5051,10.985],[5.5009,10.9838],[5.5007,10.9753],[5.4473,10.9835],[5.4306,10.9906]]]}},{"type":"Feature","properties":{"name":"Mashegu","state":"Niger","scode":"NI","centroid":[9.8794,5.2577]},"geometry":{"type":"Polygon","coordinates":[[[5.5814,9.7023],[5.5872,9.7287],[5.6318,9.7292],[5.657,9.7273],[5.6587,9.7255],[5.6612,9.727],[5.6661,9.7267],[5.6853,9.7342],[5.7104,9.7409],[5.7288,9.7409],[5.7623,9.7308],[5.7824,9.7166],[5.7991,9.7133],[5.8175,9.7225],[5.8443,9.7693],[5.8494,9.7837],[5.8493,9.7927],[5.856,9.8116],[5.9505,9.9249],[5.9681,9.9366],[5.9806,9.9425],[5.9857,9.95],[5.9882,9.9567],[5.9798,9.9759],[5.9815,9.9826],[5.9873,9.9851],[5.9915,9.9851],[5.9949,9.9877],[6.0041,10.0019],[6.0041,10.0069],[5.9965,10.0102],[5.9965,10.0245],[5.9915,10.0328],[5.9924,10.0537],[5.9999,10.0646],[5.9992,10.0704],[5.9915,10.083],[5.9823,10.0906],[5.9723,10.0956],[5.9472,10.1215],[5.9338,10.1374],[5.9028,10.1575],[5.8786,10.1667],[5.8246,10.1606],[5.8073,10.1616],[5.7576,10.1856],[5.7361,10.2235],[5.7171,10.2369],[5.6971,10.2286],[5.6511,10.2152],[5.6126,10.216],[5.5808,10.2185],[5.5406,10.2169],[5.5122,10.206],[5.4996,10.2052],[5.467,10.1943],[5.457,10.1943],[5.416,10.2328],[5.4126,10.242],[5.4068,10.2461],[5.3901,10.2512],[5.3792,10.2528],[5.3524,10.2478],[5.3357,10.2428],[5.3256,10.2428],[5.293,10.2512],[5.2713,10.2587],[5.2403,10.262],[5.191,10.2754],[5.1677,10.2839],[5.1562,10.2712],[5.1328,10.2553],[5.1086,10.2328],[5.0885,10.2236],[5.0375,10.2077],[5.009,10.201],[4.9789,10.1993],[4.9513,10.1725],[4.9287,10.1642],[4.9212,10.1441],[4.9178,10.1173],[4.9128,10.1031],[4.912,10.0788],[4.9095,10.0638],[4.9095,10.0362],[4.906,10.026],[4.9039,9.9843],[4.8899,9.9649],[4.8642,9.9582],[4.8399,9.9684],[4.8205,9.9848],[4.7939,9.9989],[4.7595,9.9904],[4.7366,9.9761],[4.7211,9.9561],[4.6943,9.9354],[4.6909,9.9166],[4.6839,9.8949],[4.672,9.8846],[4.6484,9.8601],[4.6368,9.8525],[4.6212,9.8191],[4.6257,9.818],[4.639,9.7941],[4.6367,9.7772],[4.6385,9.7613],[4.6337,9.7408],[4.6097,9.6989],[4.5846,9.6486],[4.5679,9.5992],[4.6979,9.6149],[4.76,9.5815],[4.823,9.5539],[4.8499,9.4937],[4.827,9.4548],[4.823,9.4265],[4.8272,9.4079],[4.8395,9.3862],[4.8471,9.3786],[4.8613,9.3725],[4.8659,9.3689],[4.8923,9.3669],[4.9136,9.3562],[4.9192,9.3552],[4.9459,9.3558],[4.9933,9.3754],[5.0207,9.3887],[5.0685,9.4225],[5.0984,9.4362],[5.1503,9.4522],[5.186,9.4694],[5.221,9.5086],[5.219,9.5145],[5.2086,9.5221],[5.1998,9.5235],[5.1799,9.5223],[5.1659,9.5163],[5.1383,9.5283],[5.1345,9.5343],[5.1289,9.5362],[5.1368,9.5421],[5.1525,9.5688],[5.1679,9.5762],[5.18,9.5785],[5.1957,9.5696],[5.2172,9.5688],[5.2227,9.5752],[5.2299,9.5741],[5.2563,9.5901],[5.2544,9.5945],[5.2577,9.6009],[5.2702,9.6126],[5.2723,9.6197],[5.2709,9.6295],[5.2785,9.6448],[5.2851,9.6542],[5.2921,9.6711],[5.3,9.6748],[5.3069,9.6855],[5.3125,9.6847],[5.3283,9.6909],[5.3557,9.69],[5.3605,9.6954],[5.3636,9.7064],[5.3709,9.7152],[5.3713,9.7236],[5.3739,9.7314],[5.3913,9.7427],[5.4052,9.759],[5.4077,9.7646],[5.416,9.7755],[5.4223,9.7887],[5.4298,9.7979],[5.4311,9.8018],[5.43,9.8085],[5.4339,9.8043],[5.4475,9.7952],[5.453,9.7944],[5.469,9.7977],[5.4805,9.7951],[5.4841,9.7918],[5.4986,9.7668],[5.5016,9.7497],[5.5103,9.7364],[5.5122,9.7146],[5.5163,9.704],[5.5265,9.6949],[5.5306,9.6894],[5.538,9.6948],[5.5475,9.6946],[5.563,9.7113],[5.5814,9.7023]]]}},{"type":"Feature","properties":{"name":"Mokwa","state":"Niger","scode":"NI","centroid":[9.2643,5.1118]},"geometry":{"type":"Polygon","coordinates":[[[4.7646,9.1499],[4.7687,9.1535],[4.7725,9.1476],[4.7853,9.1353],[4.8076,9.1364],[4.8126,9.1321],[4.8152,9.1316],[4.8282,9.1342],[4.8481,9.1412],[4.8572,9.1487],[4.8652,9.1503],[4.8761,9.1576],[4.8766,9.1612],[4.8861,9.1673],[4.9112,9.1714],[4.9234,9.1762],[4.9621,9.1931],[4.9716,9.2006],[4.9967,9.2074],[5.0163,9.2053],[5.0326,9.1979],[5.0482,9.1877],[5.0652,9.1626],[5.1079,9.1355],[5.1595,9.107],[5.1717,9.0873],[5.1968,9.0541],[5.209,9.0351],[5.2256,9.0269],[5.2378,9.0188],[5.2724,9.0147],[5.2866,9.01],[5.2975,9.0032],[5.3077,9.0005],[5.3233,8.9923],[5.3321,8.9957],[5.3484,8.9984],[5.3701,8.9964],[5.3755,8.9903],[5.3911,8.9828],[5.4081,8.9788],[5.425,8.9788],[5.4576,8.9686],[5.4664,8.9543],[5.4739,8.9476],[5.4854,8.9448],[5.5119,8.9442],[5.5254,8.9401],[5.5396,8.9306],[5.5436,8.9167],[5.5486,8.9122],[5.5631,8.8988],[5.6014,8.8769],[5.6054,8.8679],[5.6193,8.8525],[5.642,8.8354],[5.6656,8.8305],[5.6916,8.8281],[5.7128,8.8289],[5.7282,8.82],[5.7421,8.798],[5.7608,8.7736],[5.7785,8.7941],[5.7912,8.8004],[5.8015,8.8103],[5.8069,8.8416],[5.8117,8.8511],[5.7771,8.8655],[5.7887,8.8827],[5.7598,8.9021],[5.7512,8.9016],[5.739,8.9092],[5.7222,8.9158],[5.7113,8.9138],[5.6956,8.9179],[5.6844,8.9164],[5.6509,8.927],[5.6264,8.9429],[5.6166,8.9508],[5.6089,8.9529],[5.5869,8.9539],[5.57,8.9638],[5.561,8.9712],[5.5272,8.9797],[5.5052,9.0058],[5.5026,9.0164],[5.496,9.019],[5.4919,9.0251],[5.4852,9.0186],[5.4717,9.0131],[5.4519,9.0261],[5.4519,9.0355],[5.4446,9.0482],[5.4284,9.0626],[5.4106,9.0631],[5.4071,9.0672],[5.4142,9.0814],[5.4327,9.1028],[5.4424,9.1033],[5.4637,9.1094],[5.4759,9.1099],[5.4896,9.1043],[5.4982,9.1038],[5.5028,9.1053],[5.512,9.1134],[5.515,9.1195],[5.5003,9.1388],[5.5071,9.1408],[5.5,9.1608],[5.4671,9.1696],[5.4664,9.1783],[5.4973,9.2063],[5.5074,9.2352],[5.452,9.2632],[5.4413,9.2632],[5.4111,9.3554],[5.4016,9.3603],[5.3742,9.4061],[5.3595,9.4162],[5.3504,9.4366],[5.3508,9.4392],[5.3319,9.4851],[5.3297,9.517],[5.221,9.5086],[5.186,9.4694],[5.1503,9.4522],[5.0984,9.4362],[5.0685,9.4225],[5.0207,9.3887],[4.9933,9.3754],[4.9459,9.3558],[4.9192,9.3552],[4.9136,9.3562],[4.8923,9.3669],[4.8659,9.3689],[4.8613,9.3725],[4.8471,9.3786],[4.8395,9.3862],[4.8272,9.4079],[4.823,9.4265],[4.827,9.4548],[4.8499,9.4937],[4.823,9.5539],[4.76,9.5815],[4.6979,9.6149],[4.5679,9.5992],[4.5476,9.5597],[4.5714,9.4955],[4.6119,9.428],[4.6136,9.3932],[4.6118,9.3707],[4.6097,9.3618],[4.6171,9.3304],[4.6393,9.3082],[4.6851,9.2925],[4.7139,9.2781],[4.7375,9.2689],[4.7545,9.2479],[4.7572,9.2244],[4.7519,9.1995],[4.7519,9.1799],[4.7646,9.1499]]]}},{"type":"Feature","properties":{"name":"Munya","state":"Niger","scode":"NI","centroid":[9.8203,7.0406]},"geometry":{"type":"Polygon","coordinates":[[[7.2541,10.0392],[7.2408,10.04],[7.2324,10.0433],[7.2291,10.0384],[7.216,10.0374],[7.2139,10.04],[7.2071,10.0417],[7.2004,10.0333],[7.1886,10.0274],[7.1794,10.0274],[7.1668,10.0333],[7.1382,10.0358],[7.1249,10.033],[7.123,10.0299],[7.1121,10.0265],[7.1054,10.0265],[7.1037,10.0316],[7.1003,10.0299],[7.0919,10.0324],[7.0852,10.0366],[7.065,10.0425],[7.0339,10.0442],[7.0187,10.0383],[7.0085,10.0448],[6.9523,10.0476],[6.9405,10.061],[6.9262,10.0677],[6.9144,10.0778],[6.9012,10.0764],[6.8934,10.0728],[6.885,10.0274],[6.8799,10.0181],[6.8757,10.0055],[6.869,9.9727],[6.8663,9.9725],[6.8686,9.9627],[6.8547,9.9306],[6.8471,9.9231],[6.8454,9.9172],[6.8488,9.9121],[6.8497,9.8961],[6.8471,9.8886],[6.848,9.8684],[6.8505,9.8583],[6.8539,9.8179],[6.8606,9.7759],[6.8749,9.7464],[6.8698,9.7389],[6.8547,9.7338],[6.8429,9.727],[6.8287,9.7098],[6.8354,9.6943],[6.8396,9.6716],[6.8396,9.6632],[6.8354,9.6547],[6.8463,9.6329],[6.8471,9.6186],[6.8446,9.6093],[6.8488,9.5891],[6.8497,9.5681],[6.8468,9.5331],[6.8648,9.5269],[6.8928,9.5301],[6.9205,9.5274],[6.9313,9.5241],[6.9502,9.521],[6.9567,9.5236],[6.9696,9.5458],[6.9736,9.5546],[6.974,9.5622],[6.9783,9.5614],[6.9842,9.5647],[6.9952,9.5614],[7.0019,9.5546],[7.0204,9.5546],[7.0263,9.5589],[7.0305,9.5698],[7.0448,9.5883],[7.0675,9.6312],[7.0675,9.6388],[7.0729,9.6575],[7.0776,9.6632],[7.0833,9.6605],[7.1003,9.6421],[7.1205,9.6329],[7.1356,9.6219],[7.1541,9.616],[7.1687,9.6314],[7.2023,9.6603],[7.2021,9.6791],[7.1996,9.6884],[7.1886,9.6909],[7.1777,9.6968],[7.1642,9.701],[7.1575,9.7077],[7.1516,9.7161],[7.1499,9.7254],[7.1419,9.7398],[7.1491,9.7431],[7.1659,9.7473],[7.1819,9.7456],[7.1878,9.7506],[7.1861,9.7599],[7.1937,9.7675],[7.2047,9.7583],[7.2105,9.7801],[7.224,9.7876],[7.2315,9.791],[7.2517,9.7944],[7.2601,9.7868],[7.2677,9.7834],[7.2736,9.7834],[7.2854,9.7893],[7.2913,9.8003],[7.2929,9.8112],[7.2921,9.8238],[7.2887,9.8406],[7.2929,9.8516],[7.2949,9.853],[7.2965,9.8698],[7.2955,9.8718],[7.2955,9.8877],[7.2938,9.9079],[7.2854,9.9332],[7.2862,9.95],[7.2811,9.965],[7.2803,9.9996],[7.2778,10.0164],[7.2702,10.0282],[7.2541,10.0392]]]}},{"type":"Feature","properties":{"name":"Paikoro","state":"Niger","scode":"NI","centroid":[9.4637,6.8464]},"geometry":{"type":"Polygon","coordinates":[[[7.2047,9.7583],[7.1937,9.7675],[7.1861,9.7599],[7.1878,9.7506],[7.1819,9.7456],[7.1659,9.7473],[7.1491,9.7431],[7.1419,9.7398],[7.1499,9.7254],[7.1516,9.7161],[7.1575,9.7077],[7.1642,9.701],[7.1777,9.6968],[7.1886,9.6909],[7.1996,9.6884],[7.2021,9.6791],[7.2023,9.6603],[7.1687,9.6314],[7.1541,9.616],[7.1356,9.6219],[7.1205,9.6329],[7.1003,9.6421],[7.0833,9.6605],[7.0776,9.6632],[7.0729,9.6575],[7.0675,9.6388],[7.0675,9.6312],[7.0448,9.5883],[7.0305,9.5698],[7.0263,9.5589],[7.0204,9.5546],[7.0019,9.5546],[6.9952,9.5614],[6.9842,9.5647],[6.9783,9.5614],[6.974,9.5622],[6.9736,9.5546],[6.9696,9.5458],[6.9567,9.5236],[6.9502,9.521],[6.9313,9.5241],[6.9205,9.5274],[6.8928,9.5301],[6.8648,9.5269],[6.8468,9.5331],[6.8126,9.5462],[6.8059,9.553],[6.7958,9.5504],[6.7908,9.5572],[6.7773,9.5589],[6.7672,9.553],[6.7554,9.5437],[6.7176,9.5336],[6.7117,9.5193],[6.7005,9.5187],[6.6881,9.528],[6.6854,9.5285],[6.6829,9.532],[6.6784,9.5321],[6.673,9.5343],[6.6688,9.5334],[6.6489,9.5381],[6.645,9.5378],[6.6391,9.5343],[6.6291,9.5344],[6.6218,9.5398],[6.62,9.5412],[6.6078,9.5377],[6.602,9.5383],[6.5988,9.5347],[6.5928,9.5314],[6.5917,9.5339],[6.5896,9.5347],[6.5813,9.5353],[6.5755,9.5335],[6.5699,9.5404],[6.5628,9.5394],[6.5575,9.5329],[6.5501,9.531],[6.546,9.5276],[6.5318,9.532],[6.5234,9.5216],[6.5169,9.5193],[6.5023,9.5176],[6.4964,9.5126],[6.4947,9.4958],[6.4905,9.4823],[6.488,9.4798],[6.4779,9.4781],[6.4737,9.4672],[6.477,9.4411],[6.4812,9.4352],[6.4807,9.4237],[6.4863,9.4234],[6.4896,9.4117],[6.5065,9.3763],[6.5031,9.3637],[6.5048,9.3444],[6.5015,9.3335],[6.5048,9.3267],[6.5031,9.3141],[6.488,9.2964],[6.4913,9.283],[6.5056,9.2687],[6.5082,9.2636],[6.5073,9.2569],[6.5115,9.2493],[6.5199,9.2426],[6.5258,9.235],[6.5268,9.23],[6.5292,9.23],[6.5353,9.2209],[6.5508,9.2241],[6.5671,9.2328],[6.5866,9.2333],[6.5996,9.2274],[6.6126,9.2301],[6.6185,9.2361],[6.6218,9.2371],[6.625,9.2361],[6.6283,9.2269],[6.6342,9.2209],[6.6727,9.2187],[6.6824,9.2198],[6.6857,9.2333],[6.6949,9.2393],[6.7014,9.2404],[6.7067,9.2499],[6.7166,9.2604],[6.7247,9.2778],[6.7236,9.2891],[6.716,9.2983],[6.716,9.3124],[6.7209,9.3265],[6.7231,9.3525],[6.7312,9.359],[6.7409,9.3579],[6.755,9.366],[6.7696,9.366],[6.7837,9.3698],[6.7973,9.3715],[6.8108,9.3807],[6.8238,9.3812],[6.8372,9.3873],[6.8387,9.3926],[6.8555,9.3996],[6.8636,9.398],[6.8739,9.3915],[6.8831,9.3915],[6.9015,9.3947],[6.921,9.3823],[6.9253,9.3769],[6.9383,9.372],[6.9427,9.3769],[6.9735,9.3935],[6.9781,9.389],[6.9824,9.3815],[7.0217,9.3821],[7.0394,9.3875],[7.0519,9.4022],[7.0669,9.4141],[7.1049,9.4538],[7.0992,9.4691],[7.0997,9.4771],[7.1144,9.4776],[7.1176,9.4819],[7.1257,9.4846],[7.1301,9.4803],[7.1393,9.4787],[7.162,9.4792],[7.1734,9.4868],[7.1777,9.4928],[7.1853,9.4933],[7.1949,9.4964],[7.219,9.4927],[7.2295,9.4998],[7.2514,9.521],[7.2485,9.535],[7.2339,9.5648],[7.2589,9.5891],[7.2961,9.6135],[7.3056,9.6277],[7.2979,9.6489],[7.2764,9.6899],[7.256,9.7126],[7.2227,9.7409],[7.2047,9.7583]]]}},{"type":"Feature","properties":{"name":"Rafi","state":"Niger","scode":"NI","centroid":[10.1576,6.2513]},"geometry":{"type":"Polygon","coordinates":[[[6.0922,10.5218],[6.0817,10.4689],[6.0628,10.4601],[6.054,10.4536],[6.0476,10.4424],[6.0452,10.4328],[6.0442,10.4183],[6.0395,10.4079],[6.0379,10.3974],[6.0418,10.3846],[6.041,10.375],[6.045,10.3637],[6.041,10.3396],[6.0452,10.3147],[6.0556,10.3067],[6.0588,10.2978],[6.054,10.2882],[6.042,10.2737],[6.0379,10.2472],[6.0315,10.236],[6.0187,10.2288],[6.0235,10.2135],[6.0251,10.195],[6.0211,10.1838],[6.0223,10.1669],[6.0175,10.1589],[6.0199,10.1492],[6.0313,10.1406],[6.0317,10.1279],[6.0299,10.1258],[6.0203,10.1241],[6.012,10.1205],[6.011,10.1179],[6.0142,10.1115],[6.0247,10.1115],[6.0303,10.1043],[6.0431,10.0941],[6.0525,10.0909],[6.0579,10.0848],[6.0601,10.0769],[6.0573,10.0735],[6.0516,10.0752],[6.0432,10.0844],[6.0357,10.0888],[6.0258,10.0839],[6.0223,10.0753],[6.0054,10.0753],[5.9992,10.0704],[5.9999,10.0646],[5.9924,10.0537],[5.9915,10.0328],[5.9965,10.0245],[5.9965,10.0102],[6.0041,10.0069],[6.0041,10.0019],[5.9949,9.9877],[5.9915,9.9851],[5.9873,9.9851],[5.9815,9.9826],[5.9798,9.9759],[5.9882,9.9567],[5.9857,9.95],[5.9806,9.9425],[5.9681,9.9366],[5.9505,9.9249],[5.856,9.8116],[5.8493,9.7927],[5.9078,9.7825],[5.9723,9.775],[6.0008,9.7806],[6.0416,9.7967],[6.074,9.8174],[6.081,9.8095],[6.138,9.8129],[6.143,9.8211],[6.1667,9.8327],[6.1943,9.8824],[6.2344,9.8935],[6.2369,9.917],[6.2494,9.9157],[6.2528,9.9112],[6.26,9.9137],[6.2684,9.908],[6.2752,9.9051],[6.2845,9.9047],[6.3009,9.8957],[6.3095,9.8952],[6.315,9.8986],[6.3247,9.9091],[6.3415,9.9107],[6.3729,9.893],[6.3946,9.8754],[6.4315,9.8545],[6.4612,9.8609],[6.4733,9.8665],[6.4805,9.877],[6.4976,9.8959],[6.5022,9.9019],[6.5046,9.9099],[6.5046,9.9179],[6.4982,9.9251],[6.4982,9.9372],[6.5022,9.95],[6.511,9.9597],[6.5443,9.9701],[6.5492,9.9749],[6.5564,9.9766],[6.5596,9.9846],[6.5452,10.0023],[6.5443,10.0264],[6.55,10.0408],[6.5492,10.0521],[6.5403,10.0689],[6.5411,10.0898],[6.5379,10.0986],[6.5259,10.1131],[6.4913,10.1356],[6.4889,10.1388],[6.4785,10.1436],[6.4755,10.1427],[6.4615,10.1265],[6.4557,10.1219],[6.4222,10.1175],[6.4128,10.1177],[6.4401,10.1581],[6.4344,10.1774],[6.4154,10.2062],[6.3764,10.2071],[6.3643,10.2559],[6.3741,10.2729],[6.3809,10.2803],[6.4285,10.3114],[6.4458,10.3096],[6.4911,10.2997],[6.4929,10.3059],[6.5098,10.338],[6.5122,10.3468],[6.5259,10.3613],[6.5419,10.3741],[6.5508,10.391],[6.5508,10.4047],[6.5535,10.4211],[6.5595,10.4391],[6.5598,10.4508],[6.5584,10.4625],[6.5545,10.4742],[6.5476,10.4818],[6.5419,10.4986],[6.5403,10.5107],[6.5419,10.5195],[6.5403,10.5452],[6.5323,10.5532],[6.5251,10.5645],[6.5216,10.5728],[6.5211,10.5822],[6.5243,10.595],[6.5138,10.6054],[6.4945,10.6157],[6.483,10.6049],[6.4804,10.6074],[6.4771,10.6081],[6.4724,10.6061],[6.4692,10.6003],[6.4599,10.5942],[6.4573,10.5939],[6.4558,10.5957],[6.4504,10.595],[6.4467,10.5942],[6.4459,10.5906],[6.4356,10.5908],[6.4244,10.5771],[6.4099,10.575],[6.4064,10.5728],[6.4024,10.5744],[6.3972,10.5727],[6.3971,10.5694],[6.3912,10.5613],[6.3918,10.5569],[6.3865,10.5509],[6.3829,10.5404],[6.3698,10.5279],[6.3553,10.5112],[6.3271,10.4952],[6.3154,10.4802],[6.3238,10.4535],[6.3225,10.4468],[6.3201,10.4406],[6.3107,10.4331],[6.3023,10.4314],[6.3046,10.4257],[6.3037,10.424],[6.2963,10.418],[6.2914,10.4231],[6.2862,10.4235],[6.2876,10.4203],[6.2872,10.4144],[6.2859,10.4138],[6.2545,10.4274],[6.2442,10.4119],[6.2357,10.3848],[6.2319,10.3865],[6.226,10.3846],[6.2219,10.3858],[6.2194,10.3894],[6.2167,10.3894],[6.2138,10.3823],[6.2071,10.3731],[6.2046,10.3725],[6.1967,10.3783],[6.1928,10.3787],[6.1842,10.3753],[6.1826,10.3738],[6.1805,10.366],[6.1734,10.3591],[6.1697,10.3585],[6.1709,10.365],[6.1693,10.3664],[6.1692,10.3713],[6.1731,10.3809],[6.1773,10.3858],[6.1751,10.3881],[6.1723,10.3885],[6.1696,10.3955],[6.1663,10.3964],[6.1644,10.3986],[6.1629,10.4039],[6.1645,10.4081],[6.1623,10.4096],[6.1614,10.4176],[6.1749,10.4422],[6.1583,10.5008],[6.0922,10.5218]]]}},{"type":"Feature","properties":{"name":"Rijau","state":"Niger","scode":"NI","centroid":[11.0781,5.1258]},"geometry":{"type":"Polygon","coordinates":[[[5.3331,11.3564],[5.2687,11.3189],[5.2497,11.3094],[5.2431,11.2906],[5.2444,11.2449],[5.2334,11.2182],[5.1855,11.228],[5.0713,11.2376],[5.0713,11.2271],[5.0625,11.2086],[5.0576,11.2046],[5.0528,11.2054],[5.0488,11.2111],[5.0488,11.2279],[5.0528,11.2311],[5.0625,11.2448],[5.0649,11.2544],[5.0585,11.2705],[5.052,11.2729],[5.0456,11.2729],[5.0408,11.2705],[5.0344,11.2649],[5.0327,11.2608],[5.0255,11.256],[5.0167,11.2512],[5.0119,11.252],[5.0054,11.2576],[5.0032,11.267],[4.9989,11.2754],[4.9964,11.2842],[5.0018,11.291],[4.9997,11.2945],[4.996,11.3104],[4.9883,11.313],[4.9813,11.3195],[4.9725,11.3396],[4.9725,11.3476],[4.9709,11.3532],[4.9661,11.3621],[4.9589,11.3693],[4.9443,11.3674],[4.9385,11.3641],[4.9285,11.3762],[4.9133,11.3855],[4.8981,11.3906],[4.8978,11.3875],[4.8881,11.3782],[4.8773,11.3709],[4.8832,11.3608],[4.8832,11.3593],[4.881,11.3582],[4.879,11.3548],[4.8715,11.3529],[4.8674,11.3581],[4.8632,11.3578],[4.8543,11.3549],[4.8543,11.3514],[4.8521,11.3501],[4.8476,11.3487],[4.8404,11.3509],[4.83,11.3361],[4.8232,11.3362],[4.8194,11.3397],[4.8156,11.3361],[4.8115,11.3403],[4.7915,11.3268],[4.7605,11.3145],[4.7477,11.3114],[4.7438,11.3068],[4.7378,11.3042],[4.7329,11.3068],[4.7279,11.3062],[4.7268,11.302],[4.7119,11.2971],[4.7105,11.291],[4.7133,11.2837],[4.7082,11.2751],[4.7045,11.2722],[4.7039,11.268],[4.7081,11.2641],[4.739,11.2511],[4.7034,11.2285],[4.7053,11.2211],[4.7223,11.2059],[4.7327,11.1896],[4.7405,11.1693],[4.7413,11.1532],[4.7461,11.1476],[4.7576,11.143],[4.7653,11.1369],[4.7794,11.1314],[4.7802,11.1287],[4.7858,11.1238],[4.7886,11.1189],[4.8026,11.114],[4.8144,11.1161],[4.8178,11.1195],[4.8397,11.1139],[4.8607,11.1034],[4.8633,11.1001],[4.8766,11.0917],[4.8982,11.0875],[4.9087,11.0819],[4.9345,11.084],[4.9799,11.0805],[4.9918,11.0701],[4.9911,11.061],[4.996,11.054],[5.0092,11.0519],[5.0211,11.054],[5.0274,11.0505],[5.0406,11.0519],[5.063,11.0124],[5.068,10.9898],[5.0814,10.9505],[5.0822,10.9271],[5.0755,10.9154],[5.0546,10.9045],[5.0345,10.8995],[5.0253,10.8903],[5.0262,10.8719],[5.0287,10.8593],[5.0345,10.8458],[5.0471,10.825],[5.0588,10.8208],[5.0839,10.8175],[5.0998,10.8083],[5.109,10.7957],[5.1073,10.7857],[5.1023,10.7723],[5.101,10.7613],[5.1009,10.7598],[5.1081,10.7573],[5.1073,10.7456],[5.1124,10.7405],[5.1232,10.7397],[5.1324,10.743],[5.1374,10.7422],[5.1441,10.7481],[5.15,10.7497],[5.165,10.7439],[5.1742,10.7422],[5.1792,10.7338],[5.1843,10.7305],[5.1977,10.7255],[5.2069,10.7138],[5.2161,10.7146],[5.2202,10.7188],[5.2236,10.7188],[5.2345,10.7138],[5.2379,10.7096],[5.2692,10.7351],[5.3548,10.783],[5.3556,10.8006],[5.3602,10.8083],[5.3645,10.8063],[5.3661,10.8151],[5.3604,10.8376],[5.3564,10.8625],[5.3556,10.8769],[5.3661,10.9062],[5.3901,10.9139],[5.4133,10.9084],[5.4062,10.8825],[5.4109,10.8797],[5.4312,10.8852],[5.4297,10.9174],[5.4258,10.9212],[5.3816,10.9412],[5.3829,10.9564],[5.409,10.9582],[5.4306,10.9644],[5.4324,10.9758],[5.4306,10.9906],[5.4112,11.0044],[5.389,11.0375],[5.3911,11.064],[5.3871,11.0922],[5.3938,11.1178],[5.4084,11.1168],[5.4134,11.1209],[5.4052,11.1266],[5.4028,11.144],[5.404,11.147],[5.3939,11.1619],[5.3897,11.1734],[5.3846,11.2024],[5.3898,11.2206],[5.3892,11.2311],[5.3796,11.235],[5.3795,11.243],[5.373,11.2628],[5.3724,11.2701],[5.3686,11.2826],[5.3574,11.3064],[5.3485,11.3389],[5.3424,11.3387],[5.3364,11.3404],[5.3364,11.3476],[5.3331,11.3564]]]}},{"type":"Feature","properties":{"name":"Shiroro","state":"Niger","scode":"NI","centroid":[10.136,6.7168]},"geometry":{"type":"Polygon","coordinates":[[[6.5403,10.5452],[6.5419,10.5195],[6.5403,10.5107],[6.5419,10.4986],[6.5476,10.4818],[6.5545,10.4742],[6.5584,10.4625],[6.5598,10.4508],[6.5595,10.4391],[6.5535,10.4211],[6.5508,10.4047],[6.5508,10.391],[6.5419,10.3741],[6.5259,10.3613],[6.5122,10.3468],[6.5098,10.338],[6.4929,10.3059],[6.4911,10.2997],[6.4458,10.3096],[6.4285,10.3114],[6.3809,10.2803],[6.3741,10.2729],[6.3643,10.2559],[6.3764,10.2071],[6.4154,10.2062],[6.4344,10.1774],[6.4401,10.1581],[6.4128,10.1177],[6.4222,10.1175],[6.4557,10.1219],[6.4615,10.1265],[6.4755,10.1427],[6.4785,10.1436],[6.4889,10.1388],[6.4913,10.1356],[6.5259,10.1131],[6.5379,10.0986],[6.5411,10.0898],[6.5403,10.0689],[6.5492,10.0521],[6.55,10.0408],[6.5443,10.0264],[6.5452,10.0023],[6.5596,9.9846],[6.5564,9.9766],[6.5492,9.9749],[6.5443,9.9701],[6.511,9.9597],[6.5022,9.95],[6.4982,9.9372],[6.4982,9.9251],[6.5046,9.9179],[6.5046,9.9099],[6.5022,9.9019],[6.4976,9.8959],[6.5284,9.8826],[6.5636,9.8711],[6.6033,9.8618],[6.6153,9.8614],[6.6106,9.8422],[6.5944,9.8323],[6.5987,9.7996],[6.6288,9.788],[6.6091,9.783],[6.5796,9.7701],[6.5625,9.7611],[6.5724,9.7409],[6.5788,9.7218],[6.5902,9.7083],[6.6143,9.6997],[6.6169,9.6964],[6.6406,9.6785],[6.65,9.6592],[6.6546,9.6297],[6.6537,9.5981],[6.6373,9.5895],[6.6243,9.5655],[6.6315,9.5538],[6.6267,9.5482],[6.627,9.5398],[6.6218,9.5398],[6.6291,9.5344],[6.6391,9.5343],[6.645,9.5378],[6.6489,9.5381],[6.6688,9.5334],[6.673,9.5343],[6.6784,9.5321],[6.6829,9.532],[6.6854,9.5285],[6.6881,9.528],[6.7005,9.5187],[6.7117,9.5193],[6.7176,9.5336],[6.7554,9.5437],[6.7672,9.553],[6.7773,9.5589],[6.7908,9.5572],[6.7958,9.5504],[6.8059,9.553],[6.8126,9.5462],[6.8468,9.5331],[6.8497,9.5681],[6.8488,9.5891],[6.8446,9.6093],[6.8471,9.6186],[6.8463,9.6329],[6.8354,9.6547],[6.8396,9.6632],[6.8396,9.6716],[6.8354,9.6943],[6.8287,9.7098],[6.8429,9.727],[6.8547,9.7338],[6.8698,9.7389],[6.8749,9.7464],[6.8606,9.7759],[6.8539,9.8179],[6.8505,9.8583],[6.848,9.8684],[6.8471,9.8886],[6.8497,9.8961],[6.8488,9.9121],[6.8454,9.9172],[6.8471,9.9231],[6.8547,9.9306],[6.8686,9.9627],[6.8663,9.9725],[6.869,9.9727],[6.8757,10.0055],[6.8799,10.0181],[6.885,10.0274],[6.8934,10.0728],[6.9012,10.0764],[6.8821,10.1171],[6.8853,10.1508],[6.8949,10.1581],[6.9038,10.1685],[6.911,10.179],[6.915,10.1886],[6.9214,10.191],[6.9271,10.1862],[6.9287,10.1806],[6.9423,10.1806],[6.9545,10.192],[6.9656,10.2151],[6.9704,10.2328],[6.9825,10.244],[6.9849,10.2368],[6.9873,10.2368],[6.9961,10.2448],[7.0026,10.2472],[7.0034,10.2416],[7.0082,10.2424],[7.0098,10.2504],[7.0194,10.2737],[7.0323,10.2874],[7.0459,10.2914],[7.0492,10.301],[7.0508,10.3171],[7.0435,10.3267],[7.0339,10.3436],[7.0202,10.3541],[6.9969,10.3565],[6.9772,10.3648],[6.9488,10.3605],[6.9343,10.3613],[6.9263,10.3701],[6.9231,10.3822],[6.9383,10.4336],[6.9463,10.4504],[6.9544,10.4625],[6.9535,10.4822],[6.9479,10.4914],[6.9359,10.5002],[6.9299,10.5111],[6.9235,10.5123],[6.9266,10.517],[6.919,10.5308],[6.9126,10.538],[6.8691,10.5554],[6.8612,10.5508],[6.8564,10.538],[6.8492,10.5308],[6.8443,10.5283],[6.8395,10.5316],[6.8355,10.538],[6.8411,10.5573],[6.8419,10.5725],[6.8351,10.5958],[6.8295,10.5998],[6.8295,10.6247],[6.8166,10.6384],[6.803,10.6432],[6.7853,10.6392],[6.7599,10.6453],[6.7511,10.6421],[6.7418,10.6439],[6.7296,10.6419],[6.7198,10.6435],[6.7166,10.6415],[6.7142,10.6341],[6.7243,10.6177],[6.7313,10.5964],[6.7259,10.5894],[6.7098,10.5875],[6.696,10.591],[6.6809,10.5894],[6.6471,10.5934],[6.5869,10.5741],[6.5741,10.5573],[6.5561,10.5469],[6.5492,10.5452],[6.5403,10.5452]]]}},{"type":"Feature","properties":{"name":"Suleja","state":"Niger","scode":"NI","centroid":[9.2205,7.1606]},"geometry":{"type":"Polygon","coordinates":[[[7.1793,9.1442],[7.1812,9.1524],[7.1916,9.1574],[7.1879,9.1638],[7.1915,9.1643],[7.1935,9.1687],[7.1967,9.1704],[7.1933,9.1739],[7.1963,9.185],[7.1948,9.1879],[7.197,9.1921],[7.1943,9.1915],[7.1943,9.193],[7.1974,9.2039],[7.1907,9.2096],[7.205,9.2163],[7.2048,9.2219],[7.2101,9.2383],[7.2072,9.2478],[7.1986,9.253],[7.1945,9.2616],[7.1913,9.284],[7.1525,9.2942],[7.1501,9.2708],[7.1204,9.2408],[7.1105,9.2254],[7.0921,9.2106],[7.1793,9.1442]]]}},{"type":"Feature","properties":{"name":"Tafa","state":"Niger","scode":"NI","centroid":[9.2445,7.2653]},"geometry":{"type":"Polygon","coordinates":[[[7.3786,9.3365],[7.3536,9.3378],[7.334,9.3408],[7.2737,9.3293],[7.2323,9.3177],[7.2305,9.3152],[7.2306,9.3095],[7.2238,9.3085],[7.2233,9.3023],[7.2202,9.2979],[7.2323,9.2973],[7.2338,9.2964],[7.2334,9.2949],[7.2535,9.2893],[7.2436,9.288],[7.2375,9.2735],[7.2409,9.2669],[7.2308,9.2668],[7.2263,9.2605],[7.2186,9.2535],[7.2072,9.2478],[7.2101,9.2383],[7.2048,9.2219],[7.205,9.2163],[7.1907,9.2096],[7.1974,9.2039],[7.1943,9.193],[7.1943,9.1915],[7.197,9.1921],[7.1948,9.1879],[7.1963,9.185],[7.1933,9.1739],[7.1967,9.1704],[7.1935,9.1687],[7.1915,9.1643],[7.1879,9.1638],[7.1916,9.1574],[7.1812,9.1524],[7.1793,9.1442],[7.2198,9.1135],[7.221,9.1153],[7.3308,9.2694],[7.3526,9.3069],[7.3567,9.3101],[7.3591,9.309],[7.3786,9.3365]]]}},{"type":"Feature","properties":{"name":"Wushishi","state":"Niger","scode":"NI","centroid":[9.6714,5.9785]},"geometry":{"type":"Polygon","coordinates":[[[5.9123,9.5019],[5.923,9.5166],[5.9245,9.5262],[5.9267,9.5306],[5.9348,9.5394],[5.951,9.5512],[5.9724,9.5564],[5.979,9.5564],[5.9894,9.5534],[6.0058,9.5414],[6.0151,9.5368],[6.0368,9.5309],[6.0877,9.548],[6.0955,9.5586],[6.1492,9.5388],[6.1645,9.5118],[6.1896,9.5122],[6.1946,9.5179],[6.221,9.5337],[6.2165,9.5566],[6.1833,9.5779],[6.1799,9.6215],[6.1848,9.6283],[6.2037,9.6329],[6.2072,9.6579],[6.2026,9.6933],[6.2102,9.705],[6.2171,9.7103],[6.2548,9.701],[6.2831,9.7033],[6.2862,9.7267],[6.3036,9.7757],[6.3067,9.8059],[6.3013,9.8155],[6.2655,9.8441],[6.2344,9.8935],[6.1943,9.8824],[6.1667,9.8327],[6.143,9.8211],[6.138,9.8129],[6.081,9.8095],[6.074,9.8174],[6.0416,9.7967],[6.0008,9.7806],[5.9723,9.775],[5.9078,9.7825],[5.8493,9.7927],[5.8494,9.7837],[5.8443,9.7693],[5.8175,9.7225],[5.7991,9.7133],[5.7824,9.7166],[5.7623,9.7308],[5.7288,9.7409],[5.7104,9.7409],[5.6853,9.7342],[5.6661,9.7267],[5.6612,9.727],[5.6587,9.7255],[5.657,9.7273],[5.6318,9.7292],[5.5872,9.7287],[5.5814,9.7023],[5.6012,9.6794],[5.6181,9.6752],[5.6372,9.6646],[5.6456,9.6543],[5.6859,9.6258],[5.6925,9.625],[5.6955,9.6191],[5.7076,9.6106],[5.7139,9.6014],[5.7198,9.586],[5.7311,9.5688],[5.7322,9.5556],[5.7362,9.5408],[5.7352,9.5383],[5.7361,9.5361],[5.7388,9.5347],[5.7421,9.5266],[5.7517,9.5141],[5.7803,9.4895],[5.7906,9.4826],[5.7983,9.4822],[5.803,9.4921],[5.8207,9.5093],[5.8335,9.5097],[5.8383,9.5079],[5.8651,9.4899],[5.8816,9.4877],[5.8939,9.4888],[5.9015,9.4954],[5.9123,9.5019]]]}}]}