{"type":"FeatureCollection","features":[{"type":"Feature","properties":{"name":"Abeokuta North","state":"Ogun","scode":"OG","centroid":[7.2388,3.1692]},"geometry":{"type":"Polygon","coordinates":[[[2.9948,7.3415],[2.9946,7.3363],[3.0099,7.3158],[3.0146,7.313],[3.0214,7.3022],[3.0327,7.3093],[3.0395,7.3163],[3.0439,7.3163],[3.0526,7.3022],[3.0508,7.2951],[3.0522,7.2879],[3.0664,7.2868],[3.0841,7.2733],[3.0957,7.2549],[3.085,7.2521],[3.0821,7.2387],[3.0988,7.234],[3.0939,7.2103],[3.0983,7.199],[3.0972,7.1864],[3.094,7.1756],[3.0952,7.168],[3.1103,7.1546],[3.113,7.1492],[3.1221,7.1465],[3.1376,7.1321],[3.1335,7.1206],[3.145,7.114],[3.1427,7.0944],[3.1339,7.0853],[3.1245,7.0673],[3.1275,7.0615],[3.1523,7.0659],[3.1634,7.0655],[3.1852,7.0512],[3.1926,7.044],[3.2035,7.0491],[3.2062,7.0531],[3.2069,7.063],[3.2105,7.0704],[3.2162,7.074],[3.2282,7.0727],[3.2321,7.0666],[3.2401,7.0662],[3.2501,7.0757],[3.2529,7.0754],[3.265,7.0908],[3.2768,7.0938],[3.2818,7.1024],[3.2903,7.1055],[3.2938,7.1156],[3.2995,7.1148],[3.3059,7.1174],[3.3042,7.122],[3.3082,7.1252],[3.314,7.1349],[3.3251,7.1363],[3.3317,7.1355],[3.3329,7.1371],[3.3307,7.1408],[3.3294,7.1487],[3.3323,7.1563],[3.3437,7.1565],[3.3575,7.1492],[3.357,7.1563],[3.3427,7.1644],[3.3417,7.1672],[3.3419,7.1686],[3.3479,7.169],[3.3499,7.1743],[3.3521,7.1758],[3.3484,7.179],[3.3491,7.1807],[3.3531,7.183],[3.3552,7.1874],[3.358,7.1858],[3.3598,7.1887],[3.3622,7.1889],[3.3617,7.1918],[3.3641,7.1956],[3.3582,7.2002],[3.3541,7.1945],[3.3505,7.1979],[3.3457,7.1977],[3.3444,7.2008],[3.3472,7.2057],[3.3421,7.2093],[3.3384,7.2085],[3.3391,7.2051],[3.3332,7.1957],[3.3311,7.1886],[3.3326,7.1841],[3.3242,7.1889],[3.3144,7.1873],[3.3166,7.2213],[3.3141,7.2529],[3.3049,7.2519],[3.2947,7.2559],[3.2797,7.257],[3.2761,7.2532],[3.2715,7.2545],[3.2621,7.253],[3.2537,7.2706],[3.238,7.2767],[3.2301,7.2819],[3.216,7.2779],[3.1968,7.3015],[3.1878,7.3263],[3.1717,7.336],[3.168,7.356],[3.1694,7.3732],[3.1553,7.3782],[3.1404,7.3956],[3.1153,7.4081],[3.1073,7.4162],[3.0982,7.4309],[3.0907,7.4367],[3.0826,7.439],[3.075,7.4529],[3.0706,7.4527],[3.0601,7.4565],[3.0532,7.4532],[3.0406,7.4387],[3.0203,7.4304],[3.0269,7.4103],[3.0192,7.4023],[3.0148,7.4008],[3.0121,7.3941],[3.0142,7.3919],[3.0121,7.3893],[3.0121,7.3779],[3.0158,7.3731],[3.0181,7.3613],[3.0165,7.3485],[3.0128,7.3445],[3.0003,7.345],[2.9948,7.3415]]]}},{"type":"Feature","properties":{"name":"Abeokuta South","state":"Ogun","scode":"OG","centroid":[7.1773,3.3602]},"geometry":{"type":"Polygon","coordinates":[[[3.3317,7.1355],[3.3348,7.1232],[3.3394,7.1183],[3.349,7.1227],[3.3517,7.1216],[3.3547,7.1225],[3.3561,7.1201],[3.3602,7.1245],[3.3572,7.1261],[3.3588,7.1282],[3.3656,7.1324],[3.3661,7.135],[3.3727,7.139],[3.3718,7.1441],[3.3968,7.1412],[3.405,7.1474],[3.4091,7.1593],[3.4094,7.1645],[3.4123,7.1715],[3.4046,7.1768],[3.3919,7.1719],[3.3909,7.1816],[3.3886,7.1847],[3.3828,7.1859],[3.3812,7.1923],[3.3734,7.1934],[3.3712,7.1953],[3.3743,7.203],[3.3807,7.2053],[3.3843,7.2105],[3.3721,7.2254],[3.3544,7.2343],[3.3456,7.2271],[3.3342,7.2291],[3.3166,7.2213],[3.3144,7.1873],[3.3242,7.1889],[3.3326,7.1841],[3.3311,7.1886],[3.3332,7.1957],[3.3391,7.2051],[3.3384,7.2085],[3.3421,7.2093],[3.3472,7.2057],[3.3444,7.2008],[3.3457,7.1977],[3.3505,7.1979],[3.3541,7.1945],[3.3582,7.2002],[3.3641,7.1956],[3.3617,7.1918],[3.3622,7.1889],[3.3598,7.1887],[3.358,7.1858],[3.3552,7.1874],[3.3531,7.183],[3.3491,7.1807],[3.3484,7.179],[3.3521,7.1758],[3.3499,7.1743],[3.3479,7.169],[3.3419,7.1686],[3.3417,7.1672],[3.3427,7.1644],[3.357,7.1563],[3.3575,7.1492],[3.3437,7.1565],[3.3323,7.1563],[3.3294,7.1487],[3.3307,7.1408],[3.3329,7.1371],[3.3317,7.1355]]]}},{"type":"Feature","properties":{"name":"Ado Odo/Ota","state":"Ogun","scode":"OG","centroid":[6.6223,3.0866]},"geometry":{"type":"Polygon","coordinates":[[[2.8872,6.5673],[2.8876,6.558],[2.8823,6.5304],[2.8837,6.5235],[2.892,6.5115],[2.9174,6.5115],[2.9189,6.5129],[2.9243,6.5127],[2.9265,6.5119],[2.9248,6.5082],[2.9265,6.5047],[2.93,6.5086],[2.935,6.5086],[2.9347,6.5104],[2.9314,6.512],[2.9351,6.5163],[2.9377,6.5132],[2.9503,6.5141],[2.954,6.5127],[2.9542,6.5018],[3.0598,6.5018],[3.0723,6.4972],[3.0772,6.4924],[3.0936,6.5001],[3.103,6.4996],[3.1086,6.5033],[3.1159,6.5049],[3.1423,6.5078],[3.1455,6.5059],[3.151,6.5059],[3.1552,6.508],[3.1604,6.5081],[3.1634,6.5111],[3.1753,6.5148],[3.1844,6.527],[3.1887,6.5307],[3.1962,6.5304],[3.1996,6.5319],[3.2014,6.5326],[3.2003,6.5363],[3.2012,6.5441],[3.1986,6.5458],[3.2001,6.5505],[3.198,6.5612],[3.1953,6.567],[3.1936,6.5689],[3.1921,6.5677],[3.1917,6.5696],[3.1933,6.5778],[3.2044,6.5862],[3.2051,6.5886],[3.2118,6.5947],[3.2246,6.6018],[3.2274,6.6078],[3.2378,6.6198],[3.2384,6.6608],[3.2443,6.6658],[3.2561,6.6819],[3.2574,6.693],[3.2577,6.697],[3.2645,6.7004],[3.2725,6.6984],[3.2783,6.694],[3.2848,6.7048],[3.2811,6.7067],[3.2817,6.7104],[3.2832,6.7105],[3.2854,6.7139],[3.2801,6.7224],[3.2816,6.7241],[3.2824,6.7297],[3.271,6.7335],[3.2685,6.7358],[3.2566,6.7569],[3.2536,6.7663],[3.2458,6.7744],[3.2439,6.7738],[3.2437,6.7661],[3.2413,6.7621],[3.2368,6.7618],[3.2334,6.7633],[3.2308,6.7583],[3.2269,6.7588],[3.2233,6.7548],[3.2233,6.753],[3.2206,6.7531],[3.2187,6.7515],[3.2092,6.7519],[3.2063,6.7551],[3.1974,6.749],[3.1945,6.7503],[3.1928,6.7488],[3.1909,6.7501],[3.1864,6.7469],[3.1813,6.749],[3.1784,6.7518],[3.1711,6.752],[3.1655,6.754],[3.1546,6.7463],[3.1486,6.7454],[3.1418,6.7457],[3.132,6.7518],[3.123,6.749],[3.1182,6.7336],[3.111,6.7289],[3.1079,6.7285],[3.0959,6.7312],[3.0905,6.7414],[3.0911,6.7471],[3.0893,6.7588],[3.0817,6.762],[3.0501,6.7517],[3.0425,6.7329],[3.0172,6.6957],[3.0098,6.6716],[3.0029,6.6711],[2.9948,6.6728],[2.9811,6.6845],[2.9779,6.6837],[2.9768,6.68],[2.9744,6.6785],[2.9671,6.6762],[2.9644,6.6775],[2.9615,6.6837],[2.9561,6.6867],[2.9543,6.6732],[2.9507,6.672],[2.9463,6.6625],[2.9308,6.6471],[2.9312,6.6366],[2.9363,6.6175],[2.9303,6.6114],[2.9235,6.6072],[2.9219,6.6008],[2.926,6.5952],[2.9214,6.5933],[2.9159,6.585],[2.9099,6.5858],[2.9051,6.5823],[2.9053,6.5805],[2.8973,6.5768],[2.8872,6.5673]]]}},{"type":"Feature","properties":{"name":"Ewekoro","state":"Ogun","scode":"OG","centroid":[6.9614,3.1866]},"geometry":{"type":"Polygon","coordinates":[[[3.1275,7.0615],[3.1302,7.0422],[3.1111,7.0293],[3.0916,7.0364],[3.0866,7.0293],[3.077,7.0263],[3.0616,7.0258],[3.0608,7.007],[3.0544,7.0085],[3.0544,7.0108],[3.0451,7.0106],[3.0406,6.9946],[3.0416,6.9809],[3.0443,6.959],[3.0516,6.9583],[3.0517,6.945],[3.0564,6.9297],[3.0611,6.9216],[3.0929,6.9043],[3.0945,6.8963],[3.089,6.8836],[3.0831,6.8788],[3.0741,6.8667],[3.0666,6.8636],[3.0553,6.8564],[3.054,6.8392],[3.0582,6.8304],[3.0724,6.8329],[3.0885,6.8413],[3.1079,6.848],[3.1153,6.8562],[3.1312,6.8514],[3.1378,6.8431],[3.1498,6.836],[3.1596,6.8413],[3.1645,6.847],[3.1841,6.8407],[3.1935,6.8398],[3.1935,6.837],[3.1973,6.8382],[3.1994,6.8354],[3.2019,6.8365],[3.2057,6.8321],[3.2091,6.8351],[3.2092,6.8378],[3.22,6.8386],[3.238,6.845],[3.2461,6.8436],[3.2446,6.8554],[3.2453,6.8645],[3.2584,6.8663],[3.2595,6.8885],[3.2713,6.8921],[3.2928,6.9022],[3.3045,6.905],[3.2953,6.9148],[3.2982,6.9239],[3.3119,6.9408],[3.3089,6.9421],[3.3124,6.9456],[3.3138,6.9495],[3.3124,6.9582],[3.3099,6.9623],[3.3111,6.9697],[3.3096,6.9705],[3.3056,6.9688],[3.3034,6.9698],[3.3059,6.9807],[3.3026,6.9831],[3.3021,6.9864],[3.3035,6.9888],[3.3085,6.9887],[3.3039,7.0022],[3.2741,7.0084],[3.2711,7.0182],[3.2804,7.0338],[3.2867,7.0356],[3.2891,7.0421],[3.3002,7.0394],[3.343,7.0349],[3.3449,7.0375],[3.3458,7.0439],[3.3417,7.0512],[3.3392,7.0595],[3.3334,7.0614],[3.3281,7.066],[3.3275,7.0726],[3.3235,7.0755],[3.3166,7.0762],[3.3119,7.0827],[3.3129,7.0904],[3.3036,7.0988],[3.3031,7.101],[3.307,7.1045],[3.309,7.1135],[3.3059,7.1174],[3.2995,7.1148],[3.2938,7.1156],[3.2903,7.1055],[3.2818,7.1024],[3.2768,7.0938],[3.265,7.0908],[3.2529,7.0754],[3.2501,7.0757],[3.2401,7.0662],[3.2321,7.0666],[3.2282,7.0727],[3.2162,7.074],[3.2105,7.0704],[3.2069,7.063],[3.2062,7.0531],[3.2035,7.0491],[3.1926,7.044],[3.1852,7.0512],[3.1634,7.0655],[3.1523,7.0659],[3.1275,7.0615]]]}},{"type":"Feature","properties":{"name":"Ifo","state":"Ogun","scode":"OG","centroid":[6.7772,3.2574]},"geometry":{"type":"Polygon","coordinates":[[[3.0817,6.762],[3.0893,6.7588],[3.0911,6.7471],[3.0905,6.7414],[3.0959,6.7312],[3.1079,6.7285],[3.111,6.7289],[3.1182,6.7336],[3.123,6.749],[3.132,6.7518],[3.1418,6.7457],[3.1486,6.7454],[3.1546,6.7463],[3.1655,6.754],[3.1711,6.752],[3.1784,6.7518],[3.1813,6.749],[3.1864,6.7469],[3.1909,6.7501],[3.1928,6.7488],[3.1945,6.7503],[3.1974,6.749],[3.2063,6.7551],[3.2092,6.7519],[3.2187,6.7515],[3.2206,6.7531],[3.2233,6.753],[3.2233,6.7548],[3.2269,6.7588],[3.2308,6.7583],[3.2334,6.7633],[3.2368,6.7618],[3.2413,6.7621],[3.2437,6.7661],[3.2439,6.7738],[3.2458,6.7744],[3.2536,6.7663],[3.2566,6.7569],[3.2685,6.7358],[3.271,6.7335],[3.2824,6.7297],[3.2816,6.7241],[3.2801,6.7224],[3.2854,6.7139],[3.2832,6.7105],[3.2817,6.7104],[3.2811,6.7067],[3.2848,6.7048],[3.2783,6.694],[3.2855,6.6868],[3.3069,6.6791],[3.3124,6.6747],[3.3155,6.6743],[3.3172,6.6757],[3.3281,6.6717],[3.345,6.6726],[3.3484,6.6612],[3.3534,6.6582],[3.354,6.6573],[3.3521,6.656],[3.3527,6.6523],[3.3637,6.6494],[3.3706,6.6417],[3.3727,6.6411],[3.3784,6.6393],[3.3839,6.6411],[3.3822,6.6391],[3.3908,6.6398],[3.3925,6.6385],[3.4312,6.6406],[3.4521,6.6409],[3.4481,6.6549],[3.4477,6.6618],[3.4421,6.6628],[3.4425,6.6685],[3.4442,6.6711],[3.4435,6.6739],[3.4398,6.6755],[3.4334,6.674],[3.4283,6.6779],[3.4198,6.68],[3.4181,6.685],[3.4182,6.6939],[3.4154,6.6947],[3.4128,6.6859],[3.3936,6.685],[3.3786,6.7032],[3.378,6.7224],[3.3696,6.7277],[3.3692,6.7372],[3.3588,6.7574],[3.3639,6.7647],[3.3697,6.777],[3.3709,6.8063],[3.3659,6.811],[3.368,6.8158],[3.3637,6.8181],[3.364,6.8211],[3.3679,6.8208],[3.3719,6.8257],[3.3697,6.8271],[3.3662,6.8254],[3.3627,6.8272],[3.3625,6.8309],[3.3443,6.8388],[3.3361,6.8492],[3.3286,6.8687],[3.3285,6.875],[3.3241,6.8842],[3.317,6.8887],[3.3045,6.905],[3.2928,6.9022],[3.2713,6.8921],[3.2595,6.8885],[3.2584,6.8663],[3.2453,6.8645],[3.2446,6.8554],[3.2461,6.8436],[3.238,6.845],[3.22,6.8386],[3.2092,6.8378],[3.2091,6.8351],[3.2057,6.8321],[3.2019,6.8365],[3.1994,6.8354],[3.1973,6.8382],[3.1935,6.837],[3.1935,6.8398],[3.1841,6.8407],[3.1645,6.847],[3.1596,6.8413],[3.1498,6.836],[3.1378,6.8431],[3.1312,6.8514],[3.1153,6.8562],[3.1079,6.848],[3.0885,6.8413],[3.0724,6.8329],[3.0582,6.8304],[3.0566,6.8041],[3.0611,6.797],[3.0675,6.7933],[3.0767,6.7796],[3.0817,6.762]]]}},{"type":"Feature","properties":{"name":"Ijebu East","state":"Ogun","scode":"OG","centroid":[6.8259,4.273]},"geometry":{"type":"Polygon","coordinates":[[[4.3428,7.068],[4.3042,7.0272],[4.2352,7.0108],[4.2055,7.0016],[4.1886,7.0016],[4.1782,7.0034],[4.1551,6.9951],[4.1511,6.9913],[4.1512,6.9756],[4.1501,6.9696],[4.1472,6.9641],[4.1403,6.9581],[4.1302,6.9541],[4.1284,6.9497],[4.1291,6.9451],[4.1269,6.9335],[4.1145,6.9271],[4.1143,6.917],[4.1037,6.8994],[4.0915,6.8976],[4.0862,6.8917],[4.0796,6.861],[4.0877,6.8474],[4.0841,6.8294],[4.0721,6.8151],[4.0674,6.8146],[4.0601,6.8193],[4.0522,6.8404],[4.0422,6.85],[4.0271,6.85],[4.0192,6.8445],[4.0167,6.8452],[4.0118,6.8527],[4.0095,6.8536],[4.0049,6.8489],[4.0042,6.8398],[3.9985,6.8376],[3.9914,6.842],[3.9838,6.8437],[3.9818,6.8431],[3.9777,6.835],[3.9813,6.8321],[3.9814,6.8285],[3.9786,6.8259],[3.9725,6.8262],[3.9701,6.8246],[3.9625,6.8238],[3.9597,6.8256],[3.9541,6.8257],[3.9492,6.8169],[3.9485,6.8119],[3.946,6.8098],[3.9454,6.8017],[3.9408,6.7965],[3.9425,6.7933],[3.9447,6.7947],[3.9513,6.7938],[3.9604,6.7869],[3.9631,6.776],[3.9667,6.7681],[3.9766,6.7605],[3.9802,6.7593],[3.9862,6.7648],[3.9909,6.7664],[3.9972,6.773],[4.0179,6.7677],[4.0238,6.7655],[4.0287,6.7608],[4.0435,6.7564],[4.0543,6.7422],[4.0535,6.7356],[4.055,6.7275],[4.0624,6.713],[4.087,6.683],[4.085,6.6798],[4.0913,6.6797],[4.0969,6.6715],[4.0939,6.6664],[4.0964,6.6526],[4.09,6.6475],[4.0933,6.6462],[4.0833,6.6362],[4.0792,6.6357],[4.0762,6.6334],[4.0706,6.6318],[4.0628,6.6364],[4.0585,6.6345],[4.0624,6.6286],[4.0576,6.6208],[4.0547,6.622],[4.0545,6.6152],[4.0584,6.6087],[4.0586,6.596],[4.0612,6.5852],[4.0702,6.5762],[4.0696,6.5726],[4.0717,6.5713],[4.0905,6.5696],[4.0988,6.5719],[4.101,6.5679],[4.1013,6.5577],[4.1095,6.5542],[4.1168,6.5558],[4.1213,6.5699],[4.1282,6.5744],[4.1318,6.5798],[4.1444,6.5822],[4.1562,6.5888],[4.1633,6.5952],[4.1778,6.6041],[4.1932,6.5953],[4.2136,6.5989],[4.2224,6.5957],[4.2359,6.5782],[4.2431,6.5881],[4.2467,6.5999],[4.25,6.6226],[4.2573,6.6397],[4.2876,6.663],[4.2981,6.666],[4.3145,6.6641],[4.3508,6.6478],[4.363,6.6344],[4.3785,6.6422],[4.3762,6.6484],[4.3761,6.6632],[4.3872,6.6697],[4.3899,6.679],[4.389,6.6901],[4.3897,6.7159],[4.4072,6.7315],[4.4146,6.7417],[4.4173,6.7463],[4.4219,6.762],[4.4292,6.7695],[4.4487,6.7797],[4.4579,6.7881],[4.4801,6.8039],[4.5059,6.8179],[4.5189,6.8217],[4.5374,6.8331],[4.5467,6.8413],[4.5474,6.845],[4.552,6.8747],[4.5575,6.8895],[4.5562,6.9588],[4.5616,6.9883],[4.5643,6.9957],[4.5726,7.005],[4.5848,7.014],[4.6022,7.0237],[4.6096,7.0311],[4.6046,7.0314],[4.5924,7.0287],[4.5772,7.0234],[4.5593,7.0215],[4.5425,7.0211],[4.5342,7.0238],[4.5224,7.0245],[4.5163,7.0226],[4.4889,6.9918],[4.4801,6.9906],[4.4634,6.9933],[4.4542,7.0009],[4.4382,7.0047],[4.4245,7.0024],[4.4169,6.9941],[4.4005,6.9807],[4.3904,6.9809],[4.3864,6.9896],[4.376,6.9948],[4.3743,6.9989],[4.371,7.018],[4.3787,7.0261],[4.3712,7.0325],[4.3701,7.0365],[4.3703,7.0562],[4.3686,7.0591],[4.361,7.0609],[4.3507,7.0657],[4.3428,7.068]]]}},{"type":"Feature","properties":{"name":"Ijebu North","state":"Ogun","scode":"OG","centroid":[7.014,4.0078]},"geometry":{"type":"Polygon","coordinates":[[[4.0884,7.1334],[4.0851,7.1319],[4.0691,7.1323],[4.0577,7.1372],[4.0459,7.1384],[4.0193,7.1246],[4.0055,7.1285],[3.999,7.1266],[3.9656,7.1098],[3.9602,7.0923],[3.9534,7.0881],[3.9389,7.0839],[3.8256,7.0828],[3.8273,7.0747],[3.8244,7.0758],[3.817,7.0585],[3.8117,7.0597],[3.8012,7.0551],[3.7967,7.0493],[3.7966,7.0444],[3.7915,7.039],[3.7874,7.031],[3.7843,7.0296],[3.7829,7.0251],[3.7923,7.019],[3.79,7.0106],[3.794,6.9886],[3.7634,6.9561],[3.7617,6.9459],[3.763,6.9448],[3.7651,6.9273],[3.7634,6.8922],[3.7733,6.8779],[3.7904,6.8884],[3.823,6.8741],[3.8286,6.8675],[3.8514,6.8904],[3.8825,6.9017],[3.8852,6.9023],[3.8925,6.8958],[3.8939,6.8868],[3.902,6.883],[3.9064,6.8768],[3.9116,6.8744],[3.919,6.8738],[3.931,6.8805],[3.9375,6.8808],[3.9432,6.8914],[3.9537,6.8943],[3.9619,6.9106],[3.9685,6.9155],[3.9811,6.9182],[3.9886,6.9173],[4.0038,6.9277],[4.0193,6.9294],[4.0358,6.9283],[4.038,6.9417],[4.0415,6.9431],[4.0491,6.9407],[4.0635,6.9286],[4.0779,6.93],[4.083,6.9131],[4.0915,6.8976],[4.1037,6.8994],[4.1143,6.917],[4.1145,6.9271],[4.1269,6.9335],[4.1291,6.9451],[4.1284,6.9497],[4.1302,6.9541],[4.1403,6.9581],[4.1472,6.9641],[4.1501,6.9696],[4.1512,6.9756],[4.1511,6.9913],[4.1551,6.9951],[4.1782,7.0034],[4.1886,7.0016],[4.2055,7.0016],[4.2352,7.0108],[4.3042,7.0272],[4.3428,7.068],[4.3344,7.0708],[4.2982,7.0906],[4.2848,7.0918],[4.2685,7.0884],[4.2615,7.0837],[4.2363,7.0606],[4.2235,7.0531],[4.2188,7.0471],[4.206,7.0451],[4.1979,7.0492],[4.1949,7.0615],[4.1902,7.0698],[4.186,7.0854],[4.183,7.1113],[4.1712,7.1707],[4.1689,7.1741],[4.162,7.1711],[4.1567,7.165],[4.0884,7.1334]]]}},{"type":"Feature","properties":{"name":"Ijebu North East","state":"Ogun","scode":"OG","centroid":[6.8817,4.0212]},"geometry":{"type":"Polygon","coordinates":[[[4.0915,6.8976],[4.083,6.9131],[4.0779,6.93],[4.0635,6.9286],[4.0491,6.9407],[4.0415,6.9431],[4.038,6.9417],[4.0358,6.9283],[4.0193,6.9294],[4.0038,6.9277],[3.9886,6.9173],[3.9811,6.9182],[3.9685,6.9155],[3.9619,6.9106],[3.9537,6.8943],[3.9432,6.8914],[3.9375,6.8808],[3.9351,6.8778],[3.9331,6.8709],[3.9377,6.8643],[3.9438,6.8638],[3.9468,6.861],[3.9489,6.8543],[3.9514,6.8527],[3.9521,6.8473],[3.9651,6.8401],[3.9753,6.8372],[3.9777,6.835],[3.9818,6.8431],[3.9838,6.8437],[3.9914,6.842],[3.9985,6.8376],[4.0042,6.8398],[4.0049,6.8489],[4.0095,6.8536],[4.0118,6.8527],[4.0167,6.8452],[4.0192,6.8445],[4.0271,6.85],[4.0422,6.85],[4.0522,6.8404],[4.0601,6.8193],[4.0674,6.8146],[4.0721,6.8151],[4.0841,6.8294],[4.0877,6.8474],[4.0796,6.861],[4.0862,6.8917],[4.0915,6.8976]]]}},{"type":"Feature","properties":{"name":"Ijebu Ode","state":"Ogun","scode":"OG","centroid":[6.755,3.9644]},"geometry":{"type":"Polygon","coordinates":[[[3.9777,6.835],[3.9753,6.8372],[3.9651,6.8401],[3.9521,6.8473],[3.9514,6.8527],[3.9489,6.8543],[3.9468,6.861],[3.9438,6.8638],[3.9377,6.8643],[3.9329,6.8609],[3.935,6.852],[3.9314,6.8492],[3.9257,6.8526],[3.9198,6.862],[3.9156,6.8592],[3.9113,6.8532],[3.9116,6.8744],[3.9064,6.8768],[3.902,6.883],[3.8939,6.8868],[3.8872,6.8698],[3.8865,6.8622],[3.8807,6.8498],[3.8844,6.8464],[3.8926,6.8448],[3.8951,6.8428],[3.8965,6.8444],[3.8999,6.842],[3.9034,6.8462],[3.9077,6.8456],[3.9085,6.84],[3.9028,6.8373],[3.9001,6.8386],[3.896,6.8342],[3.892,6.8342],[3.8925,6.829],[3.8904,6.8256],[3.8815,6.8301],[3.8741,6.8286],[3.8635,6.8063],[3.8547,6.8035],[3.8421,6.8037],[3.8392,6.7925],[3.8381,6.7775],[3.8519,6.779],[3.8736,6.7901],[3.8825,6.8036],[3.8873,6.8054],[3.8881,6.8217],[3.893,6.8155],[3.8974,6.8161],[3.9007,6.8142],[3.906,6.8165],[3.9081,6.8134],[3.91,6.815],[3.9142,6.8138],[3.9161,6.8177],[3.9214,6.8168],[3.9198,6.8121],[3.9184,6.8124],[3.9187,6.8091],[3.9209,6.8093],[3.9219,6.8075],[3.9204,6.8041],[3.9213,6.7953],[3.9225,6.7941],[3.9304,6.793],[3.9299,6.7908],[3.9362,6.7857],[3.9362,6.7786],[3.9406,6.7708],[3.9546,6.7627],[3.9562,6.7548],[3.9548,6.7483],[3.9499,6.7466],[3.9399,6.7474],[3.9282,6.741],[3.9229,6.734],[3.9038,6.7214],[3.9028,6.7164],[3.9055,6.7035],[3.903,6.6816],[3.9121,6.6812],[3.9788,6.6919],[3.9825,6.6827],[4.085,6.6798],[4.087,6.683],[4.0624,6.713],[4.055,6.7275],[4.0535,6.7356],[4.0543,6.7422],[4.0435,6.7564],[4.0287,6.7608],[4.0238,6.7655],[4.0179,6.7677],[3.9972,6.773],[3.9909,6.7664],[3.9862,6.7648],[3.9802,6.7593],[3.9766,6.7605],[3.9667,6.7681],[3.9631,6.776],[3.9604,6.7869],[3.9513,6.7938],[3.9447,6.7947],[3.9425,6.7933],[3.9408,6.7965],[3.9454,6.8017],[3.946,6.8098],[3.9485,6.8119],[3.9492,6.8169],[3.9541,6.8257],[3.9597,6.8256],[3.9625,6.8238],[3.9701,6.8246],[3.9725,6.8262],[3.9786,6.8259],[3.9814,6.8285],[3.9813,6.8321],[3.9777,6.835]]]}},{"type":"Feature","properties":{"name":"Ikenne","state":"Ogun","scode":"OG","centroid":[6.908,3.6757]},"geometry":{"type":"Polygon","coordinates":[[[3.6914,6.7923],[3.6964,6.8009],[3.6986,6.808],[3.7207,6.835],[3.7303,6.8669],[3.7369,6.8767],[3.7374,6.882],[3.7332,6.8934],[3.7634,6.8922],[3.7651,6.9273],[3.763,6.9448],[3.7617,6.9459],[3.7288,6.9183],[3.7177,6.9197],[3.7134,6.9253],[3.7002,6.9365],[3.6827,6.9575],[3.6462,6.9902],[3.6373,6.9854],[3.6323,6.9859],[3.6281,6.9827],[3.6152,6.971],[3.6142,6.965],[3.6065,6.9649],[3.5965,6.9601],[3.5914,6.9524],[3.5952,6.9287],[3.5953,6.9194],[3.5915,6.9099],[3.5874,6.9055],[3.6042,6.8963],[3.6126,6.91],[3.619,6.91],[3.6316,6.8999],[3.6474,6.8782],[3.6582,6.8734],[3.6725,6.861],[3.677,6.8547],[3.6763,6.8523],[3.6824,6.8481],[3.6889,6.8408],[3.6913,6.835],[3.6878,6.8277],[3.6821,6.8209],[3.6815,6.8066],[3.6914,6.7923]]]}},{"type":"Feature","properties":{"name":"Imeko Afon","state":"Ogun","scode":"OG","centroid":[7.5903,2.8677]},"geometry":{"type":"Polygon","coordinates":[[[2.7125,7.852],[2.7403,7.8136],[2.7422,7.8086],[2.7431,7.7964],[2.7428,7.7828],[2.7391,7.7547],[2.7166,7.5986],[2.7279,7.466],[2.7337,7.3333],[2.7358,7.3177],[2.7526,7.3183],[2.7619,7.3218],[2.7644,7.3344],[2.7708,7.3378],[2.7714,7.3469],[2.7745,7.357],[2.7806,7.361],[2.8017,7.3591],[2.8079,7.3545],[2.8107,7.3451],[2.8167,7.3398],[2.832,7.3352],[2.8417,7.3342],[2.8418,7.3301],[2.8451,7.3257],[2.853,7.3055],[2.8506,7.2964],[2.8583,7.2901],[2.8618,7.2778],[2.8697,7.2783],[2.876,7.2744],[2.8736,7.2661],[2.8797,7.2643],[2.8895,7.2662],[2.9241,7.2657],[2.9377,7.2608],[2.9454,7.2755],[2.9451,7.2895],[2.9474,7.2959],[2.9508,7.3008],[2.954,7.3019],[2.9256,7.3292],[2.9145,7.3422],[2.9127,7.3546],[2.9248,7.3669],[2.9345,7.3617],[2.9451,7.3608],[2.9948,7.3415],[3.0003,7.345],[3.0128,7.3445],[3.0165,7.3485],[3.0181,7.3613],[3.0158,7.3731],[3.0121,7.3779],[3.0121,7.3893],[3.0142,7.3919],[3.0121,7.3941],[3.0148,7.4008],[3.0192,7.4023],[3.0269,7.4103],[3.0203,7.4304],[3.0406,7.4387],[3.0532,7.4532],[3.0601,7.4565],[3.0706,7.4527],[3.075,7.4529],[3.0732,7.463],[3.0692,7.4705],[3.0692,7.4757],[3.0769,7.4913],[3.0736,7.5024],[3.069,7.5076],[3.0645,7.5198],[3.0526,7.5215],[3.0428,7.5279],[3.0303,7.544],[3.0222,7.5464],[3.0207,7.5529],[3.0068,7.5558],[3.004,7.5622],[2.9845,7.5852],[2.9768,7.6023],[2.9732,7.6062],[2.9727,7.6117],[2.9804,7.621],[2.9906,7.6247],[2.994,7.629],[2.9983,7.6414],[3.001,7.662],[2.9971,7.6667],[2.997,7.6706],[2.9923,7.6745],[2.9958,7.6765],[2.9965,7.6801],[2.9937,7.6818],[2.9892,7.6821],[2.9934,7.6878],[3.0033,7.6911],[2.9987,7.694],[2.9967,7.6978],[3.0013,7.7001],[3.0118,7.7019],[3.0139,7.7037],[3.0072,7.7088],[3.0055,7.7117],[3.017,7.7258],[3.0177,7.7307],[3.0159,7.7355],[3.0221,7.7441],[3.0218,7.7489],[3.0235,7.7518],[3.0299,7.7557],[3.0298,7.7585],[3.027,7.7591],[3.0239,7.7635],[3.0257,7.769],[3.0252,7.7777],[3.0227,7.7806],[3.0248,7.7903],[3.0298,7.7919],[3.0327,7.7957],[3.0284,7.8054],[3.0115,7.8304],[3.0061,7.8317],[2.9918,7.8542],[2.9884,7.8558],[2.9872,7.8551],[2.9849,7.8498],[2.9854,7.8459],[2.9822,7.8281],[2.9832,7.8162],[2.9818,7.8074],[2.9699,7.7779],[2.969,7.7661],[2.9636,7.7549],[2.9612,7.7442],[2.9556,7.7372],[2.9486,7.7317],[2.9441,7.7243],[2.9375,7.7204],[2.9325,7.7145],[2.9202,7.7078],[2.9171,7.721],[2.92,7.7298],[2.9192,7.7418],[2.9211,7.7497],[2.9188,7.7554],[2.9148,7.7592],[2.9076,7.7593],[2.8963,7.7627],[2.8861,7.769],[2.885,7.7778],[2.8876,7.7916],[2.8863,7.8024],[2.8863,7.8251],[2.8827,7.8341],[2.8809,7.8575],[2.8862,7.8743],[2.8881,7.89],[2.8947,7.9019],[2.9072,7.9133],[2.9199,7.9215],[2.9282,7.9242],[2.9308,7.9278],[2.925,7.9304],[2.9102,7.9316],[2.9058,7.9299],[2.8945,7.9299],[2.8783,7.9263],[2.8543,7.9315],[2.8487,7.931],[2.8441,7.9337],[2.8395,7.9335],[2.8333,7.9374],[2.825,7.9481],[2.8216,7.951],[2.8163,7.9523],[2.8017,7.9486],[2.7939,7.9423],[2.7926,7.9282],[2.7909,7.9225],[2.7853,7.9132],[2.7767,7.905],[2.7704,7.9034],[2.7491,7.887],[2.7398,7.8752],[2.7302,7.8685],[2.7219,7.8593],[2.7125,7.852]]]}},{"type":"Feature","properties":{"name":"Ipokia","state":"Ogun","scode":"OG","centroid":[6.6243,2.7987]},"geometry":{"type":"Polygon","coordinates":[[[2.8267,6.8161],[2.8068,6.8259],[2.8039,6.8295],[2.8017,6.8331],[2.7973,6.8539],[2.7918,6.861],[2.7697,6.8529],[2.7602,6.8624],[2.7507,6.8684],[2.7405,6.8582],[2.7417,6.8435],[2.7402,6.8343],[2.7384,6.8297],[2.7331,6.8233],[2.7313,6.8181],[2.7241,6.7944],[2.724,6.7816],[2.7291,6.7723],[2.7326,6.7689],[2.7481,6.7595],[2.7591,6.756],[2.7655,6.7572],[2.7823,6.756],[2.7869,6.7502],[2.7845,6.7415],[2.7838,6.7316],[2.7802,6.7235],[2.78,6.6952],[2.7782,6.6917],[2.7671,6.6852],[2.7521,6.67],[2.7483,6.6617],[2.7323,6.6372],[2.7323,6.6304],[2.7282,6.6241],[2.7336,6.591],[2.7432,6.5632],[2.7326,6.547],[2.7262,6.5401],[2.7232,6.5326],[2.7068,6.5204],[2.7015,6.5123],[2.7003,6.5083],[2.702,6.5002],[2.7112,6.4944],[2.7105,6.4863],[2.7134,6.4839],[2.714,6.4799],[2.7115,6.4706],[2.7045,6.4637],[2.7046,6.4598],[2.723,6.4615],[2.7298,6.4598],[2.7377,6.4526],[2.7592,6.4525],[2.7734,6.454],[2.7823,6.4606],[2.7937,6.4621],[2.8183,6.4546],[2.8314,6.4449],[2.8395,6.4488],[2.8582,6.4491],[2.8581,6.4632],[2.86,6.4668],[2.8646,6.4693],[2.8765,6.4699],[2.8843,6.4743],[2.8888,6.4813],[2.8894,6.4865],[2.8855,6.5114],[2.892,6.5115],[2.8837,6.5235],[2.8823,6.5304],[2.8876,6.558],[2.8872,6.5673],[2.8739,6.57],[2.8744,6.5896],[2.868,6.5913],[2.862,6.5968],[2.8356,6.6351],[2.829,6.6398],[2.8265,6.6445],[2.8285,6.648],[2.8353,6.6541],[2.8345,6.6637],[2.83,6.671],[2.8376,6.6775],[2.8479,6.6789],[2.8637,6.6778],[2.8729,6.6842],[2.8704,6.7052],[2.8658,6.7228],[2.8698,6.7348],[2.8842,6.7411],[2.8755,6.7646],[2.854,6.775],[2.8509,6.7776],[2.8387,6.7652],[2.8333,6.7676],[2.8141,6.7659],[2.807,6.7735],[2.8173,6.7919],[2.8267,6.8161]]]}},{"type":"Feature","properties":{"name":"Obafemi Owode","state":"Ogun","scode":"OG","centroid":[7.0121,3.5011]},"geometry":{"type":"Polygon","coordinates":[[[3.3059,7.1174],[3.309,7.1135],[3.307,7.1045],[3.3031,7.101],[3.3036,7.0988],[3.3129,7.0904],[3.3119,7.0827],[3.3166,7.0762],[3.3235,7.0755],[3.3275,7.0726],[3.3281,7.066],[3.3334,7.0614],[3.3392,7.0595],[3.3417,7.0512],[3.3458,7.0439],[3.3449,7.0375],[3.343,7.0349],[3.3002,7.0394],[3.2891,7.0421],[3.2867,7.0356],[3.2804,7.0338],[3.2711,7.0182],[3.2741,7.0084],[3.3039,7.0022],[3.3085,6.9887],[3.3035,6.9888],[3.3021,6.9864],[3.3026,6.9831],[3.3059,6.9807],[3.3034,6.9698],[3.3056,6.9688],[3.3096,6.9705],[3.3111,6.9697],[3.3099,6.9623],[3.3124,6.9582],[3.3138,6.9495],[3.3124,6.9456],[3.3089,6.9421],[3.3119,6.9408],[3.2982,6.9239],[3.2953,6.9148],[3.3045,6.905],[3.317,6.8887],[3.3241,6.8842],[3.3285,6.875],[3.3286,6.8687],[3.3361,6.8492],[3.3443,6.8388],[3.3625,6.8309],[3.3627,6.8272],[3.3662,6.8254],[3.3697,6.8271],[3.3719,6.8257],[3.3679,6.8208],[3.364,6.8211],[3.3637,6.8181],[3.368,6.8158],[3.3659,6.811],[3.3709,6.8063],[3.3697,6.777],[3.3639,6.7647],[3.3588,6.7574],[3.3692,6.7372],[3.3696,6.7277],[3.378,6.7224],[3.3786,6.7032],[3.3936,6.685],[3.4128,6.6859],[3.4154,6.6947],[3.4182,6.6939],[3.4181,6.685],[3.4198,6.68],[3.4283,6.6779],[3.4334,6.674],[3.4398,6.6755],[3.4392,6.6828],[3.4432,6.6859],[3.4404,6.7077],[3.4408,6.7238],[3.4414,6.7279],[3.4481,6.7328],[3.4405,6.7518],[3.4418,6.7579],[3.4482,6.7643],[3.4542,6.7673],[3.4575,6.7728],[3.4591,6.7788],[3.4582,6.7843],[3.4671,6.7921],[3.4682,6.8039],[3.4703,6.8086],[3.4701,6.8144],[3.464,6.8268],[3.4686,6.829],[3.4883,6.8332],[3.5056,6.8459],[3.5139,6.8494],[3.5217,6.8503],[3.5193,6.8598],[3.5273,6.8617],[3.5261,6.8653],[3.536,6.8718],[3.5365,6.875],[3.5353,6.8776],[3.5331,6.8774],[3.5315,6.8864],[3.5359,6.8889],[3.5409,6.8961],[3.546,6.8977],[3.5539,6.9101],[3.5569,6.9094],[3.5627,6.9044],[3.5696,6.904],[3.5722,6.898],[3.5819,6.8988],[3.5874,6.9055],[3.5915,6.9099],[3.5953,6.9194],[3.5952,6.9287],[3.5914,6.9524],[3.5965,6.9601],[3.6065,6.9649],[3.6142,6.965],[3.6152,6.971],[3.6281,6.9827],[3.6323,6.9859],[3.6373,6.9854],[3.6462,6.9902],[3.6497,7.002],[3.6482,7.0056],[3.649,7.0122],[3.6569,7.0216],[3.6759,7.0293],[3.68,7.0286],[3.689,7.0498],[3.6898,7.0549],[3.6962,7.0633],[3.7224,7.062],[3.7248,7.0677],[3.7244,7.0803],[3.726,7.0859],[3.7248,7.0877],[3.7274,7.0969],[3.7385,7.1033],[3.7526,7.1079],[3.7815,7.1212],[3.7929,7.1323],[3.7944,7.1395],[3.7872,7.1639],[3.7773,7.1806],[3.7777,7.192],[3.7804,7.2027],[3.7689,7.2236],[3.7636,7.2305],[3.7623,7.2432],[3.7538,7.2426],[3.7442,7.2379],[3.7418,7.2356],[3.7402,7.2287],[3.735,7.2254],[3.7189,7.2278],[3.7122,7.2256],[3.6899,7.2074],[3.6893,7.1908],[3.6718,7.1835],[3.6629,7.175],[3.656,7.1827],[3.6489,7.1844],[3.6449,7.1816],[3.6381,7.185],[3.634,7.1941],[3.6286,7.1984],[3.6242,7.1956],[3.62,7.1864],[3.6111,7.1842],[3.6019,7.1867],[3.5955,7.1853],[3.5829,7.1926],[3.5773,7.1887],[3.5724,7.1826],[3.5575,7.1806],[3.5549,7.182],[3.5432,7.1806],[3.5393,7.1842],[3.5353,7.1943],[3.5283,7.1895],[3.5214,7.191],[3.5158,7.1886],[3.5105,7.1887],[3.5032,7.1825],[3.4963,7.191],[3.4921,7.1873],[3.4871,7.1875],[3.4829,7.1929],[3.4665,7.187],[3.4558,7.1874],[3.4467,7.1852],[3.4417,7.179],[3.4425,7.1744],[3.4358,7.1702],[3.429,7.163],[3.4271,7.1579],[3.4244,7.1569],[3.4246,7.1553],[3.4132,7.1611],[3.4091,7.1593],[3.405,7.1474],[3.3968,7.1412],[3.3718,7.1441],[3.3727,7.139],[3.3661,7.135],[3.3656,7.1324],[3.3588,7.1282],[3.3572,7.1261],[3.3602,7.1245],[3.3561,7.1201],[3.3547,7.1225],[3.3517,7.1216],[3.349,7.1227],[3.3394,7.1183],[3.3348,7.1232],[3.3317,7.1355],[3.3251,7.1363],[3.314,7.1349],[3.3082,7.1252],[3.3042,7.122],[3.3059,7.1174]]]}},{"type":"Feature","properties":{"name":"Odeda","state":"Ogun","scode":"OG","centroid":[7.3115,3.5033]},"geometry":{"type":"Polygon","coordinates":[[[3.1694,7.3732],[3.168,7.356],[3.1717,7.336],[3.1878,7.3263],[3.1968,7.3015],[3.216,7.2779],[3.2301,7.2819],[3.238,7.2767],[3.2537,7.2706],[3.2621,7.253],[3.2715,7.2545],[3.2761,7.2532],[3.2797,7.257],[3.2947,7.2559],[3.3049,7.2519],[3.3141,7.2529],[3.3166,7.2213],[3.3342,7.2291],[3.3456,7.2271],[3.3544,7.2343],[3.3721,7.2254],[3.3843,7.2105],[3.3807,7.2053],[3.3743,7.203],[3.3712,7.1953],[3.3734,7.1934],[3.3812,7.1923],[3.3828,7.1859],[3.3886,7.1847],[3.3909,7.1816],[3.3919,7.1719],[3.4046,7.1768],[3.4123,7.1715],[3.4094,7.1645],[3.4091,7.1593],[3.4132,7.1611],[3.4246,7.1553],[3.4244,7.1569],[3.4271,7.1579],[3.429,7.163],[3.4358,7.1702],[3.4425,7.1744],[3.4417,7.179],[3.4467,7.1852],[3.4558,7.1874],[3.4665,7.187],[3.4829,7.1929],[3.4871,7.1875],[3.4921,7.1873],[3.4963,7.191],[3.5032,7.1825],[3.5105,7.1887],[3.5158,7.1886],[3.5214,7.191],[3.5283,7.1895],[3.5353,7.1943],[3.5393,7.1842],[3.5432,7.1806],[3.5549,7.182],[3.5575,7.1806],[3.5724,7.1826],[3.5773,7.1887],[3.5829,7.1926],[3.5955,7.1853],[3.6019,7.1867],[3.6111,7.1842],[3.62,7.1864],[3.6242,7.1956],[3.6286,7.1984],[3.634,7.1941],[3.6381,7.185],[3.6449,7.1816],[3.6489,7.1844],[3.656,7.1827],[3.6629,7.175],[3.6718,7.1835],[3.6893,7.1908],[3.6899,7.2074],[3.7122,7.2256],[3.7189,7.2278],[3.735,7.2254],[3.7402,7.2287],[3.7418,7.2356],[3.7442,7.2379],[3.7538,7.2426],[3.7623,7.2432],[3.7598,7.2811],[3.7625,7.2922],[3.7623,7.3009],[3.7468,7.2995],[3.7363,7.3007],[3.7184,7.3013],[3.7155,7.3025],[3.7143,7.3048],[3.7175,7.328],[3.7198,7.3874],[3.6935,7.388],[3.6935,7.4001],[3.7022,7.4096],[3.7067,7.4115],[3.7071,7.4473],[3.6827,7.4451],[3.6653,7.4451],[3.6572,7.4434],[3.5458,7.4408],[3.5405,7.4397],[3.5323,7.4264],[3.5247,7.4206],[3.5223,7.4154],[3.4977,7.3946],[3.4838,7.3923],[3.4791,7.3894],[3.4744,7.3889],[3.4727,7.3912],[3.4734,7.3964],[3.481,7.4068],[3.4829,7.4172],[3.4715,7.4387],[3.4594,7.4497],[3.4606,7.4573],[3.4636,7.4607],[3.4666,7.4711],[3.4522,7.4862],[3.4535,7.4949],[3.4424,7.4921],[3.3957,7.4592],[3.3931,7.4558],[3.4002,7.4493],[3.3986,7.4437],[3.3961,7.4406],[3.385,7.4355],[3.3815,7.4308],[3.3814,7.4262],[3.3843,7.421],[3.3813,7.4158],[3.3859,7.4048],[3.3858,7.4013],[3.3805,7.3961],[3.3758,7.3868],[3.3594,7.3741],[3.35,7.3632],[3.3435,7.3493],[3.3329,7.3342],[3.324,7.3152],[3.3066,7.314],[3.2916,7.321],[3.287,7.3245],[3.2825,7.3355],[3.2572,7.3605],[3.2566,7.3634],[3.2491,7.3675],[3.23,7.3699],[3.1981,7.3688],[3.183,7.37],[3.1694,7.3732]]]}},{"type":"Feature","properties":{"name":"Odogbolu","state":"Ogun","scode":"OG","centroid":[6.7775,3.8064]},"geometry":{"type":"MultiPolygon","coordinates":[[[[3.9116,6.8744],[3.9113,6.8532],[3.9156,6.8592],[3.9198,6.862],[3.9257,6.8526],[3.9314,6.8492],[3.935,6.852],[3.9329,6.8609],[3.9377,6.8643],[3.9331,6.8709],[3.9351,6.8778],[3.9375,6.8808],[3.931,6.8805],[3.919,6.8738],[3.9116,6.8744]]],[[[3.6924,6.6828],[3.699,6.6841],[3.903,6.6816],[3.9055,6.7035],[3.9028,6.7164],[3.9038,6.7214],[3.9229,6.734],[3.9282,6.741],[3.9399,6.7474],[3.9499,6.7466],[3.9548,6.7483],[3.9562,6.7548],[3.9546,6.7627],[3.9406,6.7708],[3.9362,6.7786],[3.9362,6.7857],[3.9299,6.7908],[3.9304,6.793],[3.9225,6.7941],[3.9213,6.7953],[3.9204,6.8041],[3.9219,6.8075],[3.9209,6.8093],[3.9187,6.8091],[3.9184,6.8124],[3.9198,6.8121],[3.9214,6.8168],[3.9161,6.8177],[3.9142,6.8138],[3.91,6.815],[3.9081,6.8134],[3.906,6.8165],[3.9007,6.8142],[3.8974,6.8161],[3.893,6.8155],[3.8881,6.8217],[3.8873,6.8054],[3.8825,6.8036],[3.8736,6.7901],[3.8519,6.779],[3.8381,6.7775],[3.8392,6.7925],[3.8421,6.8037],[3.8547,6.8035],[3.8635,6.8063],[3.8741,6.8286],[3.8815,6.8301],[3.8904,6.8256],[3.8925,6.829],[3.892,6.8342],[3.896,6.8342],[3.9001,6.8386],[3.9028,6.8373],[3.9085,6.84],[3.9077,6.8456],[3.9034,6.8462],[3.8999,6.842],[3.8965,6.8444],[3.8951,6.8428],[3.8926,6.8448],[3.8844,6.8464],[3.8807,6.8498],[3.8865,6.8622],[3.8872,6.8698],[3.8939,6.8868],[3.8925,6.8958],[3.8852,6.9023],[3.8825,6.9017],[3.8514,6.8904],[3.8286,6.8675],[3.823,6.8741],[3.7904,6.8884],[3.7733,6.8779],[3.7634,6.8922],[3.7332,6.8934],[3.7374,6.882],[3.7369,6.8767],[3.7303,6.8669],[3.7207,6.835],[3.6986,6.808],[3.6964,6.8009],[3.6914,6.7923],[3.6866,6.7782],[3.6833,6.761],[3.6814,6.7585],[3.6915,6.7159],[3.6924,6.6828]]]]}},{"type":"Feature","properties":{"name":"Ogun Waterside","state":"Ogun","scode":"OG","centroid":[6.4972,4.4125]},"geometry":{"type":"Polygon","coordinates":[[[4.6052,6.4922],[4.6061,6.4992],[4.6042,6.5038],[4.5976,6.5185],[4.5882,6.5324],[4.5899,6.5674],[4.5981,6.5933],[4.6008,6.6091],[4.6008,6.6183],[4.597,6.6293],[4.5923,6.6367],[4.5867,6.6413],[4.5825,6.6422],[4.5784,6.6422],[4.5673,6.6366],[4.5378,6.6013],[4.5323,6.5902],[4.5286,6.5865],[4.5185,6.5643],[4.5121,6.5541],[4.5039,6.5282],[4.4994,6.5069],[4.4966,6.5051],[4.491,6.5087],[4.4788,6.5354],[4.4675,6.5668],[4.4647,6.5769],[4.4652,6.5821],[4.4599,6.5981],[4.4543,6.6073],[4.4265,6.6127],[4.4032,6.6246],[4.3902,6.6282],[4.3828,6.6346],[4.3785,6.6422],[4.363,6.6344],[4.3508,6.6478],[4.3145,6.6641],[4.2981,6.666],[4.2876,6.663],[4.2573,6.6397],[4.25,6.6226],[4.2467,6.5999],[4.2431,6.5881],[4.2359,6.5782],[4.241,6.5716],[4.2393,6.5623],[4.2327,6.5469],[4.2256,6.5397],[4.2086,6.5299],[4.1979,6.5287],[4.1817,6.5207],[4.1735,6.512],[4.1636,6.507],[4.1679,6.4991],[4.1693,6.4875],[4.1734,6.4844],[4.183,6.483],[4.1958,6.4762],[4.2021,6.4755],[4.2049,6.4721],[4.2248,6.4734],[4.2308,6.4686],[4.2349,6.4591],[4.2384,6.4565],[4.2476,6.4552],[4.2507,6.4493],[4.2601,6.4442],[4.2641,6.4451],[4.2659,6.452],[4.2763,6.4559],[4.2848,6.4559],[4.2913,6.4501],[4.3122,6.4453],[4.321,6.4514],[4.3284,6.4481],[4.3537,6.4511],[4.3686,6.4385],[4.3672,6.4071],[4.3597,6.3678],[4.4027,6.3575],[4.4364,6.3471],[4.4832,6.3261],[4.4884,6.3362],[4.4964,6.3323],[4.5029,6.327],[4.503,6.3228],[4.5053,6.3202],[4.5225,6.3132],[4.5473,6.3118],[4.572,6.2973],[4.5785,6.3084],[4.5876,6.319],[4.5949,6.3319],[4.5976,6.3467],[4.5984,6.3662],[4.5968,6.3681],[4.5902,6.3716],[4.5859,6.376],[4.5758,6.381],[4.5608,6.3832],[4.5555,6.3864],[4.5464,6.3878],[4.5148,6.3971],[4.5046,6.3952],[4.4824,6.3868],[4.4747,6.3883],[4.4731,6.3932],[4.4759,6.4025],[4.4786,6.4052],[4.4798,6.409],[4.5036,6.4155],[4.5129,6.4137],[4.5168,6.4106],[4.52,6.4111],[4.5231,6.4073],[4.5315,6.4065],[4.5352,6.4083],[4.5425,6.4222],[4.5563,6.4426],[4.56,6.4509],[4.5663,6.4768],[4.5662,6.4897],[4.5643,6.499],[4.6033,6.4909],[4.6052,6.4922]]]}},{"type":"Feature","properties":{"name":"Remo North","state":"Ogun","scode":"OG","centroid":[7.0089,3.7326]},"geometry":{"type":"Polygon","coordinates":[[[3.8256,7.0828],[3.7838,7.0801],[3.74,7.0816],[3.7312,7.0806],[3.726,7.0859],[3.7244,7.0803],[3.7248,7.0677],[3.7224,7.062],[3.6962,7.0633],[3.6898,7.0549],[3.689,7.0498],[3.68,7.0286],[3.6759,7.0293],[3.6569,7.0216],[3.649,7.0122],[3.6482,7.0056],[3.6497,7.002],[3.6462,6.9902],[3.6827,6.9575],[3.7002,6.9365],[3.7134,6.9253],[3.7177,6.9197],[3.7288,6.9183],[3.7617,6.9459],[3.7634,6.9561],[3.794,6.9886],[3.79,7.0106],[3.7923,7.019],[3.7829,7.0251],[3.7843,7.0296],[3.7874,7.031],[3.7915,7.039],[3.7966,7.0444],[3.7967,7.0493],[3.8012,7.0551],[3.8117,7.0597],[3.817,7.0585],[3.8244,7.0758],[3.8273,7.0747],[3.8256,7.0828]]]}},{"type":"Feature","properties":{"name":"Shagamu","state":"Ogun","scode":"OG","centroid":[6.7786,3.5748]},"geometry":{"type":"Polygon","coordinates":[[[3.5874,6.9055],[3.5819,6.8988],[3.5722,6.898],[3.5696,6.904],[3.5627,6.9044],[3.5569,6.9094],[3.5539,6.9101],[3.546,6.8977],[3.5409,6.8961],[3.5359,6.8889],[3.5315,6.8864],[3.5331,6.8774],[3.5353,6.8776],[3.5365,6.875],[3.536,6.8718],[3.5261,6.8653],[3.5273,6.8617],[3.5193,6.8598],[3.5217,6.8503],[3.5139,6.8494],[3.5056,6.8459],[3.4883,6.8332],[3.4686,6.829],[3.464,6.8268],[3.4701,6.8144],[3.4703,6.8086],[3.4682,6.8039],[3.4671,6.7921],[3.4582,6.7843],[3.4591,6.7788],[3.4575,6.7728],[3.4542,6.7673],[3.4482,6.7643],[3.4418,6.7579],[3.4405,6.7518],[3.4481,6.7328],[3.4414,6.7279],[3.4408,6.7238],[3.4404,6.7077],[3.4432,6.6859],[3.459,6.6735],[3.4614,6.6833],[3.6924,6.6828],[3.6915,6.7159],[3.6814,6.7585],[3.6833,6.761],[3.6866,6.7782],[3.6914,6.7923],[3.6815,6.8066],[3.6821,6.8209],[3.6878,6.8277],[3.6913,6.835],[3.6889,6.8408],[3.6824,6.8481],[3.6763,6.8523],[3.677,6.8547],[3.6725,6.861],[3.6582,6.8734],[3.6474,6.8782],[3.6316,6.8999],[3.619,6.91],[3.6126,6.91],[3.6042,6.8963],[3.5874,6.9055]]]}},{"type":"Feature","properties":{"name":"Yewa North","state":"Ogun","scode":"OG","centroid":[7.108,2.9047]},"geometry":{"type":"Polygon","coordinates":[[[2.7358,7.3177],[2.7445,7.24],[2.7466,7.1501],[2.7497,7.0942],[2.7372,7.0241],[2.7031,6.9892],[2.7101,6.9794],[2.7099,6.9767],[2.7031,6.9643],[2.7047,6.9587],[2.7104,6.9505],[2.7326,6.9246],[2.7352,6.9144],[2.7358,6.8966],[2.7391,6.8795],[2.7507,6.8684],[2.7602,6.8624],[2.7697,6.8529],[2.7918,6.861],[2.7973,6.8539],[2.8017,6.8331],[2.8039,6.8295],[2.8068,6.8259],[2.8267,6.8161],[2.8361,6.8191],[2.8392,6.8343],[2.8374,6.8609],[2.8562,6.8687],[2.874,6.874],[2.8838,6.8805],[2.9031,6.8778],[2.9102,6.8735],[2.9086,6.8972],[2.9146,6.9113],[2.9175,6.9222],[2.9136,6.9294],[2.9101,6.9432],[2.9178,6.9474],[2.9263,6.9464],[2.9356,6.9476],[2.9536,6.9451],[2.9631,6.9403],[2.9748,6.9387],[2.9764,6.9426],[2.9743,6.9469],[2.9775,6.9495],[2.977,6.9535],[2.9796,6.9632],[2.9905,6.9659],[3.0078,6.9587],[3.0173,6.951],[3.0274,6.9376],[3.0399,6.9369],[3.0447,6.9423],[3.0517,6.945],[3.0516,6.9583],[3.0443,6.959],[3.0416,6.9809],[3.0406,6.9946],[3.0451,7.0106],[3.0544,7.0108],[3.0544,7.0085],[3.0608,7.007],[3.0616,7.0258],[3.077,7.0263],[3.0866,7.0293],[3.0916,7.0364],[3.1111,7.0293],[3.1302,7.0422],[3.1275,7.0615],[3.1245,7.0673],[3.1339,7.0853],[3.1427,7.0944],[3.145,7.114],[3.1335,7.1206],[3.1376,7.1321],[3.1221,7.1465],[3.113,7.1492],[3.1103,7.1546],[3.0952,7.168],[3.094,7.1756],[3.0972,7.1864],[3.0983,7.199],[3.0939,7.2103],[3.0988,7.234],[3.0821,7.2387],[3.085,7.2521],[3.0957,7.2549],[3.0841,7.2733],[3.0664,7.2868],[3.0522,7.2879],[3.0508,7.2951],[3.0526,7.3022],[3.0439,7.3163],[3.0395,7.3163],[3.0327,7.3093],[3.0214,7.3022],[3.0146,7.313],[3.0099,7.3158],[2.9946,7.3363],[2.9948,7.3415],[2.9451,7.3608],[2.9345,7.3617],[2.9248,7.3669],[2.9127,7.3546],[2.9145,7.3422],[2.9256,7.3292],[2.954,7.3019],[2.9508,7.3008],[2.9474,7.2959],[2.9451,7.2895],[2.9454,7.2755],[2.9377,7.2608],[2.9241,7.2657],[2.8895,7.2662],[2.8797,7.2643],[2.8736,7.2661],[2.876,7.2744],[2.8697,7.2783],[2.8618,7.2778],[2.8583,7.2901],[2.8506,7.2964],[2.853,7.3055],[2.8451,7.3257],[2.8418,7.3301],[2.8417,7.3342],[2.832,7.3352],[2.8167,7.3398],[2.8107,7.3451],[2.8079,7.3545],[2.8017,7.3591],[2.7806,7.361],[2.7745,7.357],[2.7714,7.3469],[2.7708,7.3378],[2.7644,7.3344],[2.7619,7.3218],[2.7526,7.3183],[2.7358,7.3177]]]}},{"type":"Feature","properties":{"name":"Yewa South","state":"Ogun","scode":"OG","centroid":[6.7875,2.95]},"geometry":{"type":"Polygon","coordinates":[[[3.0817,6.762],[3.0767,6.7796],[3.0675,6.7933],[3.0611,6.797],[3.0566,6.8041],[3.0582,6.8304],[3.054,6.8392],[3.0553,6.8564],[3.0666,6.8636],[3.0741,6.8667],[3.0831,6.8788],[3.089,6.8836],[3.0945,6.8963],[3.0929,6.9043],[3.0611,6.9216],[3.0564,6.9297],[3.0517,6.945],[3.0447,6.9423],[3.0399,6.9369],[3.0274,6.9376],[3.0173,6.951],[3.0078,6.9587],[2.9905,6.9659],[2.9796,6.9632],[2.977,6.9535],[2.9775,6.9495],[2.9743,6.9469],[2.9764,6.9426],[2.9748,6.9387],[2.9631,6.9403],[2.9536,6.9451],[2.9356,6.9476],[2.9263,6.9464],[2.9178,6.9474],[2.9101,6.9432],[2.9136,6.9294],[2.9175,6.9222],[2.9146,6.9113],[2.9086,6.8972],[2.9102,6.8735],[2.9031,6.8778],[2.8838,6.8805],[2.874,6.874],[2.8562,6.8687],[2.8374,6.8609],[2.8392,6.8343],[2.8361,6.8191],[2.8267,6.8161],[2.8173,6.7919],[2.807,6.7735],[2.8141,6.7659],[2.8333,6.7676],[2.8387,6.7652],[2.8509,6.7776],[2.854,6.775],[2.8755,6.7646],[2.8842,6.7411],[2.8698,6.7348],[2.8658,6.7228],[2.8704,6.7052],[2.8729,6.6842],[2.8637,6.6778],[2.8479,6.6789],[2.8376,6.6775],[2.83,6.671],[2.8345,6.6637],[2.8353,6.6541],[2.8285,6.648],[2.8265,6.6445],[2.829,6.6398],[2.8356,6.6351],[2.862,6.5968],[2.868,6.5913],[2.8744,6.5896],[2.8739,6.57],[2.8872,6.5673],[2.8973,6.5768],[2.9053,6.5805],[2.9051,6.5823],[2.9099,6.5858],[2.9159,6.585],[2.9214,6.5933],[2.926,6.5952],[2.9219,6.6008],[2.9235,6.6072],[2.9303,6.6114],[2.9363,6.6175],[2.9312,6.6366],[2.9308,6.6471],[2.9463,6.6625],[2.9507,6.672],[2.9543,6.6732],[2.9561,6.6867],[2.9615,6.6837],[2.9644,6.6775],[2.9671,6.6762],[2.9744,6.6785],[2.9768,6.68],[2.9779,6.6837],[2.9811,6.6845],[2.9948,6.6728],[3.0029,6.6711],[3.0098,6.6716],[3.0172,6.6957],[3.0425,6.7329],[3.0501,6.7517],[3.0817,6.762]]]}}]}