{"type":"FeatureCollection","features":[{"type":"Feature","properties":{"name":"Akoko North East","state":"Ondo","scode":"ON","centroid":[7.5387,5.8185]},"geometry":{"type":"Polygon","coordinates":[[[5.94,7.6451],[5.9293,7.6404],[5.9173,7.6302],[5.9008,7.5969],[5.8935,7.5885],[5.8805,7.5811],[5.8685,7.5764],[5.7861,7.5538],[5.7527,7.5508],[5.737,7.5516],[5.7119,7.5506],[5.6711,7.5596],[5.6618,7.5605],[5.6359,7.5594],[5.6182,7.5639],[5.6128,7.5371],[5.6138,7.5288],[5.6103,7.4845],[5.615,7.4836],[5.6344,7.4864],[5.6567,7.4866],[5.6864,7.4812],[5.717,7.4823],[5.7271,7.4833],[5.7288,7.4852],[5.7371,7.4824],[5.7371,7.4833],[5.7448,7.4834],[5.7753,7.4928],[5.8133,7.5022],[5.8207,7.5022],[5.8235,7.4959],[5.8578,7.4997],[5.8708,7.4997],[5.893,7.4971],[5.9512,7.5012],[5.9542,7.5152],[5.9628,7.5128],[5.9651,7.514],[5.9674,7.5157],[5.9756,7.5302],[5.9871,7.5295],[5.9945,7.5271],[6.0041,7.5292],[6.0041,7.5356],[5.9965,7.5595],[5.9816,7.5825],[5.9759,7.5945],[5.9722,7.5982],[5.9685,7.6055],[5.94,7.6451]]]}},{"type":"Feature","properties":{"name":"Akoko North West","state":"Ondo","scode":"ON","centroid":[7.6426,5.7947]},"geometry":{"type":"Polygon","coordinates":[[[5.773,7.7473],[5.7676,7.7372],[5.7165,7.701],[5.6994,7.6829],[5.6949,7.6718],[5.6914,7.638],[5.6886,7.6324],[5.681,7.6237],[5.6757,7.6237],[5.6594,7.629],[5.6551,7.6287],[5.6386,7.605],[5.6246,7.5824],[5.6182,7.5639],[5.6359,7.5594],[5.6618,7.5605],[5.6711,7.5596],[5.7119,7.5506],[5.737,7.5516],[5.7527,7.5508],[5.7861,7.5538],[5.8685,7.5764],[5.8805,7.5811],[5.8935,7.5885],[5.9008,7.5969],[5.9173,7.6302],[5.9293,7.6404],[5.94,7.6451],[5.9376,7.6488],[5.9357,7.6672],[5.929,7.6958],[5.9234,7.7078],[5.9215,7.7161],[5.926,7.7318],[5.9306,7.7411],[5.9306,7.7448],[5.9287,7.7466],[5.9194,7.7502],[5.8898,7.7436],[5.85,7.7286],[5.8426,7.7286],[5.8277,7.734],[5.8222,7.7331],[5.8164,7.7278],[5.801,7.7333],[5.7802,7.7458],[5.773,7.7473]]]}},{"type":"Feature","properties":{"name":"Akoko South East","state":"Ondo","scode":"ON","centroid":[7.4297,5.9087]},"geometry":{"type":"Polygon","coordinates":[[[5.9504,7.3445],[5.9577,7.3443],[5.9786,7.3477],[5.9867,7.3552],[5.9873,7.3611],[5.9868,7.3634],[5.9782,7.3681],[5.9749,7.3752],[5.975,7.3822],[5.9797,7.3914],[5.9757,7.3956],[5.9741,7.4008],[5.9747,7.4037],[5.9701,7.4084],[5.9685,7.4149],[5.9714,7.4195],[5.9756,7.4323],[5.9814,7.4386],[5.9872,7.4415],[5.9867,7.4503],[5.9845,7.4561],[5.9713,7.4603],[5.9633,7.4604],[5.9533,7.4838],[5.9481,7.4873],[5.9488,7.496],[5.9512,7.5012],[5.893,7.4971],[5.8708,7.4997],[5.8578,7.4997],[5.8235,7.4959],[5.8254,7.4884],[5.8275,7.4506],[5.8303,7.4395],[5.835,7.4321],[5.8378,7.422],[5.8482,7.3971],[5.8469,7.3945],[5.8658,7.3908],[5.8816,7.3844],[5.8854,7.3761],[5.8919,7.3678],[5.9003,7.3605],[5.9105,7.355],[5.9504,7.3445]]]}},{"type":"Feature","properties":{"name":"Akoko South West","state":"Ondo","scode":"ON","centroid":[7.3984,5.6876]},"geometry":{"type":"Polygon","coordinates":[[[5.8235,7.4959],[5.8207,7.5022],[5.8133,7.5022],[5.7753,7.4928],[5.7448,7.4834],[5.7371,7.4833],[5.7371,7.4824],[5.7288,7.4852],[5.7271,7.4833],[5.717,7.4823],[5.6864,7.4812],[5.6567,7.4866],[5.6344,7.4864],[5.615,7.4836],[5.6103,7.4845],[5.6075,7.4802],[5.6055,7.4732],[5.5994,7.4502],[5.5883,7.4317],[5.5754,7.4178],[5.5525,7.3798],[5.5466,7.3736],[5.5368,7.3575],[5.5331,7.3538],[5.5212,7.3325],[5.5044,7.3162],[5.5241,7.3141],[5.5491,7.3142],[5.5779,7.3107],[5.64,7.3092],[5.6484,7.3083],[5.6651,7.3038],[5.6697,7.3001],[5.6911,7.3021],[5.7031,7.3058],[5.7096,7.3096],[5.7225,7.3216],[5.7475,7.3319],[5.7567,7.3412],[5.7641,7.345],[5.7733,7.3469],[5.7872,7.3534],[5.7992,7.3627],[5.8204,7.3859],[5.838,7.3961],[5.8469,7.3945],[5.8482,7.3971],[5.8378,7.422],[5.835,7.4321],[5.8303,7.4395],[5.8275,7.4506],[5.8254,7.4884],[5.8235,7.4959]]]}},{"type":"Feature","properties":{"name":"Akure North","state":"Ondo","scode":"ON","centroid":[7.265,5.3179]},"geometry":{"type":"Polygon","coordinates":[[[5.2142,7.2524],[5.215,7.2483],[5.2172,7.2473],[5.217,7.2428],[5.2132,7.2378],[5.2235,7.2338],[5.2221,7.2298],[5.229,7.2267],[5.2391,7.2128],[5.2493,7.2018],[5.2614,7.1954],[5.2679,7.1945],[5.2735,7.1917],[5.294,7.1771],[5.3033,7.1725],[5.3163,7.1624],[5.35,7.1118],[5.3652,7.0925],[5.3723,7.0926],[5.3826,7.0898],[5.39,7.0862],[5.4132,7.0789],[5.4225,7.0734],[5.4497,7.0648],[5.454,7.07],[5.4753,7.0812],[5.4873,7.0932],[5.491,7.1006],[5.49,7.1061],[5.4863,7.1098],[5.477,7.1144],[5.4668,7.1171],[5.4575,7.1189],[5.4334,7.116],[5.4278,7.1206],[5.4268,7.1289],[5.4277,7.1344],[5.4192,7.1701],[5.42,7.1879],[5.4245,7.2083],[5.4161,7.2221],[5.4189,7.2267],[5.4188,7.2498],[5.4094,7.2617],[5.3945,7.2746],[5.3908,7.2819],[5.3882,7.2832],[5.3582,7.2956],[5.3544,7.3104],[5.3552,7.3344],[5.3542,7.3445],[5.3485,7.374],[5.34,7.3971],[5.3288,7.4173],[5.3222,7.4364],[5.3203,7.4413],[5.3148,7.4431],[5.2944,7.4365],[5.2796,7.4355],[5.2647,7.4384],[5.2453,7.4335],[5.2174,7.4343],[5.1991,7.4374],[5.1924,7.4369],[5.1943,7.4212],[5.1945,7.4009],[5.19,7.3769],[5.2126,7.3145],[5.2126,7.2961],[5.2205,7.2569],[5.2142,7.2524]]]}},{"type":"Feature","properties":{"name":"Akure South","state":"Ondo","scode":"ON","centroid":[7.1876,5.2138]},"geometry":{"type":"Polygon","coordinates":[[[5.2142,7.2524],[5.2085,7.2509],[5.2025,7.2548],[5.197,7.2563],[5.1945,7.2551],[5.1944,7.2586],[5.1891,7.2597],[5.1883,7.2584],[5.1841,7.2621],[5.1748,7.2637],[5.1717,7.2666],[5.169,7.2654],[5.1669,7.2708],[5.1494,7.2754],[5.1425,7.2786],[5.1352,7.2847],[5.128,7.2845],[5.1258,7.2788],[5.0972,7.2776],[5.083,7.2719],[5.084,7.2544],[5.0831,7.2507],[5.1005,7.2373],[5.1082,7.2283],[5.1148,7.2139],[5.1214,7.2057],[5.1363,7.1937],[5.1587,7.1699],[5.207,7.1433],[5.2182,7.1305],[5.2294,7.1195],[5.2341,7.1167],[5.2545,7.1076],[5.3009,7.1042],[5.3185,7.1015],[5.3501,7.0934],[5.3652,7.0925],[5.35,7.1118],[5.3163,7.1624],[5.3033,7.1725],[5.294,7.1771],[5.2735,7.1917],[5.2679,7.1945],[5.2614,7.1954],[5.2493,7.2018],[5.2391,7.2128],[5.229,7.2267],[5.2221,7.2298],[5.2235,7.2338],[5.2132,7.2378],[5.217,7.2428],[5.2172,7.2473],[5.215,7.2483],[5.2142,7.2524]]]}},{"type":"Feature","properties":{"name":"Ese Odo","state":"Ondo","scode":"ON","centroid":[6.2229,4.9687]},"geometry":{"type":"Polygon","coordinates":[[[5.0469,6.0145],[5.0759,6.078],[5.1011,6.1249],[5.119,6.15],[5.127,6.1639],[5.1344,6.1694],[5.1334,6.1722],[5.1377,6.1731],[5.1371,6.1763],[5.132,6.1808],[5.1357,6.1823],[5.1359,6.1867],[5.1287,6.1897],[5.1271,6.197],[5.1224,6.2013],[5.1225,6.2059],[5.1199,6.207],[5.1155,6.2061],[5.1128,6.1955],[5.1099,6.1954],[5.1032,6.2022],[5.0998,6.2022],[5.0982,6.1981],[5.0958,6.1971],[5.0924,6.1983],[5.0892,6.2011],[5.0861,6.2078],[5.0872,6.2145],[5.0818,6.218],[5.0756,6.2134],[5.0745,6.2177],[5.0779,6.2201],[5.0788,6.2226],[5.0729,6.2312],[5.0733,6.2395],[5.0635,6.2483],[5.0534,6.2468],[5.0497,6.2514],[5.048,6.2649],[5.041,6.2743],[5.0377,6.2774],[5.0296,6.2792],[5.0215,6.2854],[5.0156,6.2924],[5.0026,6.294],[4.9957,6.3001],[4.9564,6.3525],[4.9508,6.3635],[4.9432,6.3903],[4.9386,6.3995],[4.9348,6.4152],[4.931,6.4216],[4.929,6.4428],[4.9234,6.4511],[4.916,6.4566],[4.9058,6.4565],[4.8808,6.4472],[4.8651,6.4378],[4.8697,6.4351],[4.8744,6.4268],[4.8718,6.4066],[4.8663,6.3927],[4.8543,6.3788],[4.8498,6.3714],[4.8489,6.3557],[4.8526,6.3511],[4.8648,6.3419],[4.8685,6.3364],[4.8695,6.3281],[4.8658,6.3152],[4.8584,6.3039],[4.8409,6.2835],[4.8345,6.2715],[4.8327,6.2613],[4.8346,6.2558],[4.8347,6.2457],[4.8412,6.2263],[4.8534,6.2069],[4.8935,6.1656],[4.9038,6.1527],[4.914,6.1436],[4.9161,6.1372],[4.9243,6.1262],[4.9218,6.122],[4.9304,6.1164],[4.9292,6.1123],[4.9313,6.1098],[4.9304,6.1045],[4.9325,6.0989],[4.9406,6.0921],[4.9444,6.081],[4.9586,6.0846],[4.9621,6.0761],[4.9621,6.0696],[4.9654,6.0634],[4.9696,6.0584],[4.9769,6.0537],[4.9867,6.0528],[4.9915,6.0538],[4.996,6.0622],[5.0032,6.0641],[5.0089,6.0625],[5.0209,6.0455],[5.0328,6.0361],[5.0357,6.0309],[5.0366,6.0223],[5.0469,6.0145]]]}},{"type":"Feature","properties":{"name":"Idanre","state":"Ondo","scode":"ON","centroid":[6.9783,5.196]},"geometry":{"type":"Polygon","coordinates":[[[4.9881,6.8987],[4.9914,6.8938],[4.9973,6.831],[5.0011,6.8218],[5.0021,6.8153],[5.0012,6.8024],[5.0022,6.7913],[5.0171,6.7739],[5.0469,6.7574],[5.0469,6.7528],[5.0535,6.7344],[5.0726,6.7209],[5.0785,6.715],[5.0888,6.7189],[5.1056,6.7125],[5.1223,6.6987],[5.126,6.7015],[5.1379,6.7265],[5.1508,6.746],[5.173,6.7627],[5.1905,6.7721],[5.197,6.7739],[5.2025,6.7832],[5.2025,6.7887],[5.2089,6.8108],[5.2548,6.8827],[5.2724,6.8883],[5.4597,6.8855],[5.5371,6.8848],[5.5337,6.9171],[5.53,6.9263],[5.5197,6.9419],[5.5056,6.9723],[5.4925,6.988],[5.4888,6.9944],[5.4813,7.0137],[5.4785,7.0165],[5.4756,7.0313],[5.4783,7.046],[5.4755,7.0506],[5.4615,7.0589],[5.456,7.0598],[5.4497,7.0648],[5.4225,7.0734],[5.4132,7.0789],[5.39,7.0862],[5.3826,7.0898],[5.3723,7.0926],[5.3652,7.0925],[5.3501,7.0934],[5.3185,7.1015],[5.3009,7.1042],[5.2545,7.1076],[5.2341,7.1167],[5.2294,7.1195],[5.2182,7.1305],[5.207,7.1433],[5.1587,7.1699],[5.1363,7.1937],[5.1214,7.2057],[5.1148,7.2139],[5.1082,7.2283],[5.1005,7.2373],[5.0831,7.2507],[5.0766,7.2488],[5.0636,7.2497],[5.0367,7.256],[5.0322,7.2313],[5.0221,7.2134],[5.0147,7.206],[5.0033,7.2002],[5.0072,7.1602],[5.0055,7.126],[5.001,7.1158],[5.0042,7.1053],[4.995,7.0905],[4.9932,7.0849],[4.9923,7.0637],[4.9952,7.0461],[4.9943,7.0406],[4.9953,7.0341],[4.9981,7.0249],[4.9982,7.0185],[5.0047,7.0009],[5.0067,6.9908],[5.0067,6.9797],[4.9941,6.9196],[4.9895,6.9002],[4.9881,6.8987]]]}},{"type":"Feature","properties":{"name":"Ifedore","state":"Ondo","scode":"ON","centroid":[7.3574,5.1141]},"geometry":{"type":"Polygon","coordinates":[[[5.1924,7.4369],[5.1877,7.4406],[5.1812,7.4414],[5.1673,7.4404],[5.1265,7.4458],[5.1024,7.4502],[5.0862,7.4563],[5.0782,7.4593],[5.0708,7.4602],[5.0486,7.4573],[5.02,7.4332],[5.0089,7.4256],[5.0046,7.4139],[5.0041,7.4043],[5.0063,7.392],[5.0174,7.3888],[5.0305,7.3806],[5.0351,7.3723],[5.0427,7.3483],[5.041,7.3225],[5.0429,7.3105],[5.0421,7.2883],[5.0367,7.256],[5.0636,7.2497],[5.0766,7.2488],[5.0831,7.2507],[5.084,7.2544],[5.083,7.2719],[5.0972,7.2776],[5.1258,7.2788],[5.128,7.2845],[5.1352,7.2847],[5.1425,7.2786],[5.1494,7.2754],[5.1669,7.2708],[5.169,7.2654],[5.1717,7.2666],[5.1748,7.2637],[5.1841,7.2621],[5.1883,7.2584],[5.1891,7.2597],[5.1944,7.2586],[5.1945,7.2551],[5.197,7.2563],[5.2025,7.2548],[5.2085,7.2509],[5.2142,7.2524],[5.2205,7.2569],[5.2126,7.2961],[5.2126,7.3145],[5.19,7.3769],[5.1945,7.4009],[5.1943,7.4212],[5.1924,7.4369]]]}},{"type":"Feature","properties":{"name":"Ilaje","state":"Ondo","scode":"ON","centroid":[6.2212,4.7737]},"geometry":{"type":"Polygon","coordinates":[[[4.9768,5.8877],[4.9828,5.8957],[4.9855,5.896],[4.9844,5.8993],[5.0181,5.9505],[5.0342,5.9887],[5.0469,6.0145],[5.0366,6.0223],[5.0357,6.0309],[5.0328,6.0361],[5.0209,6.0455],[5.0089,6.0625],[5.0032,6.0641],[4.996,6.0622],[4.9915,6.0538],[4.9867,6.0528],[4.9769,6.0537],[4.9696,6.0584],[4.9654,6.0634],[4.9621,6.0696],[4.9621,6.0761],[4.9586,6.0846],[4.9444,6.081],[4.9406,6.0921],[4.9325,6.0989],[4.9304,6.1045],[4.9313,6.1098],[4.9292,6.1123],[4.9304,6.1164],[4.9218,6.122],[4.9243,6.1262],[4.9161,6.1372],[4.914,6.1436],[4.9038,6.1527],[4.8935,6.1656],[4.8534,6.2069],[4.8412,6.2263],[4.8347,6.2457],[4.8346,6.2558],[4.8327,6.2613],[4.8345,6.2715],[4.8409,6.2835],[4.8584,6.3039],[4.8658,6.3152],[4.8695,6.3281],[4.8685,6.3364],[4.8648,6.3419],[4.8526,6.3511],[4.8489,6.3557],[4.8498,6.3714],[4.8543,6.3788],[4.8663,6.3927],[4.8718,6.4066],[4.8744,6.4268],[4.8697,6.4351],[4.8651,6.4378],[4.8586,6.4323],[4.8549,6.4313],[4.8402,6.4174],[4.8355,6.4146],[4.8069,6.4052],[4.7522,6.3938],[4.7263,6.3937],[4.717,6.3918],[4.7096,6.3936],[4.691,6.4027],[4.6649,6.421],[4.6528,6.4348],[4.6387,6.4597],[4.635,6.4634],[4.6266,6.4679],[4.6182,6.4845],[4.6052,6.4922],[4.6033,6.4909],[4.5643,6.499],[4.5662,6.4897],[4.5663,6.4768],[4.56,6.4509],[4.5563,6.4426],[4.5425,6.4222],[4.5352,6.4083],[4.5315,6.4065],[4.5231,6.4073],[4.52,6.4111],[4.5168,6.4106],[4.5129,6.4137],[4.5036,6.4155],[4.4798,6.409],[4.4786,6.4052],[4.4759,6.4025],[4.4731,6.3932],[4.4747,6.3883],[4.4824,6.3868],[4.5046,6.3952],[4.5148,6.3971],[4.5464,6.3878],[4.5555,6.3864],[4.5608,6.3832],[4.5758,6.381],[4.5859,6.376],[4.5902,6.3716],[4.5968,6.3681],[4.5984,6.3662],[4.5976,6.3467],[4.5949,6.3319],[4.5876,6.319],[4.5785,6.3084],[4.572,6.2973],[4.5473,6.3118],[4.5225,6.3132],[4.5053,6.3202],[4.503,6.3228],[4.5029,6.327],[4.4964,6.3323],[4.4884,6.3362],[4.4832,6.3261],[4.5609,6.2763],[4.6152,6.235],[4.6921,6.1606],[4.7496,6.1209],[4.7903,6.0805],[4.8037,6.0638],[4.848,6.0281],[4.8538,6.0248],[4.8701,6.0048],[4.9073,5.9683],[4.9486,5.9244],[4.9768,5.8877]]]}},{"type":"Feature","properties":{"name":"Ile Oluji/Okeigbo","state":"Ondo","scode":"ON","centroid":[7.2452,4.8578]},"geometry":{"type":"Polygon","coordinates":[[[5.0033,7.2002],[5.0147,7.206],[5.0221,7.2134],[5.0322,7.2313],[5.0367,7.256],[5.0421,7.2883],[5.0429,7.3105],[5.041,7.3225],[5.0427,7.3483],[5.0351,7.3723],[5.0305,7.3806],[5.0174,7.3888],[5.0063,7.392],[4.9897,7.3776],[4.9749,7.3747],[4.9572,7.3737],[4.9434,7.37],[4.9192,7.3735],[4.909,7.3735],[4.8784,7.3788],[4.8449,7.3754],[4.8145,7.372],[4.8061,7.3701],[4.796,7.3645],[4.7547,7.3611],[4.7455,7.3138],[4.7347,7.284],[4.7429,7.2426],[4.742,7.2401],[4.7439,7.2376],[4.7467,7.223],[4.7421,7.2146],[4.7264,7.197],[4.7209,7.1951],[4.7154,7.172],[4.709,7.1646],[4.7034,7.1618],[4.6839,7.1681],[4.6719,7.1662],[4.6682,7.1588],[4.672,7.1478],[4.6748,7.1441],[4.673,7.1404],[4.6526,7.1246],[4.6351,7.1134],[4.6268,7.1041],[4.6167,7.0847],[4.6804,7.0905],[4.7218,7.0991],[4.8072,7.1003],[4.8125,7.1016],[4.8167,7.1002],[4.8192,7.1028],[4.8208,7.1017],[4.821,7.1038],[4.8262,7.0995],[4.8323,7.1028],[4.8382,7.1017],[4.8437,7.1041],[4.8449,7.1018],[4.8507,7.1029],[4.8564,7.0991],[4.8799,7.1037],[4.8686,7.1342],[4.8771,7.187],[4.9184,7.187],[4.9685,7.191],[4.9805,7.1929],[5.0033,7.2002]]]}},{"type":"Feature","properties":{"name":"Irele","state":"Ondo","scode":"ON","centroid":[6.5223,5.0044]},"geometry":{"type":"Polygon","coordinates":[[[4.8651,6.4378],[4.8808,6.4472],[4.9058,6.4565],[4.916,6.4566],[4.9234,6.4511],[4.929,6.4428],[4.931,6.4216],[4.9348,6.4152],[4.9386,6.3995],[4.9432,6.3903],[4.9508,6.3635],[4.9564,6.3525],[4.9957,6.3001],[5.0026,6.294],[5.0156,6.2924],[5.0129,6.3021],[5.0154,6.309],[5.0215,6.3187],[5.0301,6.3231],[5.0353,6.3285],[5.0349,6.3329],[5.0287,6.3418],[5.0278,6.3452],[5.0292,6.3636],[5.0324,6.3649],[5.0392,6.3641],[5.0438,6.3666],[5.0472,6.3721],[5.0492,6.3824],[5.0528,6.3842],[5.0661,6.3766],[5.0757,6.3773],[5.086,6.3892],[5.0989,6.3974],[5.1037,6.4022],[5.1095,6.4138],[5.1037,6.4213],[5.1044,6.4309],[5.1074,6.4325],[5.1076,6.435],[5.1026,6.4378],[5.1028,6.4414],[5.114,6.4533],[5.1174,6.459],[5.1235,6.4628],[5.1336,6.4726],[5.1358,6.477],[5.1395,6.48],[5.1454,6.4888],[5.1473,6.4893],[5.1534,6.498],[5.1537,6.5011],[5.1502,6.5046],[5.1504,6.5117],[5.1548,6.5189],[5.1552,6.5331],[5.1603,6.5392],[5.1623,6.5465],[5.1607,6.5499],[5.1642,6.5545],[5.1619,6.5593],[5.1621,6.562],[5.1546,6.5678],[5.1472,6.5696],[5.1406,6.5742],[5.1369,6.5779],[5.1322,6.5861],[5.1281,6.5882],[5.1276,6.5935],[5.1144,6.6211],[5.1116,6.6304],[5.1124,6.6562],[5.1141,6.6691],[5.1178,6.6839],[5.1224,6.695],[5.1223,6.6987],[5.1056,6.7125],[5.0888,6.7189],[5.0785,6.715],[5.0729,6.7121],[5.051,6.691],[5.0334,6.6789],[5.0279,6.6724],[5.0187,6.6511],[5.009,6.6472],[4.9807,6.6582],[4.9272,6.6628],[4.9161,6.6599],[4.8817,6.6465],[4.8768,6.6404],[4.8659,6.6053],[4.868,6.5865],[4.8699,6.5708],[4.869,6.5634],[4.87,6.5542],[4.8682,6.5367],[4.8572,6.5191],[4.8397,6.5005],[4.836,6.494],[4.8278,6.4698],[4.8288,6.4624],[4.8316,6.458],[4.8409,6.4469],[4.8512,6.4378],[4.8549,6.4313],[4.8586,6.4323],[4.8651,6.4378]]]}},{"type":"Feature","properties":{"name":"Odigbo","state":"Ondo","scode":"ON","centroid":[6.7566,4.7366]},"geometry":{"type":"Polygon","coordinates":[[[4.868,6.5865],[4.8659,6.6053],[4.8768,6.6404],[4.8817,6.6465],[4.9161,6.6599],[4.9272,6.6628],[4.9807,6.6582],[5.009,6.6472],[5.0187,6.6511],[5.0279,6.6724],[5.0334,6.6789],[5.051,6.691],[5.0729,6.7121],[5.0785,6.715],[5.0726,6.7209],[5.0535,6.7344],[5.0469,6.7528],[5.0469,6.7574],[5.0171,6.7739],[5.0022,6.7913],[5.0012,6.8024],[5.0021,6.8153],[5.0011,6.8218],[4.9973,6.831],[4.9914,6.8938],[4.9881,6.8987],[4.9747,6.9075],[4.9588,6.9222],[4.9113,6.958],[4.9021,6.9598],[4.8761,6.9568],[4.8372,6.9437],[4.8132,6.9279],[4.7878,6.9146],[4.7605,6.9054],[4.7272,6.8905],[4.7198,6.8886],[4.7032,6.8774],[4.6837,6.869],[4.6634,6.867],[4.6439,6.8669],[4.629,6.8696],[4.6078,6.8602],[4.5939,6.8583],[4.5661,6.8517],[4.5605,6.848],[4.5474,6.845],[4.5467,6.8413],[4.5374,6.8331],[4.5189,6.8217],[4.5059,6.8179],[4.4801,6.8039],[4.4579,6.7881],[4.4487,6.7797],[4.4292,6.7695],[4.4219,6.762],[4.4173,6.7463],[4.4146,6.7417],[4.4072,6.7315],[4.3897,6.7159],[4.389,6.6901],[4.3899,6.679],[4.3872,6.6697],[4.3761,6.6632],[4.3762,6.6484],[4.3785,6.6422],[4.3828,6.6346],[4.3902,6.6282],[4.4032,6.6246],[4.4265,6.6127],[4.4543,6.6073],[4.4599,6.5981],[4.4652,6.5821],[4.4647,6.5769],[4.4675,6.5668],[4.4788,6.5354],[4.491,6.5087],[4.4966,6.5051],[4.4994,6.5069],[4.5039,6.5282],[4.5121,6.5541],[4.5185,6.5643],[4.5286,6.5865],[4.5323,6.5902],[4.5378,6.6013],[4.5673,6.6366],[4.5784,6.6422],[4.5825,6.6422],[4.6115,6.6811],[4.6225,6.7135],[4.6335,6.7367],[4.6381,6.7385],[4.6437,6.7367],[4.6492,6.7377],[4.6882,6.7305],[4.7003,6.7306],[4.7132,6.7334],[4.7329,6.7067],[4.7479,6.668],[4.7628,6.6506],[4.7694,6.6395],[4.7834,6.6258],[4.7918,6.612],[4.7974,6.6055],[4.8021,6.5954],[4.8114,6.5844],[4.8198,6.5872],[4.8355,6.5891],[4.868,6.5865]]]}},{"type":"Feature","properties":{"name":"Okitipupa","state":"Ondo","scode":"ON","centroid":[6.5535,4.7161]},"geometry":{"type":"Polygon","coordinates":[[[4.8549,6.4313],[4.8512,6.4378],[4.8409,6.4469],[4.8316,6.458],[4.8288,6.4624],[4.8278,6.4698],[4.836,6.494],[4.8397,6.5005],[4.8572,6.5191],[4.8682,6.5367],[4.87,6.5542],[4.869,6.5634],[4.8699,6.5708],[4.868,6.5865],[4.8355,6.5891],[4.8198,6.5872],[4.8114,6.5844],[4.8021,6.5954],[4.7974,6.6055],[4.7918,6.612],[4.7834,6.6258],[4.7694,6.6395],[4.7628,6.6506],[4.7479,6.668],[4.7329,6.7067],[4.7132,6.7334],[4.7003,6.7306],[4.6882,6.7305],[4.6492,6.7377],[4.6437,6.7367],[4.6381,6.7385],[4.6335,6.7367],[4.6225,6.7135],[4.6115,6.6811],[4.5825,6.6422],[4.5867,6.6413],[4.5923,6.6367],[4.597,6.6293],[4.6008,6.6183],[4.6008,6.6091],[4.5981,6.5933],[4.5899,6.5674],[4.5882,6.5324],[4.5976,6.5185],[4.6042,6.5038],[4.6061,6.4992],[4.6052,6.4922],[4.6182,6.4845],[4.6266,6.4679],[4.635,6.4634],[4.6387,6.4597],[4.6528,6.4348],[4.6649,6.421],[4.691,6.4027],[4.7096,6.3936],[4.717,6.3918],[4.7263,6.3937],[4.7522,6.3938],[4.8069,6.4052],[4.8355,6.4146],[4.8402,6.4174],[4.8549,6.4313]]]}},{"type":"Feature","properties":{"name":"Ondo East","state":"Ondo","scode":"ON","centroid":[7.0707,4.9514]},"geometry":{"type":"Polygon","coordinates":[[[4.9113,6.958],[4.9588,6.9222],[4.9747,6.9075],[4.9881,6.8987],[4.9895,6.9002],[4.9941,6.9196],[5.0067,6.9797],[5.0067,6.9908],[5.0047,7.0009],[4.9982,7.0185],[4.9981,7.0249],[4.9953,7.0341],[4.9943,7.0406],[4.9952,7.0461],[4.9923,7.0637],[4.9932,7.0849],[4.995,7.0905],[5.0042,7.1053],[5.001,7.1158],[5.0055,7.126],[5.0072,7.1602],[5.0033,7.2002],[4.9805,7.1929],[4.9685,7.191],[4.9184,7.187],[4.8771,7.187],[4.8686,7.1342],[4.8799,7.1037],[4.892,7.1019],[4.9183,7.0934],[4.9154,7.0911],[4.9241,7.0826],[4.9262,7.0636],[4.9126,7.0036],[4.917,7.0029],[4.9113,6.958]]]}},{"type":"Feature","properties":{"name":"Ondo West","state":"Ondo","scode":"ON","centroid":[6.9911,4.7294]},"geometry":{"type":"Polygon","coordinates":[[[4.8799,7.1037],[4.8564,7.0991],[4.8507,7.1029],[4.8449,7.1018],[4.8437,7.1041],[4.8382,7.1017],[4.8323,7.1028],[4.8262,7.0995],[4.821,7.1038],[4.8208,7.1017],[4.8192,7.1028],[4.8167,7.1002],[4.8125,7.1016],[4.8072,7.1003],[4.7218,7.0991],[4.6804,7.0905],[4.6167,7.0847],[4.6139,7.08],[4.6123,7.044],[4.6096,7.0311],[4.6022,7.0237],[4.5848,7.014],[4.5726,7.005],[4.5643,6.9957],[4.5616,6.9883],[4.5562,6.9588],[4.5575,6.8895],[4.552,6.8747],[4.5474,6.845],[4.5605,6.848],[4.5661,6.8517],[4.5939,6.8583],[4.6078,6.8602],[4.629,6.8696],[4.6439,6.8669],[4.6634,6.867],[4.6837,6.869],[4.7032,6.8774],[4.7198,6.8886],[4.7272,6.8905],[4.7605,6.9054],[4.7878,6.9146],[4.8132,6.9279],[4.8372,6.9437],[4.8761,6.9568],[4.9021,6.9598],[4.9113,6.958],[4.917,7.0029],[4.9126,7.0036],[4.9262,7.0636],[4.9241,7.0826],[4.9154,7.0911],[4.9183,7.0934],[4.892,7.1019],[4.8799,7.1037]]]}},{"type":"Feature","properties":{"name":"Ose","state":"Ondo","scode":"ON","centroid":[7.0464,5.7338]},"geometry":{"type":"Polygon","coordinates":[[[5.8526,7.094],[5.8549,7.0963],[5.851,7.1022],[5.843,7.1098],[5.8426,7.118],[5.8443,7.1203],[5.8605,7.126],[5.8628,7.1283],[5.8675,7.1411],[5.8682,7.1469],[5.8717,7.1533],[5.873,7.1626],[5.8823,7.176],[5.8939,7.1829],[5.8939,7.1858],[5.8837,7.1929],[5.8843,7.1999],[5.9035,7.2172],[5.9041,7.2207],[5.8973,7.2312],[5.8987,7.2452],[5.8959,7.2534],[5.8965,7.2581],[5.9047,7.2656],[5.9053,7.2708],[5.9094,7.2778],[5.917,7.2888],[5.9216,7.2928],[5.9246,7.2992],[5.9162,7.3185],[5.9186,7.3237],[5.9175,7.3337],[5.9193,7.3371],[5.9504,7.3445],[5.9105,7.355],[5.9003,7.3605],[5.8919,7.3678],[5.8854,7.3761],[5.8816,7.3844],[5.8658,7.3908],[5.8469,7.3945],[5.838,7.3961],[5.8204,7.3859],[5.7992,7.3627],[5.7872,7.3534],[5.7733,7.3469],[5.7641,7.345],[5.7567,7.3412],[5.7475,7.3319],[5.7225,7.3216],[5.7096,7.3096],[5.7031,7.3058],[5.6911,7.3021],[5.6697,7.3001],[5.6754,7.2789],[5.681,7.2715],[5.697,7.2375],[5.7156,7.221],[5.7175,7.209],[5.7269,7.1942],[5.7343,7.1887],[5.7408,7.1888],[5.7576,7.1824],[5.7613,7.1787],[5.7613,7.1704],[5.7549,7.1639],[5.7382,7.1555],[5.729,7.1481],[5.7096,7.1378],[5.705,7.1378],[5.6939,7.1303],[5.6893,7.1248],[5.6875,7.1183],[5.6977,7.1054],[5.7005,7.0971],[5.6997,7.0888],[5.6932,7.0832],[5.6784,7.0804],[5.6608,7.0794],[5.6515,7.0756],[5.6442,7.0654],[5.6414,7.0571],[5.6379,7.0322],[5.637,7.0146],[5.6333,7.01],[5.6223,7.0025],[5.6112,6.9988],[5.5917,6.995],[5.5871,6.9912],[5.5789,6.97],[5.5765,6.9007],[5.5655,6.876],[5.5702,6.8693],[5.5721,6.8545],[5.5712,6.8453],[5.5638,6.8378],[5.5536,6.8359],[5.549,6.8331],[5.5435,6.8248],[5.5436,6.8128],[5.5458,6.8043],[5.5558,6.787],[5.5614,6.7723],[5.5632,6.7624],[5.5615,6.752],[5.5625,6.7409],[5.5617,6.7298],[5.5645,6.7206],[5.5766,6.704],[5.5822,6.7041],[5.5896,6.7143],[5.6052,6.7291],[5.62,6.7421],[5.6293,6.7459],[5.6404,6.7469],[5.6543,6.7349],[5.6674,6.7276],[5.7026,6.7361],[5.7145,6.7574],[5.7265,6.7695],[5.7516,6.7816],[5.7579,6.7844],[5.7708,6.7965],[5.7781,6.8178],[5.7772,6.8233],[5.7697,6.8399],[5.7742,6.8538],[5.7788,6.8584],[5.7871,6.8714],[5.7879,6.8945],[5.7897,6.901],[5.798,6.9149],[5.7998,6.9213],[5.7922,6.9555],[5.7856,6.9683],[5.7884,6.9804],[5.7892,6.9924],[5.7938,7.0053],[5.794,7.0156],[5.7926,7.0217],[5.7962,7.0243],[5.8043,7.0485],[5.8096,7.0512],[5.8156,7.0716],[5.8237,7.0814],[5.8295,7.082],[5.8526,7.094]]]}},{"type":"Feature","properties":{"name":"Owo","state":"Ondo","scode":"ON","centroid":[7.151,5.5644]},"geometry":{"type":"Polygon","coordinates":[[[5.4497,7.0648],[5.456,7.0598],[5.4615,7.0589],[5.4755,7.0506],[5.4783,7.046],[5.4756,7.0313],[5.4785,7.0165],[5.4813,7.0137],[5.4888,6.9944],[5.4925,6.988],[5.5056,6.9723],[5.5197,6.9419],[5.53,6.9263],[5.5337,6.9171],[5.5371,6.8848],[5.5552,6.883],[5.5655,6.876],[5.5765,6.9007],[5.5789,6.97],[5.5871,6.9912],[5.5917,6.995],[5.6112,6.9988],[5.6223,7.0025],[5.6333,7.01],[5.637,7.0146],[5.6379,7.0322],[5.6414,7.0571],[5.6442,7.0654],[5.6515,7.0756],[5.6608,7.0794],[5.6784,7.0804],[5.6932,7.0832],[5.6997,7.0888],[5.7005,7.0971],[5.6977,7.1054],[5.6875,7.1183],[5.6893,7.1248],[5.6939,7.1303],[5.705,7.1378],[5.7096,7.1378],[5.729,7.1481],[5.7382,7.1555],[5.7549,7.1639],[5.7613,7.1704],[5.7613,7.1787],[5.7576,7.1824],[5.7408,7.1888],[5.7343,7.1887],[5.7269,7.1942],[5.7175,7.209],[5.7156,7.221],[5.697,7.2375],[5.681,7.2715],[5.6754,7.2789],[5.6697,7.3001],[5.6651,7.3038],[5.6484,7.3083],[5.64,7.3092],[5.5779,7.3107],[5.5491,7.3142],[5.5241,7.3141],[5.5044,7.3162],[5.4815,7.3046],[5.4732,7.3018],[5.4675,7.3018],[5.4583,7.3017],[5.4269,7.2932],[5.413,7.2904],[5.4046,7.2903],[5.3882,7.2832],[5.3908,7.2819],[5.3945,7.2746],[5.4094,7.2617],[5.4188,7.2498],[5.4189,7.2267],[5.4161,7.2221],[5.4245,7.2083],[5.42,7.1879],[5.4192,7.1701],[5.4277,7.1344],[5.4268,7.1289],[5.4278,7.1206],[5.4334,7.116],[5.4575,7.1189],[5.4668,7.1171],[5.477,7.1144],[5.4863,7.1098],[5.49,7.1061],[5.491,7.1006],[5.4873,7.0932],[5.4753,7.0812],[5.454,7.07],[5.4497,7.0648]]]}}]}