{"type":"FeatureCollection","features":[{"type":"Feature","properties":{"name":"Atakunmosa East","state":"Osun","scode":"OS","centroid":[7.4352,4.759]},"geometry":{"type":"Polygon","coordinates":[[[4.8449,7.3754],[4.8472,7.3826],[4.8455,7.3879],[4.8271,7.4],[4.8306,7.404],[4.8322,7.4141],[4.8374,7.4222],[4.8425,7.4442],[4.8388,7.4581],[4.8493,7.4754],[4.8518,7.4862],[4.8491,7.4879],[4.837,7.5221],[4.8435,7.528],[4.8363,7.5454],[4.8292,7.5529],[4.8209,7.5678],[4.8024,7.5659],[4.7953,7.5588],[4.7825,7.557],[4.7824,7.5357],[4.7785,7.5227],[4.7657,7.5042],[4.762,7.5051],[4.7166,7.5044],[4.7093,7.4877],[4.7087,7.4653],[4.6971,7.4668],[4.6917,7.4644],[4.6798,7.471],[4.6779,7.466],[4.6737,7.4678],[4.6513,7.4568],[4.6537,7.4515],[4.6513,7.4444],[4.6494,7.4437],[4.6457,7.4452],[4.6488,7.4366],[4.6543,7.4349],[4.6702,7.4042],[4.6647,7.3846],[4.6693,7.3826],[4.6708,7.3793],[4.6825,7.3698],[4.6833,7.3632],[4.6879,7.3518],[4.6823,7.3441],[4.6997,7.3329],[4.7122,7.3157],[4.7338,7.3073],[4.7455,7.3138],[4.7547,7.3611],[4.796,7.3645],[4.8061,7.3701],[4.8145,7.372],[4.8449,7.3754]]]}},{"type":"Feature","properties":{"name":"Atakunmosa West","state":"Osun","scode":"OS","centroid":[7.5909,4.6404]},"geometry":{"type":"Polygon","coordinates":[[[4.5272,7.614],[4.5456,7.5956],[4.5609,7.5907],[4.569,7.5815],[4.5776,7.5764],[4.5861,7.5737],[4.5815,7.5647],[4.5815,7.5516],[4.5865,7.5426],[4.5916,7.5382],[4.6008,7.5192],[4.6035,7.5192],[4.6135,7.5057],[4.6264,7.5018],[4.6346,7.4922],[4.6419,7.4797],[4.6432,7.4739],[4.6416,7.4726],[4.6397,7.4661],[4.6369,7.4472],[4.638,7.4442],[4.6457,7.4452],[4.6494,7.4437],[4.6513,7.4444],[4.6537,7.4515],[4.6513,7.4568],[4.6737,7.4678],[4.6779,7.466],[4.6798,7.471],[4.6917,7.4644],[4.6971,7.4668],[4.7087,7.4653],[4.7093,7.4877],[4.7166,7.5044],[4.762,7.5051],[4.7657,7.5042],[4.7785,7.5227],[4.7824,7.5357],[4.7825,7.557],[4.7702,7.5535],[4.7617,7.553],[4.7527,7.5415],[4.7436,7.5345],[4.7277,7.535],[4.7236,7.5381],[4.7191,7.5714],[4.7126,7.5837],[4.7083,7.5873],[4.7044,7.5953],[4.6849,7.6059],[4.678,7.6152],[4.6813,7.6183],[4.6681,7.6314],[4.6622,7.6345],[4.6551,7.6559],[4.6648,7.6555],[4.669,7.6588],[4.6555,7.6777],[4.6537,7.6824],[4.6629,7.6886],[4.6454,7.7032],[4.6407,7.7088],[4.6363,7.7069],[4.6463,7.7365],[4.6364,7.7425],[4.6163,7.7438],[4.6103,7.7523],[4.5967,7.7551],[4.5996,7.7511],[4.5969,7.7453],[4.5908,7.745],[4.5877,7.7405],[4.6011,7.736],[4.5997,7.73],[4.5903,7.722],[4.5781,7.7146],[4.5799,7.7002],[4.5758,7.692],[4.5684,7.6834],[4.5633,7.6734],[4.5636,7.6684],[4.5524,7.6566],[4.5399,7.6571],[4.5338,7.6414],[4.533,7.6357],[4.5348,7.6329],[4.5347,7.6246],[4.5281,7.6177],[4.5272,7.614]]]}},{"type":"Feature","properties":{"name":"Ayedade","state":"Osun","scode":"OS","centroid":[7.2948,4.3117]},"geometry":{"type":"Polygon","coordinates":[[[4.082,7.2009],[4.0787,7.1909],[4.0776,7.1778],[4.0726,7.1675],[4.072,7.1628],[4.0801,7.1581],[4.0855,7.1512],[4.0833,7.149],[4.077,7.1499],[4.0726,7.1468],[4.0711,7.139],[4.0732,7.1355],[4.0764,7.1349],[4.0808,7.1402],[4.0845,7.1399],[4.0876,7.1381],[4.0884,7.1334],[4.1567,7.165],[4.162,7.1711],[4.1689,7.1741],[4.1712,7.1707],[4.183,7.1113],[4.186,7.0854],[4.1902,7.0698],[4.1949,7.0615],[4.1979,7.0492],[4.206,7.0451],[4.2188,7.0471],[4.2235,7.0531],[4.2363,7.0606],[4.2615,7.0837],[4.2685,7.0884],[4.2848,7.0918],[4.2982,7.0906],[4.3344,7.0708],[4.3428,7.068],[4.3507,7.0657],[4.3535,7.0714],[4.3769,7.0957],[4.3852,7.1172],[4.4103,7.1277],[4.4187,7.1589],[4.4163,7.1652],[4.4239,7.1908],[4.412,7.2013],[4.4074,7.2266],[4.3978,7.2467],[4.3977,7.2506],[4.4073,7.2635],[4.3962,7.2823],[4.4058,7.2954],[4.407,7.2998],[4.3987,7.3116],[4.3966,7.3246],[4.3998,7.3416],[4.3992,7.3468],[4.3821,7.3614],[4.3745,7.3751],[4.3758,7.3869],[4.381,7.3948],[4.3777,7.3987],[4.3765,7.4057],[4.3723,7.4157],[4.3719,7.4215],[4.3747,7.4374],[4.3776,7.4437],[4.3893,7.4491],[4.3881,7.4622],[4.3899,7.4712],[4.3868,7.4908],[4.4011,7.5076],[4.4133,7.516],[4.4174,7.5297],[4.4198,7.5332],[4.4201,7.5395],[4.4234,7.5439],[4.4281,7.5591],[4.4387,7.5818],[4.4579,7.5836],[4.4726,7.5687],[4.4774,7.5659],[4.4841,7.5819],[4.4974,7.5907],[4.5017,7.5958],[4.5088,7.5991],[4.5079,7.6009],[4.4922,7.6101],[4.486,7.6222],[4.4751,7.6202],[4.4647,7.6211],[4.449,7.6187],[4.4394,7.6187],[4.4339,7.6156],[4.4297,7.6107],[4.4136,7.6135],[4.4108,7.6125],[4.4019,7.5961],[4.3969,7.5924],[4.3713,7.5968],[4.3645,7.6019],[4.3576,7.613],[4.342,7.6215],[4.3296,7.6351],[4.3055,7.6205],[4.3123,7.6089],[4.3359,7.6069],[4.347,7.5838],[4.3323,7.5674],[4.299,7.5577],[4.2926,7.5458],[4.2939,7.5422],[4.28,7.5264],[4.2757,7.5195],[4.2708,7.5029],[4.2725,7.4969],[4.2803,7.4894],[4.289,7.4871],[4.2944,7.4822],[4.2944,7.4716],[4.3054,7.461],[4.3041,7.454],[4.2932,7.4382],[4.2931,7.432],[4.307,7.4245],[4.3041,7.412],[4.3162,7.3943],[4.3191,7.3861],[4.3203,7.3804],[4.3141,7.3665],[4.3209,7.3536],[4.3154,7.3468],[4.3133,7.3275],[4.3047,7.3144],[4.304,7.3075],[4.2938,7.3051],[4.2879,7.3013],[4.2885,7.2923],[4.2811,7.2809],[4.269,7.2564],[4.2663,7.2459],[4.2607,7.2416],[4.2184,7.2264],[4.2076,7.2268],[4.18,7.219],[4.1674,7.2107],[4.1563,7.2088],[4.1458,7.2023],[4.1282,7.2069],[4.1154,7.2123],[4.1014,7.2102],[4.0901,7.1979],[4.082,7.2009]]]}},{"type":"Feature","properties":{"name":"Ayedire","state":"Osun","scode":"OS","centroid":[7.5634,4.2365]},"geometry":{"type":"Polygon","coordinates":[[[4.2944,7.4716],[4.2944,7.4822],[4.289,7.4871],[4.2803,7.4894],[4.2725,7.4969],[4.2708,7.5029],[4.2757,7.5195],[4.28,7.5264],[4.2939,7.5422],[4.2926,7.5458],[4.299,7.5577],[4.3323,7.5674],[4.347,7.5838],[4.3359,7.6069],[4.3123,7.6089],[4.3055,7.6205],[4.2939,7.6386],[4.302,7.6481],[4.2995,7.6537],[4.2919,7.6519],[4.29,7.6545],[4.2854,7.6562],[4.2732,7.6532],[4.2687,7.6479],[4.2479,7.6408],[4.2374,7.6397],[4.2316,7.6409],[4.2229,7.6294],[4.2129,7.6099],[4.1918,7.6183],[4.1865,7.6179],[4.183,7.6082],[4.177,7.6102],[4.1757,7.6027],[4.17,7.5984],[4.1584,7.6044],[4.1449,7.5969],[4.1416,7.5932],[4.1448,7.5871],[4.1442,7.5791],[4.1471,7.5722],[4.1486,7.5694],[4.1538,7.5687],[4.1543,7.5654],[4.153,7.5572],[4.1543,7.5396],[4.1533,7.5164],[4.1554,7.5092],[4.1499,7.4928],[4.149,7.4775],[4.1729,7.4936],[4.1882,7.4904],[4.2001,7.494],[4.2171,7.4909],[4.2505,7.4786],[4.2679,7.4754],[4.2756,7.4777],[4.2826,7.4775],[4.2944,7.4716]]]}},{"type":"Feature","properties":{"name":"Boluwaduro","state":"Osun","scode":"OS","centroid":[7.9208,4.8153]},"geometry":{"type":"Polygon","coordinates":[[[4.8436,7.8632],[4.8451,7.8744],[4.8628,7.8831],[4.8722,7.8837],[4.8773,7.8905],[4.8799,7.8975],[4.8804,7.9083],[4.8936,7.9345],[4.8912,7.9409],[4.8819,7.9442],[4.8795,7.955],[4.862,7.9608],[4.8603,7.9649],[4.8541,7.9716],[4.8535,7.9764],[4.846,7.9866],[4.8265,7.9829],[4.8137,7.9948],[4.8095,7.9968],[4.8048,7.9796],[4.7931,7.9692],[4.7872,7.9599],[4.7837,7.9574],[4.7778,7.9628],[4.7753,7.9683],[4.7449,7.9543],[4.7479,7.9498],[4.7521,7.9451],[4.7544,7.9332],[4.7518,7.9257],[4.7456,7.923],[4.7441,7.9013],[4.7446,7.8852],[4.7622,7.8784],[4.7707,7.8623],[4.7952,7.8679],[4.8033,7.8661],[4.8158,7.8503],[4.8436,7.8632]]]}},{"type":"Feature","properties":{"name":"Boripe","state":"Osun","scode":"OS","centroid":[7.9005,4.7084]},"geometry":{"type":"Polygon","coordinates":[[[4.7446,7.8852],[4.7441,7.9013],[4.7456,7.923],[4.7518,7.9257],[4.7544,7.9332],[4.7521,7.9451],[4.7479,7.9498],[4.7299,7.9506],[4.7171,7.9544],[4.7073,7.9503],[4.6916,7.9475],[4.6937,7.9303],[4.6841,7.9209],[4.6757,7.9178],[4.674,7.9154],[4.6747,7.9142],[4.6714,7.9146],[4.6703,7.912],[4.6673,7.9132],[4.6626,7.91],[4.6592,7.9094],[4.6655,7.9041],[4.6637,7.9009],[4.665,7.8978],[4.6708,7.8959],[4.6706,7.8934],[4.6746,7.8887],[4.661,7.8753],[4.6719,7.8591],[4.674,7.8599],[4.6933,7.8522],[4.7004,7.8381],[4.719,7.8373],[4.7159,7.8537],[4.721,7.8599],[4.721,7.8771],[4.7247,7.8748],[4.7279,7.8746],[4.7372,7.879],[4.7446,7.8852]]]}},{"type":"Feature","properties":{"name":"Ede North","state":"Osun","scode":"OS","centroid":[7.7162,4.4896]},"geometry":{"type":"Polygon","coordinates":[[[4.5399,7.6571],[4.5524,7.6566],[4.5636,7.6684],[4.5633,7.6734],[4.5684,7.6834],[4.5758,7.692],[4.5799,7.7002],[4.5781,7.7146],[4.5578,7.714],[4.5548,7.7083],[4.5151,7.7213],[4.4951,7.7343],[4.4811,7.746],[4.4758,7.7462],[4.4557,7.7536],[4.4534,7.7744],[4.4501,7.7758],[4.4318,7.7677],[4.4268,7.7603],[4.4226,7.7672],[4.4172,7.7705],[4.4076,7.7514],[4.3911,7.7407],[4.3952,7.7304],[4.3992,7.7328],[4.4158,7.7278],[4.4173,7.7285],[4.429,7.7225],[4.4416,7.7254],[4.4453,7.7189],[4.4468,7.7119],[4.4688,7.6985],[4.4757,7.69],[4.4894,7.6946],[4.4957,7.6948],[4.4993,7.6933],[4.512,7.6827],[4.5189,7.681],[4.528,7.6722],[4.5327,7.6633],[4.5399,7.6571]]]}},{"type":"Feature","properties":{"name":"Ede South","state":"Osun","scode":"OS","centroid":[7.6565,4.4319]},"geometry":{"type":"Polygon","coordinates":[[[4.5088,7.5991],[4.5179,7.605],[4.5272,7.614],[4.5281,7.6177],[4.5347,7.6246],[4.5348,7.6329],[4.533,7.6357],[4.5338,7.6414],[4.5399,7.6571],[4.5327,7.6633],[4.528,7.6722],[4.5189,7.681],[4.512,7.6827],[4.4993,7.6933],[4.4957,7.6948],[4.4894,7.6946],[4.4757,7.69],[4.4688,7.6985],[4.4468,7.7119],[4.4453,7.7189],[4.4416,7.7254],[4.429,7.7225],[4.4173,7.7285],[4.4158,7.7278],[4.3992,7.7328],[4.3952,7.7304],[4.3926,7.7061],[4.3896,7.7015],[4.3821,7.7006],[4.3483,7.6751],[4.3371,7.6684],[4.3296,7.6351],[4.342,7.6215],[4.3576,7.613],[4.3645,7.6019],[4.3713,7.5968],[4.3969,7.5924],[4.4019,7.5961],[4.4108,7.6125],[4.4136,7.6135],[4.4297,7.6107],[4.4339,7.6156],[4.4394,7.6187],[4.449,7.6187],[4.4647,7.6211],[4.4751,7.6202],[4.486,7.6222],[4.4922,7.6101],[4.5079,7.6009],[4.5088,7.5991]]]}},{"type":"Feature","properties":{"name":"Egbedore","state":"Osun","scode":"OS","centroid":[7.7939,4.4179]},"geometry":{"type":"Polygon","coordinates":[[[4.3972,7.8965],[4.3941,7.8839],[4.3903,7.879],[4.3861,7.8687],[4.3711,7.8487],[4.3691,7.8463],[4.3562,7.8455],[4.3469,7.835],[4.3422,7.8266],[4.335,7.8211],[4.326,7.8064],[4.3372,7.7845],[4.3353,7.7792],[4.3417,7.7527],[4.3375,7.7248],[4.3204,7.7011],[4.3228,7.6836],[4.3371,7.6684],[4.3483,7.6751],[4.3821,7.7006],[4.3896,7.7015],[4.3926,7.7061],[4.3952,7.7304],[4.3911,7.7407],[4.4076,7.7514],[4.4172,7.7705],[4.4226,7.7672],[4.4268,7.7603],[4.4318,7.7677],[4.4501,7.7758],[4.4534,7.7744],[4.4557,7.7536],[4.4758,7.7462],[4.4811,7.746],[4.4854,7.7553],[4.503,7.766],[4.5027,7.7714],[4.5061,7.7747],[4.5172,7.7761],[4.5231,7.7707],[4.5323,7.775],[4.529,7.7837],[4.5272,7.7834],[4.5263,7.7857],[4.5266,7.7943],[4.5368,7.7953],[4.5325,7.8037],[4.5345,7.8052],[4.5336,7.8065],[4.5377,7.8091],[4.539,7.8072],[4.5458,7.8089],[4.5467,7.8162],[4.5496,7.8201],[4.548,7.8276],[4.5493,7.8316],[4.5356,7.8601],[4.5202,7.8561],[4.5142,7.8469],[4.5117,7.8393],[4.5062,7.8388],[4.5027,7.8364],[4.5008,7.8344],[4.5022,7.8313],[4.486,7.827],[4.4838,7.8277],[4.4792,7.8374],[4.4757,7.8349],[4.4754,7.8281],[4.4726,7.827],[4.4553,7.828],[4.4448,7.8436],[4.4381,7.8485],[4.437,7.853],[4.4487,7.8687],[4.451,7.877],[4.4476,7.8843],[4.4445,7.8874],[4.4325,7.8861],[4.429,7.8893],[4.4225,7.8884],[4.4075,7.8984],[4.4011,7.8984],[4.3972,7.8965]]]}},{"type":"Feature","properties":{"name":"Ejigbo","state":"Osun","scode":"OS","centroid":[7.8551,4.2571]},"geometry":{"type":"Polygon","coordinates":[[[4.3711,7.8487],[4.3673,7.8492],[4.3659,7.8515],[4.3659,7.858],[4.3602,7.8828],[4.3514,7.8961],[4.3484,7.9049],[4.3397,7.9146],[4.3282,7.935],[4.316,7.943],[4.3071,7.9445],[4.2954,7.9546],[4.2859,7.9655],[4.2763,7.9712],[4.2653,7.9701],[4.2508,7.9655],[4.2356,7.9564],[4.234,7.9312],[4.2302,7.9278],[4.2249,7.927],[4.2161,7.9217],[4.1982,7.9163],[4.1913,7.9102],[4.1921,7.9007],[4.2009,7.8786],[4.2028,7.8687],[4.197,7.8653],[4.1864,7.8649],[4.1742,7.8611],[4.1646,7.855],[4.1471,7.8496],[4.1166,7.8492],[4.0991,7.8637],[4.0936,7.8636],[4.0902,7.8601],[4.0911,7.8502],[4.0762,7.8249],[4.0751,7.82],[4.1148,7.8142],[4.1304,7.8178],[4.1308,7.8037],[4.1337,7.7935],[4.1608,7.8011],[4.1873,7.8117],[4.2104,7.8129],[4.2253,7.8101],[4.2397,7.8122],[4.2499,7.8354],[4.2499,7.8302],[4.2575,7.8165],[4.2645,7.8126],[4.2693,7.8056],[4.2714,7.7993],[4.2707,7.793],[4.274,7.788],[4.2786,7.7834],[4.2848,7.7845],[4.2926,7.7895],[4.2993,7.7844],[4.293,7.7595],[4.2949,7.7578],[4.2977,7.743],[4.3049,7.7378],[4.3113,7.71],[4.3204,7.7011],[4.3375,7.7248],[4.3417,7.7527],[4.3353,7.7792],[4.3372,7.7845],[4.326,7.8064],[4.335,7.8211],[4.3422,7.8266],[4.3469,7.835],[4.3562,7.8455],[4.3691,7.8463],[4.3711,7.8487]]]}},{"type":"Feature","properties":{"name":"Ife Central","state":"Osun","scode":"OS","centroid":[7.5381,4.5369]},"geometry":{"type":"Polygon","coordinates":[[[4.4756,7.4758],[4.4892,7.4822],[4.4901,7.4932],[4.5007,7.4964],[4.5202,7.4962],[4.532,7.4897],[4.5345,7.4928],[4.5367,7.4921],[4.5396,7.498],[4.5429,7.4956],[4.5473,7.4963],[4.5472,7.4942],[4.55,7.4939],[4.5498,7.4894],[4.5486,7.4892],[4.5478,7.4865],[4.5551,7.4798],[4.5514,7.4782],[4.5525,7.4738],[4.5558,7.4727],[4.5574,7.4703],[4.5579,7.472],[4.564,7.4709],[4.5637,7.4735],[4.5669,7.4781],[4.5634,7.4816],[4.5637,7.4834],[4.5672,7.4869],[4.5692,7.4864],[4.5706,7.4895],[4.5797,7.4919],[4.5817,7.4892],[4.5852,7.4877],[4.589,7.4923],[4.5953,7.4883],[4.6001,7.4908],[4.6074,7.4922],[4.6135,7.5057],[4.6035,7.5192],[4.6008,7.5192],[4.5916,7.5382],[4.5865,7.5426],[4.5815,7.5516],[4.5815,7.5647],[4.5861,7.5737],[4.5776,7.5764],[4.569,7.5815],[4.5609,7.5907],[4.5456,7.5956],[4.5272,7.614],[4.5179,7.605],[4.5088,7.5991],[4.5017,7.5958],[4.4974,7.5907],[4.4841,7.5819],[4.4774,7.5659],[4.4812,7.5568],[4.4878,7.5556],[4.489,7.5509],[4.4894,7.5339],[4.4803,7.5253],[4.4893,7.5146],[4.483,7.5116],[4.4742,7.5047],[4.4689,7.4955],[4.4687,7.4875],[4.4756,7.4758]]]}},{"type":"Feature","properties":{"name":"Ife East","state":"Osun","scode":"OS","centroid":[7.4065,4.5712]},"geometry":{"type":"Polygon","coordinates":[[[4.5129,7.3534],[4.5504,7.3185],[4.5465,7.3171],[4.5504,7.3084],[4.5439,7.2929],[4.5441,7.2888],[4.5673,7.2705],[4.5955,7.2736],[4.5989,7.2871],[4.5938,7.3037],[4.6063,7.3081],[4.6235,7.3215],[4.6163,7.3385],[4.5906,7.3855],[4.598,7.3877],[4.6062,7.3878],[4.6076,7.3847],[4.6187,7.3853],[4.6218,7.3903],[4.6085,7.3925],[4.605,7.399],[4.6111,7.4086],[4.6146,7.4103],[4.626,7.4088],[4.6326,7.3963],[4.6601,7.4107],[4.6702,7.4042],[4.6543,7.4349],[4.6488,7.4366],[4.6457,7.4452],[4.638,7.4442],[4.6369,7.4472],[4.6397,7.4661],[4.6416,7.4726],[4.6432,7.4739],[4.6419,7.4797],[4.6346,7.4922],[4.6264,7.5018],[4.6135,7.5057],[4.6074,7.4922],[4.6001,7.4908],[4.5953,7.4883],[4.589,7.4923],[4.5852,7.4877],[4.5817,7.4892],[4.5797,7.4919],[4.5706,7.4895],[4.5692,7.4864],[4.5672,7.4869],[4.5637,7.4834],[4.5634,7.4816],[4.5669,7.4781],[4.5637,7.4735],[4.564,7.4709],[4.5579,7.472],[4.5574,7.4703],[4.5558,7.4727],[4.5525,7.4738],[4.5514,7.4782],[4.5551,7.4798],[4.5478,7.4865],[4.5486,7.4892],[4.5498,7.4894],[4.55,7.4939],[4.5472,7.4942],[4.5473,7.4963],[4.5429,7.4956],[4.5396,7.498],[4.5367,7.4921],[4.5345,7.4928],[4.532,7.4897],[4.5202,7.4962],[4.5007,7.4964],[4.4901,7.4932],[4.4892,7.4822],[4.4756,7.4758],[4.4662,7.4589],[4.488,7.4514],[4.503,7.4398],[4.5051,7.4365],[4.5093,7.4163],[4.5449,7.4202],[4.5475,7.4136],[4.544,7.393],[4.5373,7.3852],[4.5168,7.3751],[4.5129,7.3534]]]}},{"type":"Feature","properties":{"name":"Ife North","state":"Osun","scode":"OS","centroid":[7.389,4.4467]},"geometry":{"type":"Polygon","coordinates":[[[4.4239,7.1908],[4.4329,7.196],[4.4468,7.2288],[4.452,7.2346],[4.4701,7.2485],[4.5134,7.246],[4.5187,7.2498],[4.4947,7.2695],[4.4939,7.2941],[4.4899,7.2962],[4.4905,7.314],[4.4956,7.3232],[4.4975,7.3451],[4.5129,7.3534],[4.5168,7.3751],[4.5373,7.3852],[4.544,7.393],[4.5475,7.4136],[4.5449,7.4202],[4.5093,7.4163],[4.5051,7.4365],[4.503,7.4398],[4.488,7.4514],[4.4662,7.4589],[4.4756,7.4758],[4.4687,7.4875],[4.4689,7.4955],[4.4742,7.5047],[4.483,7.5116],[4.4893,7.5146],[4.4803,7.5253],[4.4894,7.5339],[4.489,7.5509],[4.4878,7.5556],[4.4812,7.5568],[4.4774,7.5659],[4.4726,7.5687],[4.4579,7.5836],[4.4387,7.5818],[4.4281,7.5591],[4.4234,7.5439],[4.4201,7.5395],[4.4198,7.5332],[4.4174,7.5297],[4.4133,7.516],[4.4011,7.5076],[4.3868,7.4908],[4.3899,7.4712],[4.3881,7.4622],[4.3893,7.4491],[4.3776,7.4437],[4.3747,7.4374],[4.3719,7.4215],[4.3723,7.4157],[4.3765,7.4057],[4.3777,7.3987],[4.381,7.3948],[4.3758,7.3869],[4.3745,7.3751],[4.3821,7.3614],[4.3992,7.3468],[4.3998,7.3416],[4.3966,7.3246],[4.3987,7.3116],[4.407,7.2998],[4.4058,7.2954],[4.3962,7.2823],[4.4073,7.2635],[4.3977,7.2506],[4.3978,7.2467],[4.4074,7.2266],[4.412,7.2013],[4.4239,7.1908]]]}},{"type":"Feature","properties":{"name":"Ife South","state":"Osun","scode":"OS","centroid":[7.1776,4.5568]},"geometry":{"type":"Polygon","coordinates":[[[4.4239,7.1908],[4.4163,7.1652],[4.4187,7.1589],[4.4103,7.1277],[4.3852,7.1172],[4.3769,7.0957],[4.3535,7.0714],[4.3507,7.0657],[4.361,7.0609],[4.3686,7.0591],[4.3703,7.0562],[4.3701,7.0365],[4.3712,7.0325],[4.3787,7.0261],[4.371,7.018],[4.3743,6.9989],[4.376,6.9948],[4.3864,6.9896],[4.3904,6.9809],[4.4005,6.9807],[4.4169,6.9941],[4.4245,7.0024],[4.4382,7.0047],[4.4542,7.0009],[4.4634,6.9933],[4.4801,6.9906],[4.4889,6.9918],[4.5163,7.0226],[4.5224,7.0245],[4.5342,7.0238],[4.5425,7.0211],[4.5593,7.0215],[4.5772,7.0234],[4.5924,7.0287],[4.6046,7.0314],[4.6096,7.0311],[4.6123,7.044],[4.6139,7.08],[4.6167,7.0847],[4.6268,7.1041],[4.6351,7.1134],[4.6526,7.1246],[4.673,7.1404],[4.6748,7.1441],[4.672,7.1478],[4.6682,7.1588],[4.6719,7.1662],[4.6839,7.1681],[4.7034,7.1618],[4.709,7.1646],[4.7154,7.172],[4.7209,7.1951],[4.7264,7.197],[4.7421,7.2146],[4.7467,7.223],[4.7439,7.2376],[4.742,7.2401],[4.7429,7.2426],[4.7347,7.284],[4.7455,7.3138],[4.7338,7.3073],[4.7122,7.3157],[4.6997,7.3329],[4.6823,7.3441],[4.6879,7.3518],[4.6833,7.3632],[4.6825,7.3698],[4.6708,7.3793],[4.6693,7.3826],[4.6647,7.3846],[4.6702,7.4042],[4.6601,7.4107],[4.6326,7.3963],[4.626,7.4088],[4.6146,7.4103],[4.6111,7.4086],[4.605,7.399],[4.6085,7.3925],[4.6218,7.3903],[4.6187,7.3853],[4.6076,7.3847],[4.6062,7.3878],[4.598,7.3877],[4.5906,7.3855],[4.6163,7.3385],[4.6235,7.3215],[4.6063,7.3081],[4.5938,7.3037],[4.5989,7.2871],[4.5955,7.2736],[4.5673,7.2705],[4.5441,7.2888],[4.5439,7.2929],[4.5504,7.3084],[4.5465,7.3171],[4.5504,7.3185],[4.5129,7.3534],[4.4975,7.3451],[4.4956,7.3232],[4.4905,7.314],[4.4899,7.2962],[4.4939,7.2941],[4.4947,7.2695],[4.5187,7.2498],[4.5134,7.246],[4.4701,7.2485],[4.452,7.2346],[4.4468,7.2288],[4.4329,7.196],[4.4239,7.1908]]]}},{"type":"Feature","properties":{"name":"Ifedayo","state":"Osun","scode":"OS","centroid":[7.9821,4.9928]},"geometry":{"type":"Polygon","coordinates":[[[4.947,7.9022],[4.9905,7.9312],[5.0012,7.9461],[5.0165,7.9552],[5.0203,7.9609],[5.0313,7.9769],[5.0332,7.9823],[5.0329,7.9968],[5.0355,8.0052],[5.0531,8.0235],[5.0565,8.0311],[5.0576,8.0395],[5.0549,8.0492],[5.0534,8.0578],[5.0496,8.0646],[5.0443,8.07],[5.0397,8.0719],[5.0325,8.0681],[5.029,8.0639],[5.0207,8.0593],[5.01,8.0501],[4.999,8.0303],[5.0011,8.0261],[5.002,8.0189],[4.9986,8.0088],[4.985,7.9975],[4.9709,7.981],[4.9376,7.9823],[4.9396,7.9675],[4.9367,7.9627],[4.9266,7.9596],[4.9238,7.9567],[4.9229,7.9515],[4.9275,7.9434],[4.9317,7.9315],[4.9295,7.9239],[4.9349,7.9146],[4.9463,7.9018],[4.947,7.9022]]]}},{"type":"Feature","properties":{"name":"Ifelodun","state":"Osun","scode":"OS","centroid":[7.9375,4.6646]},"geometry":{"type":"Polygon","coordinates":[[[4.6719,7.8591],[4.661,7.8753],[4.6746,7.8887],[4.6706,7.8934],[4.6708,7.8959],[4.665,7.8978],[4.6637,7.9009],[4.6655,7.9041],[4.6592,7.9094],[4.6626,7.91],[4.6673,7.9132],[4.6703,7.912],[4.6714,7.9146],[4.6747,7.9142],[4.674,7.9154],[4.6757,7.9178],[4.6841,7.9209],[4.6937,7.9303],[4.6916,7.9475],[4.7073,7.9503],[4.7171,7.9544],[4.7299,7.9506],[4.7479,7.9498],[4.7449,7.9543],[4.7753,7.9683],[4.7701,7.9838],[4.7681,7.9965],[4.7612,8.0161],[4.7508,8.012],[4.7415,7.9967],[4.7171,8.0067],[4.7008,8.0069],[4.6993,7.9892],[4.6951,7.9804],[4.6946,7.9742],[4.6881,7.9659],[4.6824,7.9634],[4.6729,7.9636],[4.6458,7.9583],[4.6327,7.9608],[4.617,7.9695],[4.6119,7.9679],[4.5983,7.977],[4.5941,7.9771],[4.5796,7.972],[4.5759,7.9674],[4.5768,7.9641],[4.5675,7.9436],[4.5687,7.9378],[4.5827,7.9279],[4.6,7.9237],[4.6096,7.9244],[4.6199,7.9179],[4.6237,7.9112],[4.604,7.8877],[4.6235,7.8557],[4.6303,7.8575],[4.6341,7.861],[4.6482,7.8428],[4.664,7.8411],[4.6719,7.8591]]]}},{"type":"Feature","properties":{"name":"Ila","state":"Osun","scode":"OS","centroid":[7.9903,4.8967]},"geometry":{"type":"Polygon","coordinates":[[[4.999,8.0303],[4.9952,8.0295],[4.9834,8.0323],[4.9805,8.0269],[4.9771,8.0259],[4.9732,8.0214],[4.9717,8.0237],[4.9692,8.0242],[4.9707,8.0326],[4.9684,8.0376],[4.9669,8.0467],[4.9608,8.0524],[4.9497,8.0555],[4.9395,8.0681],[4.9269,8.0799],[4.9132,8.0856],[4.8872,8.0909],[4.8777,8.0913],[4.8541,8.0955],[4.8518,8.0917],[4.8548,8.086],[4.8575,8.0726],[4.8525,8.0681],[4.83,8.0555],[4.8186,8.0536],[4.8088,8.0617],[4.8094,8.0424],[4.8064,8.0175],[4.807,8.0146],[4.8111,8.0118],[4.8095,7.9968],[4.8137,7.9948],[4.8265,7.9829],[4.846,7.9866],[4.8535,7.9764],[4.8541,7.9716],[4.8603,7.9649],[4.862,7.9608],[4.8795,7.955],[4.8819,7.9442],[4.8912,7.9409],[4.8936,7.9345],[4.8804,7.9083],[4.8799,7.8975],[4.8773,7.8905],[4.8722,7.8837],[4.8628,7.8831],[4.8451,7.8744],[4.8436,7.8632],[4.8537,7.8553],[4.8655,7.8417],[4.8869,7.8503],[4.8962,7.8554],[4.9078,7.8656],[4.9219,7.8619],[4.9238,7.8635],[4.9245,7.8744],[4.9273,7.8804],[4.9371,7.8892],[4.942,7.8999],[4.9463,7.9018],[4.9349,7.9146],[4.9295,7.9239],[4.9317,7.9315],[4.9275,7.9434],[4.9229,7.9515],[4.9238,7.9567],[4.9266,7.9596],[4.9367,7.9627],[4.9396,7.9675],[4.9376,7.9823],[4.9709,7.981],[4.985,7.9975],[4.9986,8.0088],[5.002,8.0189],[5.0011,8.0261],[4.999,8.0303]]]}},{"type":"Feature","properties":{"name":"Ilesha East","state":"Osun","scode":"OS","centroid":[7.5867,4.7664]},"geometry":{"type":"Polygon","coordinates":[[[4.7841,7.6397],[4.7829,7.6369],[4.779,7.637],[4.7784,7.6352],[4.7748,7.6365],[4.7727,7.6342],[4.7714,7.6296],[4.7681,7.6287],[4.7687,7.6271],[4.767,7.6246],[4.7635,7.6232],[4.7629,7.6214],[4.7541,7.6207],[4.7523,7.623],[4.754,7.6244],[4.7459,7.6232],[4.745,7.6209],[4.7471,7.6171],[4.7449,7.6157],[4.7431,7.6163],[4.742,7.6095],[4.7353,7.6076],[4.7327,7.6044],[4.7284,7.6048],[4.7238,7.5998],[4.7215,7.5939],[4.7083,7.5873],[4.7126,7.5837],[4.7191,7.5714],[4.7236,7.5381],[4.7277,7.535],[4.7436,7.5345],[4.7527,7.5415],[4.7617,7.553],[4.7702,7.5535],[4.7825,7.557],[4.7953,7.5588],[4.8024,7.5659],[4.8209,7.5678],[4.8131,7.5746],[4.8175,7.6029],[4.815,7.6057],[4.8137,7.6165],[4.809,7.6263],[4.7971,7.6294],[4.7917,7.6328],[4.7927,7.6418],[4.7841,7.6397]]]}},{"type":"Feature","properties":{"name":"Ilesha West","state":"Osun","scode":"OS","centroid":[7.6448,4.7191]},"geometry":{"type":"Polygon","coordinates":[[[4.6629,7.6886],[4.6537,7.6824],[4.6555,7.6777],[4.669,7.6588],[4.6648,7.6555],[4.6551,7.6559],[4.6622,7.6345],[4.6681,7.6314],[4.6813,7.6183],[4.678,7.6152],[4.6849,7.6059],[4.7044,7.5953],[4.7083,7.5873],[4.7215,7.5939],[4.7238,7.5998],[4.7284,7.6048],[4.7327,7.6044],[4.7353,7.6076],[4.742,7.6095],[4.7431,7.6163],[4.7449,7.6157],[4.7471,7.6171],[4.745,7.6209],[4.7459,7.6232],[4.754,7.6244],[4.7523,7.623],[4.7541,7.6207],[4.7629,7.6214],[4.7635,7.6232],[4.767,7.6246],[4.7687,7.6271],[4.7681,7.6287],[4.7714,7.6296],[4.7727,7.6342],[4.7748,7.6365],[4.7784,7.6352],[4.779,7.637],[4.7829,7.6369],[4.7841,7.6397],[4.7895,7.6486],[4.7891,7.6522],[4.7957,7.67],[4.7794,7.678],[4.7643,7.6701],[4.748,7.6789],[4.7346,7.6707],[4.7288,7.6744],[4.7177,7.6756],[4.7122,7.6715],[4.6973,7.6823],[4.6852,7.6832],[4.6663,7.6895],[4.6629,7.6886]]]}},{"type":"Feature","properties":{"name":"Irepodun","state":"Osun","scode":"OS","centroid":[7.9031,4.5275]},"geometry":{"type":"Polygon","coordinates":[[[4.5222,7.9556],[4.5254,7.9407],[4.5236,7.9347],[4.5099,7.9177],[4.5096,7.9135],[4.5074,7.9099],[4.4968,7.8975],[4.4983,7.8915],[4.4963,7.8857],[4.4964,7.8805],[4.4833,7.8688],[4.4825,7.8659],[4.4847,7.8635],[4.4814,7.8576],[4.482,7.8426],[4.4792,7.8374],[4.4838,7.8277],[4.486,7.827],[4.5022,7.8313],[4.5008,7.8344],[4.5027,7.8364],[4.5062,7.8388],[4.5117,7.8393],[4.5142,7.8469],[4.5202,7.8561],[4.5356,7.8601],[4.5326,7.8715],[4.5378,7.8821],[4.5448,7.8861],[4.5563,7.908],[4.5596,7.9106],[4.5676,7.9112],[4.5634,7.9184],[4.564,7.9237],[4.5692,7.9324],[4.5687,7.9378],[4.5675,7.9436],[4.5768,7.9641],[4.5596,7.9732],[4.5531,7.9753],[4.5497,7.9708],[4.5356,7.9613],[4.5222,7.9556]]]}},{"type":"Feature","properties":{"name":"Irewole","state":"Osun","scode":"OS","centroid":[7.4108,4.2308]},"geometry":{"type":"Polygon","coordinates":[[[4.2879,7.3013],[4.2938,7.3051],[4.304,7.3075],[4.3047,7.3144],[4.3133,7.3275],[4.3154,7.3468],[4.3209,7.3536],[4.3141,7.3665],[4.3203,7.3804],[4.3191,7.3861],[4.3162,7.3943],[4.3041,7.412],[4.307,7.4245],[4.2931,7.432],[4.2932,7.4382],[4.3041,7.454],[4.3054,7.461],[4.2944,7.4716],[4.2826,7.4775],[4.2756,7.4777],[4.2679,7.4754],[4.2505,7.4786],[4.2171,7.4909],[4.2001,7.494],[4.1882,7.4904],[4.1729,7.4936],[4.149,7.4775],[4.1355,7.4708],[4.1338,7.4647],[4.1371,7.4591],[4.137,7.4462],[4.1414,7.4397],[4.1353,7.4031],[4.1455,7.398],[4.1493,7.389],[4.153,7.3701],[4.1577,7.3629],[4.1643,7.3565],[4.1718,7.363],[4.1722,7.3599],[4.1766,7.3616],[4.1802,7.3604],[4.1808,7.3589],[4.1814,7.3603],[4.1888,7.3583],[4.1926,7.3589],[4.1948,7.3615],[4.1963,7.3609],[4.1983,7.364],[4.2071,7.357],[4.2135,7.3561],[4.2268,7.364],[4.2289,7.3546],[4.2429,7.349],[4.2492,7.3446],[4.2492,7.3413],[4.2879,7.3013]]]}},{"type":"Feature","properties":{"name":"Isokan","state":"Osun","scode":"OS","centroid":[7.2879,4.1869]},"geometry":{"type":"Polygon","coordinates":[[[4.082,7.2009],[4.0901,7.1979],[4.1014,7.2102],[4.1154,7.2123],[4.1282,7.2069],[4.1458,7.2023],[4.1563,7.2088],[4.1674,7.2107],[4.18,7.219],[4.2076,7.2268],[4.2184,7.2264],[4.2607,7.2416],[4.2663,7.2459],[4.269,7.2564],[4.2811,7.2809],[4.2885,7.2923],[4.2879,7.3013],[4.2492,7.3413],[4.2492,7.3446],[4.2429,7.349],[4.2289,7.3546],[4.2268,7.364],[4.2135,7.3561],[4.2071,7.357],[4.1983,7.364],[4.1963,7.3609],[4.1948,7.3615],[4.1926,7.3589],[4.1888,7.3583],[4.1814,7.3603],[4.1808,7.3589],[4.1802,7.3604],[4.1766,7.3616],[4.1722,7.3599],[4.1718,7.363],[4.1643,7.3565],[4.1577,7.3629],[4.153,7.3701],[4.1493,7.389],[4.1455,7.398],[4.1353,7.4031],[4.134,7.3677],[4.1317,7.3583],[4.127,7.352],[4.1231,7.3518],[4.1192,7.3485],[4.119,7.3435],[4.1211,7.3402],[4.1205,7.3353],[4.1128,7.3319],[4.1109,7.3269],[4.1208,7.3183],[4.1257,7.3118],[4.1313,7.2995],[4.1281,7.2881],[4.1297,7.2768],[4.1259,7.2703],[4.1254,7.2578],[4.1112,7.2512],[4.1075,7.2459],[4.1053,7.2372],[4.1026,7.2331],[4.0942,7.2282],[4.0845,7.2078],[4.0848,7.2044],[4.082,7.2009]]]}},{"type":"Feature","properties":{"name":"Iwo","state":"Osun","scode":"OS","centroid":[7.6716,4.1415]},"geometry":{"type":"Polygon","coordinates":[[[4.2479,7.6408],[4.2444,7.6658],[4.2412,7.6681],[4.2259,7.6606],[4.2222,7.6609],[4.2039,7.674],[4.2063,7.6843],[4.1898,7.6946],[4.1893,7.6962],[4.1801,7.6971],[4.1764,7.7011],[4.1731,7.709],[4.1734,7.7166],[4.1575,7.7197],[4.1591,7.7208],[4.1578,7.7233],[4.1589,7.7342],[4.1578,7.7383],[4.1517,7.7415],[4.1439,7.7508],[4.1391,7.7508],[4.133,7.7406],[4.1288,7.7382],[4.118,7.7453],[4.0929,7.7573],[4.0618,7.7501],[4.0742,7.7359],[4.0782,7.7081],[4.0742,7.6816],[4.0572,7.6795],[4.0529,7.675],[4.0687,7.6659],[4.0758,7.653],[4.0934,7.6215],[4.1102,7.6123],[4.1217,7.6102],[4.1387,7.5987],[4.1416,7.5932],[4.1449,7.5969],[4.1584,7.6044],[4.17,7.5984],[4.1757,7.6027],[4.177,7.6102],[4.183,7.6082],[4.1865,7.6179],[4.1918,7.6183],[4.2129,7.6099],[4.2229,7.6294],[4.2316,7.6409],[4.2374,7.6397],[4.2479,7.6408]]]}},{"type":"Feature","properties":{"name":"Obokun","state":"Osun","scode":"OS","centroid":[7.7791,4.7679]},"geometry":{"type":"Polygon","coordinates":[[[4.748,7.6789],[4.7469,7.6957],[4.7726,7.7065],[4.7697,7.7329],[4.7865,7.7366],[4.8012,7.7372],[4.8235,7.7235],[4.828,7.7252],[4.8872,7.6896],[4.8932,7.7303],[4.903,7.7499],[4.9042,7.7574],[4.9094,7.7664],[4.9143,7.783],[4.9158,7.8027],[4.9158,7.8221],[4.9086,7.8298],[4.9111,7.8501],[4.9141,7.8504],[4.9164,7.8572],[4.9219,7.8619],[4.9078,7.8656],[4.8962,7.8554],[4.8869,7.8503],[4.8655,7.8417],[4.8537,7.8553],[4.8436,7.8632],[4.8158,7.8503],[4.8033,7.8661],[4.7952,7.8679],[4.7707,7.8623],[4.7622,7.8784],[4.7446,7.8852],[4.7372,7.879],[4.7279,7.8746],[4.7247,7.8748],[4.721,7.8771],[4.721,7.8599],[4.7159,7.8537],[4.719,7.8373],[4.7004,7.8381],[4.6933,7.8522],[4.674,7.8599],[4.6719,7.8591],[4.664,7.8411],[4.6676,7.8295],[4.6604,7.8158],[4.6631,7.8007],[4.6602,7.7908],[4.6602,7.7844],[4.6407,7.791],[4.6371,7.7975],[4.6097,7.7899],[4.6066,7.7873],[4.609,7.7743],[4.6063,7.7668],[4.6103,7.7523],[4.6163,7.7438],[4.6364,7.7425],[4.6463,7.7365],[4.6363,7.7069],[4.6407,7.7088],[4.6454,7.7032],[4.6629,7.6886],[4.6663,7.6895],[4.6852,7.6832],[4.6973,7.6823],[4.7122,7.6715],[4.7177,7.6756],[4.7288,7.6744],[4.7346,7.6707],[4.748,7.6789]]]}},{"type":"Feature","properties":{"name":"Odo Otin","state":"Osun","scode":"OS","centroid":[8.0179,4.6796]},"geometry":{"type":"Polygon","coordinates":[[[4.569,8.0548],[4.5607,8.054],[4.5592,8.049],[4.563,8.0341],[4.563,8.009],[4.5573,7.9808],[4.5531,7.9753],[4.5596,7.9732],[4.5768,7.9641],[4.5759,7.9674],[4.5796,7.972],[4.5941,7.9771],[4.5983,7.977],[4.6119,7.9679],[4.617,7.9695],[4.6327,7.9608],[4.6458,7.9583],[4.6729,7.9636],[4.6824,7.9634],[4.6881,7.9659],[4.6946,7.9742],[4.6951,7.9804],[4.6993,7.9892],[4.7008,8.0069],[4.7171,8.0067],[4.7415,7.9967],[4.7508,8.012],[4.7612,8.0161],[4.7681,7.9965],[4.7701,7.9838],[4.7753,7.9683],[4.7778,7.9628],[4.7837,7.9574],[4.7872,7.9599],[4.7931,7.9692],[4.8048,7.9796],[4.8095,7.9968],[4.8111,8.0118],[4.807,8.0146],[4.8064,8.0175],[4.8094,8.0424],[4.8088,8.0617],[4.7993,8.0651],[4.7856,8.0684],[4.7792,8.0684],[4.7662,8.0681],[4.7548,8.065],[4.7353,8.0635],[4.7212,8.0642],[4.7117,8.0597],[4.7044,8.0482],[4.6996,8.0491],[4.6922,8.0562],[4.6873,8.057],[4.6751,8.0498],[4.6736,8.0459],[4.6656,8.0433],[4.6595,8.0456],[4.6484,8.0536],[4.6374,8.0536],[4.6339,8.057],[4.6324,8.0612],[4.6339,8.0715],[4.629,8.0745],[4.6217,8.0757],[4.603,8.0681],[4.5981,8.0639],[4.569,8.0548]]]}},{"type":"Feature","properties":{"name":"Ola Oluwa","state":"Osun","scode":"OS","centroid":[7.7394,4.2169]},"geometry":{"type":"Polygon","coordinates":[[[4.3296,7.6351],[4.3371,7.6684],[4.3228,7.6836],[4.3204,7.7011],[4.3113,7.71],[4.3049,7.7378],[4.2977,7.743],[4.2949,7.7578],[4.293,7.7595],[4.2993,7.7844],[4.2926,7.7895],[4.2848,7.7845],[4.2786,7.7834],[4.274,7.788],[4.2707,7.793],[4.2714,7.7993],[4.2693,7.8056],[4.2645,7.8126],[4.2575,7.8165],[4.2499,7.8302],[4.2499,7.8354],[4.2397,7.8122],[4.2253,7.8101],[4.2104,7.8129],[4.1873,7.8117],[4.1608,7.8011],[4.1337,7.7935],[4.1308,7.8037],[4.1304,7.8178],[4.1148,7.8142],[4.0751,7.82],[4.0707,7.8008],[4.0721,7.7964],[4.0694,7.7706],[4.0708,7.7598],[4.066,7.7549],[4.0613,7.7543],[4.0618,7.7501],[4.0929,7.7573],[4.118,7.7453],[4.1288,7.7382],[4.133,7.7406],[4.1391,7.7508],[4.1439,7.7508],[4.1517,7.7415],[4.1578,7.7383],[4.1589,7.7342],[4.1578,7.7233],[4.1591,7.7208],[4.1575,7.7197],[4.1734,7.7166],[4.1731,7.709],[4.1764,7.7011],[4.1801,7.6971],[4.1893,7.6962],[4.1898,7.6946],[4.2063,7.6843],[4.2039,7.674],[4.2222,7.6609],[4.2259,7.6606],[4.2412,7.6681],[4.2444,7.6658],[4.2479,7.6408],[4.2687,7.6479],[4.2732,7.6532],[4.2854,7.6562],[4.29,7.6545],[4.2919,7.6519],[4.2995,7.6537],[4.302,7.6481],[4.2939,7.6386],[4.3055,7.6205],[4.3296,7.6351]]]}},{"type":"Feature","properties":{"name":"Olorunda","state":"Osun","scode":"OS","centroid":[7.849,4.5938]},"geometry":{"type":"Polygon","coordinates":[[[4.664,7.8411],[4.6482,7.8428],[4.6341,7.861],[4.6303,7.8575],[4.6235,7.8557],[4.604,7.8877],[4.6237,7.9112],[4.6199,7.9179],[4.6096,7.9244],[4.6,7.9237],[4.5827,7.9279],[4.5687,7.9378],[4.5692,7.9324],[4.564,7.9237],[4.5634,7.9184],[4.5676,7.9112],[4.5596,7.9106],[4.5563,7.908],[4.5448,7.8861],[4.5378,7.8821],[4.5326,7.8715],[4.5356,7.8601],[4.5493,7.8316],[4.548,7.8276],[4.5496,7.8201],[4.5467,7.8162],[4.5458,7.8089],[4.539,7.8072],[4.5377,7.8091],[4.5336,7.8065],[4.5345,7.8052],[4.5325,7.8037],[4.5368,7.7953],[4.5632,7.7984],[4.573,7.7955],[4.5777,7.7901],[4.5835,7.7934],[4.5974,7.7931],[4.605,7.7858],[4.6066,7.7873],[4.6097,7.7899],[4.6371,7.7975],[4.6407,7.791],[4.6602,7.7844],[4.6602,7.7908],[4.6631,7.8007],[4.6604,7.8158],[4.6676,7.8295],[4.664,7.8411]]]}},{"type":"Feature","properties":{"name":"Oriade","state":"Osun","scode":"OS","centroid":[7.5341,4.8725]},"geometry":{"type":"Polygon","coordinates":[[[5.0063,7.392],[5.0041,7.4043],[5.0046,7.4139],[4.997,7.415],[4.9871,7.4192],[4.9848,7.4265],[4.9757,7.4337],[4.9524,7.4478],[4.9478,7.4547],[4.9389,7.4787],[4.9202,7.5172],[4.9194,7.5215],[4.9126,7.5466],[4.9022,7.5764],[4.8876,7.6046],[4.8831,7.6114],[4.868,7.6163],[4.8639,7.6227],[4.8733,7.6513],[4.8808,7.6678],[4.8872,7.6896],[4.828,7.7252],[4.8235,7.7235],[4.8012,7.7372],[4.7865,7.7366],[4.7697,7.7329],[4.7726,7.7065],[4.7469,7.6957],[4.748,7.6789],[4.7643,7.6701],[4.7794,7.678],[4.7957,7.67],[4.7891,7.6522],[4.7895,7.6486],[4.7841,7.6397],[4.7927,7.6418],[4.7917,7.6328],[4.7971,7.6294],[4.809,7.6263],[4.8137,7.6165],[4.815,7.6057],[4.8175,7.6029],[4.8131,7.5746],[4.8209,7.5678],[4.8292,7.5529],[4.8363,7.5454],[4.8435,7.528],[4.837,7.5221],[4.8491,7.4879],[4.8518,7.4862],[4.8493,7.4754],[4.8388,7.4581],[4.8425,7.4442],[4.8374,7.4222],[4.8322,7.4141],[4.8306,7.404],[4.8271,7.4],[4.8455,7.3879],[4.8472,7.3826],[4.8449,7.3754],[4.8784,7.3788],[4.909,7.3735],[4.9192,7.3735],[4.9434,7.37],[4.9572,7.3737],[4.9749,7.3747],[4.9897,7.3776],[5.0063,7.392]]]}},{"type":"Feature","properties":{"name":"Orolu","state":"Osun","scode":"OS","centroid":[7.8971,4.4735]},"geometry":{"type":"Polygon","coordinates":[[[4.429,7.8893],[4.4325,7.8861],[4.4445,7.8874],[4.4476,7.8843],[4.451,7.877],[4.4487,7.8687],[4.437,7.853],[4.4381,7.8485],[4.4448,7.8436],[4.4553,7.828],[4.4726,7.827],[4.4754,7.8281],[4.4757,7.8349],[4.4792,7.8374],[4.482,7.8426],[4.4814,7.8576],[4.4847,7.8635],[4.4825,7.8659],[4.4833,7.8688],[4.4964,7.8805],[4.4963,7.8857],[4.4983,7.8915],[4.4968,7.8975],[4.5074,7.9099],[4.5096,7.9135],[4.5099,7.9177],[4.5236,7.9347],[4.5254,7.9407],[4.5222,7.9556],[4.5066,7.9518],[4.4959,7.9434],[4.4582,7.9415],[4.4498,7.9381],[4.4418,7.9289],[4.4391,7.9064],[4.433,7.8916],[4.429,7.8893]]]}},{"type":"Feature","properties":{"name":"Osogbo","state":"Osun","scode":"OS","centroid":[7.7543,4.5518]},"geometry":{"type":"Polygon","coordinates":[[[4.6066,7.7873],[4.605,7.7858],[4.5974,7.7931],[4.5835,7.7934],[4.5777,7.7901],[4.573,7.7955],[4.5632,7.7984],[4.5368,7.7953],[4.5266,7.7943],[4.5263,7.7857],[4.5272,7.7834],[4.529,7.7837],[4.5323,7.775],[4.5231,7.7707],[4.5172,7.7761],[4.5061,7.7747],[4.5027,7.7714],[4.503,7.766],[4.4854,7.7553],[4.4811,7.746],[4.4951,7.7343],[4.5151,7.7213],[4.5548,7.7083],[4.5578,7.714],[4.5781,7.7146],[4.5903,7.722],[4.5997,7.73],[4.6011,7.736],[4.5877,7.7405],[4.5908,7.745],[4.5969,7.7453],[4.5996,7.7511],[4.5967,7.7551],[4.6103,7.7523],[4.6063,7.7668],[4.609,7.7743],[4.6066,7.7873]]]}}]}