{"type":"FeatureCollection","features":[{"type":"Feature","properties":{"name":"Afijio","state":"Oyo","scode":"OY","centroid":[7.7313,3.8592]},"geometry":{"type":"Polygon","coordinates":[[[3.6314,7.7101],[3.5952,7.694],[3.5887,7.6818],[3.6133,7.6056],[3.6849,7.6441],[3.695,7.6512],[3.7042,7.6454],[3.7039,7.6421],[3.7245,7.6282],[3.7425,7.6222],[3.7671,7.6083],[3.8057,7.6264],[3.814,7.6287],[3.8301,7.6503],[3.8563,7.6643],[3.868,7.6688],[3.8713,7.6685],[3.889,7.6765],[3.9095,7.6763],[3.9407,7.6727],[3.9399,7.6488],[3.9425,7.6382],[3.9577,7.6361],[3.9643,7.6395],[3.9783,7.6432],[3.9945,7.644],[4.0018,7.637],[4.0293,7.6666],[4.0537,7.6594],[4.0631,7.6511],[4.0758,7.653],[4.0687,7.6659],[4.0529,7.675],[4.0572,7.6795],[4.0742,7.6816],[4.0782,7.7081],[4.0742,7.7359],[4.0618,7.7501],[4.0613,7.7543],[4.066,7.7549],[4.0708,7.7598],[4.0694,7.7706],[4.0721,7.7964],[4.0707,7.8008],[4.0751,7.82],[4.0762,7.8249],[4.0911,7.8502],[4.0902,7.8601],[4.0897,7.8712],[4.0792,7.8691],[4.064,7.8627],[4.0597,7.8626],[4.0514,7.8508],[4.0425,7.8425],[4.0194,7.8384],[4.0042,7.8265],[3.9929,7.8237],[3.9869,7.8351],[3.9723,7.8336],[3.9676,7.8276],[3.9613,7.826],[3.9597,7.8207],[3.9554,7.8174],[3.961,7.812],[3.9669,7.8111],[3.9616,7.8051],[3.9573,7.7969],[3.9555,7.799],[3.9489,7.7996],[3.9482,7.7984],[3.9459,7.7992],[3.9444,7.7972],[3.9387,7.7964],[3.9388,7.8016],[3.9347,7.8022],[3.9292,7.7921],[3.9295,7.7879],[3.9194,7.7871],[3.9173,7.7862],[3.9163,7.783],[3.9023,7.7772],[3.8974,7.7766],[3.893,7.7788],[3.8822,7.7881],[3.8858,7.7917],[3.8798,7.7972],[3.8865,7.802],[3.8862,7.8122],[3.8824,7.8144],[3.8808,7.8277],[3.8751,7.8386],[3.867,7.8482],[3.8674,7.8566],[3.8581,7.8603],[3.8346,7.8427],[3.8231,7.8423],[3.8081,7.847],[3.7962,7.8456],[3.7745,7.8473],[3.7469,7.8604],[3.7439,7.8507],[3.7344,7.8383],[3.7318,7.8263],[3.7329,7.8013],[3.7199,7.7679],[3.7137,7.7622],[3.6838,7.6963],[3.6314,7.7101]]]}},{"type":"Feature","properties":{"name":"Akinyele","state":"Oyo","scode":"OY","centroid":[7.578,3.9055]},"geometry":{"type":"Polygon","coordinates":[[[4.0631,7.6511],[4.0537,7.6594],[4.0293,7.6666],[4.0018,7.637],[3.9945,7.644],[3.9783,7.6432],[3.9643,7.6395],[3.9577,7.6361],[3.9425,7.6382],[3.9399,7.6488],[3.9407,7.6727],[3.9095,7.6763],[3.889,7.6765],[3.8713,7.6685],[3.868,7.6688],[3.8563,7.6643],[3.8301,7.6503],[3.814,7.6287],[3.8057,7.6264],[3.7671,7.6083],[3.7705,7.599],[3.7937,7.5573],[3.8151,7.5512],[3.8206,7.5354],[3.8267,7.5328],[3.8344,7.5258],[3.8474,7.5087],[3.8532,7.5065],[3.8625,7.5059],[3.8677,7.5019],[3.8867,7.4923],[3.8908,7.4814],[3.8845,7.4799],[3.8829,7.4641],[3.8858,7.4542],[3.9059,7.4646],[3.9071,7.4544],[3.9119,7.4511],[3.9209,7.4515],[3.9217,7.444],[3.925,7.44],[3.9324,7.4365],[3.9366,7.4231],[3.9394,7.4287],[3.9372,7.4296],[3.9365,7.4328],[3.9383,7.4357],[3.9373,7.4365],[3.9384,7.4379],[3.938,7.4408],[3.9317,7.4439],[3.9295,7.4485],[3.9345,7.4628],[3.943,7.4713],[3.9474,7.4804],[3.9481,7.4968],[3.9541,7.4974],[3.961,7.4939],[3.9687,7.4968],[3.9742,7.4932],[3.9788,7.4916],[3.9814,7.4923],[3.9816,7.4998],[3.9767,7.508],[3.9635,7.5105],[3.962,7.5151],[3.9658,7.5201],[3.9696,7.5224],[3.9777,7.5211],[3.9788,7.519],[3.9855,7.52],[3.9877,7.5136],[3.9989,7.5135],[4.0054,7.5157],[4.0088,7.5192],[4.0148,7.5313],[3.9913,7.5378],[3.9819,7.5564],[3.9768,7.5607],[3.986,7.5949],[3.9912,7.5975],[4.009,7.6162],[4.0236,7.6168],[4.0447,7.6302],[4.0631,7.6511]]]}},{"type":"Feature","properties":{"name":"Atiba","state":"Oyo","scode":"OY","centroid":[8.0533,3.9294]},"geometry":{"type":"Polygon","coordinates":[[[3.8101,8.1398],[3.8119,8.1355],[3.8117,8.1309],[3.8046,8.0679],[3.7998,8.0435],[3.7993,8.0333],[3.8035,8.0236],[3.8213,8.0175],[3.8441,7.9984],[3.8602,7.9916],[3.867,7.985],[3.8746,7.973],[3.88,7.9608],[3.9177,7.9684],[3.924,7.9668],[3.9322,7.9545],[3.9316,7.9489],[3.9351,7.9386],[3.9346,7.9365],[3.94,7.9347],[3.9419,7.9323],[3.9349,7.9171],[3.9335,7.9091],[3.9283,7.9082],[3.9237,7.905],[3.9159,7.9062],[3.9122,7.8988],[3.9044,7.8912],[3.9033,7.8881],[3.909,7.8844],[3.9168,7.8864],[3.9245,7.8813],[3.9244,7.8799],[3.9194,7.8775],[3.9249,7.875],[3.9246,7.8716],[3.9296,7.8711],[3.9371,7.8638],[3.9375,7.8581],[3.9423,7.8637],[3.9485,7.863],[3.9511,7.8605],[3.9561,7.8626],[3.9633,7.8742],[3.9637,7.8817],[3.962,7.8853],[3.9877,7.9051],[3.9981,7.905],[4.0028,7.9073],[4.0133,7.9171],[4.018,7.9179],[4.019,7.9207],[4.0248,7.9268],[4.0358,7.9291],[4.0427,7.9265],[4.0584,7.9465],[4.0786,7.9538],[4.0761,7.963],[4.0651,7.9721],[4.057,7.9718],[4.0449,7.9795],[4.0496,8.0194],[4.0457,8.0397],[4.0388,8.0429],[4.0267,8.0387],[4.0147,8.0304],[4.0083,8.0339],[4.0073,8.037],[4.0113,8.054],[4.014,8.0596],[4.0178,8.062],[4.0285,8.0638],[4.0334,8.0708],[4.0292,8.0807],[4.0316,8.0899],[4.0343,8.0928],[4.0214,8.1163],[4.0192,8.1169],[4.013,8.1248],[3.9809,8.1395],[3.9966,8.1684],[3.9885,8.1888],[3.8987,8.187],[3.8531,8.223],[3.8334,8.1941],[3.8169,8.174],[3.8101,8.1398]]]}},{"type":"Feature","properties":{"name":"Atisbo","state":"Oyo","scode":"OY","centroid":[8.4225,3.2945]},"geometry":{"type":"Polygon","coordinates":[[[2.8702,8.2594],[2.8679,8.3123],[2.8952,8.3397],[2.9285,8.3527],[2.9582,8.349],[2.9821,8.3304],[3.0667,8.3155],[3.0904,8.3166],[3.1326,8.3253],[3.1609,8.3334],[3.1767,8.3334],[3.1839,8.3401],[3.1725,8.3694],[3.1954,8.3764],[3.228,8.3746],[3.2516,8.3706],[3.2688,8.351],[3.2806,8.3573],[3.2899,8.3507],[3.2958,8.3437],[3.3249,8.3281],[3.3507,8.3178],[3.3614,8.3094],[3.3761,8.3133],[3.3833,8.3206],[3.3949,8.3227],[3.4135,8.3184],[3.4332,8.3198],[3.4788,8.3341],[3.4724,8.3572],[3.4777,8.3618],[3.5334,8.383],[3.5478,8.3977],[3.5587,8.3972],[3.653,8.4078],[3.6673,8.4074],[3.684,8.4099],[3.6877,8.4056],[3.797,8.3422],[3.8567,8.3271],[3.9043,8.3729],[3.9244,8.4341],[3.9314,8.469],[3.8742,8.5542],[3.8105,8.5466],[3.7682,8.514],[3.686,8.4318],[3.6726,8.4577],[3.6418,8.4695],[3.5936,8.4926],[3.5913,8.4981],[3.5787,8.5126],[3.5754,8.5195],[3.5836,8.5548],[3.5394,8.5769],[3.5321,8.5859],[3.5,8.5674],[3.4712,8.5596],[3.464,8.5593],[3.443,8.5514],[3.4327,8.5693],[3.4166,8.5694],[3.3901,8.5807],[3.379,8.5809],[3.3613,8.5848],[3.3566,8.5809],[3.3239,8.5801],[3.3251,8.5751],[3.3609,8.5508],[3.342,8.5369],[3.3351,8.5227],[3.3103,8.5354],[3.2748,8.5343],[3.2614,8.5219],[3.2359,8.5223],[3.2344,8.5203],[3.2207,8.5159],[3.2133,8.5076],[3.2113,8.4845],[3.1931,8.481],[3.1989,8.4441],[3.1971,8.4435],[3.1878,8.4489],[3.1661,8.4518],[3.1547,8.4422],[3.1454,8.4404],[3.1319,8.4475],[3.1133,8.4616],[3.0923,8.4832],[3.0588,8.4947],[3.0528,8.5019],[3.0103,8.5023],[2.9929,8.508],[2.9646,8.5077],[2.9579,8.509],[2.9008,8.4942],[2.8847,8.4818],[2.8196,8.4676],[2.7711,8.4355],[2.7247,8.4314],[2.7208,8.4244],[2.7103,8.3519],[2.7092,8.3389],[2.71,8.3264],[2.7281,8.2567],[2.7428,8.2369],[2.7464,8.2287],[2.8702,8.2594]]]}},{"type":"Feature","properties":{"name":"Egbeda","state":"Oyo","scode":"OY","centroid":[7.3931,4.0571]},"geometry":{"type":"MultiPolygon","coordinates":[[[[3.9538,7.4174],[3.9602,7.4135],[3.959,7.4126],[3.9595,7.4096],[3.9668,7.4099],[3.9695,7.412],[3.9698,7.4146],[3.9665,7.4168],[3.9631,7.4251],[3.958,7.4226],[3.9538,7.4174]]],[[[4.1353,7.4031],[4.1414,7.4397],[4.137,7.4462],[4.1371,7.4591],[4.1293,7.4566],[4.1181,7.4603],[4.1035,7.4608],[4.0976,7.45],[4.094,7.4338],[4.0795,7.4368],[4.057,7.4298],[4.054,7.4306],[4.0501,7.4505],[4.0515,7.4627],[4.0548,7.4665],[4.0544,7.4714],[4.0395,7.478],[4.026,7.4871],[4.0183,7.4861],[4.0119,7.4791],[4.0161,7.473],[4.015,7.465],[4.0194,7.4582],[4.0223,7.4569],[4.0253,7.4528],[4.0232,7.4491],[4.0316,7.4447],[4.0248,7.4374],[4.0234,7.4318],[4.0207,7.4286],[4.0139,7.4267],[4.0135,7.4252],[4.0057,7.4236],[4.0089,7.4164],[4.0007,7.4125],[4.0,7.4107],[3.9938,7.4121],[3.9886,7.4102],[3.9854,7.4126],[3.9837,7.4118],[3.9811,7.4145],[3.975,7.4096],[3.9734,7.4062],[3.9691,7.4066],[3.9665,7.4035],[3.9568,7.4007],[3.9551,7.3946],[3.9531,7.3957],[3.9514,7.3924],[3.9482,7.394],[3.9473,7.3919],[3.9442,7.391],[3.9432,7.3922],[3.9443,7.3939],[3.9464,7.3936],[3.9471,7.3948],[3.9458,7.3956],[3.9492,7.396],[3.9507,7.3979],[3.9438,7.4036],[3.9412,7.4002],[3.9366,7.4008],[3.9347,7.3988],[3.9332,7.3995],[3.9279,7.3926],[3.9316,7.3865],[3.9343,7.3855],[3.9392,7.3785],[3.9456,7.3782],[3.9577,7.3699],[3.9589,7.3629],[3.9563,7.3595],[3.9547,7.3534],[3.9617,7.3569],[3.9721,7.3527],[3.9803,7.3622],[3.9872,7.3551],[3.9879,7.3511],[3.9936,7.3501],[4.0,7.3462],[4.0046,7.3466],[4.0054,7.3535],[4.0116,7.3583],[4.0195,7.3557],[4.0354,7.3588],[4.0481,7.3552],[4.0603,7.3481],[4.0727,7.3598],[4.1026,7.3446],[4.085,7.3312],[4.0775,7.3223],[4.0724,7.3041],[4.0901,7.2939],[4.1257,7.3118],[4.1208,7.3183],[4.1109,7.3269],[4.1128,7.3319],[4.1205,7.3353],[4.1211,7.3402],[4.119,7.3435],[4.1192,7.3485],[4.1231,7.3518],[4.127,7.352],[4.1317,7.3583],[4.134,7.3677],[4.1353,7.4031]]]]}},{"type":"Feature","properties":{"name":"Ibadan North","state":"Oyo","scode":"OY","centroid":[7.4241,3.9036]},"geometry":{"type":"Polygon","coordinates":[[[3.9366,7.4231],[3.9324,7.4365],[3.925,7.44],[3.9217,7.444],[3.9209,7.4515],[3.9119,7.4511],[3.9071,7.4544],[3.9059,7.4646],[3.8858,7.4542],[3.881,7.4531],[3.8793,7.446],[3.8766,7.4452],[3.877,7.4393],[3.88,7.4391],[3.88,7.4346],[3.8743,7.4345],[3.8658,7.432],[3.8653,7.4254],[3.8757,7.4246],[3.8795,7.4213],[3.8776,7.4203],[3.88,7.4149],[3.8876,7.4095],[3.8872,7.4047],[3.8837,7.4031],[3.8824,7.3986],[3.8857,7.3995],[3.8868,7.3961],[3.8897,7.4],[3.8912,7.3978],[3.8912,7.3929],[3.8942,7.3879],[3.8934,7.3851],[3.8978,7.3849],[3.897,7.3815],[3.8989,7.3794],[3.9091,7.3899],[3.92,7.3964],[3.9263,7.4039],[3.9337,7.4164],[3.936,7.4162],[3.9402,7.4195],[3.9366,7.4231]]]}},{"type":"Feature","properties":{"name":"Ibadan North East","state":"Oyo","scode":"OY","centroid":[7.377,3.9249]},"geometry":{"type":"Polygon","coordinates":[[[3.9402,7.4195],[3.936,7.4162],[3.9337,7.4164],[3.9263,7.4039],[3.92,7.3964],[3.9091,7.3899],[3.8989,7.3794],[3.8995,7.3764],[3.9051,7.3713],[3.9099,7.3729],[3.9131,7.3704],[3.917,7.3711],[3.9195,7.367],[3.9261,7.3641],[3.9199,7.3531],[3.9185,7.3458],[3.9098,7.3424],[3.911,7.3395],[3.9137,7.3387],[3.9146,7.3367],[3.9176,7.3369],[3.9207,7.3393],[3.926,7.3375],[3.929,7.3435],[3.9281,7.3448],[3.9297,7.3447],[3.9342,7.3485],[3.9328,7.3521],[3.9355,7.3544],[3.9375,7.3541],[3.9402,7.3585],[3.9389,7.3594],[3.9405,7.3614],[3.9367,7.3657],[3.9377,7.3717],[3.9399,7.3727],[3.9376,7.377],[3.9392,7.3785],[3.9343,7.3855],[3.9316,7.3865],[3.9279,7.3926],[3.9332,7.3995],[3.9347,7.3988],[3.9366,7.4008],[3.9412,7.4002],[3.9438,7.4036],[3.9427,7.4147],[3.9402,7.4195]]]}},{"type":"Feature","properties":{"name":"Ibadan North West","state":"Oyo","scode":"OY","centroid":[7.4109,3.8574]},"geometry":{"type":"Polygon","coordinates":[[[3.8653,7.4254],[3.8592,7.4232],[3.8525,7.4405],[3.8399,7.4367],[3.8367,7.437],[3.8334,7.4402],[3.8288,7.4397],[3.8247,7.4369],[3.816,7.4365],[3.8189,7.4316],[3.824,7.4284],[3.8243,7.4094],[3.8279,7.4081],[3.829,7.4103],[3.8331,7.411],[3.8342,7.4094],[3.8359,7.4112],[3.8454,7.406],[3.8491,7.4067],[3.8496,7.3959],[3.8454,7.3903],[3.8503,7.3881],[3.8541,7.3836],[3.8675,7.388],[3.8709,7.3862],[3.8724,7.3832],[3.8775,7.3887],[3.8811,7.3849],[3.8854,7.3847],[3.8916,7.3773],[3.8989,7.3794],[3.897,7.3815],[3.8978,7.3849],[3.8934,7.3851],[3.8942,7.3879],[3.8912,7.3929],[3.8912,7.3978],[3.8897,7.4],[3.8868,7.3961],[3.8857,7.3995],[3.8824,7.3986],[3.8837,7.4031],[3.8872,7.4047],[3.8876,7.4095],[3.88,7.4149],[3.8776,7.4203],[3.8795,7.4213],[3.8757,7.4246],[3.8653,7.4254]]]}},{"type":"Feature","properties":{"name":"Ibadan South East","state":"Oyo","scode":"OY","centroid":[7.3528,3.8988]},"geometry":{"type":"Polygon","coordinates":[[[3.8989,7.3794],[3.8916,7.3773],[3.8913,7.3744],[3.8957,7.3741],[3.8952,7.3662],[3.8885,7.3576],[3.8811,7.3514],[3.8775,7.3454],[3.871,7.3402],[3.8681,7.3317],[3.8752,7.3301],[3.8776,7.333],[3.8852,7.3336],[3.8939,7.3372],[3.9023,7.3385],[3.9098,7.3424],[3.9185,7.3458],[3.9199,7.3531],[3.9261,7.3641],[3.9195,7.367],[3.917,7.3711],[3.9131,7.3704],[3.9099,7.3729],[3.9051,7.3713],[3.8995,7.3764],[3.8989,7.3794]]]}},{"type":"Feature","properties":{"name":"Ibadan South West","state":"Oyo","scode":"OY","centroid":[7.3641,3.8661]},"geometry":{"type":"Polygon","coordinates":[[[3.871,7.3402],[3.8775,7.3454],[3.8811,7.3514],[3.8885,7.3576],[3.8952,7.3662],[3.8957,7.3741],[3.8913,7.3744],[3.8916,7.3773],[3.8854,7.3847],[3.8811,7.3849],[3.8775,7.3887],[3.8724,7.3832],[3.8709,7.3862],[3.8675,7.388],[3.8541,7.3836],[3.8545,7.3805],[3.8529,7.379],[3.8507,7.381],[3.8477,7.3801],[3.8473,7.3775],[3.8389,7.3775],[3.8383,7.3735],[3.8403,7.3706],[3.8403,7.3654],[3.8422,7.3648],[3.8414,7.3574],[3.8462,7.3555],[3.8422,7.3501],[3.8486,7.3452],[3.8555,7.3363],[3.871,7.3402]]]}},{"type":"Feature","properties":{"name":"Ibarapa Central","state":"Oyo","scode":"OY","centroid":[7.4265,3.2592]},"geometry":{"type":"Polygon","coordinates":[[[3.075,7.4529],[3.0826,7.439],[3.0907,7.4367],[3.0982,7.4309],[3.1073,7.4162],[3.1153,7.4081],[3.1404,7.3956],[3.1553,7.3782],[3.1694,7.3732],[3.183,7.37],[3.1981,7.3688],[3.23,7.3699],[3.2491,7.3675],[3.2566,7.3634],[3.2572,7.3605],[3.2825,7.3355],[3.287,7.3245],[3.2916,7.321],[3.3066,7.314],[3.324,7.3152],[3.3329,7.3342],[3.3435,7.3493],[3.35,7.3632],[3.3594,7.3741],[3.3758,7.3868],[3.3805,7.3961],[3.3858,7.4013],[3.3859,7.4048],[3.3813,7.4158],[3.3843,7.421],[3.3814,7.4262],[3.3815,7.4308],[3.385,7.4355],[3.3961,7.4406],[3.3986,7.4437],[3.3883,7.4548],[3.3815,7.4705],[3.3724,7.4811],[3.3755,7.4978],[3.3412,7.501],[3.3234,7.4875],[3.3135,7.477],[3.2948,7.4786],[3.2836,7.4821],[3.2848,7.5071],[3.2468,7.5057],[3.2447,7.5137],[3.2136,7.5245],[3.2119,7.5283],[3.1945,7.5303],[3.1855,7.52],[3.1907,7.4921],[3.1847,7.4852],[3.1832,7.4769],[3.1849,7.4697],[3.1567,7.457],[3.1383,7.4453],[3.1291,7.4423],[3.1062,7.4616],[3.075,7.4529]]]}},{"type":"Feature","properties":{"name":"Ibarapa East","state":"Oyo","scode":"OY","centroid":[7.5879,3.4899]},"geometry":{"type":"Polygon","coordinates":[[[3.3412,7.501],[3.3755,7.4978],[3.3724,7.4811],[3.3815,7.4705],[3.3883,7.4548],[3.3986,7.4437],[3.4002,7.4493],[3.3931,7.4558],[3.3957,7.4592],[3.4424,7.4921],[3.4535,7.4949],[3.4522,7.4862],[3.4666,7.4711],[3.4636,7.4607],[3.4606,7.4573],[3.4594,7.4497],[3.4715,7.4387],[3.4829,7.4172],[3.481,7.4068],[3.4734,7.3964],[3.4727,7.3912],[3.4744,7.3889],[3.4791,7.3894],[3.4838,7.3923],[3.4977,7.3946],[3.5223,7.4154],[3.5247,7.4206],[3.5323,7.4264],[3.5405,7.4397],[3.5458,7.4408],[3.5406,7.4502],[3.5465,7.4553],[3.5465,7.4617],[3.5492,7.4721],[3.5476,7.4792],[3.5497,7.4815],[3.5636,7.4882],[3.5681,7.496],[3.5711,7.4979],[3.5778,7.4985],[3.5757,7.5051],[3.578,7.5135],[3.611,7.5827],[3.6086,7.6],[3.6133,7.6056],[3.5887,7.6818],[3.5952,7.694],[3.6314,7.7101],[3.6057,7.7425],[3.6087,7.7724],[3.5958,7.7864],[3.5779,7.7953],[3.5425,7.741],[3.5443,7.7117],[3.5389,7.7039],[3.5237,7.7034],[3.5076,7.6967],[3.4909,7.7162],[3.4813,7.7203],[3.4719,7.7192],[3.4676,7.7161],[3.4528,7.6945],[3.4379,7.6881],[3.4195,7.6762],[3.4139,7.6578],[3.411,7.6578],[3.3984,7.6647],[3.3903,7.6645],[3.3694,7.6447],[3.3566,7.6407],[3.3476,7.6205],[3.3523,7.5899],[3.353,7.5747],[3.3578,7.5566],[3.357,7.5537],[3.3598,7.548],[3.3464,7.5381],[3.3373,7.5241],[3.3389,7.5218],[3.3412,7.501]]]}},{"type":"Feature","properties":{"name":"Ibarapa North","state":"Oyo","scode":"OY","centroid":[7.6451,3.1624]},"geometry":{"type":"Polygon","coordinates":[[[3.0327,7.7957],[3.0298,7.7919],[3.0248,7.7903],[3.0227,7.7806],[3.0252,7.7777],[3.0257,7.769],[3.0239,7.7635],[3.027,7.7591],[3.0298,7.7585],[3.0299,7.7557],[3.0235,7.7518],[3.0218,7.7489],[3.0221,7.7441],[3.0159,7.7355],[3.0177,7.7307],[3.017,7.7258],[3.0055,7.7117],[3.0072,7.7088],[3.0139,7.7037],[3.0118,7.7019],[3.0013,7.7001],[2.9967,7.6978],[2.9987,7.694],[3.0033,7.6911],[2.9934,7.6878],[2.9892,7.6821],[2.9937,7.6818],[2.9965,7.6801],[2.9958,7.6765],[2.9923,7.6745],[2.997,7.6706],[2.9971,7.6667],[3.001,7.662],[2.9983,7.6414],[2.994,7.629],[2.9906,7.6247],[2.9804,7.621],[2.9727,7.6117],[2.9732,7.6062],[2.9768,7.6023],[2.9845,7.5852],[3.004,7.5622],[3.0068,7.5558],[3.0207,7.5529],[3.0222,7.5464],[3.0303,7.544],[3.0428,7.5279],[3.0526,7.5215],[3.0645,7.5198],[3.069,7.5076],[3.0736,7.5024],[3.0769,7.4913],[3.0692,7.4757],[3.0692,7.4705],[3.0732,7.463],[3.075,7.4529],[3.1062,7.4616],[3.1291,7.4423],[3.1383,7.4453],[3.1567,7.457],[3.1849,7.4697],[3.1832,7.4769],[3.1847,7.4852],[3.1907,7.4921],[3.1855,7.52],[3.1945,7.5303],[3.2119,7.5283],[3.2136,7.5245],[3.2447,7.5137],[3.2468,7.5057],[3.2848,7.5071],[3.2836,7.4821],[3.2948,7.4786],[3.3135,7.477],[3.3234,7.4875],[3.3412,7.501],[3.3389,7.5218],[3.3373,7.5241],[3.3464,7.5381],[3.3598,7.548],[3.357,7.5537],[3.3578,7.5566],[3.353,7.5747],[3.3523,7.5899],[3.3476,7.6205],[3.3566,7.6407],[3.3497,7.6598],[3.3229,7.699],[3.3209,7.7179],[3.2926,7.7219],[3.2753,7.7316],[3.2823,7.7804],[3.2603,7.7772],[3.2442,7.7721],[3.1835,7.7874],[3.1731,7.8048],[3.1611,7.808],[3.1356,7.8086],[3.1346,7.8124],[3.1415,7.8437],[3.1444,7.8501],[3.1404,7.8538],[3.1248,7.8611],[3.1154,7.8578],[3.1045,7.8591],[3.0951,7.8642],[3.0838,7.8747],[3.0645,7.8732],[3.0486,7.8682],[3.0528,7.8489],[3.0454,7.8477],[3.041,7.8364],[3.0471,7.8319],[3.0482,7.8152],[3.0397,7.8097],[3.0387,7.802],[3.0327,7.7957]]]}},{"type":"Feature","properties":{"name":"Ido","state":"Oyo","scode":"OY","centroid":[7.4844,3.7254]},"geometry":{"type":"Polygon","coordinates":[[[3.5458,7.4408],[3.6572,7.4434],[3.6653,7.4451],[3.6827,7.4451],[3.7071,7.4473],[3.7067,7.4115],[3.7022,7.4096],[3.6935,7.4001],[3.6935,7.388],[3.7198,7.3874],[3.7175,7.328],[3.7143,7.3048],[3.7155,7.3025],[3.7184,7.3013],[3.7363,7.3007],[3.747,7.3089],[3.7532,7.3094],[3.7715,7.3171],[3.7857,7.3268],[3.7892,7.332],[3.7968,7.335],[3.8019,7.3388],[3.813,7.3403],[3.817,7.3383],[3.8239,7.3312],[3.8265,7.3306],[3.8318,7.333],[3.8385,7.3303],[3.8383,7.3375],[3.8412,7.338],[3.8408,7.341],[3.8368,7.347],[3.8354,7.3534],[3.8407,7.3554],[3.8414,7.3574],[3.8422,7.3648],[3.8403,7.3654],[3.8403,7.3706],[3.8383,7.3735],[3.8389,7.3775],[3.8473,7.3775],[3.8477,7.3801],[3.8507,7.381],[3.8529,7.379],[3.8545,7.3805],[3.8541,7.3836],[3.8503,7.3881],[3.8454,7.3903],[3.8496,7.3959],[3.8491,7.4067],[3.8454,7.406],[3.8359,7.4112],[3.8342,7.4094],[3.8331,7.411],[3.829,7.4103],[3.8279,7.4081],[3.8243,7.4094],[3.824,7.4284],[3.8189,7.4316],[3.816,7.4365],[3.8247,7.4369],[3.8288,7.4397],[3.8334,7.4402],[3.8367,7.437],[3.8399,7.4367],[3.8525,7.4405],[3.8592,7.4232],[3.8653,7.4254],[3.8658,7.432],[3.8743,7.4345],[3.88,7.4346],[3.88,7.4391],[3.877,7.4393],[3.8766,7.4452],[3.8793,7.446],[3.881,7.4531],[3.8858,7.4542],[3.8829,7.4641],[3.8845,7.4799],[3.8908,7.4814],[3.8867,7.4923],[3.8677,7.5019],[3.8625,7.5059],[3.8532,7.5065],[3.8474,7.5087],[3.8344,7.5258],[3.8267,7.5328],[3.8206,7.5354],[3.8151,7.5512],[3.7937,7.5573],[3.7705,7.599],[3.7671,7.6083],[3.7425,7.6222],[3.7245,7.6282],[3.7039,7.6421],[3.7042,7.6454],[3.695,7.6512],[3.6849,7.6441],[3.6133,7.6056],[3.6086,7.6],[3.611,7.5827],[3.578,7.5135],[3.5757,7.5051],[3.5778,7.4985],[3.5711,7.4979],[3.5681,7.496],[3.5636,7.4882],[3.5497,7.4815],[3.5476,7.4792],[3.5492,7.4721],[3.5465,7.4617],[3.5465,7.4553],[3.5406,7.4502],[3.5458,7.4408]]]}},{"type":"Feature","properties":{"name":"Irepo","state":"Oyo","scode":"OY","centroid":[9.0164,3.9273]},"geometry":{"type":"Polygon","coordinates":[[[3.6915,8.9966],[3.7025,8.9826],[3.7174,8.9692],[3.7697,8.9696],[3.7759,8.9656],[3.8018,8.9663],[3.8315,8.9726],[3.8411,8.9774],[3.8771,8.9524],[3.8837,8.9163],[3.9373,8.8827],[3.9772,8.8755],[4.0569,8.8861],[4.1268,8.9058],[4.173,8.9264],[4.1907,8.9481],[4.2035,8.9599],[4.2105,8.97],[4.0121,9.0346],[3.9906,9.0484],[3.9721,9.0776],[3.9444,9.1483],[3.9214,9.1729],[3.863,9.1883],[3.8261,9.1822],[3.7953,9.1653],[3.7707,9.1468],[3.7538,9.1207],[3.7523,9.0869],[3.7431,9.0469],[3.7204,9.016],[3.6915,8.9966]]]}},{"type":"Feature","properties":{"name":"Iseyin","state":"Oyo","scode":"OY","centroid":[7.9866,3.6006]},"geometry":{"type":"Polygon","coordinates":[[[3.2823,7.7804],[3.2753,7.7316],[3.2926,7.7219],[3.3209,7.7179],[3.3229,7.699],[3.3497,7.6598],[3.3566,7.6407],[3.3694,7.6447],[3.3903,7.6645],[3.3984,7.6647],[3.411,7.6578],[3.4139,7.6578],[3.4195,7.6762],[3.4379,7.6881],[3.4528,7.6945],[3.4676,7.7161],[3.4719,7.7192],[3.4813,7.7203],[3.4909,7.7162],[3.5076,7.6967],[3.5237,7.7034],[3.5389,7.7039],[3.5443,7.7117],[3.5425,7.741],[3.5779,7.7953],[3.5958,7.7864],[3.6087,7.7724],[3.6057,7.7425],[3.6314,7.7101],[3.6838,7.6963],[3.7137,7.7622],[3.7199,7.7679],[3.7329,7.8013],[3.7318,7.8263],[3.7344,7.8383],[3.7439,7.8507],[3.7469,7.8604],[3.7446,7.875],[3.7471,7.8859],[3.7325,7.9116],[3.7325,7.9197],[3.7297,7.9313],[3.7139,7.9585],[3.7156,7.9748],[3.7123,7.9817],[3.7251,8.0056],[3.7419,8.0214],[3.7362,8.0407],[3.7374,8.0456],[3.7365,8.0661],[3.7619,8.0917],[3.7655,8.0934],[3.7854,8.119],[3.8101,8.1398],[3.8169,8.174],[3.8334,8.1941],[3.8531,8.223],[3.8576,8.286],[3.8567,8.3271],[3.797,8.3422],[3.6877,8.4056],[3.6594,8.3154],[3.6277,8.3068],[3.6295,8.3023],[3.6272,8.2609],[3.6129,8.2367],[3.5968,8.2202],[3.5918,8.2122],[3.591,8.2059],[3.5932,8.1989],[3.5932,8.1876],[3.6042,8.1802],[3.6026,8.1687],[3.596,8.1592],[3.5934,8.1513],[3.5938,8.1375],[3.5875,8.1178],[3.5717,8.1066],[3.575,8.0925],[3.5566,8.0851],[3.5527,8.0807],[3.5306,8.0767],[3.5206,8.0953],[3.5016,8.0869],[3.4654,8.0964],[3.4597,8.0865],[3.4598,8.0791],[3.4682,8.0609],[3.4658,8.0545],[3.458,8.0499],[3.456,8.0387],[3.4599,8.0099],[3.4595,8.0004],[3.4642,7.9967],[3.465,7.9676],[3.4523,7.9548],[3.451,7.9369],[3.4416,7.9217],[3.441,7.9136],[3.4309,7.9053],[3.425,7.8961],[3.4108,7.894],[3.4086,7.8834],[3.3944,7.875],[3.3933,7.8701],[3.3848,7.8638],[3.3676,7.8341],[3.353,7.836],[3.3398,7.81],[3.3201,7.8039],[3.3096,7.8118],[3.2955,7.8127],[3.2818,7.8159],[3.2823,7.7804]]]}},{"type":"Feature","properties":{"name":"Itesiwaju","state":"Oyo","scode":"OY","centroid":[8.2492,3.3284]},"geometry":{"type":"Polygon","coordinates":[[[3.2298,8.0705],[3.2476,8.0814],[3.2614,8.0926],[3.2765,8.1167],[3.2967,8.1436],[3.2976,8.1582],[3.2898,8.1699],[3.2924,8.1912],[3.3098,8.2016],[3.3146,8.1981],[3.3412,8.204],[3.35,8.1931],[3.3555,8.1926],[3.359,8.1869],[3.3607,8.1768],[3.3739,8.1729],[3.3768,8.1695],[3.3871,8.1766],[3.3939,8.1685],[3.4202,8.1615],[3.4297,8.1488],[3.4249,8.1378],[3.4264,8.1164],[3.4236,8.1092],[3.4131,8.1019],[3.4121,8.0986],[3.4176,8.0881],[3.4145,8.0871],[3.4138,8.083],[3.4145,8.0819],[3.418,8.0829],[3.427,8.0738],[3.425,8.068],[3.458,8.0499],[3.4658,8.0545],[3.4682,8.0609],[3.4598,8.0791],[3.4597,8.0865],[3.4654,8.0964],[3.5016,8.0869],[3.5206,8.0953],[3.5306,8.0767],[3.5527,8.0807],[3.5566,8.0851],[3.575,8.0925],[3.5717,8.1066],[3.5875,8.1178],[3.5938,8.1375],[3.5934,8.1513],[3.596,8.1592],[3.6026,8.1687],[3.6042,8.1802],[3.5932,8.1876],[3.5932,8.1989],[3.591,8.2059],[3.5918,8.2122],[3.5968,8.2202],[3.6129,8.2367],[3.6272,8.2609],[3.6295,8.3023],[3.6277,8.3068],[3.6594,8.3154],[3.6877,8.4056],[3.684,8.4099],[3.6673,8.4074],[3.653,8.4078],[3.5587,8.3972],[3.5478,8.3977],[3.5334,8.383],[3.4777,8.3618],[3.4724,8.3572],[3.4788,8.3341],[3.4332,8.3198],[3.4135,8.3184],[3.3949,8.3227],[3.3833,8.3206],[3.3761,8.3133],[3.3614,8.3094],[3.3507,8.3178],[3.3249,8.3281],[3.2958,8.3437],[3.2899,8.3507],[3.2806,8.3573],[3.2688,8.351],[3.2516,8.3706],[3.228,8.3746],[3.1954,8.3764],[3.1725,8.3694],[3.1839,8.3401],[3.1767,8.3334],[3.1609,8.3334],[3.1326,8.3253],[3.0904,8.3166],[3.0667,8.3155],[2.9821,8.3304],[2.9582,8.349],[2.9285,8.3527],[2.8952,8.3397],[2.8679,8.3123],[2.8702,8.2594],[2.8967,8.2457],[2.9146,8.2535],[2.9601,8.2618],[3.0012,8.2377],[3.0273,8.2194],[3.0402,8.2162],[3.0739,8.2127],[3.102,8.2118],[3.1154,8.2128],[3.1141,8.1936],[3.1174,8.1799],[3.1383,8.1806],[3.1534,8.19],[3.1658,8.1951],[3.181,8.1903],[3.1825,8.1725],[3.1543,8.1651],[3.1338,8.1547],[3.135,8.1338],[3.1651,8.1245],[3.2016,8.1201],[3.207,8.1125],[3.1868,8.0809],[3.1978,8.0767],[3.2106,8.0874],[3.2194,8.0888],[3.2298,8.0705]]]}},{"type":"Feature","properties":{"name":"Iwajowa","state":"Oyo","scode":"OY","centroid":[8.0113,2.9967]},"geometry":{"type":"Polygon","coordinates":[[[3.353,7.836],[3.337,7.8313],[3.3368,7.8362],[3.3273,7.8373],[3.3239,7.8411],[3.3241,7.8509],[3.3183,7.866],[3.3108,7.8755],[3.3036,7.8726],[3.303,7.8953],[3.29,7.9081],[3.2926,7.9187],[3.2993,7.9221],[3.3029,7.93],[3.2972,7.9359],[3.2759,7.9392],[3.2739,7.948],[3.2706,7.9515],[3.2881,7.9608],[3.2948,7.9713],[3.2937,7.9832],[3.2878,7.9948],[3.249,8.0189],[3.2511,8.0242],[3.2643,8.0283],[3.2595,8.0389],[3.2545,8.0402],[3.2441,8.0363],[3.2395,8.0523],[3.2274,8.0578],[3.2298,8.0705],[3.2194,8.0888],[3.2106,8.0874],[3.1978,8.0767],[3.1868,8.0809],[3.207,8.1125],[3.2016,8.1201],[3.1651,8.1245],[3.135,8.1338],[3.1338,8.1547],[3.1543,8.1651],[3.1825,8.1725],[3.181,8.1903],[3.1658,8.1951],[3.1534,8.19],[3.1383,8.1806],[3.1174,8.1799],[3.1141,8.1936],[3.1154,8.2128],[3.102,8.2118],[3.0739,8.2127],[3.0402,8.2162],[3.0273,8.2194],[3.0012,8.2377],[2.9601,8.2618],[2.9146,8.2535],[2.8967,8.2457],[2.8702,8.2594],[2.7464,8.2287],[2.7511,8.2181],[2.7536,8.2069],[2.7414,8.1561],[2.7275,8.1083],[2.7089,8.0081],[2.6926,7.9063],[2.6953,7.8824],[2.7029,7.865],[2.7125,7.852],[2.7219,7.8593],[2.7302,7.8685],[2.7398,7.8752],[2.7491,7.887],[2.7704,7.9034],[2.7767,7.905],[2.7853,7.9132],[2.7909,7.9225],[2.7926,7.9282],[2.7939,7.9423],[2.8017,7.9486],[2.8163,7.9523],[2.8216,7.951],[2.825,7.9481],[2.8333,7.9374],[2.8395,7.9335],[2.8441,7.9337],[2.8487,7.931],[2.8543,7.9315],[2.8783,7.9263],[2.8945,7.9299],[2.9058,7.9299],[2.9102,7.9316],[2.925,7.9304],[2.9308,7.9278],[2.9282,7.9242],[2.9199,7.9215],[2.9072,7.9133],[2.8947,7.9019],[2.8881,7.89],[2.8862,7.8743],[2.8809,7.8575],[2.8827,7.8341],[2.8863,7.8251],[2.8863,7.8024],[2.8876,7.7916],[2.885,7.7778],[2.8861,7.769],[2.8963,7.7627],[2.9076,7.7593],[2.9148,7.7592],[2.9188,7.7554],[2.9211,7.7497],[2.9192,7.7418],[2.92,7.7298],[2.9171,7.721],[2.9202,7.7078],[2.9325,7.7145],[2.9375,7.7204],[2.9441,7.7243],[2.9486,7.7317],[2.9556,7.7372],[2.9612,7.7442],[2.9636,7.7549],[2.969,7.7661],[2.9699,7.7779],[2.9818,7.8074],[2.9832,7.8162],[2.9822,7.8281],[2.9854,7.8459],[2.9849,7.8498],[2.9872,7.8551],[2.9884,7.8558],[2.9918,7.8542],[3.0061,7.8317],[3.0115,7.8304],[3.0284,7.8054],[3.0327,7.7957],[3.0387,7.802],[3.0397,7.8097],[3.0482,7.8152],[3.0471,7.8319],[3.041,7.8364],[3.0454,7.8477],[3.0528,7.8489],[3.0486,7.8682],[3.0645,7.8732],[3.0838,7.8747],[3.0951,7.8642],[3.1045,7.8591],[3.1154,7.8578],[3.1248,7.8611],[3.1404,7.8538],[3.1444,7.8501],[3.1415,7.8437],[3.1346,7.8124],[3.1356,7.8086],[3.1611,7.808],[3.1731,7.8048],[3.1835,7.7874],[3.2442,7.7721],[3.2603,7.7772],[3.2823,7.7804],[3.2818,7.8159],[3.2955,7.8127],[3.3096,7.8118],[3.3201,7.8039],[3.3398,7.81],[3.353,7.836]]]}},{"type":"Feature","properties":{"name":"Kajola","state":"Oyo","scode":"OY","centroid":[8.022,3.3556]},"geometry":{"type":"Polygon","coordinates":[[[3.353,7.836],[3.3676,7.8341],[3.3848,7.8638],[3.3933,7.8701],[3.3944,7.875],[3.4086,7.8834],[3.4108,7.894],[3.425,7.8961],[3.4309,7.9053],[3.441,7.9136],[3.4416,7.9217],[3.451,7.9369],[3.4523,7.9548],[3.465,7.9676],[3.4642,7.9967],[3.4595,8.0004],[3.4599,8.0099],[3.456,8.0387],[3.458,8.0499],[3.425,8.068],[3.427,8.0738],[3.418,8.0829],[3.4145,8.0819],[3.4138,8.083],[3.4145,8.0871],[3.4176,8.0881],[3.4121,8.0986],[3.4131,8.1019],[3.4236,8.1092],[3.4264,8.1164],[3.4249,8.1378],[3.4297,8.1488],[3.4202,8.1615],[3.3939,8.1685],[3.3871,8.1766],[3.3768,8.1695],[3.3739,8.1729],[3.3607,8.1768],[3.359,8.1869],[3.3555,8.1926],[3.35,8.1931],[3.3412,8.204],[3.3146,8.1981],[3.3098,8.2016],[3.2924,8.1912],[3.2898,8.1699],[3.2976,8.1582],[3.2967,8.1436],[3.2765,8.1167],[3.2614,8.0926],[3.2476,8.0814],[3.2298,8.0705],[3.2274,8.0578],[3.2395,8.0523],[3.2441,8.0363],[3.2545,8.0402],[3.2595,8.0389],[3.2643,8.0283],[3.2511,8.0242],[3.249,8.0189],[3.2878,7.9948],[3.2937,7.9832],[3.2948,7.9713],[3.2881,7.9608],[3.2706,7.9515],[3.2739,7.948],[3.2759,7.9392],[3.2972,7.9359],[3.3029,7.93],[3.2993,7.9221],[3.2926,7.9187],[3.29,7.9081],[3.303,7.8953],[3.3036,7.8726],[3.3108,7.8755],[3.3183,7.866],[3.3241,7.8509],[3.3239,7.8411],[3.3273,7.8373],[3.3368,7.8362],[3.337,7.8313],[3.353,7.836]]]}},{"type":"Feature","properties":{"name":"Lagelu","state":"Oyo","scode":"OY","centroid":[7.5225,4.0512]},"geometry":{"type":"Polygon","coordinates":[[[4.149,7.4775],[4.1499,7.4928],[4.1554,7.5092],[4.1533,7.5164],[4.1543,7.5396],[4.153,7.5572],[4.1543,7.5654],[4.1538,7.5687],[4.1486,7.5694],[4.1471,7.5722],[4.1442,7.5791],[4.1448,7.5871],[4.1416,7.5932],[4.1387,7.5987],[4.1217,7.6102],[4.1102,7.6123],[4.0934,7.6215],[4.0758,7.653],[4.0631,7.6511],[4.0447,7.6302],[4.0236,7.6168],[4.009,7.6162],[3.9912,7.5975],[3.986,7.5949],[3.9768,7.5607],[3.9819,7.5564],[3.9913,7.5378],[4.0148,7.5313],[4.0088,7.5192],[4.0054,7.5157],[3.9989,7.5135],[3.9877,7.5136],[3.9855,7.52],[3.9788,7.519],[3.9777,7.5211],[3.9696,7.5224],[3.9658,7.5201],[3.962,7.5151],[3.9635,7.5105],[3.9767,7.508],[3.9816,7.4998],[3.9814,7.4923],[3.9788,7.4916],[3.9742,7.4932],[3.9687,7.4968],[3.961,7.4939],[3.9541,7.4974],[3.9481,7.4968],[3.9474,7.4804],[3.943,7.4713],[3.9345,7.4628],[3.9295,7.4485],[3.9317,7.4439],[3.938,7.4408],[3.9384,7.4379],[3.9373,7.4365],[3.9383,7.4357],[3.9365,7.4328],[3.9372,7.4296],[3.9394,7.4287],[3.9366,7.4231],[3.9402,7.4195],[3.9427,7.4147],[3.9438,7.4036],[3.9507,7.3979],[3.9492,7.396],[3.9458,7.3956],[3.9471,7.3948],[3.9464,7.3936],[3.9443,7.3939],[3.9432,7.3922],[3.9442,7.391],[3.9473,7.3919],[3.9482,7.394],[3.9514,7.3924],[3.9531,7.3957],[3.9551,7.3946],[3.9568,7.4007],[3.9665,7.4035],[3.9691,7.4066],[3.9734,7.4062],[3.975,7.4096],[3.9811,7.4145],[3.9837,7.4118],[3.9854,7.4126],[3.9886,7.4102],[3.9938,7.4121],[4.0,7.4107],[4.0007,7.4125],[4.0089,7.4164],[4.0057,7.4236],[4.0135,7.4252],[4.0139,7.4267],[4.0207,7.4286],[4.0234,7.4318],[4.0248,7.4374],[4.0316,7.4447],[4.0232,7.4491],[4.0253,7.4528],[4.0223,7.4569],[4.0194,7.4582],[4.015,7.465],[4.0161,7.473],[4.0119,7.4791],[4.0183,7.4861],[4.026,7.4871],[4.0395,7.478],[4.0544,7.4714],[4.0548,7.4665],[4.0515,7.4627],[4.0501,7.4505],[4.054,7.4306],[4.057,7.4298],[4.0795,7.4368],[4.094,7.4338],[4.0976,7.45],[4.1035,7.4608],[4.1181,7.4603],[4.1293,7.4566],[4.1371,7.4591],[4.1338,7.4647],[4.1355,7.4708],[4.149,7.4775]],[[3.9538,7.4174],[3.958,7.4226],[3.9631,7.4251],[3.9665,7.4168],[3.9698,7.4146],[3.9695,7.412],[3.9668,7.4099],[3.9595,7.4096],[3.959,7.4126],[3.9602,7.4135],[3.9538,7.4174]]]}},{"type":"Feature","properties":{"name":"Ogbomosho North","state":"Oyo","scode":"OY","centroid":[8.1502,4.2666]},"geometry":{"type":"Polygon","coordinates":[[[4.2797,8.2082],[4.2731,8.2078],[4.2397,8.2144],[4.231,8.2141],[4.2249,8.2104],[4.2042,8.206],[4.2043,8.1987],[4.2009,8.1953],[4.2009,8.1922],[4.1982,8.1903],[4.1978,8.188],[4.1977,8.1849],[4.2003,8.1803],[4.1987,8.1738],[4.1953,8.171],[4.1948,8.1688],[4.1966,8.1615],[4.1962,8.1555],[4.1939,8.15],[4.1945,8.1478],[4.1907,8.147],[4.1881,8.1434],[4.1879,8.1409],[4.2002,8.1368],[4.198,8.1308],[4.1983,8.1266],[4.2052,8.128],[4.2081,8.1316],[4.2107,8.1302],[4.212,8.1245],[4.2102,8.12],[4.2164,8.1192],[4.2246,8.1207],[4.2271,8.1246],[4.2322,8.1269],[4.2349,8.1252],[4.2363,8.1281],[4.2411,8.1285],[4.2421,8.1302],[4.2434,8.1295],[4.2457,8.1279],[4.2441,8.1258],[4.251,8.1179],[4.2502,8.1155],[4.255,8.1156],[4.2636,8.1105],[4.2758,8.0995],[4.2785,8.0934],[4.2798,8.0806],[4.2783,8.0729],[4.2813,8.0656],[4.2918,8.0553],[4.3028,8.0571],[4.3173,8.0812],[4.3188,8.099],[4.3234,8.107],[4.3262,8.1184],[4.3271,8.1456],[4.3236,8.1513],[4.3235,8.1581],[4.3204,8.1718],[4.3132,8.1891],[4.3083,8.2074],[4.2976,8.2068],[4.2797,8.2082]]]}},{"type":"Feature","properties":{"name":"Ogbomosho South","state":"Oyo","scode":"OY","centroid":[8.1019,4.2292]},"geometry":{"type":"Polygon","coordinates":[[[4.1759,8.0959],[4.1844,8.0917],[4.194,8.0827],[4.2139,8.0956],[4.23,8.081],[4.2673,8.0763],[4.2737,8.072],[4.2783,8.0729],[4.2798,8.0806],[4.2785,8.0934],[4.2758,8.0995],[4.2636,8.1105],[4.255,8.1156],[4.2502,8.1155],[4.251,8.1179],[4.2441,8.1258],[4.2457,8.1279],[4.2434,8.1295],[4.2421,8.1302],[4.2411,8.1285],[4.2363,8.1281],[4.2349,8.1252],[4.2322,8.1269],[4.2271,8.1246],[4.2246,8.1207],[4.2164,8.1192],[4.2102,8.12],[4.212,8.1245],[4.2107,8.1302],[4.2081,8.1316],[4.2052,8.128],[4.1983,8.1266],[4.1838,8.127],[4.183,8.1229],[4.186,8.1109],[4.1772,8.101],[4.1759,8.0959]]]}},{"type":"Feature","properties":{"name":"Ogo Oluwa","state":"Oyo","scode":"OY","centroid":[7.969,4.2095]},"geometry":{"type":"Polygon","coordinates":[[[4.2918,8.0553],[4.2813,8.0656],[4.2783,8.0729],[4.2737,8.072],[4.2673,8.0763],[4.23,8.081],[4.2139,8.0956],[4.194,8.0827],[4.1844,8.0917],[4.1759,8.0959],[4.1681,8.08],[4.1626,8.0725],[4.1466,8.0599],[4.1492,8.0542],[4.146,8.0493],[4.1325,8.0432],[4.131,8.0412],[4.1307,8.0351],[4.1378,8.0272],[4.1514,8.0438],[4.1558,8.0423],[4.1635,8.0361],[4.168,8.0275],[4.1595,8.0212],[4.1533,8.0185],[4.1463,8.0192],[4.139,8.023],[4.1289,8.0162],[4.1199,8.0011],[4.1202,7.9975],[4.1149,7.9848],[4.1189,7.9799],[4.1295,7.9565],[4.1259,7.9533],[4.118,7.9502],[4.1115,7.9446],[4.1043,7.9352],[4.0879,7.9422],[4.0795,7.9339],[4.0785,7.9291],[4.0824,7.9193],[4.082,7.9111],[4.088,7.9105],[4.0864,7.9028],[4.0901,7.8896],[4.0897,7.8712],[4.0902,7.8601],[4.0936,7.8636],[4.0991,7.8637],[4.1166,7.8492],[4.1471,7.8496],[4.1646,7.855],[4.1742,7.8611],[4.1864,7.8649],[4.197,7.8653],[4.2028,7.8687],[4.2009,7.8786],[4.1921,7.9007],[4.1913,7.9102],[4.1982,7.9163],[4.2161,7.9217],[4.2249,7.927],[4.2302,7.9278],[4.234,7.9312],[4.2356,7.9564],[4.2508,7.9655],[4.2653,7.9701],[4.2763,7.9712],[4.2859,7.9655],[4.2954,7.9546],[4.3071,7.9445],[4.316,7.943],[4.3282,7.935],[4.3397,7.9146],[4.3484,7.9049],[4.3514,7.8961],[4.3602,7.8828],[4.3659,7.858],[4.3659,7.8515],[4.3673,7.8492],[4.3711,7.8487],[4.3861,7.8687],[4.3903,7.879],[4.3941,7.8839],[4.3972,7.8965],[4.3734,7.9222],[4.3711,7.9257],[4.3719,7.9299],[4.3669,7.9402],[4.3605,7.9434],[4.3514,7.9432],[4.3453,7.9408],[4.3398,7.9426],[4.337,7.9461],[4.3327,7.955],[4.3322,7.9623],[4.3263,7.9683],[4.3106,7.9975],[4.2943,8.0342],[4.2848,8.0464],[4.2918,8.0553]]]}},{"type":"Feature","properties":{"name":"Olorunsogo","state":"Oyo","scode":"OY","centroid":[8.7026,4.0777]},"geometry":{"type":"MultiPolygon","coordinates":[[[[4.139,8.023],[4.1463,8.0192],[4.1533,8.0185],[4.1595,8.0212],[4.168,8.0275],[4.1635,8.0361],[4.1558,8.0423],[4.1514,8.0438],[4.1378,8.0272],[4.139,8.023]]],[[[4.2105,8.97],[4.2035,8.9599],[4.1907,8.9481],[4.173,8.9264],[4.1268,8.9058],[4.0569,8.8861],[3.9772,8.8755],[3.9654,8.8596],[3.9162,8.775],[3.8966,8.7504],[3.8857,8.7248],[3.8779,8.6923],[3.9052,8.6454],[3.8938,8.6166],[3.8743,8.5556],[3.8742,8.5542],[3.9314,8.469],[4.0478,8.5062],[4.0917,8.5091],[4.1805,8.4997],[4.1876,8.5003],[4.269,8.5558],[4.2091,8.6807],[4.2134,8.6826],[4.1904,8.7533],[4.195,8.8163],[4.2211,8.8609],[4.258,8.9009],[4.321,8.9424],[4.3349,8.9577],[4.3349,8.9808],[4.3256,8.9946],[4.3164,8.9977],[4.2903,8.9916],[4.2534,8.967],[4.2105,8.97]]]]}},{"type":"Feature","properties":{"name":"Oluyole","state":"Oyo","scode":"OY","centroid":[7.2086,3.8744]},"geometry":{"type":"Polygon","coordinates":[[[3.9098,7.3424],[3.9023,7.3385],[3.8939,7.3372],[3.8852,7.3336],[3.8776,7.333],[3.8752,7.3301],[3.8681,7.3317],[3.871,7.3402],[3.8555,7.3363],[3.8486,7.3452],[3.8422,7.3501],[3.8462,7.3555],[3.8414,7.3574],[3.8407,7.3554],[3.8354,7.3534],[3.8368,7.347],[3.8408,7.341],[3.8412,7.338],[3.8383,7.3375],[3.8385,7.3303],[3.8318,7.333],[3.8265,7.3306],[3.8239,7.3312],[3.817,7.3383],[3.813,7.3403],[3.8019,7.3388],[3.7968,7.335],[3.7892,7.332],[3.7857,7.3268],[3.7715,7.3171],[3.7532,7.3094],[3.747,7.3089],[3.7363,7.3007],[3.7468,7.2995],[3.7623,7.3009],[3.7625,7.2922],[3.7598,7.2811],[3.7623,7.2432],[3.7636,7.2305],[3.7689,7.2236],[3.7804,7.2027],[3.7777,7.192],[3.7773,7.1806],[3.7872,7.1639],[3.7944,7.1395],[3.7929,7.1323],[3.7815,7.1212],[3.7526,7.1079],[3.7385,7.1033],[3.7274,7.0969],[3.7248,7.0877],[3.726,7.0859],[3.7312,7.0806],[3.74,7.0816],[3.7838,7.0801],[3.8256,7.0828],[3.9389,7.0839],[3.9534,7.0881],[3.9602,7.0923],[3.9656,7.1098],[3.999,7.1266],[3.9893,7.1448],[3.9965,7.1764],[3.9949,7.1814],[3.9915,7.1849],[3.989,7.2142],[3.9847,7.2269],[3.9931,7.2364],[3.9952,7.2429],[3.9972,7.2561],[3.9961,7.2669],[3.9789,7.2716],[3.974,7.2763],[3.9734,7.2807],[3.9707,7.2846],[3.9707,7.2883],[3.976,7.299],[3.9687,7.3123],[3.9615,7.3099],[3.9594,7.3114],[3.9563,7.3071],[3.9541,7.3072],[3.9559,7.3123],[3.9542,7.3165],[3.9589,7.3192],[3.9611,7.3232],[3.9632,7.3236],[3.9582,7.3348],[3.9598,7.3366],[3.9498,7.3338],[3.9486,7.332],[3.9453,7.3329],[3.9409,7.327],[3.9391,7.3268],[3.9388,7.33],[3.9313,7.3324],[3.9296,7.3338],[3.9302,7.335],[3.926,7.3375],[3.9207,7.3393],[3.9176,7.3369],[3.9146,7.3367],[3.9137,7.3387],[3.911,7.3395],[3.9098,7.3424]]]}},{"type":"Feature","properties":{"name":"Ona Ara","state":"Oyo","scode":"OY","centroid":[7.2582,4.0355]},"geometry":{"type":"Polygon","coordinates":[[[4.1257,7.3118],[4.0901,7.2939],[4.0724,7.3041],[4.0775,7.3223],[4.085,7.3312],[4.1026,7.3446],[4.0727,7.3598],[4.0603,7.3481],[4.0481,7.3552],[4.0354,7.3588],[4.0195,7.3557],[4.0116,7.3583],[4.0054,7.3535],[4.0046,7.3466],[4.0,7.3462],[3.9936,7.3501],[3.9879,7.3511],[3.9872,7.3551],[3.9803,7.3622],[3.9721,7.3527],[3.9617,7.3569],[3.9547,7.3534],[3.9563,7.3595],[3.9589,7.3629],[3.9577,7.3699],[3.9456,7.3782],[3.9392,7.3785],[3.9376,7.377],[3.9399,7.3727],[3.9377,7.3717],[3.9367,7.3657],[3.9405,7.3614],[3.9389,7.3594],[3.9402,7.3585],[3.9375,7.3541],[3.9355,7.3544],[3.9328,7.3521],[3.9342,7.3485],[3.9297,7.3447],[3.9281,7.3448],[3.929,7.3435],[3.926,7.3375],[3.9302,7.335],[3.9296,7.3338],[3.9313,7.3324],[3.9388,7.33],[3.9391,7.3268],[3.9409,7.327],[3.9453,7.3329],[3.9486,7.332],[3.9498,7.3338],[3.9598,7.3366],[3.9582,7.3348],[3.9632,7.3236],[3.9611,7.3232],[3.9589,7.3192],[3.9542,7.3165],[3.9559,7.3123],[3.9541,7.3072],[3.9563,7.3071],[3.9594,7.3114],[3.9615,7.3099],[3.9687,7.3123],[3.976,7.299],[3.9707,7.2883],[3.9707,7.2846],[3.9734,7.2807],[3.974,7.2763],[3.9789,7.2716],[3.9961,7.2669],[3.9972,7.2561],[3.9952,7.2429],[3.9931,7.2364],[3.9847,7.2269],[3.989,7.2142],[3.9915,7.1849],[3.9949,7.1814],[3.9965,7.1764],[3.9893,7.1448],[3.999,7.1266],[4.0055,7.1285],[4.0193,7.1246],[4.0459,7.1384],[4.0577,7.1372],[4.0691,7.1323],[4.0851,7.1319],[4.0884,7.1334],[4.0876,7.1381],[4.0845,7.1399],[4.0808,7.1402],[4.0764,7.1349],[4.0732,7.1355],[4.0711,7.139],[4.0726,7.1468],[4.077,7.1499],[4.0833,7.149],[4.0855,7.1512],[4.0801,7.1581],[4.072,7.1628],[4.0726,7.1675],[4.0776,7.1778],[4.0787,7.1909],[4.082,7.2009],[4.0848,7.2044],[4.0845,7.2078],[4.0942,7.2282],[4.1026,7.2331],[4.1053,7.2372],[4.1075,7.2459],[4.1112,7.2512],[4.1254,7.2578],[4.1259,7.2703],[4.1297,7.2768],[4.1281,7.2881],[4.1313,7.2995],[4.1257,7.3118]]]}},{"type":"Feature","properties":{"name":"Orelope","state":"Oyo","scode":"OY","centroid":[8.8215,3.7844]},"geometry":{"type":"Polygon","coordinates":[[[3.6,8.9569],[3.6028,8.9453],[3.6146,8.9352],[3.6173,8.9288],[3.605,8.9148],[3.608,8.897],[3.6114,8.8952],[3.6212,8.895],[3.6284,8.8865],[3.6324,8.8737],[3.6459,8.847],[3.6614,8.8392],[3.654,8.7901],[3.6642,8.7687],[3.6693,8.7678],[3.6944,8.7534],[3.719,8.7082],[3.7192,8.7057],[3.7357,8.6953],[3.7406,8.6854],[3.7682,8.6663],[3.7714,8.6572],[3.8743,8.5556],[3.8938,8.6166],[3.9052,8.6454],[3.8779,8.6923],[3.8857,8.7248],[3.8966,8.7504],[3.9162,8.775],[3.9654,8.8596],[3.9772,8.8755],[3.9373,8.8827],[3.8837,8.9163],[3.8771,8.9524],[3.8411,8.9774],[3.8315,8.9726],[3.8018,8.9663],[3.7759,8.9656],[3.7697,8.9696],[3.7174,8.9692],[3.7025,8.9826],[3.6915,8.9966],[3.6871,9.0034],[3.6738,9.0046],[3.6605,8.9985],[3.6541,9.0015],[3.6384,8.9989],[3.6175,9.0032],[3.6079,8.9993],[3.5957,8.9993],[3.5933,8.9954],[3.5944,8.9891],[3.5998,8.9766],[3.601,8.9634],[3.6,8.9569]]]}},{"type":"Feature","properties":{"name":"Ori Ire","state":"Oyo","scode":"OY","centroid":[8.2985,4.1092]},"geometry":{"type":"Polygon","coordinates":[[[3.8531,8.223],[3.8987,8.187],[3.9885,8.1888],[3.9966,8.1684],[3.9809,8.1395],[4.013,8.1248],[4.0192,8.1169],[4.0214,8.1163],[4.0343,8.0928],[4.0316,8.0899],[4.0292,8.0807],[4.0334,8.0708],[4.0285,8.0638],[4.0178,8.062],[4.014,8.0596],[4.0113,8.054],[4.0073,8.037],[4.0083,8.0339],[4.0147,8.0304],[4.0267,8.0387],[4.0388,8.0429],[4.0457,8.0397],[4.0496,8.0194],[4.0449,7.9795],[4.057,7.9718],[4.0651,7.9721],[4.0761,7.963],[4.0786,7.9538],[4.0855,7.9501],[4.0879,7.9422],[4.1043,7.9352],[4.1115,7.9446],[4.118,7.9502],[4.1259,7.9533],[4.1295,7.9565],[4.1189,7.9799],[4.1149,7.9848],[4.1202,7.9975],[4.1199,8.0011],[4.1289,8.0162],[4.139,8.023],[4.1378,8.0272],[4.1307,8.0351],[4.131,8.0412],[4.1325,8.0432],[4.146,8.0493],[4.1492,8.0542],[4.1466,8.0599],[4.1626,8.0725],[4.1681,8.08],[4.1759,8.0959],[4.1772,8.101],[4.186,8.1109],[4.183,8.1229],[4.1838,8.127],[4.1983,8.1266],[4.198,8.1308],[4.2002,8.1368],[4.1879,8.1409],[4.1881,8.1434],[4.1907,8.147],[4.1945,8.1478],[4.1939,8.15],[4.1962,8.1555],[4.1966,8.1615],[4.1948,8.1688],[4.1953,8.171],[4.1987,8.1738],[4.2003,8.1803],[4.1977,8.1849],[4.1978,8.188],[4.1982,8.1903],[4.2009,8.1922],[4.2009,8.1953],[4.2043,8.1987],[4.2042,8.206],[4.2249,8.2104],[4.231,8.2141],[4.2397,8.2144],[4.2731,8.2078],[4.2797,8.2082],[4.2917,8.2305],[4.321,8.2687],[4.3505,8.2934],[4.3917,8.304],[4.3481,8.3912],[4.269,8.5558],[4.1876,8.5003],[4.1805,8.4997],[4.0917,8.5091],[4.0478,8.5062],[3.9314,8.469],[3.9244,8.4341],[3.9043,8.3729],[3.8567,8.3271],[3.8576,8.286],[3.8531,8.223]]]}},{"type":"Feature","properties":{"name":"Oyo East","state":"Oyo","scode":"OY","centroid":[7.8733,4.0212]},"geometry":{"type":"Polygon","coordinates":[[[4.0786,7.9538],[4.0584,7.9465],[4.0427,7.9265],[4.0358,7.9291],[4.0248,7.9268],[4.019,7.9207],[4.018,7.9179],[4.0232,7.9103],[4.0262,7.9033],[4.0265,7.8929],[4.0311,7.8809],[3.9904,7.8612],[3.984,7.8525],[3.9794,7.851],[3.976,7.8506],[3.9728,7.8533],[3.9644,7.8565],[3.9561,7.8626],[3.9511,7.8605],[3.9485,7.863],[3.9423,7.8637],[3.9375,7.8581],[3.9294,7.8494],[3.9204,7.8537],[3.9167,7.8482],[3.9195,7.8416],[3.9238,7.8461],[3.9364,7.8421],[3.9362,7.8357],[3.9378,7.8363],[3.94,7.8338],[3.938,7.8314],[3.9382,7.8254],[3.9356,7.8252],[3.9373,7.8214],[3.9333,7.8112],[3.9347,7.8022],[3.9388,7.8016],[3.9387,7.7964],[3.9444,7.7972],[3.9459,7.7992],[3.9482,7.7984],[3.9489,7.7996],[3.9555,7.799],[3.9573,7.7969],[3.9616,7.8051],[3.9669,7.8111],[3.961,7.812],[3.9554,7.8174],[3.9597,7.8207],[3.9613,7.826],[3.9676,7.8276],[3.9723,7.8336],[3.9869,7.8351],[3.9929,7.8237],[4.0042,7.8265],[4.0194,7.8384],[4.0425,7.8425],[4.0514,7.8508],[4.0597,7.8626],[4.064,7.8627],[4.0792,7.8691],[4.0897,7.8712],[4.0901,7.8896],[4.0864,7.9028],[4.088,7.9105],[4.082,7.9111],[4.0824,7.9193],[4.0785,7.9291],[4.0795,7.9339],[4.0879,7.9422],[4.0855,7.9501],[4.0786,7.9538]]]}},{"type":"Feature","properties":{"name":"Oyo West","state":"Oyo","scode":"OY","centroid":[7.9387,3.8223]},"geometry":{"type":"MultiPolygon","coordinates":[[[[3.9561,7.8626],[3.9644,7.8565],[3.9728,7.8533],[3.976,7.8506],[3.9794,7.851],[3.984,7.8525],[3.9904,7.8612],[4.0311,7.8809],[4.0265,7.8929],[4.0262,7.9033],[4.0232,7.9103],[4.018,7.9179],[4.0133,7.9171],[4.0028,7.9073],[3.9981,7.905],[3.9877,7.9051],[3.962,7.8853],[3.9637,7.8817],[3.9633,7.8742],[3.9561,7.8626]]],[[[3.7469,7.8604],[3.7745,7.8473],[3.7962,7.8456],[3.8081,7.847],[3.8231,7.8423],[3.8346,7.8427],[3.8581,7.8603],[3.8674,7.8566],[3.867,7.8482],[3.8751,7.8386],[3.8808,7.8277],[3.8824,7.8144],[3.8862,7.8122],[3.8865,7.802],[3.8798,7.7972],[3.8858,7.7917],[3.8822,7.7881],[3.893,7.7788],[3.8974,7.7766],[3.9023,7.7772],[3.9163,7.783],[3.9173,7.7862],[3.9194,7.7871],[3.9295,7.7879],[3.9292,7.7921],[3.9347,7.8022],[3.9333,7.8112],[3.9373,7.8214],[3.9356,7.8252],[3.9382,7.8254],[3.938,7.8314],[3.94,7.8338],[3.9378,7.8363],[3.9362,7.8357],[3.9364,7.8421],[3.9238,7.8461],[3.9195,7.8416],[3.9167,7.8482],[3.9204,7.8537],[3.9294,7.8494],[3.9375,7.8581],[3.9371,7.8638],[3.9296,7.8711],[3.9246,7.8716],[3.9249,7.875],[3.9194,7.8775],[3.9244,7.8799],[3.9245,7.8813],[3.9168,7.8864],[3.909,7.8844],[3.9033,7.8881],[3.9044,7.8912],[3.9122,7.8988],[3.9159,7.9062],[3.9237,7.905],[3.9283,7.9082],[3.9335,7.9091],[3.9349,7.9171],[3.9419,7.9323],[3.94,7.9347],[3.9346,7.9365],[3.9351,7.9386],[3.9316,7.9489],[3.9322,7.9545],[3.924,7.9668],[3.9177,7.9684],[3.88,7.9608],[3.8746,7.973],[3.867,7.985],[3.8602,7.9916],[3.8441,7.9984],[3.8213,8.0175],[3.8035,8.0236],[3.7993,8.0333],[3.7998,8.0435],[3.8046,8.0679],[3.8117,8.1309],[3.8119,8.1355],[3.8101,8.1398],[3.7854,8.119],[3.7655,8.0934],[3.7619,8.0917],[3.7365,8.0661],[3.7374,8.0456],[3.7362,8.0407],[3.7419,8.0214],[3.7251,8.0056],[3.7123,7.9817],[3.7156,7.9748],[3.7139,7.9585],[3.7297,7.9313],[3.7325,7.9197],[3.7325,7.9116],[3.7471,7.8859],[3.7446,7.875],[3.7469,7.8604]]]]}},{"type":"Feature","properties":{"name":"Saki East","state":"Oyo","scode":"OY","centroid":[8.6888,3.6203]},"geometry":{"type":"Polygon","coordinates":[[[3.4192,8.8621],[3.4326,8.8382],[3.4366,8.8163],[3.4863,8.7187],[3.4826,8.6989],[3.4844,8.6807],[3.4963,8.6619],[3.5231,8.6086],[3.5264,8.6052],[3.5321,8.5859],[3.5394,8.5769],[3.5836,8.5548],[3.5754,8.5195],[3.5787,8.5126],[3.5913,8.4981],[3.5936,8.4926],[3.6418,8.4695],[3.6726,8.4577],[3.686,8.4318],[3.7682,8.514],[3.8105,8.5466],[3.8742,8.5542],[3.8743,8.5556],[3.7714,8.6572],[3.7682,8.6663],[3.7406,8.6854],[3.7357,8.6953],[3.7192,8.7057],[3.719,8.7082],[3.6944,8.7534],[3.6693,8.7678],[3.6642,8.7687],[3.654,8.7901],[3.6614,8.8392],[3.6459,8.847],[3.6324,8.8737],[3.6284,8.8865],[3.6212,8.895],[3.6114,8.8952],[3.608,8.897],[3.605,8.9148],[3.6173,8.9288],[3.6146,8.9352],[3.6028,8.9453],[3.6,8.9569],[3.5248,8.9285],[3.4192,8.8621]]]}},{"type":"Feature","properties":{"name":"Saki West","state":"Oyo","scode":"OY","centroid":[8.6303,3.1701]},"geometry":{"type":"Polygon","coordinates":[[[2.7564,8.5752],[2.7564,8.5553],[2.753,8.5356],[2.7597,8.5297],[2.7628,8.5192],[2.7525,8.4619],[2.7475,8.4531],[2.7289,8.4372],[2.7247,8.4314],[2.7711,8.4355],[2.8196,8.4676],[2.8847,8.4818],[2.9008,8.4942],[2.9579,8.509],[2.9646,8.5077],[2.9929,8.508],[3.0103,8.5023],[3.0528,8.5019],[3.0588,8.4947],[3.0923,8.4832],[3.1133,8.4616],[3.1319,8.4475],[3.1454,8.4404],[3.1547,8.4422],[3.1661,8.4518],[3.1878,8.4489],[3.1971,8.4435],[3.1989,8.4441],[3.1931,8.481],[3.2113,8.4845],[3.2133,8.5076],[3.2207,8.5159],[3.2344,8.5203],[3.2359,8.5223],[3.2614,8.5219],[3.2748,8.5343],[3.3103,8.5354],[3.3351,8.5227],[3.342,8.5369],[3.3609,8.5508],[3.3251,8.5751],[3.3239,8.5801],[3.3566,8.5809],[3.3613,8.5848],[3.379,8.5809],[3.3901,8.5807],[3.4166,8.5694],[3.4327,8.5693],[3.443,8.5514],[3.464,8.5593],[3.4712,8.5596],[3.5,8.5674],[3.5321,8.5859],[3.5264,8.6052],[3.5231,8.6086],[3.4963,8.6619],[3.4844,8.6807],[3.4826,8.6989],[3.4863,8.7187],[3.4366,8.8163],[3.4326,8.8382],[3.4192,8.8621],[3.388,8.8425],[3.2819,8.804],[3.2374,8.7825],[3.1974,8.7963],[3.1836,8.8117],[3.1636,8.8086],[3.1036,8.7502],[3.0514,8.7287],[3.0145,8.7103],[2.9422,8.638],[2.9207,8.6119],[2.8884,8.6088],[2.8024,8.6104],[2.7564,8.5752]]]}},{"type":"Feature","properties":{"name":"Surulere","state":"Oyo","scode":"OY","centroid":[8.0895,4.4133]},"geometry":{"type":"Polygon","coordinates":[[[4.5274,8.0761],[4.5056,8.092],[4.4954,8.1171],[4.4941,8.1334],[4.4941,8.1667],[4.4839,8.2027],[4.4805,8.2105],[4.4719,8.2164],[4.4616,8.2274],[4.4597,8.2336],[4.4406,8.2506],[4.4406,8.254],[4.418,8.2734],[4.3917,8.304],[4.3505,8.2934],[4.321,8.2687],[4.2917,8.2305],[4.2797,8.2082],[4.2976,8.2068],[4.3083,8.2074],[4.3132,8.1891],[4.3204,8.1718],[4.3235,8.1581],[4.3236,8.1513],[4.3271,8.1456],[4.3262,8.1184],[4.3234,8.107],[4.3188,8.099],[4.3173,8.0812],[4.3028,8.0571],[4.2918,8.0553],[4.2848,8.0464],[4.2943,8.0342],[4.3106,7.9975],[4.3263,7.9683],[4.3322,7.9623],[4.3327,7.955],[4.337,7.9461],[4.3398,7.9426],[4.3453,7.9408],[4.3514,7.9432],[4.3605,7.9434],[4.3669,7.9402],[4.3719,7.9299],[4.3711,7.9257],[4.3734,7.9222],[4.3972,7.8965],[4.4011,7.8984],[4.4075,7.8984],[4.4225,7.8884],[4.429,7.8893],[4.433,7.8916],[4.4391,7.9064],[4.4418,7.9289],[4.4498,7.9381],[4.4582,7.9415],[4.4959,7.9434],[4.5066,7.9518],[4.5222,7.9556],[4.5356,7.9613],[4.5497,7.9708],[4.5531,7.9753],[4.5573,7.9808],[4.563,8.009],[4.563,8.0341],[4.5592,8.049],[4.5607,8.054],[4.569,8.0548],[4.5573,8.0587],[4.5274,8.0761]]]}}]}