{"type":"FeatureCollection","features":[{"type":"Feature","properties":{"name":"Barkin Ladi","state":"Plateau","scode":"PL","centroid":[9.53,8.908]},"geometry":{"type":"Polygon","coordinates":[[[8.6715,9.2513],[8.7678,9.2734],[8.7808,9.3329],[8.7869,9.3322],[8.7998,9.3472],[8.8339,9.3619],[8.8443,9.3605],[8.8466,9.3588],[8.871,9.3606],[8.8738,9.3668],[8.8741,9.3746],[8.8861,9.3937],[8.9,9.4081],[8.9104,9.411],[8.9154,9.4029],[8.9197,9.4033],[8.9305,9.4132],[8.9351,9.4223],[8.9429,9.4247],[8.952,9.4392],[8.9589,9.4417],[8.9677,9.4365],[8.9755,9.4359],[8.9844,9.4427],[8.9869,9.4546],[8.9925,9.4564],[9.0053,9.454],[9.0155,9.4669],[9.0295,9.4666],[9.0313,9.4691],[9.0154,9.4928],[9.0074,9.5004],[9.0168,9.5173],[9.0166,9.5253],[9.0436,9.5214],[9.0469,9.5379],[9.0384,9.5475],[9.0492,9.5647],[9.0732,9.5754],[9.0763,9.573],[9.0832,9.5737],[9.0917,9.5778],[9.107,9.5742],[9.1183,9.581],[9.1285,9.6103],[9.1414,9.6349],[9.1164,9.6441],[9.1157,9.6508],[9.1203,9.6664],[9.1191,9.6802],[9.1124,9.6833],[9.0932,9.6841],[9.0864,9.6892],[9.0737,9.676],[9.0563,9.6854],[9.0498,9.6875],[9.0552,9.6967],[9.0551,9.7076],[9.0462,9.7292],[9.0334,9.7188],[9.0224,9.7476],[9.0071,9.7561],[9.0034,9.7563],[8.9854,9.7497],[8.9821,9.7827],[8.9803,9.7886],[8.9832,9.8032],[8.9644,9.8126],[8.9526,9.8164],[8.951,9.8086],[8.9518,9.7913],[8.9457,9.7582],[8.9421,9.7523],[8.9197,9.7358],[8.9086,9.7257],[8.9052,9.7178],[8.8979,9.7078],[8.8981,9.704],[8.8872,9.69],[8.8801,9.6761],[8.8804,9.6704],[8.8718,9.6468],[8.8756,9.6404],[8.8738,9.6246],[8.8766,9.6174],[8.8773,9.6034],[8.8723,9.5897],[8.8602,9.5746],[8.8644,9.5586],[8.858,9.5527],[8.838,9.5409],[8.8327,9.5312],[8.8098,9.5109],[8.7849,9.5136],[8.7803,9.4919],[8.7763,9.4893],[8.7649,9.4755],[8.7586,9.4722],[8.7545,9.4591],[8.7237,9.4435],[8.7127,9.4258],[8.7097,9.4172],[8.7011,9.403],[8.6923,9.3826],[8.6954,9.3784],[8.6959,9.3687],[8.6907,9.355],[8.6894,9.3414],[8.6914,9.3396],[8.6942,9.3223],[8.6981,9.3206],[8.6927,9.3126],[8.6875,9.2989],[8.6844,9.2833],[8.679,9.2753],[8.6715,9.2513]]]}},{"type":"Feature","properties":{"name":"Bassa","state":"Plateau","scode":"PL","centroid":[10.0836,8.7955]},"geometry":{"type":"Polygon","coordinates":[[[8.6796,10.0111],[8.6799,10.0051],[8.6766,9.9934],[8.673,9.9874],[8.6649,9.9639],[8.6466,9.9052],[8.6381,9.8857],[8.6347,9.8668],[8.6393,9.8558],[8.6439,9.8347],[8.6425,9.8108],[8.6439,9.7754],[8.6351,9.7576],[8.6604,9.7457],[8.6785,9.7472],[8.686,9.769],[8.7254,9.7671],[8.7269,9.7724],[8.7538,9.7806],[8.7592,9.7865],[8.7514,9.7921],[8.7516,9.7959],[8.7578,9.8006],[8.7779,9.8033],[8.7775,9.8106],[8.781,9.8185],[8.7809,9.8223],[8.7891,9.838],[8.7877,9.8421],[8.7887,9.8503],[8.7873,9.8583],[8.7847,9.8602],[8.7836,9.8692],[8.7857,9.8736],[8.7904,9.8771],[8.7919,9.8861],[8.7969,9.8909],[8.8085,9.8945],[8.806,9.9026],[8.8037,9.9054],[8.7999,9.91],[8.7996,9.9177],[8.8065,9.9335],[8.8101,9.9394],[8.8193,9.9495],[8.8246,9.9594],[8.8371,9.9711],[8.8357,9.9735],[8.8379,9.9771],[8.8413,9.9757],[8.843,9.9774],[8.8417,9.9794],[8.8437,9.983],[8.8469,9.9821],[8.851,9.9871],[8.8475,9.9871],[8.8447,9.995],[8.8462,9.9959],[8.8557,9.9944],[8.8815,10.0069],[8.876,10.0186],[8.8855,10.0184],[8.8881,10.0114],[8.9026,10.0227],[8.9122,10.0231],[8.9179,10.0253],[8.9387,10.0266],[8.9521,10.093],[8.9683,10.1028],[8.9744,10.1379],[8.9722,10.1435],[8.9718,10.1513],[8.9771,10.1611],[8.9767,10.1708],[8.9782,10.1805],[8.9739,10.19],[8.9303,10.215],[8.9297,10.2285],[8.9312,10.2451],[8.9347,10.2461],[8.9364,10.2501],[8.9356,10.2674],[8.9392,10.2734],[8.9539,10.2895],[8.9549,10.3088],[8.9487,10.3182],[8.9463,10.3277],[8.9422,10.3333],[8.9357,10.3485],[8.9298,10.3521],[8.9258,10.3539],[8.9181,10.3535],[8.8987,10.3582],[8.8702,10.3576],[8.8381,10.3704],[8.8232,10.3742],[8.8206,10.3755],[8.8183,10.3804],[8.8051,10.3556],[8.804,10.3454],[8.8011,10.3385],[8.7993,10.3229],[8.7993,10.3029],[8.7907,10.2935],[8.7692,10.2852],[8.7634,10.2814],[8.7573,10.2801],[8.7496,10.2809],[8.7386,10.278],[8.7343,10.2751],[8.7287,10.2483],[8.7125,10.2303],[8.6861,10.2112],[8.6809,10.177],[8.672,10.1462],[8.6732,10.1376],[8.6717,10.1246],[8.6723,10.0817],[8.6796,10.0111]]]}},{"type":"Feature","properties":{"name":"Bokkos","state":"Plateau","scode":"PL","centroid":[9.213,8.9312]},"geometry":{"type":"Polygon","coordinates":[[[8.6578,9.2077],[8.6615,9.1954],[8.6675,9.1899],[8.6733,9.1901],[8.6773,9.1864],[8.687,9.1849],[8.6908,9.187],[8.7081,9.1878],[8.749,9.178],[8.7611,9.167],[8.765,9.1652],[8.7676,9.1574],[8.7675,9.1363],[8.7613,9.1207],[8.7616,9.1132],[8.7601,9.1052],[8.7685,9.0979],[8.7688,9.0953],[8.7802,9.0868],[8.7919,9.0834],[8.7994,9.0712],[8.7895,9.0524],[8.7899,9.0428],[8.7982,9.0316],[8.806,9.0327],[8.8117,9.0303],[8.8502,9.03],[8.862,9.0267],[8.8755,9.0254],[8.8854,9.0216],[8.8949,9.0224],[8.9182,9.0171],[8.9511,9.0152],[8.9549,9.0173],[8.9668,9.015],[8.9953,9.019],[9.0009,9.0213],[9.0202,9.0221],[9.0239,9.0242],[9.0392,9.0268],[9.045,9.0271],[9.0541,9.0249],[9.0569,9.0263],[9.0797,9.0283],[9.0719,9.0439],[9.0781,9.0679],[9.1032,9.0862],[9.0996,9.0933],[9.1063,9.1039],[9.1422,9.1314],[9.1286,9.1447],[9.1268,9.1568],[9.1189,9.1615],[9.115,9.1662],[9.1072,9.1869],[9.0892,9.1913],[9.0944,9.2025],[9.113,9.2328],[9.1114,9.2348],[9.111,9.2395],[9.1156,9.2615],[9.1085,9.2825],[9.1108,9.2903],[9.1249,9.2999],[9.1478,9.3078],[9.1477,9.3142],[9.1331,9.3237],[9.1153,9.3319],[9.0926,9.3294],[9.0934,9.3503],[9.082,9.3562],[9.077,9.3659],[9.0727,9.3794],[9.0619,9.3772],[9.0419,9.3986],[9.0438,9.4022],[9.0398,9.411],[9.0171,9.4197],[9.0132,9.4316],[9.0152,9.4376],[9.0103,9.443],[9.0053,9.454],[8.9925,9.4564],[8.9869,9.4546],[8.9844,9.4427],[8.9755,9.4359],[8.9677,9.4365],[8.9589,9.4417],[8.952,9.4392],[8.9429,9.4247],[8.9351,9.4223],[8.9305,9.4132],[8.9197,9.4033],[8.9154,9.4029],[8.9104,9.411],[8.9,9.4081],[8.8861,9.3937],[8.8741,9.3746],[8.8738,9.3668],[8.871,9.3606],[8.8466,9.3588],[8.8443,9.3605],[8.8339,9.3619],[8.7998,9.3472],[8.7869,9.3322],[8.7808,9.3329],[8.7678,9.2734],[8.6715,9.2513],[8.6578,9.2077]]]}},{"type":"Feature","properties":{"name":"Jos East","state":"Plateau","scode":"PL","centroid":[9.8819,9.1069]},"geometry":{"type":"Polygon","coordinates":[[[9.2721,9.8461],[9.2457,9.8479],[9.2321,9.8616],[9.2143,10.0175],[9.2513,10.0247],[9.2548,10.0301],[9.2297,10.0482],[9.2108,10.0484],[9.1925,10.0402],[9.183,10.0383],[9.163,10.0419],[9.1646,10.0464],[9.1553,10.046],[9.1446,10.0495],[9.128,10.0586],[9.124,10.058],[9.1186,10.056],[9.1089,10.044],[9.0855,10.025],[9.0683,10.0223],[9.0589,10.0181],[9.0474,10.0156],[9.0357,10.0162],[9.0309,10.018],[9.0272,10.0209],[9.0201,10.0233],[9.0072,10.0328],[9.0036,10.031],[9.0048,10.0291],[9.004,10.026],[9.0069,10.0194],[9.0058,10.0121],[9.0013,10.0089],[9.0005,10.006],[9.0028,9.9888],[8.9775,9.9874],[8.972,9.9795],[8.9688,9.9658],[8.9691,9.96],[8.9716,9.9466],[8.976,9.9352],[8.9887,9.9107],[8.9916,9.8896],[8.9885,9.874],[8.9848,9.87],[8.9819,9.8607],[8.9745,9.8425],[8.973,9.8304],[8.958,9.8244],[8.9526,9.8164],[8.9644,9.8126],[8.9832,9.8032],[8.9803,9.7886],[8.9821,9.7827],[8.9854,9.7497],[9.0034,9.7563],[9.0071,9.7561],[9.0224,9.7476],[9.0334,9.7188],[9.0462,9.7292],[9.0551,9.7076],[9.0552,9.6967],[9.0498,9.6875],[9.0563,9.6854],[9.0737,9.676],[9.0864,9.6892],[9.1007,9.7109],[9.1066,9.7136],[9.1074,9.7211],[9.1294,9.7322],[9.1363,9.7308],[9.1391,9.7354],[9.1576,9.7408],[9.1522,9.7448],[9.1504,9.748],[9.1521,9.7519],[9.1596,9.758],[9.1927,9.7715],[9.1987,9.7727],[9.2094,9.7701],[9.212,9.7729],[9.2187,9.7733],[9.2233,9.7772],[9.2358,9.7896],[9.2442,9.8023],[9.2536,9.8086],[9.2608,9.8185],[9.2721,9.8461]]]}},{"type":"Feature","properties":{"name":"Jos North","state":"Plateau","scode":"PL","centroid":[9.9385,8.9057]},"geometry":{"type":"Polygon","coordinates":[[[8.9387,10.0266],[8.9179,10.0253],[8.9122,10.0231],[8.9026,10.0227],[8.8881,10.0114],[8.8855,10.0184],[8.876,10.0186],[8.8815,10.0069],[8.8557,9.9944],[8.8462,9.9959],[8.8447,9.995],[8.8475,9.9871],[8.851,9.9871],[8.8469,9.9821],[8.8437,9.983],[8.8417,9.9794],[8.843,9.9774],[8.8413,9.9757],[8.8379,9.9771],[8.8357,9.9735],[8.8371,9.9711],[8.8246,9.9594],[8.8193,9.9495],[8.8101,9.9394],[8.8065,9.9335],[8.7996,9.9177],[8.7999,9.91],[8.8037,9.9054],[8.8098,9.9047],[8.8239,9.8918],[8.831,9.8821],[8.8374,9.8843],[8.8372,9.881],[8.8409,9.8806],[8.841,9.8816],[8.8508,9.879],[8.8499,9.872],[8.8551,9.8719],[8.8616,9.8739],[8.863,9.8757],[8.8605,9.8871],[8.8647,9.888],[8.8646,9.8919],[8.8689,9.8915],[8.8731,9.8948],[8.8788,9.8912],[8.8832,9.8916],[8.8887,9.8942],[8.8912,9.8999],[8.894,9.899],[8.8975,9.9018],[8.8995,9.8987],[8.9059,9.8953],[8.9076,9.8867],[8.9106,9.885],[8.9114,9.8706],[8.9173,9.8708],[8.9233,9.8682],[8.924,9.8711],[8.935,9.8695],[8.9401,9.8569],[8.949,9.8529],[8.9568,9.8514],[8.9702,9.852],[8.9778,9.8562],[8.9819,9.8607],[8.9848,9.87],[8.9885,9.874],[8.9916,9.8896],[8.9887,9.9107],[8.976,9.9352],[8.9716,9.9466],[8.9691,9.96],[8.9688,9.9658],[8.972,9.9795],[8.9775,9.9874],[8.9621,10.0052],[8.9515,10.0111],[8.9499,10.0132],[8.9495,10.0199],[8.9472,10.0196],[8.9438,10.0263],[8.9387,10.0266]]]}},{"type":"Feature","properties":{"name":"Jos South","state":"Plateau","scode":"PL","centroid":[9.7587,8.8329]},"geometry":{"type":"Polygon","coordinates":[[[8.8037,9.9054],[8.806,9.9026],[8.8085,9.8945],[8.7969,9.8909],[8.7919,9.8861],[8.7904,9.8771],[8.7857,9.8736],[8.7836,9.8692],[8.7847,9.8602],[8.7873,9.8583],[8.7887,9.8503],[8.7877,9.8421],[8.7891,9.838],[8.7809,9.8223],[8.781,9.8185],[8.7775,9.8106],[8.7779,9.8033],[8.7578,9.8006],[8.7516,9.7959],[8.7514,9.7921],[8.7592,9.7865],[8.7538,9.7806],[8.7584,9.7633],[8.7435,9.755],[8.7398,9.751],[8.7247,9.7445],[8.7179,9.7425],[8.7103,9.7465],[8.7049,9.7433],[8.7099,9.7364],[8.6973,9.7337],[8.7047,9.7185],[8.7109,9.7111],[8.7057,9.6974],[8.6941,9.696],[8.6933,9.6918],[8.6988,9.6797],[8.699,9.6758],[8.6973,9.6719],[8.6977,9.6623],[8.7018,9.6566],[8.7078,9.653],[8.733,9.6484],[8.735,9.6465],[8.7427,9.6469],[8.7545,9.6416],[8.7625,9.6362],[8.7672,9.6171],[8.7752,9.6116],[8.7847,9.614],[8.79,9.6239],[8.7951,9.6396],[8.8025,9.6457],[8.8104,9.6422],[8.8225,9.6311],[8.8381,9.626],[8.8458,9.6264],[8.8496,9.6285],[8.8718,9.6468],[8.8804,9.6704],[8.8801,9.6761],[8.8872,9.69],[8.8981,9.704],[8.8979,9.7078],[8.9052,9.7178],[8.9086,9.7257],[8.9197,9.7358],[8.9421,9.7523],[8.9457,9.7582],[8.9518,9.7913],[8.951,9.8086],[8.9526,9.8164],[8.958,9.8244],[8.973,9.8304],[8.9745,9.8425],[8.9819,9.8607],[8.9778,9.8562],[8.9702,9.852],[8.9568,9.8514],[8.949,9.8529],[8.9401,9.8569],[8.935,9.8695],[8.924,9.8711],[8.9233,9.8682],[8.9173,9.8708],[8.9114,9.8706],[8.9106,9.885],[8.9076,9.8867],[8.9059,9.8953],[8.8995,9.8987],[8.8975,9.9018],[8.894,9.899],[8.8912,9.8999],[8.8887,9.8942],[8.8832,9.8916],[8.8788,9.8912],[8.8731,9.8948],[8.8689,9.8915],[8.8646,9.8919],[8.8647,9.888],[8.8605,9.8871],[8.863,9.8757],[8.8616,9.8739],[8.8551,9.8719],[8.8499,9.872],[8.8508,9.879],[8.841,9.8816],[8.8409,9.8806],[8.8372,9.881],[8.8374,9.8843],[8.831,9.8821],[8.8239,9.8918],[8.8098,9.9047],[8.8037,9.9054]]]}},{"type":"Feature","properties":{"name":"Kanam","state":"Plateau","scode":"PL","centroid":[9.4869,10.1084]},"geometry":{"type":"Polygon","coordinates":[[[9.9726,9.6995],[9.9751,9.6893],[9.9917,9.6457],[9.9912,9.6384],[9.9806,9.6233],[9.9623,9.6127],[9.9422,9.6091],[9.9356,9.6051],[9.916,9.6109],[9.9068,9.6118],[9.902,9.6087],[9.8389,9.6012],[9.8314,9.5986],[9.8242,9.5832],[9.8078,9.58],[9.8033,9.5791],[9.7843,9.5572],[9.7609,9.5387],[9.7627,9.5285],[9.7722,9.5103],[9.7659,9.4843],[9.7626,9.4602],[9.7668,9.4512],[9.7707,9.4478],[9.7693,9.412],[9.7753,9.3932],[9.7746,9.3843],[9.7598,9.3691],[9.7588,9.3568],[9.7663,9.339],[9.7629,9.3257],[9.768,9.296],[9.7831,9.2937],[9.7873,9.2968],[9.8009,9.298],[9.808,9.2919],[9.8128,9.2826],[9.8322,9.2756],[9.8417,9.2795],[9.8507,9.2809],[9.8508,9.2673],[9.8643,9.2676],[9.8661,9.2614],[9.8736,9.2586],[9.8799,9.259],[9.894,9.243],[9.8909,9.2416],[9.8871,9.2355],[9.8854,9.2239],[9.8936,9.2169],[9.8995,9.2156],[9.9036,9.2117],[9.9161,9.2144],[9.9279,9.2126],[9.9307,9.2091],[9.9526,9.2028],[9.957,9.2179],[9.9604,9.221],[9.9643,9.2345],[9.974,9.2399],[9.9923,9.2282],[10.0116,9.2359],[10.0116,9.2386],[10.0019,9.2544],[10.008,9.2673],[9.9939,9.2816],[9.9917,9.2887],[9.9912,9.3014],[10.0105,9.3094],[10.0216,9.2991],[10.036,9.3025],[10.0389,9.3237],[10.0437,9.3264],[10.0565,9.3445],[10.076,9.3424],[10.0839,9.3534],[10.0927,9.3612],[10.0954,9.3668],[10.0985,9.3685],[10.0953,9.3797],[10.0966,9.3849],[10.107,9.3971],[10.1196,9.4066],[10.1407,9.4168],[10.1426,9.4204],[10.1437,9.4303],[10.1575,9.4392],[10.1737,9.4436],[10.1886,9.4537],[10.2191,9.4422],[10.2371,9.4174],[10.2665,9.4388],[10.2733,9.4807],[10.2766,9.4814],[10.2935,9.4716],[10.301,9.4509],[10.3014,9.4234],[10.3046,9.4179],[10.3259,9.4152],[10.3502,9.4179],[10.3571,9.4139],[10.3714,9.4018],[10.3676,9.3796],[10.3696,9.3748],[10.3715,9.3582],[10.3783,9.352],[10.4272,9.3267],[10.4362,9.3482],[10.4494,9.3578],[10.4646,9.3728],[10.4877,9.3825],[10.5073,9.3887],[10.5243,9.3804],[10.5603,9.3902],[10.5636,9.3957],[10.5692,9.3998],[10.5784,9.4098],[10.5799,9.4176],[10.5789,9.4388],[10.5767,9.4465],[10.5661,9.4653],[10.541,9.4835],[10.523,9.4884],[10.5076,9.5225],[10.4997,9.528],[10.4913,9.543],[10.4889,9.5526],[10.479,9.5579],[10.4654,9.5612],[10.4534,9.5703],[10.4397,9.5755],[10.4238,9.5845],[10.4162,9.5841],[10.4043,9.5913],[10.3827,9.5981],[10.3729,9.6034],[10.353,9.6161],[10.3269,9.64],[10.3118,9.644],[10.3003,9.6527],[10.2954,9.6582],[10.2924,9.6655],[10.2674,9.6811],[10.2649,9.6813],[10.2606,9.6871],[10.2265,9.6901],[10.2068,9.6884],[10.1995,9.6898],[10.1652,9.6841],[10.1522,9.6788],[10.15,9.6807],[10.1465,9.6903],[10.1432,9.6921],[10.1299,9.6923],[10.1217,9.6942],[10.1153,9.6937],[10.1088,9.6906],[10.1037,9.7009],[10.1049,9.7105],[10.1033,9.7195],[10.096,9.7242],[10.0849,9.7247],[10.0711,9.7308],[10.0534,9.729],[10.0485,9.726],[10.0468,9.7289],[10.0418,9.7305],[10.0388,9.7271],[10.0135,9.7191],[10.0057,9.7176],[9.9956,9.7182],[9.9843,9.713],[9.9726,9.6995]]]}},{"type":"Feature","properties":{"name":"Kanke","state":"Plateau","scode":"PL","centroid":[9.3726,9.6363]},"geometry":{"type":"Polygon","coordinates":[[[9.4842,9.4752],[9.487,9.4502],[9.5009,9.4501],[9.5145,9.4519],[9.5263,9.4401],[9.5443,9.4435],[9.548,9.4266],[9.5367,9.4187],[9.5365,9.413],[9.5292,9.4046],[9.5264,9.3972],[9.5009,9.3893],[9.5119,9.3809],[9.528,9.3778],[9.5371,9.3785],[9.5483,9.3684],[9.551,9.3617],[9.5367,9.3546],[9.5322,9.3468],[9.5279,9.3338],[9.5251,9.3184],[9.5296,9.3023],[9.521,9.2668],[9.4897,9.2618],[9.4792,9.2618],[9.4553,9.2544],[9.448,9.2544],[9.4471,9.2515],[9.4539,9.2241],[9.4585,9.2175],[9.4627,9.2126],[9.4806,9.217],[9.4851,9.2097],[9.4805,9.2018],[9.4699,9.1919],[9.465,9.1843],[9.4699,9.1759],[9.4763,9.1737],[9.4847,9.1777],[9.4926,9.1873],[9.506,9.1887],[9.5131,9.1788],[9.5344,9.21],[9.5461,9.2088],[9.5546,9.2005],[9.568,9.1979],[9.5862,9.2135],[9.588,9.2246],[9.5782,9.2403],[9.5757,9.2516],[9.581,9.2635],[9.5901,9.268],[9.6205,9.2538],[9.6205,9.2567],[9.6326,9.2615],[9.6316,9.2605],[9.6697,9.2841],[9.6752,9.2731],[9.6811,9.2521],[9.6886,9.2432],[9.7013,9.2342],[9.7109,9.2416],[9.7251,9.2474],[9.7324,9.2554],[9.7495,9.2581],[9.7593,9.2624],[9.7788,9.2614],[9.7871,9.2689],[9.7831,9.2937],[9.768,9.296],[9.7629,9.3257],[9.7663,9.339],[9.7588,9.3568],[9.7598,9.3691],[9.7746,9.3843],[9.7753,9.3932],[9.7693,9.412],[9.7707,9.4478],[9.7668,9.4512],[9.7626,9.4602],[9.7659,9.4843],[9.7722,9.5103],[9.7627,9.5285],[9.7609,9.5387],[9.7457,9.5315],[9.7326,9.5325],[9.7136,9.5278],[9.7039,9.5274],[9.6923,9.5225],[9.6832,9.5258],[9.6781,9.5308],[9.6679,9.5353],[9.6586,9.5317],[9.651,9.5219],[9.6484,9.5223],[9.6274,9.5346],[9.6277,9.5379],[9.6242,9.5372],[9.6202,9.5414],[9.6201,9.5433],[9.6151,9.5446],[9.6141,9.547],[9.6108,9.5489],[9.606,9.546],[9.5989,9.5465],[9.5903,9.5437],[9.5867,9.5441],[9.5792,9.5517],[9.5782,9.5428],[9.57,9.5344],[9.5705,9.5291],[9.5767,9.5228],[9.5899,9.5115],[9.5691,9.4727],[9.4842,9.4752]]]}},{"type":"Feature","properties":{"name":"Langtang North","state":"Plateau","scode":"PL","centroid":[9.0897,9.8156]},"geometry":{"type":"Polygon","coordinates":[[[9.6886,9.2432],[9.6944,9.2184],[9.6985,9.219],[9.7044,9.2107],[9.701,9.196],[9.6999,9.1805],[9.6916,9.175],[9.6602,9.1701],[9.6455,9.1605],[9.638,9.1572],[9.6364,9.1493],[9.6753,9.1416],[9.6836,9.1368],[9.6973,9.1221],[9.7186,9.1151],[9.7174,9.107],[9.7185,9.0917],[9.7216,9.0937],[9.7426,9.0977],[9.7503,9.0782],[9.7456,9.0625],[9.7394,9.0581],[9.7363,9.0443],[9.7423,9.0362],[9.7529,9.046],[9.7646,9.0297],[9.76,9.0264],[9.7605,9.015],[9.7638,9.0087],[9.7764,9.0013],[9.7856,9.0112],[9.7885,9.0126],[9.8167,8.9969],[9.8161,8.9991],[9.8295,8.9977],[9.8385,8.9897],[9.8425,8.9788],[9.8372,8.9699],[9.8357,8.963],[9.8318,8.9588],[9.8291,8.9522],[9.8253,8.9368],[9.822,8.9353],[9.8171,8.9266],[9.806,8.9209],[9.797,8.9193],[9.8007,8.905],[9.7854,8.8901],[9.784,8.8804],[9.7788,8.8666],[9.7779,8.8453],[9.7746,8.8317],[9.774,8.8047],[9.803,8.8175],[9.8326,8.8208],[9.8361,8.8164],[9.8721,8.8008],[9.8827,8.8395],[9.8782,8.8452],[9.8795,8.8584],[9.8788,8.868],[9.8758,8.8726],[9.8841,8.8892],[9.8891,8.8945],[9.8845,8.9171],[9.8833,8.9312],[9.8807,8.9402],[9.8654,8.9539],[9.8666,8.9571],[9.8823,8.9742],[9.8785,8.9781],[9.8743,8.9961],[9.882,9.0011],[9.8815,9.0056],[9.8739,9.0192],[9.8652,9.0265],[9.8661,9.0342],[9.8852,9.0369],[9.8893,9.0392],[9.8966,9.048],[9.9092,9.0557],[9.9108,9.0628],[9.9212,9.0781],[9.9358,9.0945],[9.9384,9.1056],[9.9211,9.1129],[9.9178,9.1236],[9.9123,9.1269],[9.9105,9.1411],[9.9013,9.1446],[9.9152,9.1569],[9.9212,9.149],[9.9312,9.1501],[9.9306,9.1613],[9.9238,9.1697],[9.9209,9.1813],[9.924,9.1998],[9.9307,9.2091],[9.9279,9.2126],[9.9161,9.2144],[9.9036,9.2117],[9.8995,9.2156],[9.8936,9.2169],[9.8854,9.2239],[9.8871,9.2355],[9.8909,9.2416],[9.894,9.243],[9.8799,9.259],[9.8736,9.2586],[9.8661,9.2614],[9.8643,9.2676],[9.8508,9.2673],[9.8507,9.2809],[9.8417,9.2795],[9.8322,9.2756],[9.8128,9.2826],[9.808,9.2919],[9.8009,9.298],[9.7873,9.2968],[9.7831,9.2937],[9.7871,9.2689],[9.7788,9.2614],[9.7593,9.2624],[9.7495,9.2581],[9.7324,9.2554],[9.7251,9.2474],[9.7109,9.2416],[9.7013,9.2342],[9.6886,9.2432]]]}},{"type":"Feature","properties":{"name":"Langtang South","state":"Plateau","scode":"PL","centroid":[8.5991,9.818]},"geometry":{"type":"Polygon","coordinates":[[[10.0518,8.5918],[10.0383,8.5984],[10.0167,8.6135],[9.9945,8.6196],[9.9871,8.6317],[9.9696,8.6174],[9.9744,8.6514],[9.9627,8.6434],[9.9542,8.6401],[9.9333,8.6406],[9.9069,8.6575],[9.8958,8.6717],[9.903,8.6844],[9.9061,8.7275],[9.9158,8.7435],[9.9121,8.7516],[9.9099,8.7627],[9.889,8.7914],[9.8877,8.795],[9.8721,8.8008],[9.8361,8.8164],[9.8326,8.8208],[9.803,8.8175],[9.774,8.8047],[9.7742,8.7989],[9.7724,8.7968],[9.7731,8.7814],[9.7623,8.7655],[9.7511,8.7573],[9.7397,8.7529],[9.7245,8.7503],[9.7089,8.7535],[9.7014,8.7493],[9.6919,8.7469],[9.6716,8.7267],[9.6701,8.717],[9.686,8.6877],[9.6756,8.6843],[9.6739,8.6815],[9.6583,8.6817],[9.6548,8.6739],[9.6553,8.6623],[9.6577,8.6528],[9.6631,8.6425],[9.6615,8.6347],[9.6551,8.6242],[9.6574,8.6161],[9.6579,8.6064],[9.6746,8.6085],[9.681,8.5963],[9.6771,8.5831],[9.6647,8.5803],[9.6594,8.5743],[9.6618,8.5641],[9.6784,8.5378],[9.6806,8.5321],[9.6788,8.5282],[9.6811,8.5206],[9.6815,8.5129],[9.6915,8.5037],[9.6961,8.4884],[9.7044,8.4753],[9.705,8.4637],[9.7133,8.4506],[9.7233,8.4414],[9.7337,8.4245],[9.7347,8.4033],[9.7391,8.3919],[9.7451,8.3883],[9.7512,8.3808],[9.7567,8.3673],[9.7613,8.3697],[9.765,8.3737],[9.7842,8.3824],[9.797,8.3906],[9.8023,8.3913],[9.8094,8.3974],[9.8214,8.4028],[9.856,8.4255],[9.8694,8.4313],[9.8794,8.4387],[9.8909,8.4478],[9.9203,8.4786],[9.9501,8.4989],[9.9631,8.5134],[9.9978,8.5409],[10.0042,8.5498],[10.0255,8.5698],[10.0518,8.5918]]]}},{"type":"Feature","properties":{"name":"Mangu","state":"Plateau","scode":"PL","centroid":[9.3967,9.1819]},"geometry":{"type":"Polygon","coordinates":[[[9.1576,9.7408],[9.1391,9.7354],[9.1363,9.7308],[9.1294,9.7322],[9.1074,9.7211],[9.1066,9.7136],[9.1007,9.7109],[9.0864,9.6892],[9.0932,9.6841],[9.1124,9.6833],[9.1191,9.6802],[9.1203,9.6664],[9.1157,9.6508],[9.1164,9.6441],[9.1414,9.6349],[9.1285,9.6103],[9.1183,9.581],[9.107,9.5742],[9.0917,9.5778],[9.0832,9.5737],[9.0763,9.573],[9.0732,9.5754],[9.0492,9.5647],[9.0384,9.5475],[9.0469,9.5379],[9.0436,9.5214],[9.0166,9.5253],[9.0168,9.5173],[9.0074,9.5004],[9.0154,9.4928],[9.0313,9.4691],[9.0295,9.4666],[9.0155,9.4669],[9.0053,9.454],[9.0103,9.443],[9.0152,9.4376],[9.0132,9.4316],[9.0171,9.4197],[9.0398,9.411],[9.0438,9.4022],[9.0419,9.3986],[9.0619,9.3772],[9.0727,9.3794],[9.077,9.3659],[9.082,9.3562],[9.0934,9.3503],[9.0926,9.3294],[9.1153,9.3319],[9.1331,9.3237],[9.1477,9.3142],[9.1478,9.3078],[9.1249,9.2999],[9.1108,9.2903],[9.1085,9.2825],[9.1156,9.2615],[9.111,9.2395],[9.1114,9.2348],[9.113,9.2328],[9.0944,9.2025],[9.0892,9.1913],[9.1072,9.1869],[9.115,9.1662],[9.1189,9.1615],[9.1268,9.1568],[9.1286,9.1447],[9.1422,9.1314],[9.1063,9.1039],[9.0996,9.0933],[9.1032,9.0862],[9.0781,9.0679],[9.0719,9.0439],[9.0797,9.0283],[9.0933,9.0187],[9.1312,9.0426],[9.1561,9.0257],[9.184,9.0405],[9.2186,9.0339],[9.2303,9.0702],[9.2428,9.0715],[9.2629,9.1007],[9.2629,9.1052],[9.2656,9.1113],[9.2705,9.1128],[9.2916,9.1111],[9.3013,9.1052],[9.3179,9.1207],[9.3134,9.1228],[9.2871,9.1539],[9.2766,9.1788],[9.2814,9.1997],[9.2637,9.2138],[9.2485,9.214],[9.2425,9.212],[9.2203,9.2189],[9.2261,9.232],[9.2298,9.2535],[9.2265,9.2683],[9.23,9.2712],[9.2539,9.2764],[9.2479,9.2856],[9.2608,9.3024],[9.2582,9.3057],[9.2626,9.3224],[9.2693,9.328],[9.2743,9.3364],[9.2643,9.3488],[9.2734,9.3586],[9.2801,9.3601],[9.292,9.3684],[9.3,9.3674],[9.3227,9.3785],[9.3303,9.3976],[9.3428,9.4128],[9.3359,9.4238],[9.3304,9.4283],[9.3176,9.433],[9.3096,9.4458],[9.3155,9.4494],[9.3221,9.4648],[9.3198,9.4752],[9.3235,9.4769],[9.342,9.5077],[9.32,9.5029],[9.313,9.4867],[9.2983,9.4879],[9.2974,9.5038],[9.2984,9.5053],[9.2936,9.5166],[9.2928,9.5277],[9.2949,9.5327],[9.2951,9.5494],[9.3142,9.5631],[9.304,9.5715],[9.3093,9.5989],[9.3272,9.5958],[9.3153,9.6072],[9.2898,9.6144],[9.2973,9.6248],[9.2846,9.6361],[9.2843,9.6439],[9.2914,9.6577],[9.2912,9.6616],[9.2945,9.6733],[9.2906,9.6751],[9.2878,9.6923],[9.2846,9.6981],[9.2672,9.6804],[9.2166,9.684],[9.2103,9.6874],[9.2039,9.7035],[9.1981,9.7085],[9.1951,9.7138],[9.1887,9.7165],[9.1783,9.728],[9.1576,9.7408]]]}},{"type":"Feature","properties":{"name":"Mikang","state":"Plateau","scode":"PL","centroid":[9.0219,9.6131]},"geometry":{"type":"Polygon","coordinates":[[[9.7854,8.8901],[9.8007,8.905],[9.797,8.9193],[9.806,8.9209],[9.8171,8.9266],[9.822,8.9353],[9.8253,8.9368],[9.8291,8.9522],[9.8318,8.9588],[9.8357,8.963],[9.8372,8.9699],[9.8425,8.9788],[9.8385,8.9897],[9.8295,8.9977],[9.8161,8.9991],[9.8167,8.9969],[9.7885,9.0126],[9.7856,9.0112],[9.7764,9.0013],[9.7638,9.0087],[9.7605,9.015],[9.76,9.0264],[9.7646,9.0297],[9.7529,9.046],[9.7423,9.0362],[9.7363,9.0443],[9.7394,9.0581],[9.7456,9.0625],[9.7503,9.0782],[9.7426,9.0977],[9.7216,9.0937],[9.7185,9.0917],[9.7174,9.107],[9.7186,9.1151],[9.6973,9.1221],[9.6836,9.1368],[9.6753,9.1416],[9.6364,9.1493],[9.6232,9.137],[9.5967,9.1279],[9.5839,9.1261],[9.5497,9.0819],[9.5396,9.0812],[9.5278,9.0937],[9.5031,9.0981],[9.4949,9.0867],[9.4858,9.0792],[9.4764,9.0787],[9.4606,9.061],[9.4509,9.0622],[9.436,9.103],[9.4196,9.0908],[9.4077,9.0949],[9.4052,9.098],[9.398,9.0734],[9.3935,9.0729],[9.3927,9.0595],[9.3943,9.0551],[9.3903,9.0507],[9.3937,9.0345],[9.3923,9.0328],[9.3861,9.0325],[9.3862,9.0288],[9.3823,9.027],[9.3839,9.0201],[9.3855,9.0193],[9.3877,9.0212],[9.389,9.021],[9.3888,9.0196],[9.3843,9.0146],[9.3847,9.0115],[9.3826,9.0114],[9.3774,9.0068],[9.3793,8.9993],[9.3764,8.9978],[9.3775,8.9926],[9.3761,8.9894],[9.3743,8.9896],[9.3692,8.9839],[9.37,8.9794],[9.3748,8.978],[9.3824,8.9803],[9.4054,8.9833],[9.4111,8.9854],[9.415,8.9837],[9.4244,8.988],[9.4361,8.9865],[9.4515,8.9872],[9.4672,8.9802],[9.4713,8.9746],[9.4833,8.9655],[9.5098,8.965],[9.5215,8.9305],[9.5338,8.933],[9.5241,8.9516],[9.5245,8.9621],[9.5394,8.9606],[9.545,8.9478],[9.5543,8.9473],[9.5578,8.9512],[9.5518,8.9555],[9.5501,8.9684],[9.5836,8.9687],[9.5797,8.9305],[9.5989,8.9243],[9.6123,8.9249],[9.6279,8.9217],[9.6453,8.9205],[9.6585,8.9269],[9.6757,8.9296],[9.7026,8.9308],[9.712,8.937],[9.7253,8.9395],[9.7348,8.9438],[9.7559,8.9448],[9.7757,8.9341],[9.7817,8.9285],[9.7839,8.9228],[9.7842,8.9171],[9.7825,8.9112],[9.7832,8.8977],[9.7854,8.8901]]]}},{"type":"Feature","properties":{"name":"Pankshin","state":"Plateau","scode":"PL","centroid":[9.2802,9.4314]},"geometry":{"type":"Polygon","coordinates":[[[9.3142,9.5631],[9.2951,9.5494],[9.2949,9.5327],[9.2928,9.5277],[9.2936,9.5166],[9.2984,9.5053],[9.2974,9.5038],[9.2983,9.4879],[9.313,9.4867],[9.32,9.5029],[9.342,9.5077],[9.3235,9.4769],[9.3198,9.4752],[9.3221,9.4648],[9.3155,9.4494],[9.3096,9.4458],[9.3176,9.433],[9.3304,9.4283],[9.3359,9.4238],[9.3428,9.4128],[9.3303,9.3976],[9.3227,9.3785],[9.3,9.3674],[9.292,9.3684],[9.2801,9.3601],[9.2734,9.3586],[9.2643,9.3488],[9.2743,9.3364],[9.2693,9.328],[9.2626,9.3224],[9.2582,9.3057],[9.2608,9.3024],[9.2479,9.2856],[9.2539,9.2764],[9.23,9.2712],[9.2265,9.2683],[9.2298,9.2535],[9.2261,9.232],[9.2203,9.2189],[9.2425,9.212],[9.2485,9.214],[9.2637,9.2138],[9.2814,9.1997],[9.2766,9.1788],[9.2871,9.1539],[9.3134,9.1228],[9.3179,9.1207],[9.3194,9.1203],[9.3207,9.1137],[9.3263,9.1084],[9.3548,9.1155],[9.3789,9.1113],[9.4052,9.098],[9.4077,9.0949],[9.4196,9.0908],[9.436,9.103],[9.4509,9.0622],[9.4606,9.061],[9.4764,9.0787],[9.4858,9.0792],[9.4949,9.0867],[9.5031,9.0981],[9.5278,9.0937],[9.5396,9.0812],[9.5497,9.0819],[9.5839,9.1261],[9.5967,9.1279],[9.6232,9.137],[9.6364,9.1493],[9.638,9.1572],[9.6455,9.1605],[9.6602,9.1701],[9.6916,9.175],[9.6999,9.1805],[9.701,9.196],[9.7044,9.2107],[9.6985,9.219],[9.6944,9.2184],[9.6886,9.2432],[9.6811,9.2521],[9.6752,9.2731],[9.6697,9.2841],[9.6316,9.2605],[9.6326,9.2615],[9.6205,9.2567],[9.6205,9.2538],[9.5901,9.268],[9.581,9.2635],[9.5757,9.2516],[9.5782,9.2403],[9.588,9.2246],[9.5862,9.2135],[9.568,9.1979],[9.5546,9.2005],[9.5461,9.2088],[9.5344,9.21],[9.5131,9.1788],[9.506,9.1887],[9.4926,9.1873],[9.4847,9.1777],[9.4763,9.1737],[9.4699,9.1759],[9.465,9.1843],[9.4699,9.1919],[9.4805,9.2018],[9.4851,9.2097],[9.4806,9.217],[9.4627,9.2126],[9.4585,9.2175],[9.4539,9.2241],[9.4471,9.2515],[9.448,9.2544],[9.4553,9.2544],[9.4792,9.2618],[9.4897,9.2618],[9.521,9.2668],[9.5296,9.3023],[9.5251,9.3184],[9.5279,9.3338],[9.5322,9.3468],[9.5367,9.3546],[9.551,9.3617],[9.5483,9.3684],[9.5371,9.3785],[9.528,9.3778],[9.5119,9.3809],[9.5009,9.3893],[9.5264,9.3972],[9.5292,9.4046],[9.5365,9.413],[9.5367,9.4187],[9.548,9.4266],[9.5443,9.4435],[9.5263,9.4401],[9.5145,9.4519],[9.5009,9.4501],[9.487,9.4502],[9.4842,9.4752],[9.4254,9.4769],[9.4035,9.5102],[9.4018,9.5198],[9.3974,9.5312],[9.351,9.5323],[9.3142,9.5631]]]}},{"type":"Feature","properties":{"name":"Qua'An Pan","state":"Plateau","scode":"PL","centroid":[8.7446,9.1704]},"geometry":{"type":"Polygon","coordinates":[[[8.996,8.5184],[9.0051,8.5137],[9.0103,8.5153],[9.0136,8.5121],[9.0195,8.5099],[9.0264,8.5128],[9.0368,8.5125],[9.0434,8.5184],[9.0494,8.5197],[9.0592,8.5123],[9.0599,8.4969],[9.0664,8.4925],[9.0699,8.4877],[9.0758,8.486],[9.0801,8.488],[9.0883,8.4836],[9.1014,8.4736],[9.1032,8.4642],[9.0968,8.4483],[9.0972,8.4406],[9.1011,8.4389],[9.1215,8.4382],[9.1244,8.4341],[9.1275,8.4337],[9.1285,8.4304],[9.1324,8.4287],[9.1386,8.4383],[9.1458,8.4434],[9.1525,8.4527],[9.1749,8.4672],[9.177,8.4635],[9.1826,8.4676],[9.2023,8.4588],[9.212,8.4573],[9.2543,8.4592],[9.2619,8.4614],[9.2639,8.4596],[9.2733,8.4639],[9.2889,8.4607],[9.2907,8.4627],[9.3116,8.4694],[9.3212,8.4697],[9.3363,8.4783],[9.3439,8.4805],[9.3516,8.4809],[9.3553,8.483],[9.3533,8.5128],[9.3776,8.5613],[9.3819,8.578],[9.39,8.5839],[9.3992,8.6052],[9.4018,8.6178],[9.3695,8.6287],[9.3569,8.6385],[9.3456,8.6505],[9.3405,8.6773],[9.3362,8.6887],[9.3397,8.6965],[9.3411,8.7063],[9.3448,8.7103],[9.3476,8.7336],[9.3512,8.7395],[9.3481,8.7645],[9.3436,8.7691],[9.3452,8.788],[9.362,8.796],[9.3618,8.8018],[9.3768,8.8102],[9.3805,8.8142],[9.403,8.8268],[9.4005,8.8382],[9.3907,8.8436],[9.3869,8.8415],[9.3792,8.8412],[9.358,8.8421],[9.3519,8.8477],[9.3437,8.8589],[9.3415,8.8646],[9.3411,8.8742],[9.3427,8.8801],[9.3405,8.8858],[9.3311,8.8869],[9.3282,8.9036],[9.3397,8.905],[9.3499,8.9325],[9.3554,8.9405],[9.3547,8.954],[9.3524,8.9635],[9.3358,8.9879],[9.3299,8.9915],[9.3278,8.9952],[9.3276,8.9991],[9.3216,9.0046],[9.3193,9.0122],[9.3208,9.02],[9.3198,9.0432],[9.3229,9.0587],[9.3225,9.0684],[9.3239,9.0781],[9.3218,9.1033],[9.3263,9.1084],[9.3207,9.1137],[9.3194,9.1203],[9.3179,9.1207],[9.3013,9.1052],[9.2916,9.1111],[9.2705,9.1128],[9.2656,9.1113],[9.2629,9.1052],[9.2629,9.1007],[9.2428,9.0715],[9.2303,9.0702],[9.2186,9.0339],[9.184,9.0405],[9.1561,9.0257],[9.1312,9.0426],[9.0933,9.0187],[9.0797,9.0283],[9.0569,9.0263],[9.0541,9.0249],[9.0627,9.0182],[9.067,9.0079],[9.0707,8.9878],[9.0684,8.9799],[9.0671,8.9663],[9.0712,8.9607],[9.0735,8.9531],[9.0719,8.9453],[9.0682,8.9413],[9.0625,8.9391],[9.046,8.9229],[9.0445,8.9132],[9.0318,8.8952],[9.0235,8.8659],[9.0162,8.8579],[9.0106,8.8538],[9.003,8.8515],[8.9991,8.8532],[8.9896,8.8509],[8.9856,8.8526],[8.974,8.8541],[8.9588,8.8495],[8.9553,8.8416],[8.9498,8.8356],[8.9511,8.8271],[8.9506,8.8158],[8.9451,8.7996],[8.9383,8.7937],[8.9327,8.7855],[8.924,8.7825],[8.9079,8.7836],[8.9006,8.7755],[8.9011,8.7639],[8.9047,8.7581],[8.9044,8.755],[8.896,8.7483],[8.8919,8.7404],[8.8921,8.7329],[8.9028,8.7193],[8.9107,8.703],[8.9139,8.6862],[8.9257,8.6772],[8.9348,8.6679],[8.9402,8.6672],[8.9423,8.6522],[8.9498,8.6339],[8.9512,8.6213],[8.9583,8.6122],[8.97,8.6056],[8.9778,8.6052],[8.9834,8.5966],[8.9832,8.5851],[8.981,8.5782],[8.9874,8.5645],[8.9841,8.5582],[8.984,8.5532],[8.9785,8.5492],[8.975,8.5414],[8.9751,8.5375],[8.9825,8.5273],[8.996,8.5184]]]}},{"type":"Feature","properties":{"name":"Riyom","state":"Plateau","scode":"PL","centroid":[9.5762,8.6911]},"geometry":{"type":"Polygon","coordinates":[[[8.5778,9.4992],[8.5801,9.4956],[8.5882,9.4893],[8.6027,9.4825],[8.6024,9.4727],[8.6076,9.464],[8.6177,9.4348],[8.6237,9.4292],[8.6279,9.4217],[8.6318,9.4199],[8.6423,9.4011],[8.6484,9.3956],[8.6562,9.394],[8.6649,9.3932],[8.6695,9.3965],[8.6873,9.3877],[8.6923,9.3826],[8.7011,9.403],[8.7097,9.4172],[8.7127,9.4258],[8.7237,9.4435],[8.7545,9.4591],[8.7586,9.4722],[8.7649,9.4755],[8.7763,9.4893],[8.7803,9.4919],[8.7849,9.5136],[8.8098,9.5109],[8.8327,9.5312],[8.838,9.5409],[8.858,9.5527],[8.8644,9.5586],[8.8602,9.5746],[8.8723,9.5897],[8.8773,9.6034],[8.8766,9.6174],[8.8738,9.6246],[8.8756,9.6404],[8.8718,9.6468],[8.8496,9.6285],[8.8458,9.6264],[8.8381,9.626],[8.8225,9.6311],[8.8104,9.6422],[8.8025,9.6457],[8.7951,9.6396],[8.79,9.6239],[8.7847,9.614],[8.7752,9.6116],[8.7672,9.6171],[8.7625,9.6362],[8.7545,9.6416],[8.7427,9.6469],[8.735,9.6465],[8.733,9.6484],[8.7078,9.653],[8.7018,9.6566],[8.6977,9.6623],[8.6973,9.6719],[8.699,9.6758],[8.6988,9.6797],[8.6933,9.6918],[8.6941,9.696],[8.7057,9.6974],[8.7109,9.7111],[8.7047,9.7185],[8.6973,9.7337],[8.7099,9.7364],[8.7049,9.7433],[8.7103,9.7465],[8.7179,9.7425],[8.7247,9.7445],[8.7398,9.751],[8.7435,9.755],[8.7584,9.7633],[8.7538,9.7806],[8.7269,9.7724],[8.7254,9.7671],[8.686,9.769],[8.6785,9.7472],[8.6604,9.7457],[8.6351,9.7576],[8.6336,9.7546],[8.6168,9.7448],[8.6155,9.7424],[8.6106,9.7413],[8.5989,9.7279],[8.6019,9.7061],[8.6019,9.6907],[8.599,9.6787],[8.5816,9.6758],[8.5801,9.6727],[8.5852,9.6644],[8.5778,9.6564],[8.5704,9.64],[8.5656,9.6243],[8.567,9.614],[8.5659,9.5966],[8.5557,9.5816],[8.5536,9.569],[8.5563,9.5537],[8.5685,9.5197],[8.5743,9.5137],[8.5778,9.4992]]]}},{"type":"Feature","properties":{"name":"Shendam","state":"Plateau","scode":"PL","centroid":[8.7141,9.535]},"geometry":{"type":"Polygon","coordinates":[[[9.7567,8.3673],[9.7512,8.3808],[9.7451,8.3883],[9.7391,8.3919],[9.7347,8.4033],[9.7337,8.4245],[9.7233,8.4414],[9.7133,8.4506],[9.705,8.4637],[9.7044,8.4753],[9.6961,8.4884],[9.6915,8.5037],[9.6815,8.5129],[9.6811,8.5206],[9.6788,8.5282],[9.6806,8.5321],[9.6784,8.5378],[9.6618,8.5641],[9.6594,8.5743],[9.6647,8.5803],[9.6771,8.5831],[9.681,8.5963],[9.6746,8.6085],[9.6579,8.6064],[9.6574,8.6161],[9.6551,8.6242],[9.6615,8.6347],[9.6631,8.6425],[9.6577,8.6528],[9.6553,8.6623],[9.6548,8.6739],[9.6583,8.6817],[9.6739,8.6815],[9.6756,8.6843],[9.686,8.6877],[9.6701,8.717],[9.6716,8.7267],[9.6919,8.7469],[9.7014,8.7493],[9.7089,8.7535],[9.7245,8.7503],[9.7397,8.7529],[9.7511,8.7573],[9.7623,8.7655],[9.7731,8.7814],[9.7724,8.7968],[9.7742,8.7989],[9.774,8.8047],[9.7746,8.8317],[9.7779,8.8453],[9.7788,8.8666],[9.784,8.8804],[9.7854,8.8901],[9.7832,8.8977],[9.7825,8.9112],[9.7842,8.9171],[9.7839,8.9228],[9.7817,8.9285],[9.7757,8.9341],[9.7559,8.9448],[9.7348,8.9438],[9.7253,8.9395],[9.712,8.937],[9.7026,8.9308],[9.6757,8.9296],[9.6585,8.9269],[9.6453,8.9205],[9.6279,8.9217],[9.6123,8.9249],[9.5989,8.9243],[9.5797,8.9305],[9.5836,8.9687],[9.5501,8.9684],[9.5518,8.9555],[9.5578,8.9512],[9.5543,8.9473],[9.545,8.9478],[9.5394,8.9606],[9.5245,8.9621],[9.5241,8.9516],[9.5338,8.933],[9.5215,8.9305],[9.5098,8.965],[9.4833,8.9655],[9.4713,8.9746],[9.4672,8.9802],[9.4515,8.9872],[9.4361,8.9865],[9.4244,8.988],[9.415,8.9837],[9.4111,8.9854],[9.4054,8.9833],[9.3824,8.9803],[9.3748,8.978],[9.37,8.9794],[9.3692,8.9839],[9.3743,8.9896],[9.3761,8.9894],[9.3775,8.9926],[9.3764,8.9978],[9.3793,8.9993],[9.3774,9.0068],[9.3826,9.0114],[9.3847,9.0115],[9.3843,9.0146],[9.3888,9.0196],[9.389,9.021],[9.3877,9.0212],[9.3855,9.0193],[9.3839,9.0201],[9.3823,9.027],[9.3862,9.0288],[9.3861,9.0325],[9.3923,9.0328],[9.3937,9.0345],[9.3903,9.0507],[9.3943,9.0551],[9.3927,9.0595],[9.3935,9.0729],[9.398,9.0734],[9.4052,9.098],[9.3789,9.1113],[9.3548,9.1155],[9.3263,9.1084],[9.3218,9.1033],[9.3239,9.0781],[9.3225,9.0684],[9.3229,9.0587],[9.3198,9.0432],[9.3208,9.02],[9.3193,9.0122],[9.3216,9.0046],[9.3276,8.9991],[9.3278,8.9952],[9.3299,8.9915],[9.3358,8.9879],[9.3524,8.9635],[9.3547,8.954],[9.3554,8.9405],[9.3499,8.9325],[9.3397,8.905],[9.3282,8.9036],[9.3311,8.8869],[9.3405,8.8858],[9.3427,8.8801],[9.3411,8.8742],[9.3415,8.8646],[9.3437,8.8589],[9.3519,8.8477],[9.358,8.8421],[9.3792,8.8412],[9.3869,8.8415],[9.3907,8.8436],[9.4005,8.8382],[9.403,8.8268],[9.3805,8.8142],[9.3768,8.8102],[9.3618,8.8018],[9.362,8.796],[9.3452,8.788],[9.3436,8.7691],[9.3481,8.7645],[9.3512,8.7395],[9.3476,8.7336],[9.3448,8.7103],[9.3411,8.7063],[9.3397,8.6965],[9.3362,8.6887],[9.3405,8.6773],[9.3456,8.6505],[9.3569,8.6385],[9.3695,8.6287],[9.4018,8.6178],[9.3992,8.6052],[9.39,8.5839],[9.3819,8.578],[9.3776,8.5613],[9.3533,8.5128],[9.3553,8.483],[9.3806,8.4783],[9.3885,8.4728],[9.4082,8.4641],[9.4269,8.4534],[9.4362,8.4501],[9.4421,8.4456],[9.4702,8.4312],[9.5203,8.415],[9.528,8.4153],[9.5323,8.4141],[9.5592,8.4015],[9.5886,8.3968],[9.5945,8.3932],[9.6016,8.3927],[9.605,8.3858],[9.6168,8.3718],[9.6251,8.3669],[9.6263,8.3699],[9.6205,8.3834],[9.6461,8.381],[9.6528,8.3842],[9.6548,8.3824],[9.6644,8.3828],[9.6683,8.381],[9.6799,8.3796],[9.6936,8.3764],[9.6956,8.3745],[9.7071,8.375],[9.7111,8.3733],[9.7567,8.3673]]]}},{"type":"Feature","properties":{"name":"Wase","state":"Plateau","scode":"PL","centroid":[9.0649,10.2166]},"geometry":{"type":"Polygon","coordinates":[[[10.5603,9.3902],[10.5243,9.3804],[10.5073,9.3887],[10.4877,9.3825],[10.4646,9.3728],[10.4494,9.3578],[10.4362,9.3482],[10.4272,9.3267],[10.3783,9.352],[10.3715,9.3582],[10.3696,9.3748],[10.3676,9.3796],[10.3714,9.4018],[10.3571,9.4139],[10.3502,9.4179],[10.3259,9.4152],[10.3046,9.4179],[10.3014,9.4234],[10.301,9.4509],[10.2935,9.4716],[10.2766,9.4814],[10.2733,9.4807],[10.2665,9.4388],[10.2371,9.4174],[10.2191,9.4422],[10.1886,9.4537],[10.1737,9.4436],[10.1575,9.4392],[10.1437,9.4303],[10.1426,9.4204],[10.1407,9.4168],[10.1196,9.4066],[10.107,9.3971],[10.0966,9.3849],[10.0953,9.3797],[10.0985,9.3685],[10.0954,9.3668],[10.0927,9.3612],[10.0839,9.3534],[10.076,9.3424],[10.0565,9.3445],[10.0437,9.3264],[10.0389,9.3237],[10.036,9.3025],[10.0216,9.2991],[10.0105,9.3094],[9.9912,9.3014],[9.9917,9.2887],[9.9939,9.2816],[10.008,9.2673],[10.0019,9.2544],[10.0116,9.2386],[10.0116,9.2359],[9.9923,9.2282],[9.974,9.2399],[9.9643,9.2345],[9.9604,9.221],[9.957,9.2179],[9.9526,9.2028],[9.9307,9.2091],[9.924,9.1998],[9.9209,9.1813],[9.9238,9.1697],[9.9306,9.1613],[9.9312,9.1501],[9.9212,9.149],[9.9152,9.1569],[9.9013,9.1446],[9.9105,9.1411],[9.9123,9.1269],[9.9178,9.1236],[9.9211,9.1129],[9.9384,9.1056],[9.9358,9.0945],[9.9212,9.0781],[9.9108,9.0628],[9.9092,9.0557],[9.8966,9.048],[9.8893,9.0392],[9.8852,9.0369],[9.8661,9.0342],[9.8652,9.0265],[9.8739,9.0192],[9.8815,9.0056],[9.882,9.0011],[9.8743,8.9961],[9.8785,8.9781],[9.8823,8.9742],[9.8666,8.9571],[9.8654,8.9539],[9.8807,8.9402],[9.8833,8.9312],[9.8845,8.9171],[9.8891,8.8945],[9.8841,8.8892],[9.8758,8.8726],[9.8788,8.868],[9.8795,8.8584],[9.8782,8.8452],[9.8827,8.8395],[9.8721,8.8008],[9.8877,8.795],[9.889,8.7914],[9.9099,8.7627],[9.9121,8.7516],[9.9158,8.7435],[9.9061,8.7275],[9.903,8.6844],[9.8958,8.6717],[9.9069,8.6575],[9.9333,8.6406],[9.9542,8.6401],[9.9627,8.6434],[9.9744,8.6514],[9.9696,8.6174],[9.9871,8.6317],[9.9945,8.6196],[10.0167,8.6135],[10.0383,8.5984],[10.0518,8.5918],[10.0662,8.6132],[10.0857,8.6348],[10.0872,8.64],[10.0972,8.6457],[10.1164,8.6725],[10.128,8.6817],[10.1704,8.7251],[10.1771,8.7289],[10.1803,8.7325],[10.1881,8.7484],[10.2062,8.7648],[10.2241,8.7846],[10.2357,8.7921],[10.2456,8.8044],[10.2618,8.8192],[10.2669,8.8194],[10.2769,8.8251],[10.2869,8.8324],[10.2919,8.8344],[10.3051,8.8453],[10.3251,8.8566],[10.3411,8.8798],[10.3509,8.8889],[10.3691,8.9019],[10.3805,8.9145],[10.3972,8.9239],[10.407,8.9347],[10.4269,8.9477],[10.4638,8.9632],[10.4792,8.9639],[10.4894,8.9661],[10.498,8.9648],[10.5098,8.9687],[10.5184,8.9674],[10.5303,8.9697],[10.5388,8.97],[10.544,8.9686],[10.5662,8.9696],[10.5797,8.9736],[10.5967,8.9761],[10.6032,8.9851],[10.6063,8.9921],[10.6272,9.019],[10.6301,9.0312],[10.6298,9.0364],[10.6374,9.0558],[10.6372,9.061],[10.64,9.0732],[10.6379,9.0818],[10.6225,9.094],[10.6253,9.1031],[10.6326,9.1111],[10.6361,9.119],[10.6358,9.1267],[10.6337,9.1305],[10.6256,9.1378],[10.6177,9.1413],[10.6135,9.1489],[10.6151,9.1567],[10.6104,9.1757],[10.6142,9.1828],[10.6105,9.1895],[10.5999,9.196],[10.5997,9.2012],[10.5957,9.2083],[10.5972,9.2099],[10.5966,9.2234],[10.5882,9.2385],[10.5801,9.2458],[10.5778,9.2979],[10.5795,9.3018],[10.5809,9.3134],[10.5803,9.3269],[10.5781,9.3326],[10.5701,9.3381],[10.5679,9.3437],[10.5599,9.3511],[10.5616,9.3551],[10.5613,9.3628],[10.5666,9.3726],[10.5644,9.3783],[10.5604,9.382],[10.5603,9.3902]]]}}]}