{"type":"FeatureCollection","features":[{"type":"Feature","properties":{"name":"Abua/Odual","state":"Rivers","scode":"RI","centroid":[4.8288,6.5641]},"geometry":{"type":"Polygon","coordinates":[[[6.5735,4.7049],[6.5794,4.7045],[6.5902,4.7083],[6.622,4.7063],[6.6243,4.7348],[6.6391,4.7434],[6.6656,4.7545],[6.6884,4.7582],[6.6983,4.7511],[6.7344,4.7674],[6.7386,4.7753],[6.741,4.8019],[6.7383,4.8205],[6.7409,4.8252],[6.7257,4.8676],[6.6897,4.8659],[6.6694,4.8848],[6.668,4.8885],[6.646,4.9027],[6.6432,4.9068],[6.6191,4.9164],[6.6138,4.926],[6.6115,4.9676],[6.6088,4.9773],[6.553,4.9725],[6.5581,4.9633],[6.5562,4.951],[6.5574,4.9427],[6.5484,4.9375],[6.5465,4.9342],[6.5498,4.9297],[6.5612,4.9275],[6.5676,4.9223],[6.5681,4.9142],[6.559,4.9151],[6.5614,4.9089],[6.571,4.9061],[6.5746,4.9037],[6.5771,4.899],[6.5711,4.8936],[6.5695,4.8895],[6.5751,4.8805],[6.5731,4.8756],[6.5795,4.8656],[6.5742,4.8553],[6.5601,4.8511],[6.5388,4.865],[6.5351,4.871],[6.5307,4.8681],[6.5176,4.8681],[6.5129,4.8767],[6.4998,4.8845],[6.4983,4.8896],[6.4871,4.9098],[6.4659,4.927],[6.4538,4.933],[6.4441,4.9343],[6.434,4.9303],[6.4256,4.9207],[6.4207,4.9068],[6.4146,4.8963],[6.4066,4.8871],[6.4009,4.8751],[6.3984,4.8645],[6.3993,4.8384],[6.4023,4.8272],[6.4229,4.7772],[6.43,4.7659],[6.4447,4.7756],[6.4441,4.761],[6.4414,4.7453],[6.4459,4.73],[6.4594,4.724],[6.4611,4.7133],[6.4785,4.7139],[6.499,4.7326],[6.5176,4.7471],[6.5273,4.753],[6.5526,4.7586],[6.5792,4.7581],[6.5983,4.7527],[6.6072,4.7464],[6.5935,4.7225],[6.5789,4.7152],[6.5741,4.7094],[6.5735,4.7049]]]}},{"type":"Feature","properties":{"name":"Ahoada East","state":"Rivers","scode":"RI","centroid":[5.0644,6.6393]},"geometry":{"type":"Polygon","coordinates":[[[6.668,4.8885],[6.7025,4.9212],[6.6993,4.9281],[6.6789,4.926],[6.6638,4.9317],[6.6704,4.9442],[6.6697,4.9513],[6.6712,4.9608],[6.6758,4.9635],[6.682,4.9727],[6.6798,4.9795],[6.6716,4.9882],[6.6731,4.9973],[6.6834,5.0072],[6.6866,5.0134],[6.712,5.018],[6.6993,5.0561],[6.7104,5.0785],[6.7248,5.0959],[6.7219,5.1055],[6.6984,5.1156],[6.6941,5.1229],[6.6946,5.1413],[6.6976,5.1405],[6.7043,5.1448],[6.7128,5.1467],[6.722,5.1467],[6.7253,5.1583],[6.7135,5.1625],[6.7113,5.1568],[6.7047,5.1576],[6.6966,5.1648],[6.694,5.1691],[6.676,5.179],[6.6844,5.2147],[6.6711,5.2267],[6.6608,5.2326],[6.6606,5.1946],[6.634,5.1942],[6.6261,5.2003],[6.6226,5.2014],[6.5896,5.1915],[6.5828,5.1851],[6.5787,5.1772],[6.5859,5.1723],[6.5786,5.1521],[6.5743,5.1339],[6.573,5.1181],[6.5737,5.1057],[6.5764,5.0936],[6.5779,5.0515],[6.5763,5.0266],[6.5666,5.0147],[6.5601,4.9957],[6.5441,4.9835],[6.5456,4.977],[6.553,4.9725],[6.6088,4.9773],[6.6115,4.9676],[6.6138,4.926],[6.6191,4.9164],[6.6432,4.9068],[6.646,4.9027],[6.668,4.8885]]]}},{"type":"Feature","properties":{"name":"Ahoada West","state":"Rivers","scode":"RI","centroid":[5.0257,6.5109]},"geometry":{"type":"Polygon","coordinates":[[[6.5787,5.1772],[6.5534,5.1898],[6.5445,5.1863],[6.5346,5.1868],[6.5263,5.1742],[6.5114,5.172],[6.4933,5.1635],[6.4858,5.1534],[6.473,5.1285],[6.4605,5.098],[6.4439,5.0681],[6.439,5.0529],[6.4296,5.0387],[6.4258,5.0294],[6.4116,5.0046],[6.4104,4.9911],[6.4217,4.9816],[6.4374,4.9665],[6.4404,4.9548],[6.4406,4.9432],[6.434,4.9303],[6.4441,4.9343],[6.4538,4.933],[6.4659,4.927],[6.4871,4.9098],[6.4983,4.8896],[6.4998,4.8845],[6.5129,4.8767],[6.5176,4.8681],[6.5307,4.8681],[6.5351,4.871],[6.5388,4.865],[6.5601,4.8511],[6.5742,4.8553],[6.5795,4.8656],[6.5731,4.8756],[6.5751,4.8805],[6.5695,4.8895],[6.5711,4.8936],[6.5771,4.899],[6.5746,4.9037],[6.571,4.9061],[6.5614,4.9089],[6.559,4.9151],[6.5681,4.9142],[6.5676,4.9223],[6.5612,4.9275],[6.5498,4.9297],[6.5465,4.9342],[6.5484,4.9375],[6.5574,4.9427],[6.5562,4.951],[6.5581,4.9633],[6.553,4.9725],[6.5456,4.977],[6.5441,4.9835],[6.5601,4.9957],[6.5666,5.0147],[6.5763,5.0266],[6.5779,5.0515],[6.5764,5.0936],[6.5737,5.1057],[6.573,5.1181],[6.5743,5.1339],[6.5786,5.1521],[6.5859,5.1723],[6.5787,5.1772]]]}},{"type":"Feature","properties":{"name":"Akuku Toru","state":"Rivers","scode":"RI","centroid":[4.535,6.6803]},"geometry":{"type":"Polygon","coordinates":[[[6.7929,4.7278],[6.7937,4.7312],[6.7909,4.7333],[6.7894,4.7392],[6.786,4.7418],[6.7825,4.7421],[6.7758,4.747],[6.7754,4.7504],[6.7842,4.7725],[6.7892,4.7752],[6.7845,4.7828],[6.7814,4.7975],[6.7849,4.8207],[6.7507,4.8272],[6.7409,4.8252],[6.7383,4.8205],[6.741,4.8019],[6.7386,4.7753],[6.7344,4.7674],[6.6983,4.7511],[6.6884,4.7582],[6.6656,4.7545],[6.6391,4.7434],[6.6243,4.7348],[6.622,4.7063],[6.5902,4.7083],[6.5794,4.7045],[6.5735,4.7049],[6.5731,4.7016],[6.5676,4.7016],[6.5605,4.6977],[6.5624,4.6924],[6.5536,4.6884],[6.5466,4.682],[6.512,4.6431],[6.5154,4.6329],[6.5166,4.6226],[6.5351,4.6088],[6.5381,4.5962],[6.5489,4.5863],[6.5455,4.581],[6.5402,4.5766],[6.5431,4.5684],[6.5513,4.5582],[6.56,4.5543],[6.5663,4.5538],[6.56,4.5412],[6.545,4.5335],[6.5426,4.5219],[6.5499,4.5102],[6.54,4.5009],[6.5343,4.4885],[6.5318,4.4788],[6.5252,4.4696],[6.5126,4.4317],[6.5121,4.3801],[6.5141,4.3689],[6.5204,4.3609],[6.5446,4.3549],[6.548,4.3437],[6.5492,4.3253],[6.62,4.3258],[6.641,4.3119],[6.6467,4.3152],[6.647,4.3264],[6.6942,4.33],[6.7064,4.3387],[6.6938,4.3892],[6.6876,4.4046],[6.6817,4.4094],[6.6887,4.4225],[6.7003,4.4196],[6.6975,4.4476],[6.6953,4.4609],[6.6915,4.4716],[6.6903,4.4821],[6.6921,4.494],[6.6893,4.5116],[6.6898,4.5185],[6.6951,4.5336],[6.7132,4.5618],[6.7193,4.5783],[6.7209,4.5992],[6.7187,4.6109],[6.7245,4.6127],[6.7266,4.6087],[6.7286,4.5937],[6.7317,4.5847],[6.7321,4.5723],[6.7267,4.5567],[6.7226,4.5507],[6.7169,4.5456],[6.7114,4.5358],[6.7061,4.5213],[6.7007,4.5111],[6.6971,4.4961],[6.6997,4.4773],[6.7035,4.4654],[6.7092,4.4572],[6.7074,4.4449],[6.7159,4.4166],[6.716,4.4088],[6.7126,4.4035],[6.7135,4.384],[6.7125,4.3589],[6.7169,4.35],[6.738,4.3464],[6.7627,4.3464],[6.8752,4.3571],[6.8748,4.3638],[6.8569,4.3791],[6.8502,4.3901],[6.8582,4.3982],[6.842,4.4264],[6.8169,4.5021],[6.8122,4.5428],[6.8142,4.5782],[6.8404,4.6025],[6.8381,4.6188],[6.8142,4.6453],[6.7869,4.6656],[6.7737,4.7216],[6.777,4.7228],[6.777,4.7255],[6.7882,4.7201],[6.7929,4.7278]]]}},{"type":"Feature","properties":{"name":"Andoni","state":"Rivers","scode":"RI","centroid":[4.5095,7.3999]},"geometry":{"type":"Polygon","coordinates":[[[7.3246,4.4395],[7.3334,4.4437],[7.3673,4.442],[7.4184,4.4315],[7.4474,4.4399],[7.4874,4.4487],[7.5186,4.4513],[7.5803,4.4501],[7.5871,4.4532],[7.5906,4.4589],[7.5897,4.4628],[7.5833,4.4613],[7.5817,4.4757],[7.5894,4.4895],[7.578,4.4961],[7.5766,4.4838],[7.5639,4.4705],[7.5269,4.4792],[7.5123,4.4856],[7.5013,4.4832],[7.4889,4.4857],[7.4798,4.4897],[7.4741,4.4958],[7.4748,4.5009],[7.4817,4.5104],[7.481,4.5152],[7.4764,4.5165],[7.4652,4.5145],[7.4541,4.5359],[7.4523,4.5434],[7.4501,4.5446],[7.4528,4.5563],[7.4649,4.561],[7.4667,4.5668],[7.4736,4.5715],[7.4765,4.5844],[7.453,4.5902],[7.4311,4.5838],[7.4157,4.5692],[7.3922,4.5825],[7.3832,4.5812],[7.3692,4.5713],[7.363,4.5715],[7.3503,4.583],[7.3498,4.5903],[7.337,4.5974],[7.305,4.5935],[7.3021,4.5866],[7.2821,4.5601],[7.2623,4.5019],[7.2763,4.4956],[7.3012,4.503],[7.3271,4.5047],[7.3414,4.4929],[7.336,4.4851],[7.3312,4.4736],[7.3294,4.4546],[7.3246,4.4395]]]}},{"type":"Feature","properties":{"name":"Asari-Toru","state":"Rivers","scode":"RI","centroid":[4.742,6.847]},"geometry":{"type":"Polygon","coordinates":[[[6.9047,4.7518],[6.8767,4.7758],[6.8778,4.8017],[6.8625,4.8249],[6.8499,4.8246],[6.8132,4.8428],[6.7994,4.8223],[6.7849,4.8207],[6.7814,4.7975],[6.7845,4.7828],[6.7892,4.7752],[6.7842,4.7725],[6.7754,4.7504],[6.7758,4.747],[6.7825,4.7421],[6.786,4.7418],[6.7894,4.7392],[6.7909,4.7333],[6.7937,4.7312],[6.7929,4.7278],[6.799,4.7237],[6.798,4.7126],[6.8002,4.7098],[6.7968,4.7044],[6.7993,4.6992],[6.8056,4.6977],[6.8202,4.688],[6.8211,4.6831],[6.824,4.6807],[6.8249,4.678],[6.8241,4.6715],[6.8318,4.6641],[6.8342,4.6597],[6.8483,4.6608],[6.8771,4.6521],[6.8895,4.6572],[6.8985,4.6521],[6.9127,4.6566],[6.9067,4.6813],[6.9172,4.6841],[6.9178,4.6887],[6.9151,4.7275],[6.9047,4.7518]]]}},{"type":"Feature","properties":{"name":"Bonny","state":"Rivers","scode":"RI","centroid":[4.4469,7.2389]},"geometry":{"type":"Polygon","coordinates":[[[7.2623,4.5019],[7.2552,4.5127],[7.2472,4.5304],[7.2372,4.5384],[7.2167,4.5448],[7.2174,4.5207],[7.1887,4.4757],[7.1757,4.46],[7.1708,4.4576],[7.1666,4.4476],[7.1347,4.4104],[7.1322,4.3858],[7.1373,4.3745],[7.1399,4.376],[7.1393,4.3801],[7.1406,4.3832],[7.1438,4.3841],[7.1819,4.3795],[7.2038,4.379],[7.2158,4.3804],[7.3081,4.4089],[7.3286,4.4168],[7.3231,4.4335],[7.3246,4.4395],[7.3294,4.4546],[7.3312,4.4736],[7.336,4.4851],[7.3414,4.4929],[7.3271,4.5047],[7.3012,4.503],[7.2763,4.4956],[7.2623,4.5019]]]}},{"type":"Feature","properties":{"name":"Degema","state":"Rivers","scode":"RI","centroid":[4.5531,6.9104]},"geometry":{"type":"Polygon","coordinates":[[[6.8582,4.3982],[6.9575,4.373],[6.9751,4.3753],[6.9905,4.3703],[7.0056,4.3694],[7.0111,4.3706],[7.0194,4.3756],[7.0225,4.3794],[7.0247,4.3842],[7.025,4.3894],[7.0174,4.409],[7.0009,4.4186],[6.9946,4.4356],[6.9918,4.4517],[6.9924,4.462],[6.9913,4.4696],[6.9847,4.4773],[6.9793,4.4879],[6.9756,4.5033],[6.9775,4.5084],[6.985,4.5139],[6.9816,4.5327],[6.9754,4.5972],[6.9838,4.6171],[6.9846,4.6369],[6.9734,4.6672],[6.9642,4.6854],[6.9726,4.7057],[6.9852,4.7038],[6.9867,4.7172],[6.9832,4.7488],[6.9883,4.7611],[6.985,4.7648],[6.9647,4.7644],[6.965,4.7687],[6.9638,4.7713],[6.9604,4.7743],[6.9579,4.7745],[6.9496,4.7731],[6.9474,4.7749],[6.942,4.79],[6.9371,4.7851],[6.9322,4.7849],[6.9291,4.7817],[6.9047,4.7518],[6.9151,4.7275],[6.9178,4.6887],[6.9172,4.6841],[6.9067,4.6813],[6.9127,4.6566],[6.8985,4.6521],[6.8895,4.6572],[6.8771,4.6521],[6.8483,4.6608],[6.8342,4.6597],[6.8318,4.6641],[6.8241,4.6715],[6.8249,4.678],[6.824,4.6807],[6.8211,4.6831],[6.8202,4.688],[6.8056,4.6977],[6.7993,4.6992],[6.7968,4.7044],[6.8002,4.7098],[6.798,4.7126],[6.799,4.7237],[6.7929,4.7278],[6.7882,4.7201],[6.777,4.7255],[6.777,4.7228],[6.7737,4.7216],[6.7869,4.6656],[6.8142,4.6453],[6.8381,4.6188],[6.8404,4.6025],[6.8142,4.5782],[6.8122,4.5428],[6.8169,4.5021],[6.842,4.4264],[6.8582,4.3982]]]}},{"type":"Feature","properties":{"name":"Eleme","state":"Rivers","scode":"RI","centroid":[4.7865,7.1369]},"geometry":{"type":"Polygon","coordinates":[[[7.1222,4.7021],[7.1315,4.704],[7.1344,4.7031],[7.1354,4.7009],[7.1332,4.6965],[7.1353,4.6954],[7.1378,4.6962],[7.1395,4.6935],[7.1509,4.7025],[7.1529,4.708],[7.1515,4.7117],[7.1544,4.7179],[7.159,4.7204],[7.1648,4.7183],[7.1663,4.7189],[7.1674,4.7232],[7.1771,4.7234],[7.1759,4.7307],[7.1897,4.7412],[7.1877,4.7444],[7.1901,4.7504],[7.1872,4.7726],[7.1877,4.7956],[7.1847,4.8075],[7.1484,4.7939],[7.1683,4.8204],[7.1716,4.8508],[7.1646,4.8547],[7.1658,4.8572],[7.1618,4.857],[7.159,4.8597],[7.1555,4.8574],[7.1353,4.8538],[7.1292,4.8428],[7.1271,4.8335],[7.1065,4.8512],[7.0995,4.8573],[7.0928,4.8562],[7.0924,4.8496],[7.0861,4.8411],[7.0745,4.837],[7.0701,4.8315],[7.0751,4.8273],[7.0791,4.8261],[7.0776,4.8215],[7.0736,4.8166],[7.0781,4.8148],[7.0754,4.8069],[7.0921,4.7925],[7.0959,4.7845],[7.09,4.7718],[7.0972,4.7645],[7.1043,4.7713],[7.1132,4.7621],[7.119,4.7676],[7.1393,4.7342],[7.1308,4.7335],[7.1302,4.7349],[7.1203,4.7322],[7.1141,4.7278],[7.1138,4.7259],[7.118,4.724],[7.118,4.7198],[7.1152,4.7146],[7.1161,4.7085],[7.1222,4.7021]]]}},{"type":"Feature","properties":{"name":"Emuoha","state":"Rivers","scode":"RI","centroid":[4.9294,6.7877]},"geometry":{"type":"MultiPolygon","coordinates":[[[[6.9291,4.7817],[6.9189,4.804],[6.9203,4.8074],[6.9288,4.8113],[6.9315,4.8201],[6.9215,4.8249],[6.9202,4.8298],[6.9236,4.8349],[6.9241,4.843],[6.9207,4.8478],[6.9086,4.8497],[6.9026,4.855],[6.9038,4.8632],[6.9027,4.8706],[6.8914,4.8852],[6.898,4.8891],[6.9001,4.8937],[6.8999,4.8972],[6.8975,4.9005],[6.8991,4.9042],[6.898,4.9102],[6.8948,4.9114],[6.8917,4.9113],[6.8874,4.9073],[6.8848,4.9071],[6.8816,4.9105],[6.8676,4.9132],[6.8647,4.9199],[6.8585,4.9263],[6.8461,4.9527],[6.8464,5.0263],[6.806,5.0548],[6.7825,5.0518],[6.777,5.0614],[6.7636,5.0789],[6.7435,5.0899],[6.7248,5.0959],[6.7104,5.0785],[6.6993,5.0561],[6.712,5.018],[6.6866,5.0134],[6.6834,5.0072],[6.6731,4.9973],[6.6716,4.9882],[6.6798,4.9795],[6.682,4.9727],[6.6758,4.9635],[6.6712,4.9608],[6.6697,4.9513],[6.6704,4.9442],[6.6638,4.9317],[6.6789,4.926],[6.6993,4.9281],[6.7025,4.9212],[6.668,4.8885],[6.6694,4.8848],[6.6897,4.8659],[6.7257,4.8676],[6.7409,4.8252],[6.7507,4.8272],[6.7849,4.8207],[6.7994,4.8223],[6.8132,4.8428],[6.8499,4.8246],[6.8625,4.8249],[6.8778,4.8017],[6.8767,4.7758],[6.9047,4.7518],[6.9291,4.7817]]],[[[6.7219,5.1055],[6.7276,5.1222],[6.7398,5.1468],[6.7441,5.1515],[6.7536,5.158],[6.7583,5.1533],[6.7689,5.1466],[6.7844,5.128],[6.7986,5.1313],[6.8223,5.1566],[6.8214,5.1568],[6.8313,5.172],[6.824,5.2035],[6.8101,5.2275],[6.8166,5.2594],[6.7862,5.2848],[6.7707,5.3008],[6.7615,5.3159],[6.7509,5.3127],[6.7327,5.3012],[6.7244,5.2934],[6.7201,5.2871],[6.7172,5.2792],[6.7169,5.268],[6.72,5.2425],[6.7034,5.2172],[6.6844,5.2147],[6.676,5.179],[6.694,5.1691],[6.6966,5.1648],[6.7047,5.1576],[6.7113,5.1568],[6.7135,5.1625],[6.7253,5.1583],[6.722,5.1467],[6.7128,5.1467],[6.7043,5.1448],[6.6976,5.1405],[6.6946,5.1413],[6.6941,5.1229],[6.6984,5.1156],[6.7219,5.1055]]]]}},{"type":"Feature","properties":{"name":"Etche","state":"Rivers","scode":"RI","centroid":[5.092,7.0831]},"geometry":{"type":"Polygon","coordinates":[[[7.2279,5.1948],[7.2101,5.1966],[7.1984,5.1998],[7.1825,5.2076],[7.1654,5.2123],[7.1227,5.2163],[7.1041,5.2215],[7.0873,5.2287],[7.0838,5.229],[7.0622,5.2405],[7.0599,5.24],[7.056,5.2441],[7.0451,5.2487],[7.0357,5.2488],[7.015,5.2419],[7.012,5.2424],[7.0036,5.24],[6.9984,5.2392],[6.9865,5.2343],[6.9718,5.2362],[6.9598,5.2317],[6.9436,5.2286],[6.9444,5.1983],[6.9388,5.1903],[6.941,5.1366],[6.9448,5.1326],[6.9447,5.1295],[6.9502,5.1257],[6.9571,5.1179],[6.9672,5.1014],[6.9727,5.0892],[6.9801,5.0578],[6.9797,5.0519],[6.9759,5.048],[6.9806,5.0477],[6.994,5.024],[7.0076,5.0261],[7.0129,5.0064],[7.0162,5.0046],[7.0248,5.0129],[7.0321,5.0039],[7.034,5.0079],[7.0388,5.0108],[7.0534,4.9917],[7.0465,4.9851],[7.0377,4.9698],[7.0276,4.9659],[7.0235,4.9625],[7.0193,4.9561],[7.028,4.9387],[7.0322,4.9281],[7.0311,4.919],[7.0389,4.9223],[7.0634,4.925],[7.0821,4.9218],[7.0821,4.9085],[7.0799,4.9036],[7.0876,4.9017],[7.0931,4.9023],[7.0942,4.9042],[7.0967,4.9002],[7.1046,4.9014],[7.1217,4.8936],[7.1245,4.8903],[7.1366,4.8933],[7.1448,4.8938],[7.1463,4.8959],[7.1461,4.8976],[7.1419,4.9013],[7.1416,4.9046],[7.1438,4.9132],[7.1503,4.9243],[7.1685,4.9448],[7.1837,4.9499],[7.1808,4.9654],[7.1805,4.9805],[7.1869,5.0153],[7.1776,5.0369],[7.1814,5.0404],[7.1892,5.0535],[7.1884,5.066],[7.1977,5.0779],[7.1957,5.0893],[7.2077,5.1089],[7.2111,5.12],[7.2094,5.1259],[7.2145,5.1436],[7.2146,5.1579],[7.208,5.1628],[7.2279,5.1948]]]}},{"type":"Feature","properties":{"name":"Gokana","state":"Rivers","scode":"RI","centroid":[4.6484,7.2888]},"geometry":{"type":"Polygon","coordinates":[[[7.305,4.5935],[7.3039,4.598],[7.3156,4.6174],[7.3207,4.6328],[7.3205,4.6369],[7.3251,4.6486],[7.3305,4.6557],[7.334,4.6579],[7.3573,4.6578],[7.3552,4.6672],[7.3564,4.6754],[7.3556,4.6797],[7.361,4.6881],[7.3553,4.6936],[7.3521,4.6936],[7.3319,4.7101],[7.319,4.7027],[7.3163,4.7037],[7.291,4.7031],[7.2837,4.6955],[7.279,4.6946],[7.2554,4.6965],[7.2532,4.6989],[7.234,4.6954],[7.2272,4.6827],[7.2443,4.6685],[7.2465,4.6481],[7.2352,4.6267],[7.2355,4.625],[7.2472,4.6069],[7.248,4.5977],[7.2821,4.5601],[7.3021,4.5866],[7.305,4.5935]]]}},{"type":"Feature","properties":{"name":"Ikwerre","state":"Rivers","scode":"RI","centroid":[5.0691,6.8916]},"geometry":{"type":"Polygon","coordinates":[[[6.7248,5.0959],[6.7435,5.0899],[6.7636,5.0789],[6.777,5.0614],[6.7825,5.0518],[6.806,5.0548],[6.8464,5.0263],[6.8461,4.9527],[6.8585,4.9263],[6.8647,4.9199],[6.8676,4.9132],[6.8816,4.9105],[6.8848,4.9071],[6.8874,4.9073],[6.8917,4.9113],[6.8948,4.9114],[6.898,4.9102],[6.8991,4.9042],[6.9018,4.9053],[6.9061,4.9028],[6.9204,4.9226],[6.9233,4.9175],[6.9346,4.9109],[6.9417,4.9103],[6.9411,4.9117],[6.953,4.9176],[6.9547,4.9175],[6.9571,4.9101],[6.9635,4.9101],[6.9597,4.9248],[6.9617,4.9334],[6.9593,4.9368],[6.9709,4.9365],[6.9796,4.9334],[6.995,4.9246],[6.9982,4.9281],[6.9994,4.9273],[7.0056,4.9351],[7.01,4.9328],[7.0204,4.9319],[7.0266,4.939],[7.028,4.9387],[7.0193,4.9561],[7.0235,4.9625],[7.0276,4.9659],[7.0377,4.9698],[7.0465,4.9851],[7.0534,4.9917],[7.0388,5.0108],[7.034,5.0079],[7.0321,5.0039],[7.0248,5.0129],[7.0162,5.0046],[7.0129,5.0064],[7.0076,5.0261],[6.994,5.024],[6.9806,5.0477],[6.9759,5.048],[6.9797,5.0519],[6.9801,5.0578],[6.9727,5.0892],[6.9672,5.1014],[6.9571,5.1179],[6.9502,5.1257],[6.9447,5.1295],[6.9448,5.1326],[6.941,5.1366],[6.9388,5.1903],[6.9444,5.1983],[6.9436,5.2286],[6.9289,5.2265],[6.904,5.2195],[6.8876,5.2256],[6.8756,5.2379],[6.8664,5.2431],[6.849,5.2498],[6.8361,5.2499],[6.8271,5.2524],[6.8166,5.2594],[6.8101,5.2275],[6.824,5.2035],[6.8313,5.172],[6.8214,5.1568],[6.8223,5.1566],[6.7986,5.1313],[6.7844,5.128],[6.7689,5.1466],[6.7583,5.1533],[6.7536,5.158],[6.7441,5.1515],[6.7398,5.1468],[6.7276,5.1222],[6.7219,5.1055],[6.7248,5.0959]]]}},{"type":"Feature","properties":{"name":"Khana","state":"Rivers","scode":"RI","centroid":[4.694,7.4285]},"geometry":{"type":"Polygon","coordinates":[[[7.4765,4.5844],[7.4878,4.5846],[7.4973,4.5795],[7.5181,4.5941],[7.5294,4.5961],[7.5259,4.6028],[7.5249,4.6131],[7.5176,4.6336],[7.5241,4.6549],[7.5215,4.6621],[7.5163,4.6633],[7.5175,4.6797],[7.5219,4.6892],[7.5278,4.6969],[7.5351,4.7004],[7.5355,4.714],[7.5423,4.7301],[7.5339,4.7534],[7.5316,4.7684],[7.5096,4.7852],[7.4973,4.7808],[7.4913,4.7822],[7.4682,4.7971],[7.463,4.7988],[7.4564,4.8155],[7.445,4.8222],[7.4308,4.8274],[7.4049,4.8245],[7.3804,4.8273],[7.3668,4.8234],[7.3662,4.8078],[7.3573,4.7821],[7.3419,4.7751],[7.3272,4.7626],[7.3412,4.7332],[7.3442,4.7243],[7.3319,4.7101],[7.3521,4.6936],[7.3553,4.6936],[7.361,4.6881],[7.3556,4.6797],[7.3564,4.6754],[7.3552,4.6672],[7.3573,4.6578],[7.334,4.6579],[7.3305,4.6557],[7.3251,4.6486],[7.3205,4.6369],[7.3207,4.6328],[7.3156,4.6174],[7.3039,4.598],[7.305,4.5935],[7.337,4.5974],[7.3498,4.5903],[7.3503,4.583],[7.363,4.5715],[7.3692,4.5713],[7.3832,4.5812],[7.3922,4.5825],[7.4157,4.5692],[7.4311,4.5838],[7.453,4.5902],[7.4765,4.5844]]]}},{"type":"Feature","properties":{"name":"Obio/Akpor","state":"Rivers","scode":"RI","centroid":[4.8662,6.9979]},"geometry":{"type":"Polygon","coordinates":[[[6.9579,4.7745],[6.9618,4.7784],[6.9682,4.7802],[6.973,4.7838],[6.9745,4.7898],[6.9712,4.7951],[6.9734,4.7949],[6.976,4.7975],[6.9763,4.8071],[6.9774,4.8083],[6.9829,4.8136],[6.9952,4.816],[6.9944,4.8202],[7.0011,4.8197],[7.0011,4.821],[7.0057,4.8216],[7.0043,4.8309],[7.025,4.8292],[7.0247,4.8244],[7.0276,4.8254],[7.0296,4.8181],[7.0313,4.8199],[7.0374,4.8069],[7.0466,4.8147],[7.0478,4.8129],[7.0534,4.8137],[7.0571,4.8123],[7.0609,4.8073],[7.0625,4.8093],[7.068,4.8094],[7.0736,4.8166],[7.0776,4.8215],[7.0791,4.8261],[7.0751,4.8273],[7.0701,4.8315],[7.0745,4.837],[7.0861,4.8411],[7.0924,4.8496],[7.0928,4.8562],[7.0995,4.8573],[7.1065,4.8512],[7.1105,4.8587],[7.1108,4.871],[7.1128,4.8723],[7.1018,4.8897],[7.0974,4.8886],[7.097,4.8962],[7.0931,4.9023],[7.0876,4.9017],[7.0799,4.9036],[7.0821,4.9085],[7.0821,4.9218],[7.0634,4.925],[7.0389,4.9223],[7.0311,4.919],[7.0322,4.9281],[7.028,4.9387],[7.0266,4.939],[7.0204,4.9319],[7.01,4.9328],[7.0056,4.9351],[6.9994,4.9273],[6.9982,4.9281],[6.995,4.9246],[6.9796,4.9334],[6.9709,4.9365],[6.9593,4.9368],[6.9617,4.9334],[6.9597,4.9248],[6.9635,4.9101],[6.9571,4.9101],[6.9547,4.9175],[6.953,4.9176],[6.9411,4.9117],[6.9417,4.9103],[6.9346,4.9109],[6.9233,4.9175],[6.9204,4.9226],[6.9061,4.9028],[6.9018,4.9053],[6.8991,4.9042],[6.8975,4.9005],[6.8999,4.8972],[6.9001,4.8937],[6.898,4.8891],[6.8914,4.8852],[6.9027,4.8706],[6.9038,4.8632],[6.9026,4.855],[6.9086,4.8497],[6.9207,4.8478],[6.9241,4.843],[6.9236,4.8349],[6.9202,4.8298],[6.9215,4.8249],[6.9315,4.8201],[6.9288,4.8113],[6.9203,4.8074],[6.9189,4.804],[6.9291,4.7817],[6.9322,4.7849],[6.9371,4.7851],[6.942,4.79],[6.9474,4.7749],[6.9496,4.7731],[6.9579,4.7745]]]}},{"type":"Feature","properties":{"name":"Ogba/Egbema/Ndoni","state":"Rivers","scode":"RI","centroid":[5.3976,6.6318]},"geometry":{"type":"Polygon","coordinates":[[[6.6844,5.2147],[6.7034,5.2172],[6.72,5.2425],[6.7169,5.268],[6.7172,5.2792],[6.7201,5.2871],[6.7244,5.2934],[6.7327,5.3012],[6.7509,5.3127],[6.7615,5.3159],[6.7558,5.3235],[6.7576,5.3428],[6.7605,5.3534],[6.7581,5.3898],[6.7625,5.4102],[6.7533,5.4335],[6.749,5.4388],[6.7441,5.4491],[6.7437,5.4589],[6.7512,5.4648],[6.7499,5.4765],[6.745,5.4845],[6.7414,5.4941],[6.7333,5.4939],[6.7156,5.4891],[6.6527,5.4907],[6.6391,5.4934],[6.6584,5.6249],[6.6689,5.6899],[6.6531,5.6816],[6.626,5.6835],[6.6019,5.6875],[6.5997,5.6789],[6.6065,5.6702],[6.6213,5.6426],[6.6176,5.6315],[6.6038,5.6149],[6.601,5.5969],[6.5917,5.5745],[6.5848,5.5617],[6.5689,5.5534],[6.5554,5.5524],[6.5426,5.5492],[6.5308,5.532],[6.5382,5.4758],[6.5348,5.459],[6.5245,5.4387],[6.5176,5.4344],[6.5088,5.4257],[6.4997,5.4265],[6.4831,5.4206],[6.4766,5.4041],[6.4855,5.3792],[6.54,5.3806],[6.562,5.3792],[6.5696,5.3721],[6.5671,5.3336],[6.5632,5.3202],[6.5486,5.3023],[6.5309,5.2845],[6.5325,5.2738],[6.5374,5.2649],[6.5478,5.2578],[6.5666,5.237],[6.5528,5.2265],[6.5492,5.2127],[6.5588,5.1984],[6.5534,5.1898],[6.5787,5.1772],[6.5828,5.1851],[6.5896,5.1915],[6.6226,5.2014],[6.6261,5.2003],[6.634,5.1942],[6.6606,5.1946],[6.6608,5.2326],[6.6711,5.2267],[6.6844,5.2147]]]}},{"type":"Feature","properties":{"name":"Ogu Bolo","state":"Rivers","scode":"RI","centroid":[4.6367,7.2071]},"geometry":{"type":"Polygon","coordinates":[[[7.2821,4.5601],[7.248,4.5977],[7.2472,4.6069],[7.2355,4.625],[7.2352,4.6267],[7.2465,4.6481],[7.2443,4.6685],[7.2272,4.6827],[7.234,4.6954],[7.2144,4.7104],[7.2161,4.7121],[7.2152,4.715],[7.219,4.7163],[7.2198,4.715],[7.2233,4.7202],[7.2115,4.731],[7.2106,4.7304],[7.2058,4.734],[7.1968,4.7335],[7.1897,4.7412],[7.1759,4.7307],[7.1771,4.7234],[7.1674,4.7232],[7.1663,4.7189],[7.1648,4.7183],[7.159,4.7204],[7.1544,4.7179],[7.1515,4.7117],[7.1529,4.708],[7.1509,4.7025],[7.1395,4.6935],[7.1378,4.6962],[7.1353,4.6954],[7.1332,4.6965],[7.1354,4.7009],[7.1344,4.7031],[7.1315,4.704],[7.1222,4.7021],[7.1225,4.6939],[7.1187,4.6866],[7.1203,4.681],[7.1251,4.6777],[7.1252,4.6731],[7.1234,4.6697],[7.1442,4.6649],[7.1528,4.66],[7.1684,4.6317],[7.1903,4.61],[7.2065,4.5646],[7.2167,4.5448],[7.2372,4.5384],[7.2472,4.5304],[7.2552,4.5127],[7.2623,4.5019],[7.2821,4.5601]]]}},{"type":"Feature","properties":{"name":"Okrika","state":"Rivers","scode":"RI","centroid":[4.6039,7.0732]},"geometry":{"type":"Polygon","coordinates":[[[6.9838,4.6171],[6.9983,4.6067],[6.9939,4.5899],[6.9975,4.5638],[7.0082,4.5365],[7.0094,4.5307],[7.0073,4.5128],[7.0159,4.4684],[7.0221,4.4534],[7.0214,4.4467],[7.0241,4.4412],[7.0342,4.4378],[7.0444,4.4364],[7.0673,4.4406],[7.0751,4.4463],[7.0941,4.453],[7.1037,4.4515],[7.1589,4.4636],[7.17,4.4865],[7.1774,4.515],[7.1771,4.5295],[7.166,4.5486],[7.1764,4.5711],[7.1761,4.5844],[7.1697,4.6044],[7.1573,4.6294],[7.1502,4.6406],[7.1292,4.6565],[7.1048,4.6665],[7.0958,4.6684],[7.0921,4.6762],[7.0835,4.6841],[7.0787,4.7027],[7.0818,4.7219],[7.0857,4.7232],[7.088,4.7187],[7.0888,4.7011],[7.0914,4.6929],[7.1024,4.6785],[7.1082,4.674],[7.1234,4.6697],[7.1252,4.6731],[7.1251,4.6777],[7.1203,4.681],[7.1187,4.6866],[7.1225,4.6939],[7.1222,4.7021],[7.1161,4.7085],[7.1152,4.7146],[7.118,4.7198],[7.118,4.724],[7.1138,4.7259],[7.1141,4.7278],[7.1203,4.7322],[7.1302,4.7349],[7.1308,4.7335],[7.1393,4.7342],[7.119,4.7676],[7.1132,4.7621],[7.1043,4.7713],[7.0972,4.7645],[7.09,4.7718],[7.0959,4.7845],[7.0921,4.7925],[7.0754,4.8069],[7.0781,4.8148],[7.0736,4.8166],[7.068,4.8094],[7.0625,4.8093],[7.0609,4.8073],[7.0689,4.8024],[7.0695,4.7951],[7.0625,4.7911],[7.0614,4.786],[7.0681,4.7799],[7.0695,4.7766],[7.0682,4.772],[7.0583,4.7687],[7.0558,4.7661],[7.054,4.757],[7.0549,4.7532],[7.0435,4.7504],[7.0447,4.748],[7.0431,4.7473],[7.0428,4.7489],[7.0387,4.7489],[7.0391,4.7507],[7.0356,4.7538],[7.025,4.7558],[7.0128,4.7499],[7.0115,4.7474],[7.0122,4.7386],[7.0102,4.735],[7.0066,4.7358],[6.998,4.7547],[6.9883,4.7611],[6.9832,4.7488],[6.9867,4.7172],[6.9852,4.7038],[6.9726,4.7057],[6.9642,4.6854],[6.9734,4.6672],[6.9846,4.6369],[6.9838,4.6171]]]}},{"type":"Feature","properties":{"name":"Omumma","state":"Rivers","scode":"RI","centroid":[5.0866,7.2322]},"geometry":{"type":"Polygon","coordinates":[[[7.1837,4.9499],[7.2091,4.9565],[7.2179,4.9616],[7.2284,4.971],[7.2351,4.981],[7.2412,4.994],[7.2483,5.0173],[7.2517,5.0331],[7.2514,5.0494],[7.2529,5.0643],[7.2561,5.078],[7.2651,5.0955],[7.2714,5.1035],[7.2787,5.1168],[7.2802,5.1317],[7.2877,5.147],[7.2926,5.1726],[7.2908,5.1824],[7.2868,5.1918],[7.2813,5.2016],[7.275,5.2096],[7.271,5.2118],[7.2643,5.2156],[7.2601,5.2133],[7.2561,5.2135],[7.2514,5.2019],[7.2421,5.1959],[7.2279,5.1948],[7.208,5.1628],[7.2146,5.1579],[7.2145,5.1436],[7.2094,5.1259],[7.2111,5.12],[7.2077,5.1089],[7.1957,5.0893],[7.1977,5.0779],[7.1884,5.066],[7.1892,5.0535],[7.1814,5.0404],[7.1776,5.0369],[7.1869,5.0153],[7.1805,4.9805],[7.1808,4.9654],[7.1837,4.9499]]]}},{"type":"Feature","properties":{"name":"Opobo/Nkoro","state":"Rivers","scode":"RI","centroid":[4.5294,7.5086]},"geometry":{"type":"Polygon","coordinates":[[[7.578,4.4961],[7.5571,4.5029],[7.5427,4.5147],[7.5326,4.5259],[7.5277,4.5384],[7.5229,4.5464],[7.5213,4.5547],[7.527,4.5656],[7.5429,4.5755],[7.5437,4.5798],[7.5323,4.5913],[7.5294,4.5961],[7.5181,4.5941],[7.4973,4.5795],[7.4878,4.5846],[7.4765,4.5844],[7.4736,4.5715],[7.4667,4.5668],[7.4649,4.561],[7.4528,4.5563],[7.4501,4.5446],[7.4523,4.5434],[7.4541,4.5359],[7.4652,4.5145],[7.4764,4.5165],[7.481,4.5152],[7.4817,4.5104],[7.4748,4.5009],[7.4741,4.4958],[7.4798,4.4897],[7.4889,4.4857],[7.5013,4.4832],[7.5123,4.4856],[7.5269,4.4792],[7.5639,4.4705],[7.5766,4.4838],[7.578,4.4961]]]}},{"type":"Feature","properties":{"name":"Oyigbo","state":"Rivers","scode":"RI","centroid":[4.8343,7.3017]},"geometry":{"type":"Polygon","coordinates":[[[7.3272,4.7626],[7.3419,4.7751],[7.3573,4.7821],[7.3662,4.8078],[7.3668,4.8234],[7.3804,4.8273],[7.4049,4.8245],[7.4308,4.8274],[7.445,4.8222],[7.4564,4.8155],[7.463,4.7988],[7.4682,4.7971],[7.4913,4.7822],[7.4973,4.7808],[7.5096,4.7852],[7.5118,4.7931],[7.5115,4.8073],[7.4951,4.8283],[7.4887,4.8218],[7.4868,4.8276],[7.4744,4.8367],[7.4716,4.8423],[7.4662,4.8454],[7.4467,4.8454],[7.4365,4.854],[7.4292,4.8624],[7.4164,4.8667],[7.3842,4.8627],[7.3735,4.8629],[7.362,4.8653],[7.3524,4.8719],[7.3308,4.8735],[7.3198,4.8796],[7.3053,4.8755],[7.2714,4.873],[7.2638,4.8692],[7.2574,4.8674],[7.247,4.8673],[7.2246,4.8579],[7.218,4.8573],[7.1989,4.8617],[7.1838,4.8752],[7.1738,4.8794],[7.1559,4.8837],[7.1472,4.8903],[7.1463,4.8959],[7.1448,4.8938],[7.1366,4.8933],[7.1245,4.8903],[7.1217,4.8936],[7.1046,4.9014],[7.0967,4.9002],[7.0942,4.9042],[7.0931,4.9023],[7.097,4.8962],[7.0974,4.8886],[7.1018,4.8897],[7.1128,4.8723],[7.1108,4.871],[7.1105,4.8587],[7.1065,4.8512],[7.1271,4.8335],[7.1292,4.8428],[7.1353,4.8538],[7.1555,4.8574],[7.159,4.8597],[7.1618,4.857],[7.1658,4.8572],[7.1646,4.8547],[7.1716,4.8508],[7.1683,4.8204],[7.1484,4.7939],[7.1847,4.8075],[7.2049,4.822],[7.217,4.824],[7.2246,4.8182],[7.2322,4.8298],[7.2506,4.8227],[7.2544,4.7949],[7.2561,4.7933],[7.2601,4.7907],[7.2898,4.7898],[7.2925,4.7801],[7.299,4.7746],[7.3075,4.7632],[7.3272,4.7626]]]}},{"type":"Feature","properties":{"name":"Port-Harcourt","state":"Rivers","scode":"RI","centroid":[4.7857,7.0177]},"geometry":{"type":"Polygon","coordinates":[[[6.9883,4.7611],[6.998,4.7547],[7.0066,4.7358],[7.0102,4.735],[7.0122,4.7386],[7.0115,4.7474],[7.0128,4.7499],[7.025,4.7558],[7.0356,4.7538],[7.0391,4.7507],[7.0387,4.7489],[7.0428,4.7489],[7.0431,4.7473],[7.0447,4.748],[7.0435,4.7504],[7.0549,4.7532],[7.054,4.757],[7.0558,4.7661],[7.0583,4.7687],[7.0682,4.772],[7.0695,4.7766],[7.0681,4.7799],[7.0614,4.786],[7.0625,4.7911],[7.0695,4.7951],[7.0689,4.8024],[7.0609,4.8073],[7.0571,4.8123],[7.0534,4.8137],[7.0478,4.8129],[7.0466,4.8147],[7.0374,4.8069],[7.0313,4.8199],[7.0296,4.8181],[7.0276,4.8254],[7.0247,4.8244],[7.025,4.8292],[7.0043,4.8309],[7.0057,4.8216],[7.0011,4.821],[7.0011,4.8197],[6.9944,4.8202],[6.9952,4.816],[6.9829,4.8136],[6.9774,4.8083],[6.9763,4.8071],[6.976,4.7975],[6.9734,4.7949],[6.9712,4.7951],[6.9745,4.7898],[6.973,4.7838],[6.9682,4.7802],[6.9618,4.7784],[6.9579,4.7745],[6.9604,4.7743],[6.9638,4.7713],[6.965,4.7687],[6.9647,4.7644],[6.985,4.7648],[6.9883,4.7611]]]}},{"type":"Feature","properties":{"name":"Tai","state":"Rivers","scode":"RI","centroid":[4.7541,7.2555]},"geometry":{"type":"Polygon","coordinates":[[[7.234,4.6954],[7.2532,4.6989],[7.2554,4.6965],[7.279,4.6946],[7.2837,4.6955],[7.291,4.7031],[7.3163,4.7037],[7.319,4.7027],[7.3319,4.7101],[7.3442,4.7243],[7.3412,4.7332],[7.3272,4.7626],[7.3075,4.7632],[7.299,4.7746],[7.2925,4.7801],[7.2898,4.7898],[7.2601,4.7907],[7.2561,4.7933],[7.2544,4.7949],[7.2506,4.8227],[7.2322,4.8298],[7.2246,4.8182],[7.217,4.824],[7.2049,4.822],[7.1847,4.8075],[7.1877,4.7956],[7.1872,4.7726],[7.1901,4.7504],[7.1877,4.7444],[7.1897,4.7412],[7.1968,4.7335],[7.2058,4.734],[7.2106,4.7304],[7.2115,4.731],[7.2233,4.7202],[7.2198,4.715],[7.219,4.7163],[7.2152,4.715],[7.2161,4.7121],[7.2144,4.7104],[7.234,4.6954]]]}}]}