{"type":"FeatureCollection","features":[{"type":"Feature","properties":{"name":"Binji","state":"Sokoto","scode":"SO","centroid":[13.1945,4.7761]},"geometry":{"type":"Polygon","coordinates":[[[4.7022,13.0732],[4.7215,13.0911],[4.7454,13.1051],[4.7609,13.109],[4.7986,13.1101],[4.7988,13.115],[4.8356,13.1191],[4.8538,13.1244],[4.8601,13.1164],[4.8693,13.1126],[4.8779,13.1208],[4.8853,13.1235],[4.8847,13.1064],[4.8895,13.0944],[4.9361,13.0853],[4.9853,13.0847],[4.9661,13.1165],[4.9737,13.1236],[4.988,13.1294],[5.0129,13.1335],[5.071,13.173],[5.0446,13.1782],[5.0158,13.1868],[4.9763,13.2182],[4.9672,13.2231],[4.9644,13.2363],[4.9596,13.2427],[4.9415,13.2581],[4.95,13.2737],[4.9648,13.2865],[4.9622,13.2905],[4.9532,13.2965],[4.9351,13.293],[4.9098,13.3068],[4.876,13.3099],[4.8602,13.3089],[4.8544,13.3335],[4.7975,13.338],[4.7281,13.3509],[4.7116,13.3031],[4.7012,13.285],[4.6954,13.255],[4.6514,13.2585],[4.6198,13.2483],[4.6014,13.2397],[4.5889,13.2295],[4.5362,13.2009],[4.5113,13.1841],[4.4975,13.16],[4.513,13.1367],[4.5547,13.1114],[4.623,13.0701],[4.683,13.0789],[4.7022,13.0732]]]}},{"type":"Feature","properties":{"name":"Bodinga","state":"Sokoto","scode":"SO","centroid":[12.7979,5.2149]},"geometry":{"type":"Polygon","coordinates":[[[5.0852,12.7741],[5.0943,12.7851],[5.0975,12.7858],[5.1203,12.8001],[5.1295,12.7988],[5.1311,12.791],[5.14,12.7766],[5.1507,12.7717],[5.1806,12.7652],[5.1854,12.7399],[5.1931,12.7172],[5.1998,12.6772],[5.2253,12.6523],[5.2913,12.6225],[5.3088,12.6179],[5.336,12.617],[5.3535,12.6224],[5.3648,12.6811],[5.3743,12.6854],[5.3832,12.7265],[5.3227,12.7654],[5.3139,12.7786],[5.2961,12.796],[5.2753,12.813],[5.2706,12.823],[5.2582,12.8405],[5.2576,12.8607],[5.2544,12.8722],[5.2577,12.8763],[5.2548,12.8809],[5.25,12.8836],[5.2472,12.8901],[5.2455,12.9029],[5.2415,12.9091],[5.2362,12.9316],[5.2276,12.9372],[5.2096,12.9458],[5.1982,12.9489],[5.1878,12.9496],[5.1807,12.9555],[5.1792,12.9597],[5.18,12.9629],[5.1676,12.975],[5.1692,12.9819],[5.164,12.9864],[5.1571,12.9887],[5.1512,12.9928],[5.1368,12.9928],[5.1289,12.9978],[5.1084,12.9915],[5.1098,12.9873],[5.1175,12.9865],[5.1169,12.9812],[5.1203,12.9758],[5.1181,12.9672],[5.107,12.9665],[5.1062,12.9311],[5.0796,12.9337],[5.0579,12.9337],[5.0855,12.8861],[5.0868,12.8702],[5.0936,12.862],[5.1027,12.8574],[5.0998,12.8527],[5.0891,12.8461],[5.0723,12.8447],[5.0615,12.8379],[5.0586,12.8345],[5.0674,12.8084],[5.0544,12.7853],[5.0693,12.7757],[5.0852,12.7741]]]}},{"type":"Feature","properties":{"name":"Dange Shuni","state":"Sokoto","scode":"SO","centroid":[12.8337,5.4233]},"geometry":{"type":"Polygon","coordinates":[[[5.5882,12.8041],[5.5767,12.8129],[5.5714,12.8197],[5.5688,12.8281],[5.5625,12.837],[5.5487,12.846],[5.547,12.8559],[5.5422,12.8664],[5.5447,12.884],[5.5481,12.8855],[5.5462,12.892],[5.5495,12.9094],[5.546,12.9111],[5.5495,12.9122],[5.5485,12.9154],[5.5523,12.917],[5.5529,12.9198],[5.5565,12.9205],[5.5589,12.9264],[5.5517,12.9286],[5.5508,12.9365],[5.5466,12.9459],[5.5484,12.952],[5.5402,12.981],[5.4694,12.9663],[5.4483,12.9641],[5.4239,12.9793],[5.4135,12.9802],[5.3983,12.9983],[5.3701,12.9759],[5.3498,12.9687],[5.3455,12.988],[5.3361,12.9938],[5.318,12.9997],[5.3093,13.0095],[5.3043,13.0226],[5.2921,13.0305],[5.2838,13.03],[5.2778,13.0273],[5.2764,13.0211],[5.2718,13.0177],[5.2693,13.0125],[5.2636,13.0135],[5.2578,13.0079],[5.2474,13.0056],[5.2411,13.0055],[5.238,13.0012],[5.2385,12.9965],[5.225,12.9909],[5.2221,12.9807],[5.2135,12.9636],[5.2056,12.9569],[5.2,12.9576],[5.1982,12.9489],[5.2096,12.9458],[5.2276,12.9372],[5.2362,12.9316],[5.2415,12.9091],[5.2455,12.9029],[5.2472,12.8901],[5.25,12.8836],[5.2548,12.8809],[5.2577,12.8763],[5.2544,12.8722],[5.2576,12.8607],[5.2582,12.8405],[5.2706,12.823],[5.2753,12.813],[5.2961,12.796],[5.3139,12.7786],[5.3227,12.7654],[5.3832,12.7265],[5.3743,12.6854],[5.3829,12.6788],[5.3746,12.6331],[5.374,12.6208],[5.3841,12.6175],[5.401,12.617],[5.4285,12.6103],[5.4402,12.6048],[5.4449,12.6006],[5.4486,12.6009],[5.4492,12.6075],[5.4476,12.61],[5.449,12.6131],[5.4517,12.6136],[5.462,12.6228],[5.4588,12.6288],[5.4598,12.6371],[5.4713,12.6457],[5.4819,12.6599],[5.487,12.6625],[5.4931,12.6692],[5.4965,12.6707],[5.4883,12.6922],[5.5068,12.7213],[5.5325,12.7842],[5.5758,12.751],[5.5802,12.7372],[5.5789,12.7342],[5.5817,12.7317],[5.5814,12.7281],[5.5768,12.7214],[5.578,12.7015],[5.5768,12.6953],[5.5744,12.6936],[5.5765,12.6793],[5.6036,12.6773],[5.619,12.6812],[5.6225,12.6875],[5.6373,12.6922],[5.6447,12.7074],[5.6521,12.7181],[5.6613,12.7219],[5.6745,12.7348],[5.6493,12.7689],[5.6204,12.7871],[5.5882,12.8041]]]}},{"type":"Feature","properties":{"name":"Gada","state":"Sokoto","scode":"SO","centroid":[13.6963,5.6774]},"geometry":{"type":"Polygon","coordinates":[[[5.9818,13.7127],[5.9442,13.7249],[5.9235,13.7362],[5.8761,13.7507],[5.8595,13.7587],[5.8383,13.7609],[5.825,13.7638],[5.712,13.808],[5.7054,13.8113],[5.7042,13.8146],[5.6945,13.817],[5.693,13.8152],[5.6316,13.8363],[5.5572,13.8753],[5.53,13.8857],[5.4517,13.8711],[5.4199,13.8597],[5.4281,13.836],[5.434,13.7758],[5.4453,13.7594],[5.4627,13.7652],[5.4681,13.7635],[5.4717,13.7643],[5.4717,13.7745],[5.4751,13.7767],[5.4905,13.7745],[5.4826,13.7559],[5.4713,13.7483],[5.4651,13.7472],[5.4608,13.7331],[5.4503,13.7257],[5.4488,13.6981],[5.4519,13.6877],[5.4593,13.6781],[5.4688,13.6706],[5.4742,13.6707],[5.4896,13.6766],[5.4929,13.6601],[5.5006,13.6624],[5.5216,13.6624],[5.5272,13.6548],[5.5143,13.652],[5.5216,13.6334],[5.5307,13.6003],[5.5361,13.5707],[5.5247,13.5648],[5.5306,13.5563],[5.5343,13.5292],[5.5309,13.5175],[5.5341,13.5064],[5.5587,13.4939],[5.5751,13.5049],[5.574,13.5355],[5.5607,13.5566],[5.5454,13.569],[5.5857,13.5852],[5.5985,13.588],[5.6044,13.5942],[5.612,13.6117],[5.6237,13.6074],[5.6422,13.6186],[5.6582,13.6074],[5.6779,13.6024],[5.6893,13.6013],[5.6894,13.5987],[5.6958,13.5923],[5.6885,13.5868],[5.6759,13.5833],[5.6817,13.5482],[5.7017,13.5161],[5.7033,13.5011],[5.6965,13.4915],[5.702,13.4839],[5.7618,13.507],[5.7698,13.5025],[5.7723,13.5018],[5.7741,13.5035],[5.7764,13.5134],[5.7757,13.5256],[5.7888,13.5432],[5.8,13.577],[5.8333,13.5792],[5.8367,13.573],[5.877,13.5687],[5.9007,13.5731],[5.9154,13.565],[5.9245,13.5938],[5.9268,13.6124],[5.924,13.6216],[5.8885,13.6197],[5.8894,13.628],[5.9117,13.6473],[5.9389,13.6481],[5.9525,13.6714],[5.9702,13.6834],[5.9701,13.6939],[5.9714,13.6968],[5.9745,13.6985],[5.9818,13.7127]]]}},{"type":"Feature","properties":{"name":"Goronyo","state":"Sokoto","scode":"SO","centroid":[13.3617,5.792]},"geometry":{"type":"Polygon","coordinates":[[[5.9154,13.565],[5.9007,13.5731],[5.877,13.5687],[5.8367,13.573],[5.8333,13.5792],[5.8,13.577],[5.7888,13.5432],[5.7757,13.5256],[5.7764,13.5134],[5.7741,13.5035],[5.7723,13.5018],[5.7698,13.5025],[5.7618,13.507],[5.702,13.4839],[5.6965,13.4915],[5.7033,13.5011],[5.7017,13.5161],[5.6817,13.5482],[5.6759,13.5833],[5.6885,13.5868],[5.6958,13.5923],[5.6894,13.5987],[5.6893,13.6013],[5.6779,13.6024],[5.6582,13.6074],[5.6422,13.6186],[5.6237,13.6074],[5.612,13.6117],[5.6044,13.5942],[5.5985,13.588],[5.5857,13.5852],[5.5454,13.569],[5.5607,13.5566],[5.574,13.5355],[5.5751,13.5049],[5.5587,13.4939],[5.551,13.4839],[5.5336,13.4536],[5.5043,13.3945],[5.4853,13.3772],[5.4972,13.3362],[5.5102,13.3247],[5.5221,13.3109],[5.5235,13.3062],[5.5262,13.309],[5.53,13.3094],[5.5322,13.3145],[5.5353,13.317],[5.5385,13.3175],[5.5464,13.3146],[5.5899,13.2872],[5.6071,13.2921],[5.6068,13.2941],[5.6025,13.294],[5.6092,13.3018],[5.6361,13.2905],[5.7121,13.2891],[5.7509,13.3044],[5.7726,13.3084],[5.8045,13.3102],[5.8516,13.2911],[5.861,13.2206],[5.8196,13.2235],[5.7721,13.2297],[5.7443,13.2301],[5.7338,13.2317],[5.722,13.2379],[5.7164,13.2153],[5.72,13.2149],[5.7054,13.1853],[5.7213,13.107],[5.7654,13.1048],[5.7848,13.1067],[5.8536,13.1212],[5.9131,13.1133],[5.9973,13.0875],[6.0233,13.0854],[6.0111,13.1079],[6.0129,13.1199],[6.0119,13.1313],[6.016,13.1394],[5.998,13.1825],[5.9832,13.2545],[5.9918,13.3155],[6.0281,13.3555],[6.0565,13.3942],[6.0363,13.4361],[6.0113,13.4686],[5.9818,13.4838],[5.9619,13.4877],[5.9154,13.565]]]}},{"type":"Feature","properties":{"name":"Gudu","state":"Sokoto","scode":"SO","centroid":[13.4488,4.4799]},"geometry":{"type":"Polygon","coordinates":[[[4.7281,13.3509],[4.7611,13.4467],[4.7604,13.4848],[4.7638,13.5163],[4.7274,13.5185],[4.7232,13.5429],[4.7586,13.5951],[4.7043,13.6508],[4.7498,13.6875],[4.8079,13.7118],[4.8014,13.7687],[4.7446,13.7657],[4.7084,13.7585],[4.6671,13.7358],[4.6367,13.7231],[4.5423,13.7021],[4.4651,13.6813],[4.4448,13.6746],[4.3944,13.6535],[4.3778,13.6409],[4.3691,13.621],[4.3488,13.6067],[4.3132,13.5648],[4.2877,13.5411],[4.2324,13.4994],[4.1425,13.4769],[4.1265,13.4682],[4.1249,13.4513],[4.1282,13.3663],[4.1274,13.3008],[4.1258,13.2865],[4.1264,13.2497],[4.1786,13.2541],[4.2139,13.2637],[4.258,13.2644],[4.3002,13.2596],[4.3744,13.2011],[4.3918,13.1971],[4.4298,13.1927],[4.4551,13.183],[4.4675,13.1805],[4.4903,13.1666],[4.493,13.1623],[4.4975,13.16],[4.5113,13.1841],[4.5362,13.2009],[4.5889,13.2295],[4.6014,13.2397],[4.6198,13.2483],[4.6514,13.2585],[4.6954,13.255],[4.7012,13.285],[4.7116,13.3031],[4.7281,13.3509]]]}},{"type":"Feature","properties":{"name":"Gwadabawa","state":"Sokoto","scode":"SO","centroid":[13.416,5.322]},"geometry":{"type":"Polygon","coordinates":[[[5.3369,13.2266],[5.337,13.2445],[5.3886,13.3052],[5.3943,13.3098],[5.4033,13.3141],[5.4295,13.31],[5.4417,13.3287],[5.4431,13.3344],[5.4782,13.3673],[5.4853,13.3772],[5.5043,13.3945],[5.5336,13.4536],[5.551,13.4839],[5.5587,13.4939],[5.5341,13.5064],[5.5309,13.5175],[5.5343,13.5292],[5.5306,13.5563],[5.5247,13.5648],[5.513,13.5707],[5.501,13.5732],[5.4888,13.5706],[5.4922,13.5359],[5.4898,13.5144],[5.4863,13.5096],[5.4849,13.4994],[5.4867,13.4888],[5.4814,13.4867],[5.4508,13.4832],[5.4477,13.4864],[5.4384,13.4868],[5.4323,13.489],[5.4286,13.4921],[5.4205,13.4904],[5.4176,13.5001],[5.3711,13.4968],[5.3713,13.5036],[5.3552,13.5008],[5.3501,13.4878],[5.342,13.4816],[5.3342,13.4845],[5.3281,13.4849],[5.3342,13.4946],[5.3362,13.5049],[5.3318,13.5286],[5.3567,13.5323],[5.3636,13.5363],[5.3723,13.568],[5.3694,13.5785],[5.3559,13.5919],[5.3451,13.5951],[5.3361,13.5999],[5.3346,13.6066],[5.3362,13.6253],[5.3404,13.6258],[5.3403,13.6324],[5.3274,13.6318],[5.3235,13.6167],[5.3073,13.6157],[5.3072,13.6084],[5.3016,13.6056],[5.2976,13.5964],[5.2879,13.5906],[5.2837,13.5852],[5.2808,13.5775],[5.2821,13.5492],[5.2953,13.5505],[5.2996,13.5358],[5.2858,13.531],[5.286,13.5204],[5.2434,13.512],[5.234,13.512],[5.184,13.52],[5.1797,13.4735],[5.1774,13.4669],[5.1728,13.4389],[5.168,13.4276],[5.1539,13.4295],[5.119,13.4253],[5.1191,13.408],[5.1545,13.3988],[5.1512,13.3789],[5.1212,13.3812],[5.1259,13.3352],[5.0708,13.3326],[5.0694,13.3195],[5.0719,13.3103],[5.0776,13.3034],[5.0976,13.2891],[5.108,13.2738],[5.1123,13.2641],[5.1276,13.2523],[5.1347,13.2496],[5.1445,13.272],[5.1518,13.2832],[5.1647,13.3112],[5.1679,13.33],[5.1676,13.3362],[5.1797,13.3362],[5.1905,13.3319],[5.1914,13.3397],[5.1947,13.3407],[5.2097,13.3397],[5.2137,13.3354],[5.221,13.3386],[5.2208,13.3432],[5.2236,13.3464],[5.2744,13.3316],[5.275,13.3256],[5.2766,13.325],[5.2817,13.3251],[5.2861,13.3311],[5.2924,13.3233],[5.2952,13.3179],[5.2852,13.3052],[5.2806,13.2957],[5.2888,13.2653],[5.3006,13.2653],[5.3174,13.2695],[5.3138,13.248],[5.3031,13.2291],[5.2947,13.2234],[5.2961,13.2158],[5.3016,13.2159],[5.3039,13.2172],[5.3031,13.2181],[5.3087,13.2208],[5.3113,13.2192],[5.3369,13.2266]]]}},{"type":"Feature","properties":{"name":"Illela","state":"Sokoto","scode":"SO","centroid":[13.6512,5.3408]},"geometry":{"type":"Polygon","coordinates":[[[5.184,13.52],[5.234,13.512],[5.2434,13.512],[5.286,13.5204],[5.2858,13.531],[5.2996,13.5358],[5.2953,13.5505],[5.2821,13.5492],[5.2808,13.5775],[5.2837,13.5852],[5.2879,13.5906],[5.2976,13.5964],[5.3016,13.6056],[5.3072,13.6084],[5.3073,13.6157],[5.3235,13.6167],[5.3274,13.6318],[5.3403,13.6324],[5.3404,13.6258],[5.3362,13.6253],[5.3346,13.6066],[5.3361,13.5999],[5.3451,13.5951],[5.3559,13.5919],[5.3694,13.5785],[5.3723,13.568],[5.3636,13.5363],[5.3567,13.5323],[5.3318,13.5286],[5.3362,13.5049],[5.3342,13.4946],[5.3281,13.4849],[5.3342,13.4845],[5.342,13.4816],[5.3501,13.4878],[5.3552,13.5008],[5.3713,13.5036],[5.3711,13.4968],[5.4176,13.5001],[5.4205,13.4904],[5.4286,13.4921],[5.4323,13.489],[5.4384,13.4868],[5.4477,13.4864],[5.4508,13.4832],[5.4814,13.4867],[5.4867,13.4888],[5.4849,13.4994],[5.4863,13.5096],[5.4898,13.5144],[5.4922,13.5359],[5.4888,13.5706],[5.501,13.5732],[5.513,13.5707],[5.5247,13.5648],[5.5361,13.5707],[5.5307,13.6003],[5.5216,13.6334],[5.5143,13.652],[5.5272,13.6548],[5.5216,13.6624],[5.5006,13.6624],[5.4929,13.6601],[5.4896,13.6766],[5.4742,13.6707],[5.4688,13.6706],[5.4593,13.6781],[5.4519,13.6877],[5.4488,13.6981],[5.4503,13.7257],[5.4608,13.7331],[5.4651,13.7472],[5.4713,13.7483],[5.4826,13.7559],[5.4905,13.7745],[5.4751,13.7767],[5.4717,13.7745],[5.4717,13.7643],[5.4681,13.7635],[5.4627,13.7652],[5.4453,13.7594],[5.434,13.7758],[5.4281,13.836],[5.4199,13.8597],[5.3504,13.8341],[5.333,13.8102],[5.2813,13.7561],[5.2475,13.7429],[5.2047,13.736],[5.1786,13.742],[5.1584,13.7432],[5.1578,13.7278],[5.1495,13.7059],[5.1528,13.631],[5.1675,13.586],[5.1717,13.5554],[5.184,13.52]]]}},{"type":"Feature","properties":{"name":"Isa","state":"Sokoto","scode":"SO","centroid":[13.2135,6.3649]},"geometry":{"type":"Polygon","coordinates":[[[6.1444,13.079],[6.1909,13.1008],[6.2294,13.1355],[6.2611,13.1358],[6.2583,13.1603],[6.3,13.1825],[6.3273,13.1796],[6.3479,13.1573],[6.3559,13.1641],[6.3693,13.149],[6.3621,13.144],[6.359,13.1371],[6.3917,13.1298],[6.4026,13.1291],[6.4126,13.138],[6.4371,13.1534],[6.4488,13.1584],[6.4518,13.1581],[6.4532,13.1572],[6.4531,13.1543],[6.4503,13.1462],[6.4508,13.1409],[6.453,13.1388],[6.4592,13.1389],[6.4634,13.1363],[6.4662,13.1306],[6.4609,13.1246],[6.4556,13.1237],[6.4539,13.1262],[6.4523,13.1257],[6.4504,13.1221],[6.4524,13.1169],[6.4628,13.1169],[6.4818,13.1208],[6.5087,13.1315],[6.516,13.1241],[6.5205,13.1218],[6.5193,13.1129],[6.522,13.1082],[6.523,13.1019],[6.5187,13.0934],[6.52,13.0897],[6.5268,13.0852],[6.5251,13.0811],[6.5194,13.0769],[6.5219,13.0666],[6.5289,13.0529],[6.5429,13.0442],[6.5513,13.0325],[6.5603,13.0277],[6.574,13.0254],[6.5813,13.0225],[6.6068,13.0466],[6.6572,13.0928],[6.6832,13.1072],[6.6856,13.1277],[6.6877,13.1329],[6.7435,13.1185],[6.7928,13.1323],[6.7531,13.207],[6.7483,13.2493],[6.7442,13.2644],[6.7354,13.2818],[6.7126,13.3115],[6.6531,13.3709],[6.6243,13.3484],[6.5914,13.3438],[6.5796,13.3303],[6.5624,13.3148],[6.5521,13.3086],[6.535,13.3059],[6.5021,13.3192],[6.494,13.3198],[6.4796,13.3175],[6.4167,13.2915],[6.4148,13.2964],[6.4086,13.2995],[6.4068,13.302],[6.4064,13.3093],[6.3625,13.3006],[6.3237,13.3113],[6.2812,13.3021],[6.2115,13.3045],[6.2099,13.3593],[6.2,13.3579],[6.1604,13.338],[6.1464,13.3441],[6.1163,13.3669],[6.0999,13.3559],[6.0883,13.3758],[6.0565,13.3942],[6.0281,13.3555],[5.9918,13.3155],[5.9832,13.2545],[5.998,13.1825],[6.016,13.1394],[6.0119,13.1313],[6.0129,13.1199],[6.0111,13.1079],[6.0233,13.0854],[6.0469,13.0312],[6.102,13.0598],[6.1444,13.079]]]}},{"type":"Feature","properties":{"name":"Kebbe","state":"Sokoto","scode":"SO","centroid":[11.89,4.6989]},"geometry":{"type":"Polygon","coordinates":[[[4.875,12.2297],[4.7575,12.2366],[4.7032,12.2254],[4.6995,12.1683],[4.6976,12.1576],[4.6783,12.1672],[4.6651,12.1705],[4.6523,12.1485],[4.6281,12.1138],[4.6401,12.0966],[4.6429,12.0817],[4.6339,12.0637],[4.6281,12.0543],[4.6121,12.046],[4.5882,12.0388],[4.582,11.9965],[4.5671,11.9196],[4.5508,11.8919],[4.5497,11.8109],[4.544,11.8035],[4.549,11.7955],[4.5354,11.785],[4.5097,11.7558],[4.4987,11.75],[4.4869,11.7405],[4.4491,11.7204],[4.4364,11.7108],[4.4172,11.7085],[4.4136,11.7302],[4.3949,11.7567],[4.3939,11.7575],[4.3918,11.7558],[4.3892,11.7597],[4.3816,11.7603],[4.3779,11.7625],[4.3777,11.7581],[4.3807,11.7561],[4.3814,11.7535],[4.3854,11.7525],[4.3863,11.7495],[4.3854,11.746],[4.381,11.7403],[4.3767,11.7416],[4.3728,11.7467],[4.3688,11.747],[4.3716,11.7247],[4.3751,11.7146],[4.3968,11.6922],[4.4273,11.6706],[4.4192,11.6142],[4.4694,11.5765],[4.4968,11.5524],[4.4828,11.532],[4.4947,11.5326],[4.5228,11.5303],[4.542,11.5603],[4.5541,11.5646],[4.5699,11.5737],[4.5562,11.5866],[4.5475,11.5974],[4.5487,11.6108],[4.551,11.6167],[4.5462,11.6344],[4.5699,11.6329],[4.586,11.6549],[4.6153,11.6577],[4.6193,11.6556],[4.6231,11.6567],[4.6289,11.6681],[4.635,11.6723],[4.6668,11.6676],[4.6693,11.6748],[4.6592,11.6786],[4.6615,11.6939],[4.6644,11.6944],[4.671,11.6907],[4.6727,11.6835],[4.6765,11.6819],[4.686,11.6862],[4.6919,11.6859],[4.6989,11.6927],[4.701,11.6906],[4.708,11.6921],[4.7125,11.6912],[4.7211,11.6948],[4.7312,11.6998],[4.7334,11.7043],[4.7382,11.7074],[4.7385,11.7101],[4.7426,11.7152],[4.7451,11.7214],[4.7504,11.7195],[4.7571,11.723],[4.7648,11.7181],[4.7673,11.7204],[4.7615,11.7344],[4.7683,11.739],[4.7772,11.7373],[4.7805,11.7396],[4.7849,11.7384],[4.7912,11.7409],[4.7937,11.743],[4.7948,11.7473],[4.7994,11.7494],[4.8026,11.7577],[4.8093,11.7596],[4.8152,11.7661],[4.8198,11.7669],[4.8208,11.7629],[4.8236,11.76],[4.8283,11.7592],[4.8316,11.7567],[4.8327,11.752],[4.8368,11.7533],[4.844,11.7521],[4.8485,11.7444],[4.8498,11.7351],[4.8615,11.7358],[4.8698,11.7338],[4.8731,11.7345],[4.8726,11.7382],[4.8748,11.7401],[4.8786,11.7502],[4.8839,11.7511],[4.8895,11.7502],[4.8927,11.7468],[4.8912,11.7375],[4.8924,11.7319],[4.8895,11.7193],[4.8897,11.7139],[4.8937,11.7113],[4.8939,11.7092],[4.8991,11.7087],[4.914,11.7166],[4.9151,11.7218],[4.9318,11.7239],[4.9344,11.7221],[4.9388,11.7224],[4.9431,11.7268],[4.941,11.7308],[4.9196,11.7899],[4.9231,11.7948],[4.9264,11.8138],[4.9262,11.8202],[4.935,11.8451],[4.9371,11.8487],[4.9682,11.8757],[4.9444,11.8808],[4.8667,11.9327],[4.8707,12.0286],[4.8607,12.0476],[4.8646,12.0677],[4.8646,12.0909],[4.8746,12.1182],[4.8663,12.1364],[4.8617,12.1596],[4.8727,12.2082],[4.875,12.2297]]]}},{"type":"Feature","properties":{"name":"Kware","state":"Sokoto","scode":"SO","centroid":[13.1384,5.3211]},"geometry":{"type":"Polygon","coordinates":[[[5.5402,12.981],[5.5291,13.0101],[5.5139,13.034],[5.4788,13.0364],[5.4769,13.0723],[5.4707,13.0852],[5.4709,13.0899],[5.4745,13.0947],[5.4779,13.1053],[5.4559,13.1097],[5.4338,13.1003],[5.4213,13.0982],[5.4137,13.0912],[5.4089,13.0808],[5.404,13.0848],[5.4014,13.082],[5.4011,13.0849],[5.3997,13.0857],[5.3888,13.0783],[5.3809,13.0824],[5.3761,13.0795],[5.3753,13.0833],[5.3673,13.0863],[5.3662,13.0882],[5.3697,13.0893],[5.3685,13.0933],[5.3707,13.1012],[5.3694,13.1072],[5.3613,13.113],[5.3566,13.1058],[5.3439,13.1059],[5.335,13.1092],[5.3268,13.1185],[5.3276,13.1377],[5.3335,13.1432],[5.3389,13.1402],[5.3442,13.1427],[5.3286,13.1549],[5.3289,13.1579],[5.3328,13.1613],[5.3364,13.1711],[5.3482,13.1832],[5.3369,13.2266],[5.3113,13.2192],[5.3087,13.2208],[5.3031,13.2181],[5.3039,13.2172],[5.3016,13.2159],[5.2961,13.2158],[5.2947,13.2234],[5.3031,13.2291],[5.3138,13.248],[5.3174,13.2695],[5.3006,13.2653],[5.2888,13.2653],[5.2806,13.2957],[5.2852,13.3052],[5.2952,13.3179],[5.2924,13.3233],[5.2861,13.3311],[5.2817,13.3251],[5.2766,13.325],[5.275,13.3256],[5.2744,13.3316],[5.2236,13.3464],[5.2208,13.3432],[5.221,13.3386],[5.2137,13.3354],[5.2097,13.3397],[5.1947,13.3407],[5.1914,13.3397],[5.1905,13.3319],[5.1797,13.3362],[5.1676,13.3362],[5.1679,13.33],[5.1647,13.3112],[5.1518,13.2832],[5.1445,13.272],[5.1347,13.2496],[5.1497,13.2429],[5.1574,13.2409],[5.1613,13.2427],[5.1788,13.2378],[5.1816,13.235],[5.1872,13.2206],[5.1987,13.2104],[5.1928,13.2031],[5.2123,13.1908],[5.2262,13.1791],[5.2332,13.1764],[5.2576,13.1836],[5.2779,13.1813],[5.2739,13.1722],[5.2623,13.1614],[5.2541,13.1488],[5.2502,13.1285],[5.2514,13.125],[5.2495,13.1206],[5.2414,13.1131],[5.2359,13.1116],[5.2294,13.1068],[5.2386,13.0854],[5.2436,13.0798],[5.247,13.0851],[5.2487,13.086],[5.2518,13.0849],[5.2524,13.087],[5.2565,13.0865],[5.2572,13.0896],[5.2596,13.0875],[5.2633,13.078],[5.2631,13.0707],[5.2638,13.0697],[5.2655,13.0706],[5.2706,13.0652],[5.2678,13.0612],[5.2727,13.0592],[5.2993,13.0554],[5.292,13.0425],[5.2921,13.0305],[5.3043,13.0226],[5.3093,13.0095],[5.318,12.9997],[5.3361,12.9938],[5.3455,12.988],[5.3498,12.9687],[5.3701,12.9759],[5.3983,12.9983],[5.4135,12.9802],[5.4239,12.9793],[5.4483,12.9641],[5.4694,12.9663],[5.5402,12.981]]]}},{"type":"Feature","properties":{"name":"Rabah","state":"Sokoto","scode":"SO","centroid":[13.0006,5.7544]},"geometry":{"type":"Polygon","coordinates":[[[6.0341,12.7841],[6.0302,12.7953],[6.0093,12.8798],[6.0058,12.9191],[6.0439,12.938],[6.0487,12.9483],[6.0554,12.9667],[6.0572,12.9855],[6.0547,13.0033],[6.0469,13.0312],[6.0233,13.0854],[5.9973,13.0875],[5.9131,13.1133],[5.8536,13.1212],[5.7848,13.1067],[5.7654,13.1048],[5.7213,13.107],[5.7054,13.1853],[5.72,13.2149],[5.7164,13.2153],[5.722,13.2379],[5.7118,13.2462],[5.6343,13.2566],[5.6129,13.2412],[5.5416,13.196],[5.5222,13.1787],[5.5091,13.1738],[5.5166,13.1629],[5.5226,13.1612],[5.5253,13.1585],[5.5165,13.152],[5.4952,13.1692],[5.468,13.165],[5.4604,13.1604],[5.4502,13.1506],[5.4447,13.1438],[5.4452,13.1425],[5.4315,13.1435],[5.416,13.1467],[5.4143,13.1451],[5.4167,13.1425],[5.4183,13.1278],[5.4145,13.1267],[5.4038,13.1326],[5.3915,13.1209],[5.3838,13.1164],[5.384,13.1111],[5.3794,13.1097],[5.3741,13.1187],[5.3613,13.113],[5.3694,13.1072],[5.3707,13.1012],[5.3685,13.0933],[5.3697,13.0893],[5.3662,13.0882],[5.3673,13.0863],[5.3753,13.0833],[5.3761,13.0795],[5.3809,13.0824],[5.3888,13.0783],[5.3997,13.0857],[5.4011,13.0849],[5.4014,13.082],[5.404,13.0848],[5.4089,13.0808],[5.4137,13.0912],[5.4213,13.0982],[5.4338,13.1003],[5.4559,13.1097],[5.4779,13.1053],[5.4745,13.0947],[5.4709,13.0899],[5.4707,13.0852],[5.4769,13.0723],[5.4788,13.0364],[5.5139,13.034],[5.5291,13.0101],[5.5402,12.981],[5.5484,12.952],[5.5466,12.9459],[5.5508,12.9365],[5.5517,12.9286],[5.5589,12.9264],[5.5565,12.9205],[5.5529,12.9198],[5.5523,12.917],[5.5485,12.9154],[5.5495,12.9122],[5.546,12.9111],[5.5495,12.9094],[5.5462,12.892],[5.5481,12.8855],[5.5447,12.884],[5.5422,12.8664],[5.547,12.8559],[5.5487,12.846],[5.5625,12.837],[5.5688,12.8281],[5.5714,12.8197],[5.5767,12.8129],[5.5882,12.8041],[5.6234,12.8599],[5.6347,12.8829],[5.6817,12.8652],[5.6889,12.8566],[5.734,12.8268],[5.8131,12.8397],[5.836,12.8148],[5.8478,12.8105],[5.852,12.8103],[5.8833,12.8203],[5.9475,12.7725],[5.9507,12.7653],[5.9613,12.7586],[5.9617,12.7547],[5.9861,12.7547],[6.0244,12.7488],[6.0341,12.7841]]]}},{"type":"Feature","properties":{"name":"Sabon Birni","state":"Sokoto","scode":"SO","centroid":[13.4917,6.2635]},"geometry":{"type":"Polygon","coordinates":[[[6.0565,13.3942],[6.0883,13.3758],[6.0999,13.3559],[6.1163,13.3669],[6.1464,13.3441],[6.1604,13.338],[6.2,13.3579],[6.2099,13.3593],[6.2115,13.3045],[6.2812,13.3021],[6.3237,13.3113],[6.3625,13.3006],[6.4064,13.3093],[6.4068,13.302],[6.4086,13.2995],[6.4148,13.2964],[6.4167,13.2915],[6.4796,13.3175],[6.494,13.3198],[6.5021,13.3192],[6.535,13.3059],[6.5521,13.3086],[6.5624,13.3148],[6.5796,13.3303],[6.5914,13.3438],[6.6243,13.3484],[6.6531,13.3709],[6.6231,13.4134],[6.5586,13.4778],[6.4953,13.5684],[6.462,13.59],[6.403,13.6113],[6.385,13.6276],[6.2964,13.679],[6.2328,13.6735],[6.1557,13.6447],[6.1386,13.6564],[6.1164,13.6644],[6.0892,13.6776],[5.9818,13.7127],[5.9745,13.6985],[5.9714,13.6968],[5.9701,13.6939],[5.9702,13.6834],[5.9525,13.6714],[5.9389,13.6481],[5.9117,13.6473],[5.8894,13.628],[5.8885,13.6197],[5.924,13.6216],[5.9268,13.6124],[5.9245,13.5938],[5.9154,13.565],[5.9619,13.4877],[5.9818,13.4838],[6.0113,13.4686],[6.0363,13.4361],[6.0565,13.3942]]]}},{"type":"Feature","properties":{"name":"Shagari","state":"Sokoto","scode":"SO","centroid":[12.5401,5.1108]},"geometry":{"type":"Polygon","coordinates":[[[5.2762,12.342],[5.2873,12.359],[5.292,12.3615],[5.2898,12.3693],[5.2946,12.3749],[5.3146,12.3681],[5.3378,12.4379],[5.3329,12.4566],[5.2616,12.4524],[5.2701,12.5534],[5.2685,12.5719],[5.2714,12.5901],[5.272,12.6051],[5.2913,12.6225],[5.2253,12.6523],[5.1998,12.6772],[5.1931,12.7172],[5.1854,12.7399],[5.1806,12.7652],[5.1507,12.7717],[5.14,12.7766],[5.1311,12.791],[5.1295,12.7988],[5.1203,12.8001],[5.0975,12.7858],[5.0943,12.7851],[5.0852,12.7741],[5.095,12.7523],[5.0903,12.7507],[5.0991,12.7388],[5.087,12.7333],[5.0797,12.721],[5.0791,12.709],[5.0801,12.7047],[5.089,12.6891],[5.1017,12.6701],[5.098,12.667],[5.0843,12.6638],[5.0689,12.67],[5.0485,12.6833],[5.0432,12.6882],[5.0442,12.684],[5.0413,12.6657],[5.0165,12.6721],[5.0041,12.6721],[4.9607,12.6362],[4.9579,12.6267],[4.9568,12.6082],[4.9518,12.6108],[4.9461,12.6182],[4.9418,12.6382],[4.9341,12.646],[4.9169,12.6409],[4.8981,12.6288],[4.8676,12.629],[4.8294,12.6171],[4.828,12.5823],[4.8298,12.564],[4.873,12.5529],[4.8844,12.5095],[4.8808,12.5018],[4.8837,12.4972],[4.8827,12.4934],[4.8917,12.4749],[4.8992,12.4422],[4.9055,12.4283],[4.9476,12.3995],[4.9548,12.4582],[4.9473,12.4889],[4.9454,12.5045],[4.9568,12.5157],[4.9551,12.522],[4.9587,12.5256],[4.9659,12.5294],[4.9994,12.5324],[5.016,12.5287],[5.0608,12.4916],[5.0714,12.4765],[5.0719,12.4182],[5.122,12.4144],[5.1305,12.405],[5.1362,12.3961],[5.1385,12.3767],[5.1185,12.3466],[5.1198,12.3409],[5.129,12.327],[5.124,12.2949],[5.1241,12.2858],[5.128,12.2857],[5.1335,12.2888],[5.1477,12.3065],[5.1602,12.3161],[5.1716,12.3202],[5.1772,12.3193],[5.1819,12.3225],[5.2036,12.3225],[5.2416,12.3313],[5.2762,12.342]]]}},{"type":"Feature","properties":{"name":"Silame","state":"Sokoto","scode":"SO","centroid":[12.9976,4.8336]},"geometry":{"type":"Polygon","coordinates":[[[4.7752,12.8547],[4.8256,12.8669],[4.8612,12.8737],[4.8811,12.8933],[4.9126,12.9342],[4.9256,12.9369],[4.931,12.9365],[4.9377,12.9337],[4.9569,12.9332],[4.9641,12.931],[4.9646,12.956],[4.9801,12.9575],[4.983,13.0207],[5.013,13.0136],[5.0175,13.028],[5.017,13.0601],[5.0148,13.0726],[5.0164,13.0791],[4.997,13.0835],[4.9853,13.0847],[4.9361,13.0853],[4.8895,13.0944],[4.8847,13.1064],[4.8853,13.1235],[4.8779,13.1208],[4.8693,13.1126],[4.8601,13.1164],[4.8538,13.1244],[4.8356,13.1191],[4.7988,13.115],[4.7986,13.1101],[4.7609,13.109],[4.7454,13.1051],[4.7215,13.0911],[4.7022,13.0732],[4.7263,13.0545],[4.7316,13.0528],[4.7247,13.0495],[4.7026,13.0258],[4.6867,13.0061],[4.6778,12.9991],[4.678,12.9882],[4.6806,12.9803],[4.6785,12.9795],[4.678,12.9809],[4.6735,12.9806],[4.6718,12.9766],[4.6662,12.9735],[4.6657,12.9696],[4.6634,12.9705],[4.6594,12.9689],[4.6595,12.9663],[4.6616,12.9659],[4.6607,12.9595],[4.6524,12.9543],[4.6495,12.9541],[4.6462,12.9486],[4.6579,12.9442],[4.6882,12.9382],[4.6966,12.9305],[4.6982,12.9224],[4.711,12.9079],[4.7405,12.8933],[4.7592,12.8744],[4.7752,12.8547]]]}},{"type":"Feature","properties":{"name":"Sokoto North","state":"Sokoto","scode":"SO","centroid":[13.0699,5.2296]},"geometry":{"type":"Polygon","coordinates":[[[5.2436,13.0798],[5.2378,13.0772],[5.2335,13.0773],[5.2326,13.0797],[5.2298,13.08],[5.2264,13.0852],[5.2238,13.0855],[5.2236,13.0873],[5.2216,13.0879],[5.2168,13.0846],[5.2153,13.0857],[5.2108,13.0842],[5.2115,13.0796],[5.2006,13.0775],[5.2004,13.079],[5.1989,13.0792],[5.1989,13.0779],[5.1946,13.0751],[5.1912,13.0758],[5.1924,13.072],[5.1975,13.0667],[5.2081,13.0593],[5.2122,13.0526],[5.2176,13.0505],[5.218,13.0454],[5.223,13.0433],[5.2274,13.0499],[5.2242,13.0527],[5.2291,13.0586],[5.228,13.0654],[5.2372,13.0654],[5.2393,13.062],[5.2397,13.0585],[5.2384,13.0586],[5.2419,13.0557],[5.2502,13.0591],[5.2561,13.0658],[5.2609,13.0652],[5.2639,13.0666],[5.2706,13.0652],[5.2655,13.0706],[5.2638,13.0697],[5.2631,13.0707],[5.2633,13.078],[5.2596,13.0875],[5.2572,13.0896],[5.2565,13.0865],[5.2524,13.087],[5.2518,13.0849],[5.2487,13.086],[5.247,13.0851],[5.2436,13.0798]]]}},{"type":"Feature","properties":{"name":"Sokoto South","state":"Sokoto","scode":"SO","centroid":[13.0402,5.2597]},"geometry":{"type":"Polygon","coordinates":[[[5.2706,13.0652],[5.2639,13.0666],[5.2609,13.0652],[5.2561,13.0658],[5.2502,13.0591],[5.2419,13.0557],[5.2384,13.0586],[5.2397,13.0585],[5.2393,13.062],[5.2372,13.0654],[5.228,13.0654],[5.2291,13.0586],[5.2242,13.0527],[5.2274,13.0499],[5.223,13.0433],[5.2297,13.0404],[5.227,13.0364],[5.2319,13.0365],[5.2361,13.0332],[5.2377,13.0339],[5.2446,13.0169],[5.2477,13.0137],[5.2453,13.0107],[5.2474,13.0056],[5.2578,13.0079],[5.2636,13.0135],[5.2693,13.0125],[5.2718,13.0177],[5.2764,13.0211],[5.2778,13.0273],[5.2838,13.03],[5.2921,13.0305],[5.292,13.0425],[5.2993,13.0554],[5.2727,13.0592],[5.2678,13.0612],[5.2706,13.0652]]]}},{"type":"Feature","properties":{"name":"Tambuwal","state":"Sokoto","scode":"SO","centroid":[12.3728,4.8133]},"geometry":{"type":"Polygon","coordinates":[[[5.1241,12.2858],[5.124,12.2949],[5.129,12.327],[5.1198,12.3409],[5.1185,12.3466],[5.1385,12.3767],[5.1362,12.3961],[5.1305,12.405],[5.122,12.4144],[5.0719,12.4182],[5.0714,12.4765],[5.0608,12.4916],[5.016,12.5287],[4.9994,12.5324],[4.9659,12.5294],[4.9587,12.5256],[4.9551,12.522],[4.9568,12.5157],[4.9454,12.5045],[4.9473,12.4889],[4.9548,12.4582],[4.9476,12.3995],[4.9055,12.4283],[4.8992,12.4422],[4.8917,12.4749],[4.8827,12.4934],[4.8837,12.4972],[4.8808,12.5018],[4.8844,12.5095],[4.873,12.5529],[4.8298,12.564],[4.828,12.5823],[4.8294,12.6171],[4.8676,12.629],[4.8655,12.6419],[4.8626,12.6487],[4.8703,12.6603],[4.8701,12.6644],[4.8791,12.689],[4.8783,12.694],[4.8808,12.7045],[4.8788,12.7089],[4.8803,12.7204],[4.8609,12.7267],[4.8432,12.7199],[4.8326,12.7349],[4.8109,12.7454],[4.8042,12.7451],[4.7503,12.7509],[4.7436,12.7373],[4.7304,12.7021],[4.7319,12.6721],[4.7575,12.637],[4.7947,12.5754],[4.7959,12.5124],[4.8119,12.5036],[4.8031,12.4852],[4.7694,12.4696],[4.7575,12.4496],[4.7498,12.421],[4.7518,12.3927],[4.7509,12.3894],[4.7539,12.3637],[4.7398,12.3656],[4.736,12.3638],[4.7221,12.3632],[4.7092,12.3649],[4.703,12.3797],[4.703,12.3839],[4.6911,12.4],[4.6812,12.3966],[4.6721,12.4066],[4.6643,12.4123],[4.6298,12.4329],[4.5993,12.4007],[4.5971,12.4031],[4.5878,12.3959],[4.5858,12.3889],[4.5864,12.3807],[4.5925,12.3468],[4.5765,12.333],[4.5599,12.3048],[4.5485,12.3015],[4.5571,12.2898],[4.552,12.2842],[4.5492,12.2508],[4.5237,12.2558],[4.5212,12.2508],[4.5239,12.2501],[4.525,12.2458],[4.5303,12.2396],[4.5621,12.23],[4.5559,12.2129],[4.5509,12.1318],[4.5523,12.0977],[4.5748,12.0747],[4.5882,12.0388],[4.6121,12.046],[4.6281,12.0543],[4.6339,12.0637],[4.6429,12.0817],[4.6401,12.0966],[4.6281,12.1138],[4.6523,12.1485],[4.6651,12.1705],[4.6783,12.1672],[4.6976,12.1576],[4.6995,12.1683],[4.7032,12.2254],[4.7575,12.2366],[4.875,12.2297],[4.9504,12.2313],[4.9529,12.3144],[4.9668,12.3079],[4.9976,12.3007],[5.0644,12.2974],[5.0849,12.2939],[5.1021,12.2849],[5.1167,12.2834],[5.1241,12.2858]]]}},{"type":"Feature","properties":{"name":"Tangaza","state":"Sokoto","scode":"SO","centroid":[13.5077,4.9608]},"geometry":{"type":"Polygon","coordinates":[[[5.071,13.173],[5.0806,13.1753],[5.0958,13.1826],[5.1067,13.1903],[5.1141,13.2017],[5.1167,13.2108],[5.1259,13.2285],[5.1269,13.2335],[5.1347,13.2496],[5.1276,13.2523],[5.1123,13.2641],[5.108,13.2738],[5.0976,13.2891],[5.0776,13.3034],[5.0719,13.3103],[5.0694,13.3195],[5.0708,13.3326],[5.1259,13.3352],[5.1212,13.3812],[5.1512,13.3789],[5.1545,13.3988],[5.1191,13.408],[5.119,13.4253],[5.1539,13.4295],[5.168,13.4276],[5.1728,13.4389],[5.1774,13.4669],[5.1797,13.4735],[5.184,13.52],[5.1717,13.5554],[5.1675,13.586],[5.1528,13.631],[5.1495,13.7059],[5.1578,13.7278],[5.1584,13.7432],[5.0779,13.7517],[5.0057,13.7361],[4.9502,13.7344],[4.9089,13.7459],[4.8735,13.7814],[4.8014,13.7687],[4.8079,13.7118],[4.7498,13.6875],[4.7043,13.6508],[4.7586,13.5951],[4.7232,13.5429],[4.7274,13.5185],[4.7638,13.5163],[4.7604,13.4848],[4.7611,13.4467],[4.7281,13.3509],[4.7975,13.338],[4.8544,13.3335],[4.8602,13.3089],[4.876,13.3099],[4.9098,13.3068],[4.9351,13.293],[4.9532,13.2965],[4.9622,13.2905],[4.9648,13.2865],[4.95,13.2737],[4.9415,13.2581],[4.9596,13.2427],[4.9644,13.2363],[4.9672,13.2231],[4.9763,13.2182],[5.0158,13.1868],[5.0446,13.1782],[5.071,13.173]]]}},{"type":"Feature","properties":{"name":"Tureta","state":"Sokoto","scode":"SO","centroid":[12.4985,5.5223]},"geometry":{"type":"Polygon","coordinates":[[[5.6745,12.7348],[5.6613,12.7219],[5.6521,12.7181],[5.6447,12.7074],[5.6373,12.6922],[5.6225,12.6875],[5.619,12.6812],[5.6036,12.6773],[5.5765,12.6793],[5.5744,12.6936],[5.5768,12.6953],[5.578,12.7015],[5.5768,12.7214],[5.5814,12.7281],[5.5817,12.7317],[5.5789,12.7342],[5.5802,12.7372],[5.5758,12.751],[5.5325,12.7842],[5.5068,12.7213],[5.4883,12.6922],[5.4965,12.6707],[5.4931,12.6692],[5.487,12.6625],[5.4819,12.6599],[5.4713,12.6457],[5.4598,12.6371],[5.4588,12.6288],[5.462,12.6228],[5.4517,12.6136],[5.449,12.6131],[5.4476,12.61],[5.4492,12.6075],[5.4486,12.6009],[5.4449,12.6006],[5.4402,12.6048],[5.4285,12.6103],[5.401,12.617],[5.3841,12.6175],[5.374,12.6208],[5.3746,12.6331],[5.3829,12.6788],[5.3743,12.6854],[5.3648,12.6811],[5.3535,12.6224],[5.336,12.617],[5.3088,12.6179],[5.2913,12.6225],[5.272,12.6051],[5.2714,12.5901],[5.2685,12.5719],[5.2701,12.5534],[5.2616,12.4524],[5.3329,12.4566],[5.3378,12.4379],[5.3146,12.3681],[5.2946,12.3749],[5.2898,12.3693],[5.292,12.3615],[5.2873,12.359],[5.2762,12.342],[5.3116,12.3558],[5.3216,12.3492],[5.3335,12.3461],[5.3418,12.3421],[5.348,12.3456],[5.3528,12.344],[5.3601,12.3375],[5.3845,12.3243],[5.3926,12.3295],[5.3965,12.3449],[5.4223,12.3533],[5.4387,12.343],[5.4542,12.2967],[5.4651,12.2713],[5.4697,12.2526],[5.4758,12.2524],[5.5193,12.2606],[5.5411,12.2728],[5.5667,12.3515],[5.6526,12.3483],[5.6915,12.3217],[5.7506,12.3239],[5.7551,12.331],[5.7538,12.3369],[5.7567,12.3388],[5.7726,12.3835],[5.7652,12.4095],[5.7359,12.4486],[5.7172,12.4869],[5.7283,12.5511],[5.7231,12.6206],[5.69,12.6274],[5.6774,12.6319],[5.6941,12.6891],[5.6863,12.7139],[5.6745,12.7348]]]}},{"type":"Feature","properties":{"name":"Wamakko","state":"Sokoto","scode":"SO","centroid":[13.0752,5.1165]},"geometry":{"type":"Polygon","coordinates":[[[4.9641,12.931],[4.9814,12.929],[5.0026,12.933],[5.0279,12.9345],[5.0444,12.9331],[5.0579,12.9337],[5.0796,12.9337],[5.1062,12.9311],[5.107,12.9665],[5.1181,12.9672],[5.1203,12.9758],[5.1169,12.9812],[5.1175,12.9865],[5.1098,12.9873],[5.1084,12.9915],[5.1289,12.9978],[5.1368,12.9928],[5.1512,12.9928],[5.1571,12.9887],[5.164,12.9864],[5.1692,12.9819],[5.1676,12.975],[5.18,12.9629],[5.1792,12.9597],[5.1807,12.9555],[5.1878,12.9496],[5.1982,12.9489],[5.2,12.9576],[5.2056,12.9569],[5.2135,12.9636],[5.2221,12.9807],[5.225,12.9909],[5.2385,12.9965],[5.238,13.0012],[5.2411,13.0055],[5.2474,13.0056],[5.2453,13.0107],[5.2477,13.0137],[5.2446,13.0169],[5.2377,13.0339],[5.2361,13.0332],[5.2319,13.0365],[5.227,13.0364],[5.2297,13.0404],[5.223,13.0433],[5.218,13.0454],[5.2176,13.0505],[5.2122,13.0526],[5.2081,13.0593],[5.1975,13.0667],[5.1924,13.072],[5.1912,13.0758],[5.1946,13.0751],[5.1989,13.0779],[5.1989,13.0792],[5.2004,13.079],[5.2006,13.0775],[5.2115,13.0796],[5.2108,13.0842],[5.2153,13.0857],[5.2168,13.0846],[5.2216,13.0879],[5.2236,13.0873],[5.2238,13.0855],[5.2264,13.0852],[5.2298,13.08],[5.2326,13.0797],[5.2335,13.0773],[5.2378,13.0772],[5.2436,13.0798],[5.2386,13.0854],[5.2294,13.1068],[5.2359,13.1116],[5.2414,13.1131],[5.2495,13.1206],[5.2514,13.125],[5.2502,13.1285],[5.2541,13.1488],[5.2623,13.1614],[5.2739,13.1722],[5.2779,13.1813],[5.2576,13.1836],[5.2332,13.1764],[5.2262,13.1791],[5.2123,13.1908],[5.1928,13.2031],[5.1987,13.2104],[5.1872,13.2206],[5.1816,13.235],[5.1788,13.2378],[5.1613,13.2427],[5.1574,13.2409],[5.1497,13.2429],[5.1347,13.2496],[5.1269,13.2335],[5.1259,13.2285],[5.1167,13.2108],[5.1141,13.2017],[5.1067,13.1903],[5.0958,13.1826],[5.0806,13.1753],[5.071,13.173],[5.0129,13.1335],[4.988,13.1294],[4.9737,13.1236],[4.9661,13.1165],[4.9853,13.0847],[4.997,13.0835],[5.0164,13.0791],[5.0148,13.0726],[5.017,13.0601],[5.0175,13.028],[5.013,13.0136],[4.983,13.0207],[4.9801,12.9575],[4.9646,12.956],[4.9641,12.931]]]}},{"type":"Feature","properties":{"name":"Wurno","state":"Sokoto","scode":"SO","centroid":[13.2429,5.5351]},"geometry":{"type":"Polygon","coordinates":[[[5.3613,13.113],[5.3741,13.1187],[5.3794,13.1097],[5.384,13.1111],[5.3838,13.1164],[5.3915,13.1209],[5.4038,13.1326],[5.4145,13.1267],[5.4183,13.1278],[5.4167,13.1425],[5.4143,13.1451],[5.416,13.1467],[5.4315,13.1435],[5.4452,13.1425],[5.4447,13.1438],[5.4502,13.1506],[5.4604,13.1604],[5.468,13.165],[5.4952,13.1692],[5.5165,13.152],[5.5253,13.1585],[5.5226,13.1612],[5.5166,13.1629],[5.5091,13.1738],[5.5222,13.1787],[5.5416,13.196],[5.6129,13.2412],[5.6343,13.2566],[5.7118,13.2462],[5.722,13.2379],[5.7338,13.2317],[5.7443,13.2301],[5.7721,13.2297],[5.8196,13.2235],[5.861,13.2206],[5.8516,13.2911],[5.8045,13.3102],[5.7726,13.3084],[5.7509,13.3044],[5.7121,13.2891],[5.6361,13.2905],[5.6092,13.3018],[5.6025,13.294],[5.6068,13.2941],[5.6071,13.2921],[5.5899,13.2872],[5.5464,13.3146],[5.5385,13.3175],[5.5353,13.317],[5.5322,13.3145],[5.53,13.3094],[5.5262,13.309],[5.5235,13.3062],[5.5221,13.3109],[5.5102,13.3247],[5.4972,13.3362],[5.4853,13.3772],[5.4782,13.3673],[5.4431,13.3344],[5.4417,13.3287],[5.4295,13.31],[5.4033,13.3141],[5.3943,13.3098],[5.3886,13.3052],[5.337,13.2445],[5.3369,13.2266],[5.3482,13.1832],[5.3364,13.1711],[5.3328,13.1613],[5.3289,13.1579],[5.3286,13.1549],[5.3442,13.1427],[5.3389,13.1402],[5.3335,13.1432],[5.3276,13.1377],[5.3268,13.1185],[5.335,13.1092],[5.3439,13.1059],[5.3566,13.1058],[5.3613,13.113]]]}},{"type":"Feature","properties":{"name":"Yabo","state":"Sokoto","scode":"SO","centroid":[12.7891,4.9489]},"geometry":{"type":"Polygon","coordinates":[[[4.7503,12.7509],[4.8042,12.7451],[4.8109,12.7454],[4.8326,12.7349],[4.8432,12.7199],[4.8609,12.7267],[4.8803,12.7204],[4.8788,12.7089],[4.8808,12.7045],[4.8783,12.694],[4.8791,12.689],[4.8701,12.6644],[4.8703,12.6603],[4.8626,12.6487],[4.8655,12.6419],[4.8676,12.629],[4.8981,12.6288],[4.9169,12.6409],[4.9341,12.646],[4.9418,12.6382],[4.9461,12.6182],[4.9518,12.6108],[4.9568,12.6082],[4.9579,12.6267],[4.9607,12.6362],[5.0041,12.6721],[5.0165,12.6721],[5.0413,12.6657],[5.0442,12.684],[5.0432,12.6882],[5.0485,12.6833],[5.0689,12.67],[5.0843,12.6638],[5.098,12.667],[5.1017,12.6701],[5.089,12.6891],[5.0801,12.7047],[5.0791,12.709],[5.0797,12.721],[5.087,12.7333],[5.0991,12.7388],[5.0903,12.7507],[5.095,12.7523],[5.0852,12.7741],[5.0693,12.7757],[5.0544,12.7853],[5.0674,12.8084],[5.0586,12.8345],[5.0615,12.8379],[5.0723,12.8447],[5.0891,12.8461],[5.0998,12.8527],[5.1027,12.8574],[5.0936,12.862],[5.0868,12.8702],[5.0855,12.8861],[5.0579,12.9337],[5.0444,12.9331],[5.0279,12.9345],[5.0026,12.933],[4.9814,12.929],[4.9641,12.931],[4.9569,12.9332],[4.9377,12.9337],[4.931,12.9365],[4.9256,12.9369],[4.9126,12.9342],[4.8811,12.8933],[4.8612,12.8737],[4.8256,12.8669],[4.7752,12.8547],[4.8068,12.8195],[4.8063,12.8042],[4.7758,12.7903],[4.7703,12.7893],[4.7603,12.7725],[4.7503,12.7509]]]}}]}