{"type":"FeatureCollection","features":[{"type":"Feature","properties":{"name":"Ardo-Kola","state":"Taraba","scode":"TA","centroid":[8.8278,11.1707]},"geometry":{"type":"Polygon","coordinates":[[[11.2183,9.0156],[11.2027,9.0172],[11.1592,9.0308],[11.1261,9.0432],[11.1205,9.0516],[11.1062,9.0648],[11.0806,9.0982],[11.07,9.1064],[11.0606,9.1233],[11.0145,9.0849],[10.9662,9.0204],[10.9568,9.0027],[10.9539,8.9905],[10.9416,8.9622],[10.9328,8.9307],[10.8995,8.8409],[10.8917,8.825],[10.9112,8.8135],[10.9147,8.8131],[10.9182,8.8151],[10.9242,8.8125],[10.9355,8.8037],[10.9464,8.7993],[10.9658,8.7763],[10.9757,8.7711],[10.9824,8.7654],[10.9976,8.7631],[11.0292,8.7315],[11.0322,8.7243],[11.0324,8.6773],[11.0592,8.6526],[11.0679,8.6496],[11.0716,8.6428],[11.0873,8.6383],[11.0975,8.6388],[11.1104,8.6314],[11.1259,8.6176],[11.1648,8.5916],[11.1753,8.5886],[11.2033,8.5743],[11.2258,8.5702],[11.2343,8.5705],[11.2579,8.5785],[11.2662,8.5841],[11.2764,8.588],[11.2753,8.5926],[11.2574,8.606],[11.2577,8.624],[11.2559,8.6346],[11.2642,8.6456],[11.2683,8.6661],[11.2787,8.6914],[11.3064,8.7078],[11.3445,8.7188],[11.3729,8.7099],[11.3833,8.7031],[11.3857,8.6938],[11.39,8.6913],[11.3953,8.6938],[11.3949,8.6823],[11.4085,8.6658],[11.4176,8.6657],[11.4208,8.6742],[11.4258,8.6769],[11.4332,8.6767],[11.4684,8.652],[11.4785,8.6559],[11.4888,8.6564],[11.4972,8.6602],[11.5311,8.6669],[11.5178,8.694],[11.496,8.7207],[11.4902,8.7343],[11.4865,8.7393],[11.4777,8.7458],[11.4739,8.7526],[11.464,8.7798],[11.4428,8.8091],[11.4429,8.8164],[11.433,8.8219],[11.4285,8.8298],[11.4145,8.8354],[11.4086,8.8422],[11.3927,8.851],[11.3889,8.8569],[11.3851,8.8558],[11.3784,8.8658],[11.3774,8.8716],[11.3686,8.8734],[11.3554,8.8847],[11.3534,8.8886],[11.3478,8.8899],[11.3436,8.8887],[11.3391,8.8926],[11.3365,8.8956],[11.3341,8.9101],[11.3272,8.9119],[11.3243,8.92],[11.3124,8.9217],[11.3106,8.9247],[11.2991,8.9229],[11.2933,8.9264],[11.292,8.9311],[11.287,8.9332],[11.2855,8.9378],[11.2732,8.9355],[11.2596,8.9367],[11.2501,8.9571],[11.23,8.9593],[11.2259,8.9729],[11.2187,8.9813],[11.2147,8.9915],[11.2256,9.0027],[11.2183,9.0156]]]}},{"type":"Feature","properties":{"name":"Bali","state":"Taraba","scode":"TA","centroid":[8.1409,10.9779]},"geometry":{"type":"Polygon","coordinates":[[[11.5311,8.6669],[11.4972,8.6602],[11.4888,8.6564],[11.4785,8.6559],[11.4684,8.652],[11.4332,8.6767],[11.4258,8.6769],[11.4208,8.6742],[11.4176,8.6657],[11.4085,8.6658],[11.3949,8.6823],[11.3953,8.6938],[11.39,8.6913],[11.3857,8.6938],[11.3833,8.7031],[11.3729,8.7099],[11.3445,8.7188],[11.3064,8.7078],[11.2787,8.6914],[11.2683,8.6661],[11.2642,8.6456],[11.2559,8.6346],[11.2577,8.624],[11.2574,8.606],[11.2753,8.5926],[11.2764,8.588],[11.2662,8.5841],[11.2579,8.5785],[11.2343,8.5705],[11.2258,8.5702],[11.2033,8.5743],[11.1753,8.5886],[11.1648,8.5916],[11.1259,8.6176],[11.1104,8.6314],[11.1069,8.6219],[11.102,8.6165],[11.0773,8.575],[11.0714,8.5407],[11.0601,8.5264],[11.0519,8.5191],[11.0308,8.4939],[11.021,8.4848],[11.0128,8.4775],[10.9828,8.4606],[10.9746,8.4533],[10.9192,8.4301],[10.9061,8.4174],[10.8949,8.3996],[10.8625,8.3618],[10.8427,8.3453],[10.8193,8.3339],[10.7961,8.3173],[10.7864,8.3064],[10.7753,8.2886],[10.7638,8.2777],[10.7521,8.272],[10.7157,8.2444],[10.6974,8.2332],[10.6826,8.2205],[10.6643,8.211],[10.6557,8.2106],[10.6537,8.2093],[10.6262,8.2285],[10.6089,8.2266],[10.568,8.1471],[10.5366,8.149],[10.4793,8.1736],[10.4016,8.1468],[10.3445,8.1485],[10.3317,8.1453],[10.3162,8.1415],[10.27,8.104],[10.2723,8.0669],[10.2738,8.0608],[10.2829,8.0606],[10.2924,8.0476],[10.2997,8.0415],[10.2983,8.0324],[10.3021,8.0274],[10.3111,8.0267],[10.3192,8.0315],[10.3242,8.0257],[10.3154,8.0212],[10.3145,8.0186],[10.3178,8.0165],[10.3211,8.0188],[10.3235,8.016],[10.3225,8.0115],[10.3282,8.0047],[10.3304,8.0021],[10.3414,7.9973],[10.3414,7.9893],[10.3551,7.9916],[10.357,7.9878],[10.3509,7.9782],[10.3589,7.9706],[10.3595,7.9644],[10.3424,7.9595],[10.3429,7.9491],[10.3404,7.93],[10.3459,7.9216],[10.3574,7.8961],[10.3596,7.8876],[10.3583,7.8772],[10.3604,7.8703],[10.3592,7.8599],[10.3615,7.8479],[10.3602,7.8375],[10.3644,7.8221],[10.3736,7.8086],[10.3757,7.8018],[10.3761,7.7915],[10.3731,7.7827],[10.3754,7.7707],[10.3763,7.7517],[10.3716,7.7428],[10.3687,7.7323],[10.3694,7.7185],[10.3616,7.7026],[10.3568,7.6954],[10.3401,7.686],[10.3266,7.682],[10.3152,7.6693],[10.3156,7.6607],[10.3287,7.6388],[10.3499,7.5896],[10.3553,7.5829],[10.3592,7.5727],[10.3752,7.5613],[10.3843,7.5496],[10.3882,7.5394],[10.4135,7.5129],[10.4241,7.5064],[10.4398,7.5002],[10.4602,7.5028],[10.4906,7.5111],[10.499,7.515],[10.5058,7.5153],[10.5353,7.5426],[10.5405,7.5428],[10.5519,7.5537],[10.5586,7.5574],[10.5618,7.5628],[10.5735,7.5685],[10.5937,7.5746],[10.6152,7.5911],[10.622,7.5914],[10.6541,7.6015],[10.6843,7.615],[10.6925,7.6223],[10.6975,7.6242],[10.7041,7.6297],[10.7176,7.6338],[10.7331,7.6328],[10.7383,7.6313],[10.7454,7.6264],[10.7554,7.6172],[10.7594,7.6201],[10.7712,7.6241],[10.7891,7.6396],[10.8121,7.6623],[10.8319,7.6787],[10.8504,7.6865],[10.8706,7.6926],[10.8789,7.6982],[10.887,7.7072],[10.8803,7.7397],[10.8813,7.7554],[10.8962,7.7664],[10.908,7.7704],[10.9182,7.7709],[10.94,7.7805],[10.9667,7.7955],[10.9764,7.8081],[11.0031,7.8577],[11.0338,7.8954],[11.0682,7.9281],[11.0778,7.9424],[11.0943,7.9552],[11.1041,7.9661],[11.1272,7.9844],[11.1405,7.9919],[11.1523,7.9959],[11.1724,8.0055],[11.2234,8.013],[11.2644,8.0148],[11.2696,8.0133],[11.2798,8.0155],[11.2969,8.0163],[11.314,8.024],[11.332,8.0215],[11.3415,8.0187],[11.3427,8.0278],[11.3474,8.0301],[11.3543,8.0266],[11.3544,8.0324],[11.3521,8.0347],[11.3469,8.0358],[11.3463,8.0415],[11.3498,8.0438],[11.3579,8.0552],[11.3626,8.0644],[11.3719,8.0712],[11.3801,8.0827],[11.3905,8.0929],[11.408,8.1066],[11.4335,8.1317],[11.4695,8.1637],[11.4776,8.1694],[11.5044,8.1945],[11.523,8.215],[11.5463,8.2459],[11.5544,8.2596],[11.5661,8.2847],[11.5778,8.3042],[11.5895,8.3316],[11.6012,8.3522],[11.6298,8.3866],[11.6129,8.4037],[11.6383,8.4138],[11.6483,8.4424],[11.6558,8.4454],[11.6618,8.4498],[11.6702,8.4518],[11.6795,8.4626],[11.6902,8.4646],[11.6994,8.4689],[11.709,8.4653],[11.7163,8.4652],[11.7302,8.4709],[11.7662,8.504],[11.7802,8.5142],[11.7907,8.5314],[11.7945,8.5462],[11.7927,8.5645],[11.79,8.5728],[11.7668,8.5969],[11.7597,8.6075],[11.7576,8.6172],[11.7404,8.6227],[11.7316,8.6275],[11.7108,8.6335],[11.6982,8.645],[11.6754,8.6579],[11.6369,8.6734],[11.6076,8.6773],[11.594,8.6767],[11.5872,8.6746],[11.577,8.6742],[11.5686,8.6704],[11.543,8.6692],[11.5379,8.6672],[11.5311,8.6669]]]}},{"type":"Feature","properties":{"name":"Donga","state":"Taraba","scode":"TA","centroid":[7.635,10.2494]},"geometry":{"type":"Polygon","coordinates":[[[10.7554,7.6172],[10.7454,7.6264],[10.7383,7.6313],[10.7331,7.6328],[10.7176,7.6338],[10.7041,7.6297],[10.6975,7.6242],[10.6925,7.6223],[10.6843,7.615],[10.6541,7.6015],[10.622,7.5914],[10.6152,7.5911],[10.5937,7.5746],[10.5735,7.5685],[10.5618,7.5628],[10.5586,7.5574],[10.5519,7.5537],[10.5405,7.5428],[10.5353,7.5426],[10.5058,7.5153],[10.499,7.515],[10.4906,7.5111],[10.4602,7.5028],[10.4398,7.5002],[10.4241,7.5064],[10.4135,7.5129],[10.3882,7.5394],[10.3843,7.5496],[10.3752,7.5613],[10.3592,7.5727],[10.3553,7.5829],[10.3499,7.5896],[10.3287,7.6388],[10.3156,7.6607],[10.3152,7.6693],[10.3266,7.682],[10.3401,7.686],[10.3568,7.6954],[10.3616,7.7026],[10.3694,7.7185],[10.3687,7.7323],[10.3716,7.7428],[10.3763,7.7517],[10.3754,7.7707],[10.3731,7.7827],[10.3761,7.7915],[10.3757,7.8018],[10.3736,7.8086],[10.3644,7.8221],[10.3602,7.8375],[10.3615,7.8479],[10.3592,7.8599],[10.3604,7.8703],[10.3583,7.8772],[10.3596,7.8876],[10.3574,7.8961],[10.3459,7.9216],[10.3404,7.93],[10.3429,7.9491],[10.3424,7.9595],[10.3404,7.9663],[10.3276,7.983],[10.3253,7.995],[10.3282,8.0047],[10.3225,8.0115],[10.3235,8.016],[10.3211,8.0188],[10.3178,8.0165],[10.3145,8.0186],[10.3154,8.0212],[10.3242,8.0257],[10.3192,8.0315],[10.3111,8.0267],[10.3021,8.0274],[10.2983,8.0324],[10.2997,8.0415],[10.2924,8.0476],[10.2829,8.0606],[10.2738,8.0608],[10.2723,8.0669],[10.2382,8.0419],[10.2053,8.0049],[10.1694,7.9478],[10.1492,7.9215],[10.1118,7.882],[10.0723,7.8577],[10.0278,7.8203],[9.9803,7.7699],[9.963,7.7434],[9.9489,7.7312],[9.9215,7.7252],[9.8888,7.7023],[9.8649,7.6877],[9.8335,7.6473],[9.8124,7.6311],[9.7977,7.6147],[9.8164,7.5978],[9.8301,7.5876],[9.84,7.5793],[9.8709,7.5977],[9.9043,7.6078],[9.9387,7.6017],[9.9509,7.6017],[9.9782,7.5977],[10.0166,7.5866],[10.0672,7.5582],[10.131,7.5147],[10.1522,7.4955],[10.2271,7.449],[10.2469,7.4341],[10.2453,7.4246],[10.2425,7.4228],[10.2444,7.419],[10.2444,7.4111],[10.2532,7.3983],[10.2508,7.3928],[10.2444,7.392],[10.2388,7.3864],[10.2293,7.3618],[10.2317,7.3459],[10.2556,7.3061],[10.2675,7.2783],[10.2738,7.2743],[10.289,7.2592],[10.3136,7.2488],[10.3232,7.2472],[10.3335,7.256],[10.3422,7.2568],[10.3502,7.2504],[10.3581,7.2488],[10.3621,7.252],[10.3828,7.2504],[10.3884,7.2623],[10.3939,7.2639],[10.4027,7.2568],[10.4075,7.2647],[10.4082,7.2783],[10.4202,7.318],[10.439,7.3375],[10.4711,7.3476],[10.4811,7.3533],[10.4859,7.3587],[10.4971,7.3765],[10.5036,7.3837],[10.5134,7.3928],[10.5267,7.402],[10.5397,7.4165],[10.5508,7.4343],[10.5621,7.4486],[10.6068,7.48],[10.6215,7.4963],[10.6872,7.5546],[10.7149,7.5835],[10.7314,7.5964],[10.7477,7.6127],[10.7554,7.6172]]]}},{"type":"Feature","properties":{"name":"Gashaka","state":"Taraba","scode":"TA","centroid":[7.4945,11.3731]},"geometry":{"type":"Polygon","coordinates":[[[11.8527,7.3912],[11.8099,7.4421],[11.7961,7.4547],[11.7857,7.4707],[11.7719,7.4879],[11.7629,7.5406],[11.763,7.5475],[11.7654,7.5692],[11.7684,7.5796],[11.7683,7.5984],[11.7666,7.6031],[11.7662,7.6149],[11.7727,7.6515],[11.7694,7.6824],[11.7648,7.6939],[11.758,7.7248],[11.7265,7.7192],[11.6827,7.7341],[11.6487,7.7429],[11.633,7.7504],[11.6321,7.7645],[11.6361,7.773],[11.6488,7.7908],[11.6462,7.8172],[11.6479,7.8455],[11.6506,7.8573],[11.6464,7.8658],[11.6324,7.8672],[11.6197,7.8737],[11.6099,7.8876],[11.5904,7.908],[11.5632,7.906],[11.5516,7.9033],[11.5412,7.8924],[11.5259,7.8455],[11.5166,7.8249],[11.5142,7.8158],[11.5003,7.7998],[11.4944,7.7986],[11.4898,7.7998],[11.4806,7.8124],[11.4725,7.8159],[11.4656,7.8285],[11.4438,7.8537],[11.4116,7.8984],[11.3932,7.9385],[11.3725,7.9648],[11.3656,7.9763],[11.3634,7.9843],[11.3542,7.9969],[11.3519,8.0026],[11.3507,8.0118],[11.3415,8.0187],[11.332,8.0215],[11.314,8.024],[11.2969,8.0163],[11.2798,8.0155],[11.2696,8.0133],[11.2644,8.0148],[11.2234,8.013],[11.1724,8.0055],[11.1523,7.9959],[11.1405,7.9919],[11.1272,7.9844],[11.1041,7.9661],[11.0943,7.9552],[11.0778,7.9424],[11.0682,7.9281],[11.0338,7.8954],[11.0031,7.8577],[10.9764,7.8081],[10.9667,7.7955],[10.94,7.7805],[10.9182,7.7709],[10.908,7.7704],[10.8962,7.7664],[10.8813,7.7554],[10.8803,7.7397],[10.887,7.7072],[10.8789,7.6982],[10.8706,7.6926],[10.8504,7.6865],[10.8319,7.6787],[10.8121,7.6623],[10.7891,7.6396],[10.8087,7.6258],[10.825,7.6092],[10.8323,7.5992],[10.843,7.591],[10.852,7.581],[10.8732,7.5664],[10.8912,7.5482],[10.8969,7.5381],[10.9104,7.5058],[10.9204,7.4751],[10.9219,7.444],[10.9289,7.4063],[10.9346,7.3944],[10.9386,7.3808],[10.9462,7.3655],[10.9561,7.3383],[10.9672,7.3215],[10.978,7.3099],[10.9832,7.3084],[10.9986,7.3091],[11.012,7.3149],[11.017,7.3185],[11.0237,7.3206],[11.0335,7.3314],[11.05,7.3443],[11.0646,7.3524],[11.0698,7.359],[11.0835,7.3596],[11.1026,7.3535],[11.1222,7.3371],[11.1284,7.3166],[11.0996,7.271],[11.1006,7.2605],[11.121,7.2596],[11.1361,7.2628],[11.1366,7.2513],[11.1301,7.2094],[11.1342,7.1958],[11.1486,7.1809],[11.1559,7.1708],[11.1719,7.1594],[11.1863,7.1445],[11.1969,7.1363],[11.2109,7.13],[11.2164,7.1234],[11.2202,7.1149],[11.2274,7.1083],[11.2347,7.0982],[11.2596,7.0786],[11.2687,7.0686],[11.2724,7.0619],[11.2849,7.0521],[11.2885,7.0224],[11.3042,7.0181],[11.3255,7.0226],[11.3587,7.0169],[11.3922,7.0051],[11.4029,7.0056],[11.3919,7.0332],[11.3885,7.049],[11.3926,7.0552],[11.4163,7.0614],[11.4571,7.0667],[11.5062,7.0793],[11.5131,7.0779],[11.5336,7.0788],[11.5491,7.0761],[11.5649,7.0698],[11.564,7.0486],[11.5702,7.0409],[11.5762,7.0097],[11.5794,6.9998],[11.5973,7.0076],[11.6047,7.0126],[11.6107,7.0141],[11.6189,7.0134],[11.636,7.0027],[11.6944,6.9727],[11.7628,7.0033],[11.8642,7.0847],[11.8825,7.1322],[11.795,7.2503],[11.7867,7.2558],[11.7611,7.2558],[11.7556,7.2572],[11.7517,7.26],[11.7497,7.265],[11.7497,7.2706],[11.7519,7.2753],[11.7556,7.2786],[11.7644,7.2839],[11.7994,7.2967],[11.8527,7.3912]]]}},{"type":"Feature","properties":{"name":"Gassol","state":"Taraba","scode":"TA","centroid":[8.4736,10.5566]},"geometry":{"type":"MultiPolygon","coordinates":[[[[10.3424,7.9595],[10.3595,7.9644],[10.3589,7.9706],[10.3509,7.9782],[10.357,7.9878],[10.3551,7.9916],[10.3414,7.9893],[10.3414,7.9973],[10.3304,8.0021],[10.3282,8.0047],[10.3253,7.995],[10.3276,7.983],[10.3404,7.9663],[10.3424,7.9595]]],[[[10.8917,8.825],[10.8821,8.8108],[10.8413,8.7691],[10.8313,8.7618],[10.7963,8.7429],[10.7878,8.7408],[10.7763,8.7316],[10.7646,8.7259],[10.7031,8.7231],[10.6738,8.727],[10.6612,8.7446],[10.637,8.7487],[10.611,8.7562],[10.5904,8.757],[10.5769,8.7529],[10.5606,8.7305],[10.5471,8.7265],[10.5438,8.7192],[10.5077,8.7173],[10.4758,8.7035],[10.4519,8.6956],[10.4139,8.6905],[10.3838,8.6835],[10.3423,8.6756],[10.3387,8.679],[10.3301,8.6804],[10.3097,8.6777],[10.2979,8.6737],[10.2812,8.6643],[10.2745,8.6623],[10.2612,8.6531],[10.2511,8.6413],[10.2503,8.6294],[10.2434,8.6157],[10.2386,8.6109],[10.2314,8.5964],[10.2068,8.5728],[10.1886,8.5598],[10.1773,8.5455],[10.1479,8.5165],[10.105,8.4817],[10.0842,8.4531],[10.0844,8.4479],[10.0812,8.4443],[10.0673,8.4108],[10.0577,8.3928],[10.0433,8.3768],[10.0383,8.3731],[10.0256,8.3535],[10.0126,8.3374],[9.9929,8.3209],[9.9897,8.3156],[9.9848,8.3119],[9.9816,8.3059],[9.9744,8.3029],[9.9718,8.2996],[9.9733,8.2961],[10.0328,8.2371],[10.0602,8.2341],[10.1016,8.2351],[10.1462,8.2381],[10.2079,8.2584],[10.2463,8.2574],[10.2747,8.2503],[10.2959,8.2381],[10.3015,8.2289],[10.3097,8.2276],[10.3121,8.2247],[10.3131,8.2098],[10.3242,8.1886],[10.3313,8.1582],[10.3317,8.1453],[10.3445,8.1485],[10.4016,8.1468],[10.4793,8.1736],[10.5366,8.149],[10.568,8.1471],[10.6089,8.2266],[10.6262,8.2285],[10.6537,8.2093],[10.6557,8.2106],[10.6643,8.211],[10.6826,8.2205],[10.6974,8.2332],[10.7157,8.2444],[10.7521,8.272],[10.7638,8.2777],[10.7753,8.2886],[10.7864,8.3064],[10.7961,8.3173],[10.8193,8.3339],[10.8427,8.3453],[10.8625,8.3618],[10.8949,8.3996],[10.9061,8.4174],[10.9192,8.4301],[10.9746,8.4533],[10.9828,8.4606],[11.0128,8.4775],[11.021,8.4848],[11.0308,8.4939],[11.0519,8.5191],[11.0601,8.5264],[11.0714,8.5407],[11.0773,8.575],[11.102,8.6165],[11.1069,8.6219],[11.1104,8.6314],[11.0975,8.6388],[11.0873,8.6383],[11.0716,8.6428],[11.0679,8.6496],[11.0592,8.6526],[11.0324,8.6773],[11.0322,8.7243],[11.0292,8.7315],[10.9976,8.7631],[10.9824,8.7654],[10.9757,8.7711],[10.9658,8.7763],[10.9464,8.7993],[10.9355,8.8037],[10.9242,8.8125],[10.9182,8.8151],[10.9147,8.8131],[10.9112,8.8135],[10.8917,8.825]]]]}},{"type":"Feature","properties":{"name":"Ibi","state":"Taraba","scode":"TA","centroid":[8.3455,9.807]},"geometry":{"type":"Polygon","coordinates":[[[10.2456,8.8044],[10.2357,8.7921],[10.2241,8.7846],[10.2062,8.7648],[10.1881,8.7484],[10.1803,8.7325],[10.1771,8.7289],[10.1704,8.7251],[10.128,8.6817],[10.1164,8.6725],[10.0972,8.6457],[10.0872,8.64],[10.0857,8.6348],[10.0662,8.6132],[10.0518,8.5918],[10.0255,8.5698],[10.0042,8.5498],[9.9978,8.5409],[9.9631,8.5134],[9.9501,8.4989],[9.9203,8.4786],[9.8909,8.4478],[9.8794,8.4387],[9.8694,8.4313],[9.856,8.4255],[9.8214,8.4028],[9.8094,8.3974],[9.8023,8.3913],[9.797,8.3906],[9.7842,8.3824],[9.765,8.3737],[9.7613,8.3697],[9.7567,8.3673],[9.7111,8.3733],[9.7071,8.375],[9.6956,8.3745],[9.6936,8.3764],[9.6799,8.3796],[9.6683,8.381],[9.6644,8.3828],[9.6548,8.3824],[9.6528,8.3842],[9.6461,8.381],[9.6205,8.3834],[9.6263,8.3699],[9.6251,8.3669],[9.6168,8.3718],[9.6119,8.35],[9.6138,8.3178],[9.6175,8.3029],[9.6154,8.2948],[9.6097,8.2913],[9.5922,8.2967],[9.5469,8.305],[9.518,8.3021],[9.5041,8.3053],[9.4925,8.3039],[9.4832,8.3061],[9.4202,8.3324],[9.3897,8.3491],[9.377,8.35],[9.3633,8.3405],[9.3566,8.3266],[9.3545,8.315],[9.3425,8.2837],[9.3255,8.2638],[9.3234,8.2535],[9.3296,8.2363],[9.3467,8.2261],[9.3712,8.2151],[9.3821,8.2058],[9.3905,8.2018],[9.4058,8.1872],[9.4118,8.1769],[9.4063,8.1653],[9.4006,8.1594],[9.3914,8.1558],[9.3869,8.1488],[9.3919,8.1328],[9.3926,8.1018],[9.395,8.0937],[9.4034,8.0801],[9.414,8.0711],[9.4154,8.0619],[9.4041,8.0456],[9.346,8.0019],[9.3355,7.9855],[9.359,7.9983],[9.3843,8.0196],[9.4349,8.0398],[9.4915,8.0702],[9.5239,8.0773],[9.5371,8.0924],[9.5634,8.1016],[9.606,8.1055],[9.6331,8.1064],[9.6493,8.1043],[9.7125,8.0892],[9.7253,8.0833],[9.7657,8.0823],[9.8042,8.0914],[9.8355,8.1157],[9.8679,8.1805],[9.8851,8.2311],[9.8993,8.2564],[9.9387,8.2827],[9.9733,8.2961],[9.9718,8.2996],[9.9744,8.3029],[9.9816,8.3059],[9.9848,8.3119],[9.9897,8.3156],[9.9929,8.3209],[10.0126,8.3374],[10.0256,8.3535],[10.0383,8.3731],[10.0433,8.3768],[10.0577,8.3928],[10.0673,8.4108],[10.0812,8.4443],[10.0844,8.4479],[10.0842,8.4531],[10.105,8.4817],[10.1479,8.5165],[10.1773,8.5455],[10.1886,8.5598],[10.2068,8.5728],[10.2314,8.5964],[10.2386,8.6109],[10.2434,8.6157],[10.2503,8.6294],[10.2511,8.6413],[10.2612,8.6531],[10.2745,8.6623],[10.2812,8.6643],[10.2979,8.6737],[10.3097,8.6777],[10.3301,8.6804],[10.3387,8.679],[10.3423,8.6756],[10.3838,8.6835],[10.3876,8.6951],[10.382,8.7052],[10.3799,8.7138],[10.3761,8.7205],[10.3601,8.7336],[10.3546,8.7403],[10.3493,8.7435],[10.3339,8.7446],[10.3288,8.7426],[10.3135,8.7419],[10.3082,8.7451],[10.3045,8.7502],[10.3042,8.7571],[10.2953,8.7636],[10.2901,8.7651],[10.2815,8.7647],[10.2762,8.7679],[10.2742,8.7748],[10.2636,8.7812],[10.2456,8.8044]]]}},{"type":"Feature","properties":{"name":"Jalingo","state":"Taraba","scode":"TA","centroid":[8.9425,11.3352]},"geometry":{"type":"Polygon","coordinates":[[[11.4428,8.8091],[11.4737,8.8236],[11.4809,8.8339],[11.4815,8.8412],[11.4796,8.8463],[11.4722,8.8564],[11.4488,8.8681],[11.4284,8.8897],[11.4256,8.8886],[11.4228,8.8909],[11.4231,8.8923],[11.4122,8.8969],[11.4057,8.9033],[11.4007,8.9051],[11.4004,8.907],[11.3973,8.9094],[11.3929,8.9182],[11.3896,8.95],[11.3943,8.961],[11.3895,8.9703],[11.3357,8.9921],[11.323,8.9989],[11.3184,9.0191],[11.299,9.0324],[11.2715,9.0477],[11.2642,9.0564],[11.2562,9.0549],[11.2481,9.0555],[11.2443,9.0506],[11.2374,9.0503],[11.2348,9.0406],[11.2305,9.0392],[11.2312,9.0324],[11.2273,9.0304],[11.2252,9.0266],[11.2257,9.0244],[11.2183,9.0156],[11.2256,9.0027],[11.2147,8.9915],[11.2187,8.9813],[11.2259,8.9729],[11.23,8.9593],[11.2501,8.9571],[11.2596,8.9367],[11.2732,8.9355],[11.2855,8.9378],[11.287,8.9332],[11.292,8.9311],[11.2933,8.9264],[11.2991,8.9229],[11.3106,8.9247],[11.3124,8.9217],[11.3243,8.92],[11.3272,8.9119],[11.3341,8.9101],[11.3365,8.8956],[11.3391,8.8926],[11.3436,8.8887],[11.3478,8.8899],[11.3534,8.8886],[11.3554,8.8847],[11.3686,8.8734],[11.3774,8.8716],[11.3784,8.8658],[11.3851,8.8558],[11.3889,8.8569],[11.3927,8.851],[11.4086,8.8422],[11.4145,8.8354],[11.4285,8.8298],[11.433,8.8219],[11.4429,8.8164],[11.4428,8.8091]]]}},{"type":"Feature","properties":{"name":"Karim Lamido","state":"Taraba","scode":"TA","centroid":[9.1774,10.8743]},"geometry":{"type":"Polygon","coordinates":[[[11.0606,9.1233],[11.0724,9.1273],[11.0824,9.1329],[11.1304,9.1679],[11.1742,9.182],[11.1845,9.1825],[11.2082,9.187],[11.2351,9.1969],[11.2602,9.2101],[11.2844,9.2406],[11.3068,9.2745],[11.315,9.2818],[11.3268,9.2858],[11.3867,9.3213],[11.4014,9.3358],[11.4239,9.3462],[11.4298,9.3503],[11.4435,9.3553],[11.4496,9.3598],[11.4613,9.359],[11.4908,9.3669],[11.4963,9.3745],[11.4975,9.383],[11.5115,9.3979],[11.5201,9.404],[11.5259,9.4078],[11.5063,9.434],[11.4974,9.4405],[11.4935,9.4507],[11.4843,9.4641],[11.4791,9.4656],[11.47,9.4773],[11.4438,9.4885],[11.4402,9.4938],[11.4391,9.5163],[11.4335,9.5197],[11.4362,9.5398],[11.4296,9.5496],[11.4202,9.546],[11.4057,9.5445],[11.3739,9.5468],[11.3377,9.5487],[11.278,9.5478],[11.2693,9.5489],[11.2547,9.5543],[11.2441,9.5622],[11.2271,9.5694],[11.2225,9.5693],[11.1821,9.5556],[11.1613,9.551],[11.1509,9.5508],[11.1142,9.5256],[11.0945,9.5331],[11.0836,9.5467],[11.0764,9.5514],[11.0621,9.5522],[11.0355,9.5487],[11.0204,9.5495],[11.0082,9.5521],[10.9924,9.5593],[10.9847,9.5655],[10.9781,9.5746],[10.9691,9.6154],[10.9563,9.6057],[10.9172,9.5545],[10.7735,9.4473],[10.6178,9.4628],[10.541,9.4835],[10.5661,9.4653],[10.5767,9.4465],[10.5789,9.4388],[10.5799,9.4176],[10.5784,9.4098],[10.5692,9.3998],[10.5636,9.3957],[10.5603,9.3902],[10.5604,9.382],[10.5644,9.3783],[10.5666,9.3726],[10.5613,9.3628],[10.5616,9.3551],[10.5599,9.3511],[10.5679,9.3437],[10.5701,9.3381],[10.5781,9.3326],[10.5803,9.3269],[10.5809,9.3134],[10.5795,9.3018],[10.5778,9.2979],[10.5801,9.2458],[10.5882,9.2385],[10.5966,9.2234],[10.5972,9.2099],[10.5957,9.2083],[10.5997,9.2012],[10.5999,9.196],[10.6105,9.1895],[10.6142,9.1828],[10.6104,9.1757],[10.6151,9.1567],[10.6135,9.1489],[10.6177,9.1413],[10.6256,9.1378],[10.6337,9.1305],[10.6358,9.1267],[10.6361,9.119],[10.6326,9.1111],[10.6253,9.1031],[10.6225,9.094],[10.6379,9.0818],[10.64,9.0732],[10.6372,9.061],[10.6374,9.0558],[10.6298,9.0364],[10.6301,9.0312],[10.6272,9.019],[10.6063,8.9921],[10.6032,8.9851],[10.5967,8.9761],[10.5797,8.9736],[10.5662,8.9696],[10.544,8.9686],[10.5388,8.97],[10.5303,8.9697],[10.5184,8.9674],[10.5098,8.9687],[10.498,8.9648],[10.4894,8.9661],[10.4792,8.9639],[10.4638,8.9632],[10.4269,8.9477],[10.407,8.9347],[10.3972,8.9239],[10.3805,8.9145],[10.3691,8.9019],[10.3509,8.8889],[10.3411,8.8798],[10.3251,8.8566],[10.3051,8.8453],[10.2919,8.8344],[10.2869,8.8324],[10.2769,8.8251],[10.2669,8.8194],[10.2618,8.8192],[10.2456,8.8044],[10.2636,8.7812],[10.2742,8.7748],[10.2762,8.7679],[10.2815,8.7647],[10.2901,8.7651],[10.2953,8.7636],[10.3042,8.7571],[10.3045,8.7502],[10.3082,8.7451],[10.3135,8.7419],[10.3288,8.7426],[10.3339,8.7446],[10.3493,8.7435],[10.3546,8.7403],[10.3601,8.7336],[10.3761,8.7205],[10.3799,8.7138],[10.382,8.7052],[10.3876,8.6951],[10.3838,8.6835],[10.4139,8.6905],[10.4519,8.6956],[10.4758,8.7035],[10.5077,8.7173],[10.5438,8.7192],[10.5471,8.7265],[10.5606,8.7305],[10.5769,8.7529],[10.5904,8.757],[10.611,8.7562],[10.637,8.7487],[10.6612,8.7446],[10.6738,8.727],[10.7031,8.7231],[10.7646,8.7259],[10.7763,8.7316],[10.7878,8.7408],[10.7963,8.7429],[10.8313,8.7618],[10.8413,8.7691],[10.8821,8.8108],[10.8917,8.825],[10.8995,8.8409],[10.9328,8.9307],[10.9416,8.9622],[10.9539,8.9905],[10.9568,9.0027],[10.9662,9.0204],[11.0145,9.0849],[11.0606,9.1233]]]}},{"type":"Feature","properties":{"name":"Kurmi","state":"Taraba","scode":"TA","centroid":[7.2021,10.6188]},"geometry":{"type":"Polygon","coordinates":[[[10.2675,7.2783],[10.2635,7.2679],[10.25,7.2616],[10.2381,7.2409],[10.2349,7.2067],[10.2381,7.1812],[10.2373,7.1637],[10.2325,7.1407],[10.2134,7.0937],[10.1999,7.0731],[10.1887,7.0652],[10.165,7.0211],[10.1758,7.0072],[10.1806,6.9983],[10.1878,6.9783],[10.1897,6.9331],[10.195,6.9178],[10.205,6.9006],[10.2153,6.8903],[10.2236,6.8844],[10.2378,6.8781],[10.2694,6.8747],[10.5133,6.8781],[10.56,7.0217],[10.615,7.0686],[10.6167,7.0569],[10.62,7.0536],[10.6788,7.0268],[10.683,7.0205],[10.6839,7.0165],[10.691,7.0168],[10.6947,7.0143],[10.7004,7.0135],[10.7085,6.999],[10.7205,6.9883],[10.7298,6.9888],[10.7332,6.9916],[10.7384,6.9886],[10.7433,6.9798],[10.7474,6.976],[10.7474,6.9695],[10.7586,6.9636],[10.7613,6.9585],[10.7669,6.9555],[10.7699,6.9619],[10.7791,6.9672],[10.784,6.9658],[10.7894,6.9602],[10.7984,6.9626],[10.8078,6.9588],[10.842,6.9583],[10.8499,6.9686],[10.9084,7.0109],[10.9216,7.0219],[10.9297,7.0309],[10.9409,7.0487],[10.9717,7.0847],[10.9888,7.1201],[10.9931,7.1375],[10.9968,7.1671],[10.9946,7.1774],[10.9941,7.1895],[10.9984,7.2053],[10.9971,7.2329],[10.9952,7.238],[10.9964,7.2467],[10.995,7.2778],[10.9892,7.2913],[10.978,7.3099],[10.9672,7.3215],[10.9561,7.3383],[10.9462,7.3655],[10.9386,7.3808],[10.9346,7.3944],[10.9289,7.4063],[10.9219,7.444],[10.9204,7.4751],[10.9104,7.5058],[10.8969,7.5381],[10.8912,7.5482],[10.8732,7.5664],[10.852,7.581],[10.843,7.591],[10.8323,7.5992],[10.825,7.6092],[10.8087,7.6258],[10.7891,7.6396],[10.7712,7.6241],[10.7594,7.6201],[10.7554,7.6172],[10.7477,7.6127],[10.7314,7.5964],[10.7149,7.5835],[10.6872,7.5546],[10.6215,7.4963],[10.6068,7.48],[10.5621,7.4486],[10.5508,7.4343],[10.5397,7.4165],[10.5267,7.402],[10.5134,7.3928],[10.5036,7.3837],[10.4971,7.3765],[10.4859,7.3587],[10.4811,7.3533],[10.4711,7.3476],[10.439,7.3375],[10.4202,7.318],[10.4082,7.2783],[10.4075,7.2647],[10.4027,7.2568],[10.3939,7.2639],[10.3884,7.2623],[10.3828,7.2504],[10.3621,7.252],[10.3581,7.2488],[10.3502,7.2504],[10.3422,7.2568],[10.3335,7.256],[10.3232,7.2472],[10.3136,7.2488],[10.289,7.2592],[10.2738,7.2743],[10.2675,7.2783]]]}},{"type":"Feature","properties":{"name":"Lau","state":"Taraba","scode":"TA","centroid":[9.1788,11.403]},"geometry":{"type":"Polygon","coordinates":[[[11.3357,8.9921],[11.3475,8.996],[11.3508,8.9997],[11.3522,9.0049],[11.3602,9.0174],[11.368,9.0333],[11.3712,9.0369],[11.3959,9.0588],[11.4208,9.0737],[11.4481,9.0767],[11.4636,9.0739],[11.4706,9.0708],[11.4775,9.0711],[11.4913,9.0683],[11.5068,9.0672],[11.5135,9.0693],[11.525,9.0802],[11.5316,9.0839],[11.5547,9.1023],[11.581,9.1259],[11.5926,9.1334],[11.6096,9.1359],[11.6299,9.142],[11.6401,9.1424],[11.6471,9.141],[11.6693,9.142],[11.6759,9.1458],[11.6828,9.1461],[11.6985,9.1438],[11.7026,9.1608],[11.6986,9.1737],[11.6964,9.1804],[11.6896,9.1902],[11.6836,9.1928],[11.6777,9.2106],[11.6795,9.2175],[11.679,9.2239],[11.6874,9.2295],[11.6702,9.2536],[11.6633,9.2731],[11.6488,9.298],[11.6477,9.3054],[11.6396,9.3067],[11.6249,9.3091],[11.6116,9.3036],[11.599,9.3016],[11.5933,9.3037],[11.5907,9.3108],[11.5818,9.3167],[11.5307,9.3261],[11.5301,9.343],[11.5359,9.3666],[11.5349,9.3724],[11.5302,9.3784],[11.5261,9.3808],[11.5239,9.3851],[11.524,9.3961],[11.5201,9.404],[11.5115,9.3979],[11.4975,9.383],[11.4963,9.3745],[11.4908,9.3669],[11.4613,9.359],[11.4496,9.3598],[11.4435,9.3553],[11.4298,9.3503],[11.4239,9.3462],[11.4014,9.3358],[11.3867,9.3213],[11.3268,9.2858],[11.315,9.2818],[11.3068,9.2745],[11.2844,9.2406],[11.2602,9.2101],[11.2351,9.1969],[11.2082,9.187],[11.1845,9.1825],[11.1742,9.182],[11.1304,9.1679],[11.0824,9.1329],[11.0724,9.1273],[11.0606,9.1233],[11.07,9.1064],[11.0806,9.0982],[11.1062,9.0648],[11.1205,9.0516],[11.1261,9.0432],[11.1592,9.0308],[11.2027,9.0172],[11.2183,9.0156],[11.2257,9.0244],[11.2252,9.0266],[11.2273,9.0304],[11.2312,9.0324],[11.2305,9.0392],[11.2348,9.0406],[11.2374,9.0503],[11.2443,9.0506],[11.2481,9.0555],[11.2562,9.0549],[11.2642,9.0564],[11.2715,9.0477],[11.299,9.0324],[11.3184,9.0191],[11.323,8.9989],[11.3357,8.9921]]]}},{"type":"Feature","properties":{"name":"Sardauna","state":"Taraba","scode":"TA","centroid":[6.8448,11.2412]},"geometry":{"type":"Polygon","coordinates":[[[10.978,7.3099],[10.9892,7.2913],[10.995,7.2778],[10.9964,7.2467],[10.9952,7.238],[10.9971,7.2329],[10.9984,7.2053],[10.9941,7.1895],[10.9946,7.1774],[10.9968,7.1671],[10.9931,7.1375],[10.9888,7.1201],[10.9717,7.0847],[10.9409,7.0487],[10.9297,7.0309],[10.9216,7.0219],[10.9084,7.0109],[10.8499,6.9686],[10.842,6.9583],[10.8446,6.9569],[10.8491,6.9483],[10.8542,6.9469],[10.8628,6.9283],[10.8792,6.8778],[10.8817,6.8669],[10.8811,6.8394],[10.8828,6.8278],[10.9031,6.8069],[10.9386,6.78],[10.9433,6.7781],[10.9694,6.7775],[11.0,6.7808],[11.0137,6.7805],[11.0192,6.7786],[11.0436,6.7533],[11.0711,6.7192],[11.0783,6.7075],[11.0822,6.6978],[11.0782,6.6794],[11.0643,6.6631],[11.0597,6.6425],[11.0623,6.5964],[11.0666,6.5726],[11.072,6.5582],[11.0845,6.5415],[11.0953,6.4981],[11.1103,6.4581],[11.1169,6.4442],[11.1292,6.4358],[11.1408,6.4336],[11.1919,6.4339],[11.2022,6.4369],[11.2669,6.4331],[11.3403,6.4408],[11.3719,6.4497],[11.3853,6.4569],[11.4128,6.4844],[11.415,6.5161],[11.4372,6.5908],[11.445,6.5969],[11.4547,6.6008],[11.4733,6.6025],[11.505,6.6003],[11.5106,6.6017],[11.5183,6.6075],[11.5553,6.6539],[11.5625,6.6675],[11.5808,6.7186],[11.5886,6.7594],[11.5892,6.78],[11.5833,6.7944],[11.5608,6.8133],[11.5547,6.8211],[11.5564,6.8333],[11.5797,6.8794],[11.5875,6.8922],[11.6378,6.9439],[11.6461,6.9492],[11.6944,6.9727],[11.636,7.0027],[11.6189,7.0134],[11.6107,7.0141],[11.6047,7.0126],[11.5973,7.0076],[11.5794,6.9998],[11.5762,7.0097],[11.5702,7.0409],[11.564,7.0486],[11.5649,7.0698],[11.5491,7.0761],[11.5336,7.0788],[11.5131,7.0779],[11.5062,7.0793],[11.4571,7.0667],[11.4163,7.0614],[11.3926,7.0552],[11.3885,7.049],[11.3919,7.0332],[11.4029,7.0056],[11.3922,7.0051],[11.3587,7.0169],[11.3255,7.0226],[11.3042,7.0181],[11.2885,7.0224],[11.2849,7.0521],[11.2724,7.0619],[11.2687,7.0686],[11.2596,7.0786],[11.2347,7.0982],[11.2274,7.1083],[11.2202,7.1149],[11.2164,7.1234],[11.2109,7.13],[11.1969,7.1363],[11.1863,7.1445],[11.1719,7.1594],[11.1559,7.1708],[11.1486,7.1809],[11.1342,7.1958],[11.1301,7.2094],[11.1366,7.2513],[11.1361,7.2628],[11.121,7.2596],[11.1006,7.2605],[11.0996,7.271],[11.1284,7.3166],[11.1222,7.3371],[11.1026,7.3535],[11.0835,7.3596],[11.0698,7.359],[11.0646,7.3524],[11.05,7.3443],[11.0335,7.3314],[11.0237,7.3206],[11.017,7.3185],[11.012,7.3149],[10.9986,7.3091],[10.9832,7.3084],[10.978,7.3099]]]}},{"type":"Feature","properties":{"name":"Takum","state":"Taraba","scode":"TA","centroid":[7.1159,9.9063]},"geometry":{"type":"Polygon","coordinates":[[[9.84,7.5793],[9.8458,7.5744],[9.8708,7.5402],[9.8847,7.5079],[9.8886,7.4617],[9.8827,7.4143],[9.8652,7.3628],[9.856,7.3253],[9.8408,7.2798],[9.8283,7.2574],[9.825,7.2546],[9.8286,7.2363],[9.8352,7.2172],[9.8346,7.1994],[9.824,7.1723],[9.7617,7.1011],[9.738,7.0781],[9.6998,7.0115],[9.6892,6.9864],[9.6457,6.8948],[9.6414,6.8665],[9.6487,6.7992],[9.646,6.7386],[9.6361,6.7129],[9.6223,6.6641],[9.6065,6.5718],[9.598,6.4999],[9.6378,6.5233],[9.6556,6.5258],[9.7088,6.5213],[9.7864,6.7778],[9.7956,6.8017],[9.8747,6.7758],[10.1008,6.9676],[10.0661,6.9651],[10.0611,6.9972],[10.0364,7.0094],[10.0236,7.0047],[10.0004,7.0163],[9.9772,7.0225],[9.9656,7.0232],[9.9587,7.0451],[9.9511,7.0588],[9.9474,7.0704],[9.948,7.0853],[9.9371,7.0859],[9.9329,7.091],[9.9261,7.0916],[9.924,7.0857],[9.913,7.0676],[9.8961,7.052],[9.8835,7.0577],[9.86,7.06],[9.8374,7.0668],[9.8227,7.0816],[9.8277,7.0979],[9.8622,7.094],[9.8851,7.0944],[9.8952,7.1171],[9.8847,7.1515],[9.886,7.1704],[9.8931,7.2103],[9.902,7.2296],[9.9151,7.2442],[9.9336,7.2412],[9.9719,7.2242],[9.9954,7.2173],[10.0237,7.2365],[10.0286,7.2559],[10.0415,7.2567],[10.0475,7.2526],[10.0568,7.2498],[10.0614,7.2464],[10.0737,7.2475],[10.0857,7.2592],[10.088,7.2694],[10.1222,7.2748],[10.1602,7.285],[10.1687,7.2787],[10.1687,7.2758],[10.1724,7.2716],[10.18,7.2683],[10.1859,7.2625],[10.1869,7.2603],[10.1848,7.2469],[10.2118,7.2358],[10.2349,7.2067],[10.2381,7.2409],[10.25,7.2616],[10.2635,7.2679],[10.2675,7.2783],[10.2556,7.3061],[10.2317,7.3459],[10.2293,7.3618],[10.2388,7.3864],[10.2444,7.392],[10.2508,7.3928],[10.2532,7.3983],[10.2444,7.4111],[10.2444,7.419],[10.2425,7.4228],[10.2453,7.4246],[10.2469,7.4341],[10.2271,7.449],[10.1522,7.4955],[10.131,7.5147],[10.0672,7.5582],[10.0166,7.5866],[9.9782,7.5977],[9.9509,7.6017],[9.9387,7.6017],[9.9043,7.6078],[9.8709,7.5977],[9.84,7.5793]]]}},{"type":"Feature","properties":{"name":"Ussa","state":"Taraba","scode":"TA","centroid":[7.1334,10.0609]},"geometry":{"type":"Polygon","coordinates":[[[10.1008,6.9676],[10.165,7.0211],[10.1887,7.0652],[10.1999,7.0731],[10.2134,7.0937],[10.2325,7.1407],[10.2373,7.1637],[10.2381,7.1812],[10.2349,7.2067],[10.2118,7.2358],[10.1848,7.2469],[10.1869,7.2603],[10.1859,7.2625],[10.18,7.2683],[10.1724,7.2716],[10.1687,7.2758],[10.1687,7.2787],[10.1602,7.285],[10.1222,7.2748],[10.088,7.2694],[10.0857,7.2592],[10.0737,7.2475],[10.0614,7.2464],[10.0568,7.2498],[10.0475,7.2526],[10.0415,7.2567],[10.0286,7.2559],[10.0237,7.2365],[9.9954,7.2173],[9.9719,7.2242],[9.9336,7.2412],[9.9151,7.2442],[9.902,7.2296],[9.8931,7.2103],[9.886,7.1704],[9.8847,7.1515],[9.8952,7.1171],[9.8851,7.0944],[9.8622,7.094],[9.8277,7.0979],[9.8227,7.0816],[9.8374,7.0668],[9.86,7.06],[9.8835,7.0577],[9.8961,7.052],[9.913,7.0676],[9.924,7.0857],[9.9261,7.0916],[9.9329,7.091],[9.9371,7.0859],[9.948,7.0853],[9.9474,7.0704],[9.9511,7.0588],[9.9587,7.0451],[9.9656,7.0232],[9.9772,7.0225],[10.0004,7.0163],[10.0236,7.0047],[10.0364,7.0094],[10.0611,6.9972],[10.0661,6.9651],[10.1008,6.9676]]]}},{"type":"Feature","properties":{"name":"Wukari","state":"Taraba","scode":"TA","centroid":[7.9737,9.8104]},"geometry":{"type":"Polygon","coordinates":[[[10.2723,8.0669],[10.27,8.104],[10.3162,8.1415],[10.3317,8.1453],[10.3313,8.1582],[10.3242,8.1886],[10.3131,8.2098],[10.3121,8.2247],[10.3097,8.2276],[10.3015,8.2289],[10.2959,8.2381],[10.2747,8.2503],[10.2463,8.2574],[10.2079,8.2584],[10.1462,8.2381],[10.1016,8.2351],[10.0602,8.2341],[10.0328,8.2371],[9.9733,8.2961],[9.9387,8.2827],[9.8993,8.2564],[9.8851,8.2311],[9.8679,8.1805],[9.8355,8.1157],[9.8042,8.0914],[9.7657,8.0823],[9.7253,8.0833],[9.7125,8.0892],[9.6493,8.1043],[9.6331,8.1064],[9.606,8.1055],[9.5634,8.1016],[9.5371,8.0924],[9.5239,8.0773],[9.4915,8.0702],[9.4349,8.0398],[9.3843,8.0196],[9.359,7.9983],[9.3355,7.9855],[9.2811,7.9559],[9.2507,7.9447],[9.2204,7.9265],[9.1791,7.9081],[9.1832,7.8957],[9.1818,7.8917],[9.1782,7.8885],[9.1722,7.8866],[9.1625,7.8691],[9.15,7.8599],[9.1401,7.8487],[9.1243,7.8269],[9.1157,7.8084],[9.1203,7.7933],[9.1302,7.788],[9.1902,7.8104],[9.2251,7.8183],[9.2726,7.8229],[9.3148,7.8348],[9.3866,7.8447],[9.4994,7.8427],[9.5613,7.8388],[9.6015,7.8295],[9.6431,7.7999],[9.6694,7.763],[9.7017,7.7102],[9.7472,7.6549],[9.7977,7.6147],[9.8124,7.6311],[9.8335,7.6473],[9.8649,7.6877],[9.8888,7.7023],[9.9215,7.7252],[9.9489,7.7312],[9.963,7.7434],[9.9803,7.7699],[10.0278,7.8203],[10.0723,7.8577],[10.1118,7.882],[10.1492,7.9215],[10.1694,7.9478],[10.2053,8.0049],[10.2382,8.0419],[10.2723,8.0669]]]}},{"type":"Feature","properties":{"name":"Yorro","state":"Taraba","scode":"TA","centroid":[8.8962,11.554]},"geometry":{"type":"Polygon","coordinates":[[[11.4428,8.8091],[11.464,8.7798],[11.4739,8.7526],[11.4777,8.7458],[11.4865,8.7393],[11.4902,8.7343],[11.496,8.7207],[11.5178,8.694],[11.5311,8.6669],[11.5379,8.6672],[11.543,8.6692],[11.5686,8.6704],[11.577,8.6742],[11.5872,8.6746],[11.594,8.6767],[11.6076,8.6773],[11.6369,8.6734],[11.6754,8.6579],[11.6982,8.645],[11.7108,8.6335],[11.7316,8.6275],[11.7404,8.6227],[11.7576,8.6172],[11.7769,8.6251],[11.7842,8.6298],[11.7889,8.6412],[11.7879,8.6434],[11.7614,8.6665],[11.7605,8.6637],[11.7517,8.6734],[11.7431,8.6776],[11.7324,8.6829],[11.7215,8.6963],[11.7021,8.7075],[11.6931,8.7175],[11.6651,8.7647],[11.6539,8.7764],[11.6538,8.7963],[11.6509,8.8119],[11.6456,8.8264],[11.6342,8.8377],[11.6273,8.8754],[11.6199,8.8855],[11.6006,8.9021],[11.5858,8.9185],[11.5851,8.9323],[11.5781,8.9372],[11.5582,8.9588],[11.5561,8.9674],[11.5574,8.9743],[11.5736,8.9941],[11.6172,9.0134],[11.6306,9.0209],[11.6576,9.0273],[11.6709,9.0365],[11.6759,9.0385],[11.6941,9.0532],[11.7103,9.0712],[11.7068,9.0745],[11.6949,9.1068],[11.6963,9.1138],[11.6954,9.1328],[11.6985,9.1438],[11.6828,9.1461],[11.6759,9.1458],[11.6693,9.142],[11.6471,9.141],[11.6401,9.1424],[11.6299,9.142],[11.6096,9.1359],[11.5926,9.1334],[11.581,9.1259],[11.5547,9.1023],[11.5316,9.0839],[11.525,9.0802],[11.5135,9.0693],[11.5068,9.0672],[11.4913,9.0683],[11.4775,9.0711],[11.4706,9.0708],[11.4636,9.0739],[11.4481,9.0767],[11.4208,9.0737],[11.3959,9.0588],[11.3712,9.0369],[11.368,9.0333],[11.3602,9.0174],[11.3522,9.0049],[11.3508,8.9997],[11.3475,8.996],[11.3357,8.9921],[11.3895,8.9703],[11.3943,8.961],[11.3896,8.95],[11.3929,8.9182],[11.3973,8.9094],[11.4004,8.907],[11.4007,8.9051],[11.4057,8.9033],[11.4122,8.8969],[11.4231,8.8923],[11.4228,8.8909],[11.4256,8.8886],[11.4284,8.8897],[11.4488,8.8681],[11.4722,8.8564],[11.4796,8.8463],[11.4815,8.8412],[11.4809,8.8339],[11.4737,8.8236],[11.4428,8.8091]]]}},{"type":"Feature","properties":{"name":"Zing","state":"Taraba","scode":"TA","centroid":[8.8898,11.7283]},"geometry":{"type":"Polygon","coordinates":[[[11.7431,8.6776],[11.7543,8.7001],[11.7692,8.712],[11.7855,8.711],[11.8271,8.7391],[11.8312,8.7695],[11.8317,8.7923],[11.8407,8.845],[11.8451,8.8598],[11.8434,8.8667],[11.8506,8.8699],[11.8498,8.8751],[11.854,8.8952],[11.8609,8.9066],[11.8647,8.9099],[11.8624,8.9152],[11.8736,8.9376],[11.8715,8.9471],[11.8639,8.9541],[11.8437,8.9789],[11.8299,8.9935],[11.8311,9.0084],[11.7918,9.0199],[11.7675,9.0337],[11.7525,9.0497],[11.7352,9.0533],[11.7296,9.0617],[11.7103,9.0712],[11.6941,9.0532],[11.6759,9.0385],[11.6709,9.0365],[11.6576,9.0273],[11.6306,9.0209],[11.6172,9.0134],[11.5736,8.9941],[11.5574,8.9743],[11.5561,8.9674],[11.5582,8.9588],[11.5781,8.9372],[11.5851,8.9323],[11.5858,8.9185],[11.6006,8.9021],[11.6199,8.8855],[11.6273,8.8754],[11.6342,8.8377],[11.6456,8.8264],[11.6509,8.8119],[11.6538,8.7963],[11.6539,8.7764],[11.6651,8.7647],[11.6931,8.7175],[11.7021,8.7075],[11.7215,8.6963],[11.7324,8.6829],[11.7431,8.6776]]]}}]}