{"type":"FeatureCollection","features":[{"type":"Feature","properties":{"name":"Bade","state":"Yobe","scode":"YO","centroid":[12.8113,10.7607]},"geometry":{"type":"MultiPolygon","coordinates":[[[[11.1961,12.5197],[11.2367,12.5117],[11.2439,12.5089],[11.2589,12.5833],[11.2634,12.5988],[11.2474,12.6067],[11.1925,12.6083],[11.1873,12.6638],[11.183,12.6653],[11.181,12.671],[11.1626,12.699],[11.1715,12.722],[11.168,12.7206],[11.1609,12.722],[11.143,12.7394],[11.1424,12.7425],[11.1447,12.7471],[11.152,12.7515],[11.1399,12.7582],[11.1468,12.7725],[11.1122,12.795],[11.1091,12.8034],[11.0606,12.7978],[11.0564,12.7843],[11.0462,12.7879],[11.0329,12.7657],[11.0328,12.7619],[11.0345,12.76],[11.0635,12.751],[11.0676,12.7265],[11.0693,12.7227],[11.0811,12.7173],[11.0846,12.7079],[11.0816,12.6892],[11.0582,12.6832],[11.0562,12.6786],[11.041,12.6741],[11.0362,12.6649],[11.035,12.6466],[11.0255,12.6367],[11.02,12.6371],[10.9986,12.6247],[11.0041,12.6059],[10.9934,12.5912],[11.0282,12.5783],[11.0289,12.5723],[11.0234,12.5655],[11.0395,12.5338],[11.0295,12.5084],[11.0468,12.4917],[11.0652,12.5306],[11.0856,12.5297],[11.0866,12.528],[11.0681,12.4941],[11.1081,12.5026],[11.1117,12.5108],[11.1216,12.5061],[11.1392,12.5083],[11.1485,12.5263],[11.155,12.5266],[11.1657,12.5332],[11.1961,12.5197]]],[[[11.0348,12.8101],[11.0391,12.8208],[11.0374,12.8292],[11.0349,12.833],[11.073,12.8438],[11.0814,12.8441],[11.0875,12.8477],[11.0933,12.8481],[11.089,12.8523],[11.0872,12.8567],[11.089,12.8713],[11.0865,12.8725],[11.085,12.8709],[11.0813,12.8708],[11.0812,12.8656],[11.0774,12.8657],[11.0763,12.8711],[11.0736,12.8728],[11.0728,12.8719],[11.0715,12.8736],[11.0748,12.8772],[11.0774,12.8762],[11.0802,12.882],[11.0734,12.8848],[11.0706,12.8879],[11.0663,12.8889],[11.0739,12.8974],[11.0861,12.9202],[11.0605,12.9277],[11.0523,12.9388],[11.0417,12.9373],[11.0333,12.9324],[11.0206,12.9158],[11.0211,12.9117],[11.0103,12.8962],[11.0057,12.8839],[11.0042,12.8741],[10.9876,12.8769],[10.9729,12.8678],[10.9569,12.8654],[10.9474,12.8622],[10.9277,12.864],[10.9167,12.8767],[10.9106,12.8772],[10.9059,12.8822],[10.8847,12.895],[10.8731,12.8961],[10.8571,12.8861],[10.8363,12.8859],[10.8274,12.8843],[10.8218,12.8885],[10.8173,12.8877],[10.804,12.8763],[10.7959,12.8775],[10.7933,12.8805],[10.7698,12.8882],[10.7629,12.8868],[10.7518,12.8685],[10.7492,12.8675],[10.7346,12.8755],[10.7166,12.8735],[10.7074,12.861],[10.687,12.8712],[10.673,12.8681],[10.6712,12.8656],[10.6389,12.8624],[10.6154,12.8678],[10.6032,12.8509],[10.5815,12.85],[10.5692,12.8323],[10.5681,12.8209],[10.559,12.8055],[10.5609,12.798],[10.5638,12.7972],[10.5657,12.7944],[10.569,12.794],[10.5687,12.7857],[10.573,12.7615],[10.5764,12.7453],[10.5807,12.7361],[10.5841,12.7114],[10.5986,12.7061],[10.5986,12.7031],[10.5933,12.701],[10.5938,12.6986],[10.6001,12.6952],[10.5963,12.6633],[10.5868,12.6636],[10.5823,12.6597],[10.5827,12.6539],[10.581,12.6478],[10.5888,12.6422],[10.6476,12.6496],[10.647,12.6637],[10.644,12.6643],[10.6434,12.667],[10.6463,12.6741],[10.6571,12.6836],[10.6608,12.6902],[10.6614,12.6941],[10.6578,12.6995],[10.6592,12.7016],[10.6635,12.7037],[10.6965,12.693],[10.7026,12.7042],[10.7032,12.7256],[10.7073,12.7338],[10.7079,12.7543],[10.7188,12.7627],[10.722,12.7733],[10.744,12.7911],[10.7654,12.7945],[10.7733,12.7979],[10.7906,12.8102],[10.8257,12.8067],[10.832,12.8259],[10.8582,12.8319],[10.8684,12.8275],[10.8704,12.8313],[10.8703,12.8358],[10.8718,12.8368],[10.8799,12.8329],[10.8829,12.8284],[10.885,12.8285],[10.887,12.8319],[10.8913,12.8307],[10.8911,12.8287],[10.8881,12.8262],[10.8871,12.8197],[10.8884,12.8149],[10.8922,12.8126],[10.9075,12.8188],[10.9109,12.8235],[10.9099,12.8277],[10.9122,12.8306],[10.9153,12.83],[10.9136,12.8282],[10.9148,12.8269],[10.9215,12.8282],[10.9211,12.8326],[10.9247,12.8326],[10.9267,12.8394],[10.9298,12.8345],[10.9314,12.8376],[10.9334,12.8355],[10.9394,12.8386],[10.9391,12.842],[10.9454,12.8434],[10.9463,12.8411],[10.9491,12.8415],[10.9535,12.8388],[10.9532,12.8339],[10.9543,12.8334],[10.9559,12.8353],[10.963,12.8349],[10.9702,12.8378],[10.9771,12.8437],[10.9802,12.8454],[10.9865,12.8452],[10.9881,12.8477],[10.9896,12.8472],[10.9891,12.8429],[10.9991,12.8414],[10.9971,12.8459],[11.0075,12.8469],[11.0099,12.85],[11.0111,12.8488],[11.0105,12.8464],[11.0136,12.8469],[11.0167,12.8452],[11.0169,12.8486],[11.0188,12.8484],[11.0226,12.8337],[11.0348,12.8101]]]]}},{"type":"Feature","properties":{"name":"Bursari","state":"Yobe","scode":"YO","centroid":[12.7148,11.4373]},"geometry":{"type":"Polygon","coordinates":[[[11.3125,12.3908],[11.3169,12.3994],[11.3308,12.4132],[11.3633,12.4248],[11.3839,12.4351],[11.4092,12.4437],[11.4222,12.4439],[11.441,12.4469],[11.4533,12.4523],[11.4666,12.4625],[11.4707,12.4742],[11.4795,12.4832],[11.4878,12.4842],[11.4874,12.482],[11.4846,12.4797],[11.4849,12.4756],[11.4914,12.4717],[11.4932,12.4753],[11.4905,12.4794],[11.491,12.4813],[11.4939,12.4827],[11.5022,12.4808],[11.504,12.4815],[11.5038,12.4846],[11.508,12.4858],[11.5078,12.4903],[11.5026,12.4905],[11.5006,12.4918],[11.5001,12.4941],[11.5018,12.4948],[11.5064,12.4932],[11.5123,12.4953],[11.5133,12.4971],[11.5116,12.5007],[11.5141,12.4991],[11.5174,12.5028],[11.5215,12.4984],[11.5385,12.4957],[11.5394,12.4924],[11.5426,12.4917],[11.5426,12.4907],[11.5368,12.4867],[11.5396,12.485],[11.5423,12.4858],[11.5434,12.4821],[11.5513,12.4871],[11.5576,12.4857],[11.5592,12.4886],[11.5576,12.4926],[11.5625,12.4954],[11.565,12.4949],[11.5658,12.4924],[11.564,12.4884],[11.5696,12.4855],[11.5707,12.4831],[11.5693,12.4797],[11.5713,12.4785],[11.574,12.4807],[11.5788,12.4811],[11.5855,12.4841],[11.5853,12.488],[11.5811,12.4891],[11.5817,12.4925],[11.5876,12.4928],[11.5894,12.4973],[11.5946,12.4971],[11.5993,12.5017],[11.6026,12.5001],[11.6022,12.4964],[11.6046,12.4959],[11.6043,12.4996],[11.6068,12.5018],[11.6153,12.5028],[11.6138,12.5073],[11.619,12.5079],[11.6203,12.506],[11.6195,12.5038],[11.6232,12.5006],[11.6245,12.5044],[11.6367,12.5092],[11.6389,12.5086],[11.6401,12.507],[11.6384,12.5023],[11.6405,12.499],[11.6443,12.5014],[11.6476,12.5083],[11.6498,12.509],[11.6553,12.5044],[11.6547,12.4968],[11.6636,12.4986],[11.6681,12.5062],[11.6701,12.5048],[11.6705,12.5],[11.674,12.4972],[11.674,12.4928],[11.6778,12.4917],[11.6839,12.4938],[11.6858,12.5015],[11.6879,12.5022],[11.6922,12.4998],[11.6985,12.5031],[11.6992,12.4998],[11.6948,12.4987],[11.6961,12.4953],[11.6937,12.4942],[11.6957,12.4937],[11.7001,12.4978],[11.7126,12.5025],[11.7155,12.5112],[11.7196,12.5119],[11.7237,12.5146],[11.7285,12.5105],[11.7331,12.5087],[11.7395,12.5161],[11.7468,12.5204],[11.7503,12.5278],[11.7502,12.5323],[11.7547,12.536],[11.7601,12.5371],[11.7668,12.5421],[11.7709,12.5378],[11.7732,12.54],[11.7723,12.5438],[11.7773,12.5509],[11.7753,12.5551],[11.7766,12.556],[11.7809,12.5523],[11.7834,12.5527],[11.7825,12.5577],[11.785,12.5574],[11.7889,12.5601],[11.7901,12.5647],[11.794,12.5669],[11.794,12.5696],[11.7903,12.5752],[11.7929,12.5769],[11.7922,12.5843],[11.7897,12.586],[11.7926,12.5914],[11.7995,12.5934],[11.8041,12.5919],[11.8063,12.5926],[11.807,12.5958],[11.8009,12.6027],[11.8,12.6065],[11.8089,12.6074],[11.8062,12.6124],[11.8089,12.6155],[11.8078,12.6183],[11.8091,12.6234],[11.8123,12.6288],[11.8122,12.6314],[11.8164,12.6323],[11.8126,12.6347],[11.8086,12.6405],[11.8086,12.6439],[11.8115,12.6501],[11.8073,12.6552],[11.8048,12.6644],[11.8018,12.6657],[11.7983,12.6636],[11.7934,12.6685],[11.7911,12.674],[11.7959,12.6804],[11.8018,12.6807],[11.8054,12.6902],[11.8089,12.6899],[11.8094,12.6921],[11.8086,12.6937],[11.8037,12.6938],[11.8017,12.6962],[11.8024,12.6981],[11.7716,12.7261],[11.7849,12.7388],[11.7877,12.7455],[11.7871,12.7509],[11.7701,12.7674],[11.7649,12.7793],[11.7427,12.7864],[11.7144,12.7909],[11.6981,12.8022],[11.6897,12.813],[11.6611,12.855],[11.6731,12.8635],[11.6824,12.872],[11.68,12.8827],[11.6706,12.8998],[11.6741,12.9075],[11.6628,12.9183],[11.6348,12.9306],[11.622,12.9389],[11.587,12.9466],[11.5837,12.9789],[11.5585,12.9997],[11.5473,12.9969],[11.531,12.9999],[11.5215,13.0064],[11.4587,13.0244],[11.445,13.0206],[11.4341,13.0114],[11.4337,12.9834],[11.3604,12.9717],[11.3143,12.9618],[11.2781,12.9711],[11.2584,12.9509],[11.2295,12.9725],[11.2061,12.9656],[11.211,12.9434],[11.1648,12.9387],[11.1596,12.9445],[11.1512,12.9469],[11.131,12.936],[11.1248,12.9301],[11.1218,12.9336],[11.1079,12.9243],[11.0914,12.9226],[11.0861,12.9202],[11.0739,12.8974],[11.0663,12.8889],[11.0706,12.8879],[11.0734,12.8848],[11.0802,12.882],[11.0774,12.8762],[11.0748,12.8772],[11.0715,12.8736],[11.0728,12.8719],[11.0736,12.8728],[11.0763,12.8711],[11.0774,12.8657],[11.0812,12.8656],[11.0813,12.8708],[11.085,12.8709],[11.0865,12.8725],[11.089,12.8713],[11.0872,12.8567],[11.089,12.8523],[11.0933,12.8481],[11.0875,12.8477],[11.0814,12.8441],[11.073,12.8438],[11.0349,12.833],[11.0374,12.8292],[11.0391,12.8208],[11.0348,12.8101],[11.0462,12.7879],[11.0564,12.7843],[11.0606,12.7978],[11.1091,12.8034],[11.1122,12.795],[11.1468,12.7725],[11.1399,12.7582],[11.152,12.7515],[11.1447,12.7471],[11.1424,12.7425],[11.143,12.7394],[11.1609,12.722],[11.168,12.7206],[11.1715,12.722],[11.1626,12.699],[11.181,12.671],[11.183,12.6653],[11.1873,12.6638],[11.1925,12.6083],[11.2474,12.6067],[11.2634,12.5988],[11.2589,12.5833],[11.2439,12.5089],[11.2367,12.5117],[11.1961,12.5197],[11.1974,12.4971],[11.1911,12.4711],[11.1926,12.4635],[11.1986,12.4547],[11.216,12.4113],[11.2149,12.3816],[11.2256,12.3478],[11.2743,12.3764],[11.3029,12.3849],[11.3125,12.3908]]]}},{"type":"Feature","properties":{"name":"Damaturu","state":"Yobe","scode":"YO","centroid":[11.8531,12.0336]},"geometry":{"type":"Polygon","coordinates":[[[11.8487,11.6199],[11.8768,11.5978],[11.9027,11.6098],[11.9108,11.6091],[11.9154,11.6127],[11.9211,11.6148],[11.9438,11.6107],[11.9565,11.6051],[12.0022,11.5642],[12.0488,11.6225],[12.0673,11.6181],[12.0788,11.6215],[12.0825,11.6209],[12.1142,11.6005],[12.1317,11.6062],[12.1489,11.6285],[12.1706,11.6436],[12.1862,11.6525],[12.193,11.6591],[12.1958,11.6575],[12.1986,11.6707],[12.2084,11.6884],[12.2136,11.7034],[12.2161,11.7157],[12.2168,11.7337],[12.2213,11.756],[12.2376,11.7604],[12.2358,11.7675],[12.2443,11.8093],[12.2529,11.8172],[12.257,11.8184],[12.2704,11.8265],[12.2679,11.8467],[12.2615,11.8606],[12.2561,11.8856],[12.2629,11.9359],[12.2741,11.9774],[12.2806,11.9954],[12.2687,12.0048],[12.2516,12.0491],[12.238,12.0896],[12.2364,12.1373],[12.1615,12.1123],[12.126,12.1218],[12.1195,12.1304],[12.1126,12.1337],[12.0971,12.1285],[12.0909,12.1445],[12.0765,12.1445],[12.0696,12.1383],[12.0621,12.1157],[12.044,12.1034],[12.0413,12.0985],[12.0527,12.0875],[12.0617,12.075],[12.0336,12.0502],[12.0265,12.0362],[11.9874,12.0016],[11.9776,11.9955],[11.9251,11.9909],[11.9087,11.9977],[11.899,11.9781],[11.8911,11.9765],[11.8837,11.9862],[11.8946,11.9964],[11.8894,12.0075],[11.8841,12.0084],[11.871,12.0017],[11.837,11.9758],[11.8107,11.9846],[11.7867,12.0045],[11.7799,12.0163],[11.7748,12.0187],[11.7227,12.0139],[11.7131,11.9592],[11.729,11.9352],[11.7583,11.9258],[11.7686,11.9211],[11.7869,11.904],[11.7854,11.8857],[11.7933,11.8739],[11.8018,11.8643],[11.8049,11.8471],[11.8049,11.8322],[11.8008,11.8134],[11.8186,11.8033],[11.8423,11.7849],[11.8505,11.7443],[11.8128,11.6849],[11.8487,11.6199]]]}},{"type":"Feature","properties":{"name":"Fika","state":"Yobe","scode":"YO","centroid":[11.347,11.2523]},"geometry":{"type":"Polygon","coordinates":[[[11.2451,11.6568],[11.2201,11.6357],[11.2328,11.6208],[11.2349,11.6092],[11.2366,11.6065],[11.2357,11.6044],[11.2313,11.6057],[11.2219,11.604],[11.2008,11.5979],[11.1887,11.5905],[11.1775,11.5873],[11.1787,11.5787],[11.1726,11.5764],[11.1496,11.5712],[11.1461,11.5809],[11.1458,11.5886],[11.1543,11.5954],[11.1515,11.5974],[11.142,11.5995],[11.1372,11.6042],[11.1271,11.5945],[11.1084,11.5937],[11.097,11.595],[11.0808,11.5995],[11.0558,11.5969],[11.0591,11.5879],[11.0558,11.5798],[11.0387,11.5814],[11.0336,11.58],[11.0309,11.5741],[11.0177,11.5651],[11.0044,11.5594],[10.9817,11.5544],[10.9731,11.5467],[10.9614,11.5459],[10.952,11.5431],[10.9528,11.5389],[10.9513,11.5288],[10.9297,11.516],[10.9306,11.5008],[10.9347,11.4956],[10.9337,11.4864],[10.9356,11.4815],[10.9356,11.4746],[10.9344,11.4678],[10.9334,11.4622],[10.9312,11.4594],[10.9298,11.4433],[10.9207,11.4259],[10.9207,11.3864],[10.9103,11.3309],[10.9331,11.3149],[10.928,11.2844],[10.917,11.2709],[10.9179,11.2688],[10.9206,11.2679],[10.9443,11.2758],[10.9478,11.2658],[10.926,11.2512],[10.9456,11.219],[10.9817,11.1788],[11.0774,11.2867],[11.0919,11.2261],[11.1338,11.2078],[11.1651,11.2012],[11.1819,11.199],[11.2009,11.1751],[11.2238,11.1648],[11.2486,11.1836],[11.2755,11.1723],[11.3114,11.1689],[11.3194,11.1862],[11.3416,11.1638],[11.3479,11.1527],[11.3549,11.1442],[11.36,11.1275],[11.3732,11.114],[11.375,11.1101],[11.3727,11.1061],[11.3742,11.105],[11.3743,11.1017],[11.3712,11.0984],[11.3781,11.0944],[11.3911,11.0902],[11.3944,11.092],[11.4025,11.0879],[11.4121,11.0802],[11.4349,11.0559],[11.4486,11.0467],[11.4734,11.0175],[11.4771,11.0201],[11.4836,11.021],[11.5014,11.0328],[11.5218,11.042],[11.5279,11.0564],[11.5289,11.062],[11.5156,11.0717],[11.5509,11.1283],[11.5378,11.1505],[11.5252,11.1564],[11.5225,11.1715],[11.5411,11.2081],[11.5589,11.2205],[11.5578,11.229],[11.5612,11.2335],[11.5624,11.2325],[11.5616,11.237],[11.5665,11.2418],[11.5661,11.2453],[11.5721,11.2472],[11.5706,11.25],[11.574,11.2559],[11.5716,11.2591],[11.5771,11.2708],[11.5776,11.2771],[11.5743,11.2845],[11.5746,11.2926],[11.5708,11.3005],[11.5806,11.3117],[11.5827,11.3279],[11.5991,11.3612],[11.6081,11.3927],[11.6265,11.4216],[11.6084,11.4274],[11.5971,11.4348],[11.5872,11.4366],[11.5835,11.4393],[11.5805,11.4444],[11.5737,11.4458],[11.5636,11.4574],[11.535,11.4532],[11.534,11.444],[11.5246,11.444],[11.5226,11.445],[11.5178,11.4541],[11.5079,11.4547],[11.504,11.4406],[11.481,11.4352],[11.4708,11.4409],[11.4467,11.4218],[11.4337,11.4156],[11.4326,11.4132],[11.4164,11.4094],[11.4089,11.4039],[11.3964,11.3996],[11.3938,11.3977],[11.39,11.3913],[11.3808,11.3866],[11.3638,11.4069],[11.3218,11.4169],[11.3199,11.4226],[11.3282,11.4374],[11.3601,11.4742],[11.3575,11.501],[11.3533,11.512],[11.3136,11.4866],[11.3033,11.4953],[11.3163,11.5287],[11.2907,11.5431],[11.2932,11.5851],[11.2887,11.6004],[11.2882,11.6094],[11.2902,11.6165],[11.2846,11.619],[11.2705,11.633],[11.2691,11.6371],[11.2648,11.6377],[11.253,11.6518],[11.2451,11.6568]]]}},{"type":"Feature","properties":{"name":"Fune","state":"Yobe","scode":"YO","centroid":[11.878,11.4246]},"geometry":{"type":"Polygon","coordinates":[[[11.2451,11.6568],[11.253,11.6518],[11.2648,11.6377],[11.2691,11.6371],[11.2705,11.633],[11.2846,11.619],[11.2902,11.6165],[11.2882,11.6094],[11.2887,11.6004],[11.2932,11.5851],[11.2907,11.5431],[11.3163,11.5287],[11.3033,11.4953],[11.3136,11.4866],[11.3533,11.512],[11.3575,11.501],[11.3601,11.4742],[11.3282,11.4374],[11.3199,11.4226],[11.3218,11.4169],[11.3638,11.4069],[11.3808,11.3866],[11.39,11.3913],[11.3938,11.3977],[11.3964,11.3996],[11.4089,11.4039],[11.4164,11.4094],[11.4326,11.4132],[11.4337,11.4156],[11.4467,11.4218],[11.4708,11.4409],[11.481,11.4352],[11.504,11.4406],[11.5079,11.4547],[11.5178,11.4541],[11.5226,11.445],[11.5246,11.444],[11.534,11.444],[11.535,11.4532],[11.5636,11.4574],[11.5737,11.4458],[11.5805,11.4444],[11.5835,11.4393],[11.5872,11.4366],[11.5971,11.4348],[11.6084,11.4274],[11.6265,11.4216],[11.6506,11.4564],[11.6818,11.517],[11.7387,11.5561],[11.7843,11.6104],[11.8061,11.6325],[11.8487,11.6199],[11.8128,11.6849],[11.8505,11.7443],[11.8423,11.7849],[11.8186,11.8033],[11.8008,11.8134],[11.8049,11.8322],[11.8049,11.8471],[11.8018,11.8643],[11.7933,11.8739],[11.7854,11.8857],[11.7869,11.904],[11.7686,11.9211],[11.7583,11.9258],[11.729,11.9352],[11.7131,11.9592],[11.7227,12.0139],[11.7092,12.0253],[11.6775,12.0214],[11.6068,12.0461],[11.6131,12.1176],[11.6074,12.1275],[11.5651,12.1644],[11.5009,12.1622],[11.416,12.1858],[11.4093,12.2028],[11.4125,12.2511],[11.4213,12.2705],[11.4287,12.3045],[11.4252,12.3196],[11.3902,12.3356],[11.3351,12.3385],[11.3254,12.3694],[11.3125,12.3908],[11.3029,12.3849],[11.2743,12.3764],[11.2256,12.3478],[11.2087,12.3289],[11.1918,12.3135],[11.1861,12.3059],[11.1765,12.2846],[11.1625,12.2784],[11.1576,12.2699],[11.1424,12.2657],[11.1303,12.2477],[11.1294,12.2441],[11.1479,12.2353],[11.1484,12.2271],[11.1341,12.2133],[11.1263,12.2125],[11.1134,12.1992],[11.1038,12.1967],[11.0956,12.1894],[11.0836,12.1883],[11.066,12.1783],[11.0616,12.1691],[11.0484,12.1485],[11.0227,12.1369],[11.0221,12.1334],[11.0103,12.1174],[10.9947,12.0995],[10.9842,12.0961],[10.9823,12.0936],[10.9666,12.0848],[10.9595,12.0697],[10.9884,12.0438],[10.9851,12.0325],[10.9964,12.0208],[10.9761,12.0037],[10.9934,11.9965],[11.0015,11.9994],[11.0119,11.9761],[11.02,11.9754],[11.0333,11.9654],[11.0383,11.9586],[11.0362,11.9466],[11.036,11.9335],[11.0447,11.9194],[11.0538,11.9078],[11.0586,11.9039],[11.0587,11.901],[11.0555,11.8937],[11.0572,11.8913],[11.0666,11.8927],[11.0752,11.8829],[11.079,11.8836],[11.0879,11.8705],[11.0904,11.862],[11.0972,11.8593],[11.1059,11.851],[11.1038,11.8427],[11.1078,11.8374],[11.1231,11.8422],[11.1231,11.8497],[11.1333,11.8553],[11.1423,11.8461],[11.1537,11.8534],[11.1634,11.8545],[11.178,11.8591],[11.1814,11.8503],[11.1874,11.8528],[11.1875,11.8611],[11.1947,11.8636],[11.2086,11.8547],[11.2266,11.863],[11.238,11.8643],[11.2438,11.8577],[11.2359,11.8563],[11.2362,11.8541],[11.2338,11.8515],[11.2381,11.8468],[11.2294,11.8404],[11.2334,11.8338],[11.2328,11.8285],[11.226,11.8232],[11.2277,11.8121],[11.2216,11.802],[11.2231,11.7939],[11.2322,11.7861],[11.2397,11.7841],[11.2448,11.7917],[11.2502,11.7963],[11.2556,11.7928],[11.2564,11.7857],[11.2539,11.7773],[11.2709,11.7714],[11.2684,11.7643],[11.2705,11.7554],[11.264,11.7503],[11.2605,11.7437],[11.2562,11.7409],[11.2566,11.734],[11.2646,11.7293],[11.2656,11.7244],[11.2584,11.7191],[11.2581,11.7142],[11.2665,11.7116],[11.2636,11.701],[11.2588,11.6911],[11.2481,11.6788],[11.2493,11.6728],[11.2451,11.6568]]]}},{"type":"Feature","properties":{"name":"Geidam","state":"Yobe","scode":"YO","centroid":[12.6796,12.1103]},"geometry":{"type":"Polygon","coordinates":[[[12.4992,12.7098],[12.4974,12.7652],[12.4907,12.774],[12.485,12.8016],[12.4812,12.8036],[12.4775,12.8006],[12.476,12.8013],[12.4767,12.8034],[12.4738,12.807],[12.4602,12.8142],[12.4313,12.8521],[12.4092,12.8596],[12.4083,12.8878],[12.4051,12.8968],[12.3984,12.9044],[12.3945,12.9164],[12.4055,12.9431],[12.4126,12.9668],[12.4149,12.9844],[12.4095,12.9957],[12.4076,13.0071],[12.4085,13.0235],[12.4013,13.0215],[12.3899,13.0149],[12.3725,12.999],[12.3437,12.985],[12.3342,12.9737],[12.3203,12.9632],[12.2995,12.933],[12.2932,12.9184],[12.281,12.9095],[12.2687,12.9061],[12.2448,12.9036],[12.2299,12.9062],[12.2146,12.9011],[12.1873,12.881],[12.172,12.8621],[12.1712,12.8573],[12.1599,12.8589],[12.1463,12.8556],[12.1373,12.8514],[12.1349,12.852],[12.1339,12.8572],[12.1312,12.8571],[12.1294,12.8548],[12.1185,12.8524],[12.1075,12.8558],[12.101,12.8621],[12.0998,12.8653],[12.0755,12.8863],[12.0662,12.9044],[12.0518,12.9053],[12.0444,12.9023],[12.0382,12.8887],[12.0343,12.8674],[12.0197,12.8605],[12.0139,12.8596],[11.9873,12.8803],[11.967,12.9017],[11.9777,12.932],[11.9703,12.9508],[11.9602,12.9701],[11.9615,12.9979],[11.9593,13.0047],[11.9548,13.0066],[11.9495,13.0039],[11.9469,12.9972],[11.9413,12.9906],[11.9216,12.984],[11.9205,12.9763],[11.9172,12.9709],[11.9177,12.9652],[11.921,12.9626],[11.921,12.9552],[11.9187,12.9547],[11.9163,12.9492],[11.9118,12.9492],[11.912,12.9454],[11.9102,12.9446],[11.9076,12.9487],[11.9043,12.9503],[11.8981,12.9442],[11.9003,12.9424],[11.8974,12.9383],[11.8993,12.9359],[11.8924,12.927],[11.8928,12.9221],[11.8941,12.9215],[11.8969,12.9238],[11.8981,12.9231],[11.8959,12.9198],[11.9005,12.9209],[11.8999,12.9171],[11.9035,12.9185],[11.9059,12.9178],[11.9098,12.9111],[11.9165,12.9041],[11.9173,12.8994],[11.9143,12.8921],[11.9075,12.8927],[11.9053,12.8956],[11.9026,12.8937],[11.9006,12.8941],[11.9008,12.8926],[11.9065,12.888],[11.9061,12.8785],[11.9022,12.8794],[11.8959,12.8756],[11.8924,12.8807],[11.8924,12.8844],[11.8878,12.8823],[11.8818,12.8859],[11.8799,12.8831],[11.875,12.8903],[11.877,12.8915],[11.8749,12.896],[11.877,12.9021],[11.8755,12.9038],[11.8717,12.9037],[11.8669,12.9028],[11.8675,12.8997],[11.8697,12.9006],[11.8713,12.8991],[11.8655,12.8927],[11.8589,12.8962],[11.8508,12.8974],[11.8495,12.8969],[11.8505,12.8946],[11.8424,12.894],[11.842,12.8926],[11.8402,12.8939],[11.8365,12.891],[11.8333,12.8911],[11.829,12.8947],[11.8207,12.8931],[11.8192,12.89],[11.8221,12.8893],[11.8227,12.8875],[11.8204,12.8845],[11.8206,12.8803],[11.8158,12.8851],[11.8104,12.8856],[11.8065,12.8829],[11.8086,12.8822],[11.8067,12.8802],[11.8089,12.8795],[11.808,12.8776],[11.7983,12.8796],[11.7861,12.8735],[11.7859,12.8712],[11.7908,12.8708],[11.7878,12.8671],[11.7802,12.8706],[11.7807,12.8721],[11.7785,12.8738],[11.7771,12.8739],[11.7774,12.8701],[11.7747,12.8702],[11.7734,12.8714],[11.7739,12.8759],[11.7707,12.8779],[11.769,12.8757],[11.7661,12.8776],[11.757,12.8771],[11.753,12.873],[11.7479,12.8709],[11.7508,12.868],[11.7509,12.8638],[11.7539,12.8631],[11.7541,12.8616],[11.751,12.8585],[11.7454,12.858],[11.7354,12.8599],[11.7313,12.8565],[11.7198,12.8516],[11.7117,12.855],[11.7025,12.8669],[11.7002,12.866],[11.7001,12.8637],[11.6959,12.8671],[11.6824,12.872],[11.6731,12.8635],[11.6611,12.855],[11.6897,12.813],[11.6981,12.8022],[11.7144,12.7909],[11.7427,12.7864],[11.7649,12.7793],[11.7701,12.7674],[11.7871,12.7509],[11.7877,12.7455],[11.7849,12.7388],[11.7716,12.7261],[11.8024,12.6981],[11.8017,12.6962],[11.8037,12.6938],[11.8086,12.6937],[11.8094,12.6921],[11.8089,12.6899],[11.8054,12.6902],[11.8018,12.6807],[11.7959,12.6804],[11.7911,12.674],[11.7934,12.6685],[11.7983,12.6636],[11.8018,12.6657],[11.8048,12.6644],[11.8073,12.6552],[11.8115,12.6501],[11.8086,12.6439],[11.8086,12.6405],[11.8126,12.6347],[11.8164,12.6323],[11.8122,12.6314],[11.8123,12.6288],[11.8091,12.6234],[11.8078,12.6183],[11.8089,12.6155],[11.8062,12.6124],[11.8089,12.6074],[11.8,12.6065],[11.8009,12.6027],[11.807,12.5958],[11.8063,12.5926],[11.8041,12.5919],[11.7995,12.5934],[11.7926,12.5914],[11.7897,12.586],[11.7922,12.5843],[11.7929,12.5769],[11.7903,12.5752],[11.794,12.5696],[11.794,12.5669],[11.7901,12.5647],[11.7889,12.5601],[11.785,12.5574],[11.7825,12.5577],[11.7834,12.5527],[11.7809,12.5523],[11.7766,12.556],[11.7753,12.5551],[11.7773,12.5509],[11.7723,12.5438],[11.7732,12.54],[11.7709,12.5378],[11.7668,12.5421],[11.7601,12.5371],[11.7547,12.536],[11.7502,12.5323],[11.7503,12.5278],[11.7468,12.5204],[11.7395,12.5161],[11.7331,12.5087],[11.7321,12.5069],[11.7225,12.5021],[11.7253,12.4952],[11.723,12.4839],[11.7279,12.4562],[11.7147,12.3939],[11.717,12.3914],[11.7402,12.3797],[11.7424,12.4479],[11.7734,12.4603],[11.8062,12.4528],[11.8692,12.4621],[11.8996,12.4782],[11.9282,12.484],[11.9414,12.4476],[11.9838,12.3995],[12.0432,12.3946],[12.1108,12.4189],[12.1492,12.4265],[12.1771,12.4381],[12.2589,12.4197],[12.2832,12.4095],[12.2868,12.4246],[12.3005,12.4351],[12.3244,12.4434],[12.3531,12.4598],[12.3606,12.4814],[12.3674,12.4923],[12.3737,12.5063],[12.377,12.5199],[12.3862,12.5267],[12.401,12.5243],[12.4188,12.5244],[12.4365,12.5482],[12.4438,12.5611],[12.439,12.5672],[12.4363,12.574],[12.4413,12.5789],[12.4419,12.5855],[12.4275,12.6025],[12.4426,12.6085],[12.4616,12.6117],[12.4646,12.6137],[12.4734,12.637],[12.478,12.6422],[12.4834,12.6437],[12.4876,12.6529],[12.4971,12.6646],[12.5009,12.675],[12.5039,12.6913],[12.4992,12.7098]]]}},{"type":"Feature","properties":{"name":"Gujba","state":"Yobe","scode":"YO","centroid":[11.3917,11.971]},"geometry":{"type":"Polygon","coordinates":[[[12.2206,11.3588],[12.2276,11.3779],[12.2461,11.3994],[12.2556,11.4055],[12.2674,11.4182],[12.3032,11.4445],[12.3221,11.4509],[12.3219,11.4602],[12.3262,11.4652],[12.3436,11.4791],[12.3507,11.505],[12.3735,11.5498],[12.3485,11.5831],[12.3299,11.5936],[12.3136,11.6056],[12.3,11.6086],[12.3011,11.6449],[12.2748,11.694],[12.2413,11.6523],[12.2237,11.6329],[12.1989,11.6425],[12.1958,11.6575],[12.193,11.6591],[12.1862,11.6525],[12.1706,11.6436],[12.1489,11.6285],[12.1317,11.6062],[12.1142,11.6005],[12.0825,11.6209],[12.0788,11.6215],[12.0673,11.6181],[12.0488,11.6225],[12.0022,11.5642],[11.9565,11.6051],[11.9438,11.6107],[11.9211,11.6148],[11.9154,11.6127],[11.9108,11.6091],[11.9027,11.6098],[11.8768,11.5978],[11.8487,11.6199],[11.8061,11.6325],[11.7843,11.6104],[11.7387,11.5561],[11.6818,11.517],[11.6506,11.4564],[11.6265,11.4216],[11.6081,11.3927],[11.5991,11.3612],[11.5827,11.3279],[11.5806,11.3117],[11.5708,11.3005],[11.5746,11.2926],[11.5743,11.2845],[11.5776,11.2771],[11.5771,11.2708],[11.5716,11.2591],[11.574,11.2559],[11.5706,11.25],[11.5721,11.2472],[11.5661,11.2453],[11.5665,11.2418],[11.5616,11.237],[11.5624,11.2325],[11.5612,11.2335],[11.5578,11.229],[11.5589,11.2205],[11.5698,11.2281],[11.5805,11.2392],[11.5942,11.243],[11.6316,11.2677],[11.6404,11.2561],[11.6627,11.2357],[11.6649,11.2224],[11.6579,11.1962],[11.6762,11.1781],[11.6882,11.1725],[11.7203,11.209],[11.76,11.2225],[11.7898,11.24],[11.8126,11.227],[11.8425,11.2165],[11.9188,11.2218],[11.9303,11.208],[11.9209,11.1839],[11.9295,11.1678],[11.9396,11.1668],[11.9535,11.172],[11.9571,11.1578],[11.9718,11.1485],[11.9733,11.1398],[11.9802,11.1368],[11.9916,11.1019],[11.9937,11.0749],[11.9904,11.0631],[11.9989,10.9977],[12.017,11.0156],[12.0353,11.0444],[12.0425,11.0493],[12.0567,11.0485],[12.0943,11.0385],[12.126,11.0378],[12.1353,11.0401],[12.1503,11.0476],[12.1619,11.0618],[12.1677,11.0802],[12.1661,11.0885],[12.1537,11.1112],[12.1531,11.1196],[12.1205,11.1402],[12.1171,11.1488],[12.1146,11.1558],[12.1137,11.1877],[12.1025,11.2324],[12.1032,11.2478],[12.1075,11.2561],[12.113,11.2601],[12.1513,11.2798],[12.1869,11.3019],[12.1942,11.3116],[12.1966,11.3181],[12.2019,11.3566],[12.2206,11.3588]]]}},{"type":"Feature","properties":{"name":"Gulani","state":"Yobe","scode":"YO","centroid":[10.9664,11.7037]},"geometry":{"type":"Polygon","coordinates":[[[11.9989,10.9977],[11.9904,11.0631],[11.9937,11.0749],[11.9916,11.1019],[11.9802,11.1368],[11.9733,11.1398],[11.9718,11.1485],[11.9571,11.1578],[11.9535,11.172],[11.9396,11.1668],[11.9295,11.1678],[11.9209,11.1839],[11.9303,11.208],[11.9188,11.2218],[11.8425,11.2165],[11.8126,11.227],[11.7898,11.24],[11.76,11.2225],[11.7203,11.209],[11.6882,11.1725],[11.6762,11.1781],[11.6579,11.1962],[11.6649,11.2224],[11.6627,11.2357],[11.6404,11.2561],[11.6316,11.2677],[11.5942,11.243],[11.5805,11.2392],[11.5698,11.2281],[11.5589,11.2205],[11.5411,11.2081],[11.5225,11.1715],[11.5252,11.1564],[11.5378,11.1505],[11.5509,11.1283],[11.5156,11.0717],[11.5289,11.062],[11.5279,11.0564],[11.5218,11.042],[11.5014,11.0328],[11.4836,11.021],[11.4771,11.0201],[11.4734,11.0175],[11.4825,11.0028],[11.495,10.9909],[11.515,10.9659],[11.5304,10.9349],[11.5319,10.9181],[11.531,10.9041],[11.5289,10.8934],[11.5274,10.8916],[11.5287,10.8768],[11.5365,10.8637],[11.5391,10.851],[11.5381,10.8399],[11.5344,10.8335],[11.5364,10.8288],[11.5362,10.8231],[11.5287,10.7904],[11.5265,10.7579],[11.5198,10.7449],[11.5166,10.7321],[11.5151,10.695],[11.5165,10.684],[11.5227,10.6615],[11.5242,10.66],[11.5215,10.6394],[11.5124,10.5998],[11.5127,10.5853],[11.5165,10.5703],[11.5218,10.569],[11.5276,10.5676],[11.5515,10.5879],[11.5613,10.5916],[11.5833,10.5939],[11.6036,10.5999],[11.6269,10.6024],[11.639,10.6107],[11.6567,10.614],[11.6799,10.6252],[11.7143,10.6341],[11.7537,10.6626],[11.767,10.7058],[11.7674,10.7227],[11.7639,10.7382],[11.7599,10.782],[11.7556,10.804],[11.7497,10.815],[11.742,10.8208],[11.7292,10.8252],[11.7168,10.8242],[11.6469,10.8343],[11.6338,10.8331],[11.6321,10.8572],[11.6402,10.8757],[11.6467,10.8783],[11.6503,10.8771],[11.6508,10.8804],[11.6557,10.8796],[11.6583,10.8806],[11.6624,10.8782],[11.6722,10.8782],[11.6768,10.8768],[11.687,10.884],[11.6924,10.8836],[11.6981,10.8869],[11.7044,10.8915],[11.7064,10.8946],[11.7062,10.8993],[11.7122,10.9017],[11.7171,10.8996],[11.7198,10.8954],[11.7221,10.896],[11.7243,10.899],[11.7336,10.9011],[11.7336,10.9046],[11.7372,10.9064],[11.7387,10.911],[11.7395,10.9092],[11.7427,10.9081],[11.7432,10.9099],[11.7413,10.9118],[11.742,10.9148],[11.746,10.9161],[11.7465,10.9175],[11.7499,10.916],[11.755,10.919],[11.7602,10.9153],[11.7629,10.9171],[11.7647,10.9228],[11.7679,10.92],[11.7705,10.9237],[11.7758,10.9237],[11.7748,10.9278],[11.7768,10.9332],[11.7824,10.9349],[11.7833,10.9366],[11.7899,10.9336],[11.7954,10.9353],[11.799,10.9382],[11.8001,10.9377],[11.8007,10.9335],[11.8034,10.9328],[11.8065,10.9377],[11.812,10.9396],[11.8168,10.939],[11.8186,10.945],[11.8289,10.9384],[11.8342,10.9393],[11.8359,10.9371],[11.8467,10.9383],[11.8468,10.9353],[11.8549,10.935],[11.8545,10.9383],[11.8611,10.9384],[11.8629,10.9435],[11.8666,10.9415],[11.8689,10.9419],[11.8708,10.9445],[11.8737,10.9435],[11.8772,10.9472],[11.8762,10.9524],[11.8804,10.9544],[11.8833,10.9578],[11.8873,10.9549],[11.8904,10.9558],[11.8904,10.9574],[11.8942,10.9587],[11.8948,10.962],[11.8996,10.9689],[11.9079,10.9393],[11.9363,10.9472],[11.9468,10.9522],[11.9672,10.9683],[11.9746,10.9869],[11.9828,10.9921],[11.9937,10.9918],[11.9989,10.9977]]]}},{"type":"Feature","properties":{"name":"Jakusko","state":"Yobe","scode":"YO","centroid":[12.4621,10.916]},"geometry":{"type":"Polygon","coordinates":[[[11.2256,12.3478],[11.2149,12.3816],[11.216,12.4113],[11.1986,12.4547],[11.1926,12.4635],[11.1911,12.4711],[11.1974,12.4971],[11.1961,12.5197],[11.1657,12.5332],[11.155,12.5266],[11.1485,12.5263],[11.1392,12.5083],[11.1216,12.5061],[11.1117,12.5108],[11.1081,12.5026],[11.0681,12.4941],[11.0866,12.528],[11.0856,12.5297],[11.0652,12.5306],[11.0468,12.4917],[11.0295,12.5084],[11.0395,12.5338],[11.0234,12.5655],[11.0289,12.5723],[11.0282,12.5783],[10.9934,12.5912],[11.0041,12.6059],[10.9986,12.6247],[11.02,12.6371],[11.0255,12.6367],[11.035,12.6466],[11.0362,12.6649],[11.041,12.6741],[11.0562,12.6786],[11.0582,12.6832],[11.0816,12.6892],[11.0846,12.7079],[11.0811,12.7173],[11.0693,12.7227],[11.0676,12.7265],[11.0635,12.751],[11.0345,12.76],[11.0328,12.7619],[11.0329,12.7657],[11.0462,12.7879],[11.0348,12.8101],[11.0226,12.8337],[11.0188,12.8484],[11.0169,12.8486],[11.0167,12.8452],[11.0136,12.8469],[11.0105,12.8464],[11.0111,12.8488],[11.0099,12.85],[11.0075,12.8469],[10.9971,12.8459],[10.9991,12.8414],[10.9891,12.8429],[10.9896,12.8472],[10.9881,12.8477],[10.9865,12.8452],[10.9802,12.8454],[10.9771,12.8437],[10.9702,12.8378],[10.963,12.8349],[10.9559,12.8353],[10.9543,12.8334],[10.9532,12.8339],[10.9535,12.8388],[10.9491,12.8415],[10.9463,12.8411],[10.9454,12.8434],[10.9391,12.842],[10.9394,12.8386],[10.9334,12.8355],[10.9314,12.8376],[10.9298,12.8345],[10.9267,12.8394],[10.9247,12.8326],[10.9211,12.8326],[10.9215,12.8282],[10.9148,12.8269],[10.9136,12.8282],[10.9153,12.83],[10.9122,12.8306],[10.9099,12.8277],[10.9109,12.8235],[10.9075,12.8188],[10.8922,12.8126],[10.8884,12.8149],[10.8871,12.8197],[10.8881,12.8262],[10.8911,12.8287],[10.8913,12.8307],[10.887,12.8319],[10.885,12.8285],[10.8829,12.8284],[10.8799,12.8329],[10.8718,12.8368],[10.8703,12.8358],[10.8704,12.8313],[10.8684,12.8275],[10.8582,12.8319],[10.832,12.8259],[10.8257,12.8067],[10.7906,12.8102],[10.7733,12.7979],[10.7654,12.7945],[10.744,12.7911],[10.722,12.7733],[10.7188,12.7627],[10.7079,12.7543],[10.7073,12.7338],[10.7032,12.7256],[10.7026,12.7042],[10.6965,12.693],[10.6635,12.7037],[10.6592,12.7016],[10.6578,12.6995],[10.6614,12.6941],[10.6608,12.6902],[10.6571,12.6836],[10.6463,12.6741],[10.6434,12.667],[10.644,12.6643],[10.647,12.6637],[10.6476,12.6496],[10.5888,12.6422],[10.5965,12.6169],[10.5965,12.5908],[10.5921,12.5888],[10.5932,12.5822],[10.586,12.5716],[10.5857,12.568],[10.5896,12.5652],[10.6019,12.5647],[10.6026,12.5626],[10.5993,12.5583],[10.5946,12.5587],[10.5954,12.5522],[10.587,12.5425],[10.586,12.5386],[10.5891,12.5371],[10.5943,12.5402],[10.5981,12.5376],[10.5982,12.5342],[10.5924,12.5327],[10.5891,12.5279],[10.5897,12.5257],[10.5941,12.5255],[10.5977,12.5239],[10.5982,12.522],[10.6055,12.5281],[10.6142,12.5325],[10.6424,12.5312],[10.6513,12.5294],[10.6913,12.5144],[10.7152,12.5008],[10.7505,12.4762],[10.7643,12.3696],[10.7759,12.3097],[10.7817,12.2909],[10.785,12.2872],[10.789,12.2784],[10.7895,12.2411],[10.7921,12.2303],[10.7949,12.1847],[10.8032,12.1448],[10.7995,12.128],[10.8044,12.1171],[10.8192,12.1121],[10.8232,12.1094],[10.8267,12.0959],[10.8218,12.0656],[10.8259,12.048],[10.8227,12.0148],[10.8262,12.0134],[10.8223,12.0068],[10.819,12.01],[10.8152,12.008],[10.8182,12.0029],[10.8182,11.9995],[10.8225,11.9986],[10.8201,11.9943],[10.8219,11.9883],[10.8304,11.9912],[10.8421,11.9997],[10.8672,12.0061],[10.8783,12.0194],[10.8855,12.0332],[10.897,12.0428],[10.9005,12.0503],[10.9102,12.0551],[10.9161,12.0864],[10.9342,12.0974],[10.958,12.0924],[10.9666,12.0848],[10.9823,12.0936],[10.9842,12.0961],[10.9947,12.0995],[11.0103,12.1174],[11.0221,12.1334],[11.0227,12.1369],[11.0484,12.1485],[11.0616,12.1691],[11.066,12.1783],[11.0836,12.1883],[11.0956,12.1894],[11.1038,12.1967],[11.1134,12.1992],[11.1263,12.2125],[11.1341,12.2133],[11.1484,12.2271],[11.1479,12.2353],[11.1294,12.2441],[11.1303,12.2477],[11.1424,12.2657],[11.1576,12.2699],[11.1625,12.2784],[11.1765,12.2846],[11.1861,12.3059],[11.1918,12.3135],[11.2087,12.3289],[11.2256,12.3478]]]}},{"type":"Feature","properties":{"name":"Karasuwa","state":"Yobe","scode":"YO","centroid":[12.9781,10.7645]},"geometry":{"type":"Polygon","coordinates":[[[10.436,12.8176],[10.4502,12.807],[10.465,12.7991],[10.4752,12.79],[10.4807,12.7914],[10.4827,12.7989],[10.4997,12.8038],[10.503,12.807],[10.502,12.8093],[10.4946,12.8108],[10.4938,12.8148],[10.4951,12.8159],[10.5039,12.8141],[10.5128,12.8196],[10.5248,12.8176],[10.5266,12.8197],[10.5274,12.817],[10.5301,12.8166],[10.5377,12.8236],[10.5435,12.8196],[10.5467,12.8206],[10.5463,12.8193],[10.5501,12.8137],[10.5531,12.8111],[10.5581,12.8095],[10.559,12.8055],[10.5681,12.8209],[10.5692,12.8323],[10.5815,12.85],[10.6032,12.8509],[10.6154,12.8678],[10.6389,12.8624],[10.6712,12.8656],[10.673,12.8681],[10.687,12.8712],[10.7074,12.861],[10.7166,12.8735],[10.7346,12.8755],[10.7492,12.8675],[10.7518,12.8685],[10.7629,12.8868],[10.7698,12.8882],[10.7933,12.8805],[10.7959,12.8775],[10.804,12.8763],[10.8173,12.8877],[10.8218,12.8885],[10.8274,12.8843],[10.8363,12.8859],[10.8571,12.8861],[10.8731,12.8961],[10.8847,12.895],[10.9059,12.8822],[10.9106,12.8772],[10.9167,12.8767],[10.9277,12.864],[10.9474,12.8622],[10.9569,12.8654],[10.9729,12.8678],[10.9876,12.8769],[11.0042,12.8741],[11.0057,12.8839],[11.0103,12.8962],[11.0211,12.9117],[11.0206,12.9158],[11.0333,12.9324],[11.0417,12.9373],[11.0523,12.9388],[11.0605,12.9277],[11.0861,12.9202],[11.0914,12.9226],[11.1079,12.9243],[11.1218,12.9336],[11.1248,12.9301],[11.131,12.936],[11.1512,12.9469],[11.1596,12.9445],[11.1648,12.9387],[11.211,12.9434],[11.2061,12.9656],[11.1939,12.9874],[11.1869,12.9846],[11.1654,12.9854],[11.1468,12.9629],[11.1235,12.9729],[11.1091,12.9601],[11.0856,12.9691],[11.0788,12.968],[11.0274,12.9831],[11.0135,12.9789],[10.9936,12.9954],[10.9886,12.9808],[10.9913,12.9678],[10.9792,12.9567],[10.9616,12.9619],[10.9592,12.9573],[10.9547,12.9595],[10.9524,12.9666],[10.9502,12.9677],[10.9419,12.9399],[10.9307,12.9353],[10.9224,12.955],[10.9225,12.9624],[10.9104,12.9651],[10.9071,12.9814],[10.9011,12.9868],[10.9032,12.9907],[10.8994,13.009],[10.9039,13.0152],[10.9045,13.0197],[10.8782,13.0321],[10.8833,13.0455],[10.8821,13.0579],[10.8843,13.0578],[10.887,13.0634],[10.8945,13.0712],[10.8942,13.0746],[10.8885,13.0767],[10.8897,13.0798],[10.8956,13.0834],[10.9006,13.0909],[10.9038,13.0931],[10.9115,13.0939],[10.9201,13.098],[10.9217,13.1005],[10.9283,13.1005],[10.9349,13.1052],[10.9329,13.1067],[10.9323,13.1133],[10.925,13.1338],[10.9234,13.1831],[10.8974,13.1837],[10.8539,13.1703],[10.8414,13.1642],[10.8307,13.1616],[10.7978,13.1581],[10.7789,13.1427],[10.7619,13.1219],[10.7645,13.1072],[10.7506,13.0836],[10.7245,13.0923],[10.7167,13.0865],[10.7173,13.0467],[10.6993,13.0417],[10.6958,13.0365],[10.684,13.0378],[10.6582,13.0371],[10.651,13.0384],[10.6475,13.0369],[10.6479,13.0345],[10.6439,13.033],[10.6388,13.0332],[10.6228,13.0277],[10.6005,13.0309],[10.5874,13.0294],[10.5799,13.0361],[10.5647,13.0355],[10.5505,13.0533],[10.5468,13.0547],[10.5407,13.06],[10.5359,13.0617],[10.5117,13.046],[10.4938,13.0362],[10.4696,13.0298],[10.462,13.0166],[10.4569,12.9974],[10.4515,12.9936],[10.4507,12.9948],[10.4456,12.9904],[10.448,12.979],[10.447,12.9715],[10.4628,12.9475],[10.4694,12.9416],[10.4803,12.939],[10.4934,12.9428],[10.4983,12.9423],[10.5101,12.9447],[10.5143,12.9439],[10.5226,12.9357],[10.5306,12.919],[10.5368,12.9104],[10.5547,12.9048],[10.5645,12.9044],[10.5828,12.8966],[10.6022,12.8816],[10.6037,12.8691],[10.5961,12.8612],[10.5608,12.8578],[10.5498,12.838],[10.5316,12.8506],[10.524,12.8643],[10.4909,12.8519],[10.4884,12.8482],[10.47,12.8383],[10.4529,12.8314],[10.436,12.8176]]]}},{"type":"Feature","properties":{"name":"Machina","state":"Yobe","scode":"YO","centroid":[13.0285,9.9848]},"geometry":{"type":"Polygon","coordinates":[[[9.7652,12.7962],[9.7777,12.7993],[9.7774,12.8042],[9.7809,12.8004],[9.7856,12.7991],[9.7868,12.8042],[9.7853,12.8127],[9.787,12.8144],[9.7929,12.8145],[9.7974,12.8097],[9.8162,12.8075],[9.8582,12.8202],[9.8964,12.8527],[9.8997,12.8551],[9.9102,12.8585],[9.9154,12.8634],[9.9177,12.8723],[9.911,12.8775],[9.9297,12.9185],[9.9431,12.9112],[9.9537,12.9361],[9.9644,12.9444],[9.988,12.9564],[9.997,12.9556],[10.0062,12.9571],[10.0192,12.9638],[10.0321,12.9652],[10.0512,12.9528],[10.0609,12.9657],[10.0569,12.974],[10.0637,12.9778],[10.0887,12.9836],[10.0973,12.9664],[10.1037,12.9663],[10.0986,12.9855],[10.1178,12.9846],[10.1364,12.9894],[10.1399,12.9892],[10.1438,12.9867],[10.149,12.9876],[10.1546,12.9933],[10.1744,13.0022],[10.2029,13.0082],[10.2243,13.0148],[10.2265,13.0069],[10.2347,13.0088],[10.2324,13.011],[10.2371,13.0202],[10.2394,13.0342],[10.2471,13.0532],[10.2436,13.0699],[10.2456,13.0759],[10.2539,13.0795],[10.2609,13.089],[10.2483,13.0941],[10.2373,13.0793],[10.2326,13.0768],[10.2283,13.0796],[10.2281,13.0868],[10.2258,13.0895],[10.2137,13.091],[10.2088,13.1054],[10.2215,13.1261],[10.1785,13.1647],[10.2188,13.2436],[10.2244,13.2804],[10.1731,13.2697],[10.1483,13.2597],[9.9947,13.1764],[9.9621,13.1556],[9.9598,13.1528],[9.9605,13.1396],[9.9569,13.1348],[9.9457,13.1269],[9.9452,13.1216],[9.9385,13.1194],[9.9363,13.116],[9.9286,13.1117],[9.9238,13.1118],[9.9227,13.109],[9.9196,13.1073],[9.9168,13.1073],[9.9091,13.1119],[9.8731,13.0753],[9.662,12.8338],[9.6807,12.8209],[9.7048,12.8226],[9.7112,12.814],[9.714,12.8139],[9.7143,12.8102],[9.7483,12.7982],[9.7652,12.7962]]]}},{"type":"Feature","properties":{"name":"Nangere","state":"Yobe","scode":"YO","centroid":[11.8288,10.9902]},"geometry":{"type":"Polygon","coordinates":[[[10.9666,12.0848],[10.958,12.0924],[10.9342,12.0974],[10.9161,12.0864],[10.9102,12.0551],[10.9005,12.0503],[10.897,12.0428],[10.8855,12.0332],[10.8783,12.0194],[10.8672,12.0061],[10.8421,11.9997],[10.8304,11.9912],[10.8219,11.9883],[10.8228,11.9855],[10.8184,11.9831],[10.8234,11.9806],[10.8237,11.9772],[10.8221,11.9768],[10.8207,11.9798],[10.8188,11.9797],[10.817,11.9761],[10.8187,11.9705],[10.8109,11.9682],[10.8097,11.9654],[10.8116,11.9636],[10.814,11.9551],[10.8127,11.9544],[10.8097,11.9572],[10.8072,11.9573],[10.8049,11.9508],[10.8068,11.9473],[10.8056,11.9454],[10.8027,11.9475],[10.7997,11.9457],[10.8004,11.9434],[10.8027,11.9432],[10.8038,11.9416],[10.8033,11.9372],[10.802,11.9364],[10.8128,11.9169],[10.817,11.8861],[10.8407,11.8729],[10.8605,11.8556],[10.8775,11.829],[10.9054,11.8273],[10.9277,11.7766],[10.9265,11.7393],[10.9209,11.7184],[10.9287,11.6665],[10.927,11.6102],[10.9287,11.5856],[10.9325,11.567],[10.9395,11.554],[10.9293,11.5347],[10.9277,11.5256],[10.9297,11.516],[10.9513,11.5288],[10.9528,11.5389],[10.952,11.5431],[10.9614,11.5459],[10.9731,11.5467],[10.9817,11.5544],[11.0044,11.5594],[11.0177,11.5651],[11.0309,11.5741],[11.0336,11.58],[11.0387,11.5814],[11.0558,11.5798],[11.0591,11.5879],[11.0558,11.5969],[11.0531,11.6036],[11.0552,11.6244],[11.0363,11.6284],[11.0196,11.628],[11.0188,11.6325],[11.0237,11.6436],[11.0319,11.6552],[11.0356,11.6662],[11.0353,11.6757],[11.0303,11.7006],[11.0264,11.7062],[11.0258,11.7149],[11.028,11.729],[11.0201,11.7315],[11.0142,11.7303],[11.0132,11.7328],[11.0176,11.7369],[11.0201,11.743],[11.0293,11.7497],[11.0276,11.7528],[11.0343,11.7615],[11.0432,11.764],[11.0531,11.7584],[11.0728,11.7549],[11.0761,11.7527],[11.0761,11.7358],[11.0857,11.7298],[11.088,11.7322],[11.0891,11.7395],[11.1017,11.7407],[11.1153,11.7467],[11.1244,11.7458],[11.1514,11.7372],[11.167,11.7346],[11.1697,11.7357],[11.1768,11.7428],[11.1906,11.7583],[11.1982,11.7624],[11.2051,11.7629],[11.2091,11.7878],[11.2144,11.7901],[11.2216,11.802],[11.2277,11.8121],[11.226,11.8232],[11.2328,11.8285],[11.2334,11.8338],[11.2294,11.8404],[11.2381,11.8468],[11.2338,11.8515],[11.2362,11.8541],[11.2359,11.8563],[11.2438,11.8577],[11.238,11.8643],[11.2266,11.863],[11.2086,11.8547],[11.1947,11.8636],[11.1875,11.8611],[11.1874,11.8528],[11.1814,11.8503],[11.178,11.8591],[11.1634,11.8545],[11.1537,11.8534],[11.1423,11.8461],[11.1333,11.8553],[11.1231,11.8497],[11.1231,11.8422],[11.1078,11.8374],[11.1038,11.8427],[11.1059,11.851],[11.0972,11.8593],[11.0904,11.862],[11.0879,11.8705],[11.079,11.8836],[11.0752,11.8829],[11.0666,11.8927],[11.0572,11.8913],[11.0555,11.8937],[11.0587,11.901],[11.0586,11.9039],[11.0538,11.9078],[11.0447,11.9194],[11.036,11.9335],[11.0362,11.9466],[11.0383,11.9586],[11.0333,11.9654],[11.02,11.9754],[11.0119,11.9761],[11.0015,11.9994],[10.9934,11.9965],[10.9761,12.0037],[10.9964,12.0208],[10.9851,12.0325],[10.9884,12.0438],[10.9595,12.0697],[10.9666,12.0848]]]}},{"type":"Feature","properties":{"name":"Nguru","state":"Yobe","scode":"YO","centroid":[12.9609,10.3863]},"geometry":{"type":"Polygon","coordinates":[[[10.2347,13.0088],[10.2603,12.9975],[10.2637,12.9853],[10.2654,12.9836],[10.282,12.9794],[10.2846,12.9643],[10.2834,12.9621],[10.2773,12.9584],[10.264,12.9548],[10.2704,12.9448],[10.2707,12.9389],[10.2741,12.9345],[10.2719,12.9176],[10.289,12.9056],[10.2901,12.8755],[10.3047,12.8611],[10.3038,12.8554],[10.2955,12.8355],[10.2905,12.8155],[10.2982,12.8171],[10.3149,12.8145],[10.3253,12.8115],[10.331,12.8473],[10.3854,12.8411],[10.4096,12.8305],[10.4194,12.8246],[10.4283,12.8224],[10.436,12.8176],[10.4529,12.8314],[10.47,12.8383],[10.4884,12.8482],[10.4909,12.8519],[10.524,12.8643],[10.5316,12.8506],[10.5498,12.838],[10.5608,12.8578],[10.5961,12.8612],[10.6037,12.8691],[10.6022,12.8816],[10.5828,12.8966],[10.5645,12.9044],[10.5547,12.9048],[10.5368,12.9104],[10.5306,12.919],[10.5226,12.9357],[10.5143,12.9439],[10.5101,12.9447],[10.4983,12.9423],[10.4934,12.9428],[10.4803,12.939],[10.4694,12.9416],[10.4628,12.9475],[10.447,12.9715],[10.448,12.979],[10.4456,12.9904],[10.4507,12.9948],[10.4515,12.9936],[10.4569,12.9974],[10.462,13.0166],[10.4696,13.0298],[10.4605,13.0434],[10.4284,13.0419],[10.4199,13.0501],[10.4088,13.069],[10.3933,13.0907],[10.4025,13.1003],[10.4385,13.1237],[10.4543,13.1494],[10.4314,13.1544],[10.4002,13.1366],[10.3463,13.1095],[10.2968,13.0908],[10.2741,13.0904],[10.2673,13.092],[10.2609,13.089],[10.2539,13.0795],[10.2456,13.0759],[10.2436,13.0699],[10.2471,13.0532],[10.2394,13.0342],[10.2371,13.0202],[10.2324,13.011],[10.2347,13.0088]]]}},{"type":"Feature","properties":{"name":"Potiskum","state":"Yobe","scode":"YO","centroid":[11.6814,11.1462]},"geometry":{"type":"Polygon","coordinates":[[[11.2216,11.802],[11.2144,11.7901],[11.2091,11.7878],[11.2051,11.7629],[11.1982,11.7624],[11.1906,11.7583],[11.1768,11.7428],[11.1697,11.7357],[11.167,11.7346],[11.1514,11.7372],[11.1244,11.7458],[11.1153,11.7467],[11.1017,11.7407],[11.0891,11.7395],[11.088,11.7322],[11.0857,11.7298],[11.0761,11.7358],[11.0761,11.7527],[11.0728,11.7549],[11.0531,11.7584],[11.0432,11.764],[11.0343,11.7615],[11.0276,11.7528],[11.0293,11.7497],[11.0201,11.743],[11.0176,11.7369],[11.0132,11.7328],[11.0142,11.7303],[11.0201,11.7315],[11.028,11.729],[11.0258,11.7149],[11.0264,11.7062],[11.0303,11.7006],[11.0353,11.6757],[11.0356,11.6662],[11.0319,11.6552],[11.0237,11.6436],[11.0188,11.6325],[11.0196,11.628],[11.0363,11.6284],[11.0552,11.6244],[11.0531,11.6036],[11.0558,11.5969],[11.0808,11.5995],[11.097,11.595],[11.1084,11.5937],[11.1271,11.5945],[11.1372,11.6042],[11.142,11.5995],[11.1515,11.5974],[11.1543,11.5954],[11.1458,11.5886],[11.1461,11.5809],[11.1496,11.5712],[11.1726,11.5764],[11.1787,11.5787],[11.1775,11.5873],[11.1887,11.5905],[11.2008,11.5979],[11.2219,11.604],[11.2313,11.6057],[11.2357,11.6044],[11.2366,11.6065],[11.2349,11.6092],[11.2328,11.6208],[11.2201,11.6357],[11.2451,11.6568],[11.2493,11.6728],[11.2481,11.6788],[11.2588,11.6911],[11.2636,11.701],[11.2665,11.7116],[11.2581,11.7142],[11.2584,11.7191],[11.2656,11.7244],[11.2646,11.7293],[11.2566,11.734],[11.2562,11.7409],[11.2605,11.7437],[11.264,11.7503],[11.2705,11.7554],[11.2684,11.7643],[11.2709,11.7714],[11.2539,11.7773],[11.2564,11.7857],[11.2556,11.7928],[11.2502,11.7963],[11.2448,11.7917],[11.2397,11.7841],[11.2322,11.7861],[11.2231,11.7939],[11.2216,11.802]]]}},{"type":"Feature","properties":{"name":"Tarmuwa","state":"Yobe","scode":"YO","centroid":[12.263,11.8228]},"geometry":{"type":"Polygon","coordinates":[[[11.7227,12.0139],[11.7748,12.0187],[11.7799,12.0163],[11.7867,12.0045],[11.8107,11.9846],[11.837,11.9758],[11.871,12.0017],[11.8841,12.0084],[11.8894,12.0075],[11.8946,11.9964],[11.8837,11.9862],[11.8911,11.9765],[11.899,11.9781],[11.9087,11.9977],[11.9251,11.9909],[11.9776,11.9955],[11.9874,12.0016],[12.0265,12.0362],[12.0336,12.0502],[12.0617,12.075],[12.0527,12.0875],[12.0413,12.0985],[12.044,12.1034],[12.0621,12.1157],[12.0696,12.1383],[12.0765,12.1445],[12.0909,12.1445],[12.0971,12.1285],[12.1126,12.1337],[12.1195,12.1304],[12.126,12.1218],[12.1615,12.1123],[12.2364,12.1373],[12.2636,12.1785],[12.2503,12.2127],[12.2849,12.2662],[12.2831,12.2872],[12.2846,12.3152],[12.2684,12.3235],[12.27,12.3325],[12.2862,12.3299],[12.2873,12.344],[12.2832,12.4095],[12.2589,12.4197],[12.1771,12.4381],[12.1492,12.4265],[12.1108,12.4189],[12.0432,12.3946],[11.9838,12.3995],[11.9414,12.4476],[11.9282,12.484],[11.8996,12.4782],[11.8692,12.4621],[11.8062,12.4528],[11.7734,12.4603],[11.7424,12.4479],[11.7402,12.3797],[11.717,12.3914],[11.7147,12.3939],[11.7279,12.4562],[11.723,12.4839],[11.7253,12.4952],[11.7225,12.5021],[11.7321,12.5069],[11.7331,12.5087],[11.7285,12.5105],[11.7237,12.5146],[11.7196,12.5119],[11.7155,12.5112],[11.7126,12.5025],[11.7001,12.4978],[11.6957,12.4937],[11.6937,12.4942],[11.6961,12.4953],[11.6948,12.4987],[11.6992,12.4998],[11.6985,12.5031],[11.6922,12.4998],[11.6879,12.5022],[11.6858,12.5015],[11.6839,12.4938],[11.6778,12.4917],[11.674,12.4928],[11.674,12.4972],[11.6705,12.5],[11.6701,12.5048],[11.6681,12.5062],[11.6636,12.4986],[11.6547,12.4968],[11.6553,12.5044],[11.6498,12.509],[11.6476,12.5083],[11.6443,12.5014],[11.6405,12.499],[11.6384,12.5023],[11.6401,12.507],[11.6389,12.5086],[11.6367,12.5092],[11.6245,12.5044],[11.6232,12.5006],[11.6195,12.5038],[11.6203,12.506],[11.619,12.5079],[11.6138,12.5073],[11.6153,12.5028],[11.6068,12.5018],[11.6043,12.4996],[11.6046,12.4959],[11.6022,12.4964],[11.6026,12.5001],[11.5993,12.5017],[11.5946,12.4971],[11.5894,12.4973],[11.5876,12.4928],[11.5817,12.4925],[11.5811,12.4891],[11.5853,12.488],[11.5855,12.4841],[11.5788,12.4811],[11.574,12.4807],[11.5713,12.4785],[11.5693,12.4797],[11.5707,12.4831],[11.5696,12.4855],[11.564,12.4884],[11.5658,12.4924],[11.565,12.4949],[11.5625,12.4954],[11.5576,12.4926],[11.5592,12.4886],[11.5576,12.4857],[11.5513,12.4871],[11.5434,12.4821],[11.5423,12.4858],[11.5396,12.485],[11.5368,12.4867],[11.5426,12.4907],[11.5426,12.4917],[11.5394,12.4924],[11.5385,12.4957],[11.5215,12.4984],[11.5174,12.5028],[11.5141,12.4991],[11.5116,12.5007],[11.5133,12.4971],[11.5123,12.4953],[11.5064,12.4932],[11.5018,12.4948],[11.5001,12.4941],[11.5006,12.4918],[11.5026,12.4905],[11.5078,12.4903],[11.508,12.4858],[11.5038,12.4846],[11.504,12.4815],[11.5022,12.4808],[11.4939,12.4827],[11.491,12.4813],[11.4905,12.4794],[11.4932,12.4753],[11.4914,12.4717],[11.4849,12.4756],[11.4846,12.4797],[11.4874,12.482],[11.4878,12.4842],[11.4795,12.4832],[11.4707,12.4742],[11.4666,12.4625],[11.4533,12.4523],[11.441,12.4469],[11.4222,12.4439],[11.4092,12.4437],[11.3839,12.4351],[11.3633,12.4248],[11.3308,12.4132],[11.3169,12.3994],[11.3125,12.3908],[11.3254,12.3694],[11.3351,12.3385],[11.3902,12.3356],[11.4252,12.3196],[11.4287,12.3045],[11.4213,12.2705],[11.4125,12.2511],[11.4093,12.2028],[11.416,12.1858],[11.5009,12.1622],[11.5651,12.1644],[11.6074,12.1275],[11.6131,12.1176],[11.6068,12.0461],[11.6775,12.0214],[11.7092,12.0253],[11.7227,12.0139]]]}},{"type":"Feature","properties":{"name":"Yunusari","state":"Yobe","scode":"YO","centroid":[13.0961,11.807]},"geometry":{"type":"Polygon","coordinates":[[[12.4296,13.073],[12.3947,13.0743],[12.3592,13.0829],[12.3361,13.0832],[12.2808,13.0966],[12.2641,13.114],[12.26,13.1135],[12.2586,13.1177],[12.2384,13.1171],[12.2335,13.1104],[12.2332,13.1063],[12.2286,13.1105],[12.2265,13.1147],[12.223,13.114],[12.2227,13.1115],[12.2193,13.1148],[12.2127,13.1151],[12.2078,13.1193],[12.2097,13.1232],[12.2076,13.1255],[12.2051,13.1241],[12.1996,13.1304],[12.1971,13.127],[12.1953,13.1294],[12.1941,13.1273],[12.1952,13.1254],[12.1929,13.1231],[12.187,13.1245],[12.1845,13.1203],[12.1819,13.12],[12.1812,13.1171],[12.1784,13.1205],[12.1792,13.1226],[12.1779,13.1241],[12.1718,13.1232],[12.163,13.1175],[12.1409,13.1143],[12.1168,13.1143],[12.0903,13.1215],[12.0609,13.1342],[12.0248,13.158],[12.0078,13.1714],[11.8949,13.2351],[11.8197,13.2731],[11.7493,13.2931],[11.6544,13.3149],[11.6152,13.3295],[11.5388,13.3531],[11.4633,13.3733],[11.4522,13.3774],[11.4361,13.3775],[11.3925,13.3811],[11.3336,13.3794],[11.3337,13.3705],[11.3207,13.3474],[11.3357,13.3093],[11.339,13.3073],[11.3471,13.2634],[11.3233,13.2452],[11.3398,13.2075],[11.3394,13.2057],[11.3606,13.1662],[11.3793,13.1586],[11.3944,13.1503],[11.4264,13.1439],[11.4281,13.1107],[11.4206,13.1042],[11.3991,13.0985],[11.3931,13.088],[11.4459,13.0722],[11.445,13.0206],[11.4587,13.0244],[11.5215,13.0064],[11.531,12.9999],[11.5473,12.9969],[11.5585,12.9997],[11.5837,12.9789],[11.587,12.9466],[11.622,12.9389],[11.6348,12.9306],[11.6628,12.9183],[11.6741,12.9075],[11.6706,12.8998],[11.68,12.8827],[11.6824,12.872],[11.6959,12.8671],[11.7001,12.8637],[11.7002,12.866],[11.7025,12.8669],[11.7117,12.855],[11.7198,12.8516],[11.7313,12.8565],[11.7354,12.8599],[11.7454,12.858],[11.751,12.8585],[11.7541,12.8616],[11.7539,12.8631],[11.7509,12.8638],[11.7508,12.868],[11.7479,12.8709],[11.753,12.873],[11.757,12.8771],[11.7661,12.8776],[11.769,12.8757],[11.7707,12.8779],[11.7739,12.8759],[11.7734,12.8714],[11.7747,12.8702],[11.7774,12.8701],[11.7771,12.8739],[11.7785,12.8738],[11.7807,12.8721],[11.7802,12.8706],[11.7878,12.8671],[11.7908,12.8708],[11.7859,12.8712],[11.7861,12.8735],[11.7983,12.8796],[11.808,12.8776],[11.8089,12.8795],[11.8067,12.8802],[11.8086,12.8822],[11.8065,12.8829],[11.8104,12.8856],[11.8158,12.8851],[11.8206,12.8803],[11.8204,12.8845],[11.8227,12.8875],[11.8221,12.8893],[11.8192,12.89],[11.8207,12.8931],[11.829,12.8947],[11.8333,12.8911],[11.8365,12.891],[11.8402,12.8939],[11.842,12.8926],[11.8424,12.894],[11.8505,12.8946],[11.8495,12.8969],[11.8508,12.8974],[11.8589,12.8962],[11.8655,12.8927],[11.8713,12.8991],[11.8697,12.9006],[11.8675,12.8997],[11.8669,12.9028],[11.8717,12.9037],[11.8755,12.9038],[11.877,12.9021],[11.8749,12.896],[11.877,12.8915],[11.875,12.8903],[11.8799,12.8831],[11.8818,12.8859],[11.8878,12.8823],[11.8924,12.8844],[11.8924,12.8807],[11.8959,12.8756],[11.9022,12.8794],[11.9061,12.8785],[11.9065,12.888],[11.9008,12.8926],[11.9006,12.8941],[11.9026,12.8937],[11.9053,12.8956],[11.9075,12.8927],[11.9143,12.8921],[11.9173,12.8994],[11.9165,12.9041],[11.9098,12.9111],[11.9059,12.9178],[11.9035,12.9185],[11.8999,12.9171],[11.9005,12.9209],[11.8959,12.9198],[11.8981,12.9231],[11.8969,12.9238],[11.8941,12.9215],[11.8928,12.9221],[11.8924,12.927],[11.8993,12.9359],[11.8974,12.9383],[11.9003,12.9424],[11.8981,12.9442],[11.9043,12.9503],[11.9076,12.9487],[11.9102,12.9446],[11.912,12.9454],[11.9118,12.9492],[11.9163,12.9492],[11.9187,12.9547],[11.921,12.9552],[11.921,12.9626],[11.9177,12.9652],[11.9172,12.9709],[11.9205,12.9763],[11.9216,12.984],[11.9413,12.9906],[11.9469,12.9972],[11.9495,13.0039],[11.9548,13.0066],[11.9593,13.0047],[11.9615,12.9979],[11.9602,12.9701],[11.9703,12.9508],[11.9777,12.932],[11.967,12.9017],[11.9873,12.8803],[12.0139,12.8596],[12.0197,12.8605],[12.0343,12.8674],[12.0382,12.8887],[12.0444,12.9023],[12.0518,12.9053],[12.0662,12.9044],[12.0755,12.8863],[12.0998,12.8653],[12.101,12.8621],[12.1075,12.8558],[12.1185,12.8524],[12.1294,12.8548],[12.1312,12.8571],[12.1339,12.8572],[12.1349,12.852],[12.1373,12.8514],[12.1463,12.8556],[12.1599,12.8589],[12.1712,12.8573],[12.172,12.8621],[12.1873,12.881],[12.2146,12.9011],[12.2299,12.9062],[12.2448,12.9036],[12.2687,12.9061],[12.281,12.9095],[12.2932,12.9184],[12.2995,12.933],[12.3203,12.9632],[12.3342,12.9737],[12.3437,12.985],[12.3725,12.999],[12.3899,13.0149],[12.4013,13.0215],[12.4085,13.0235],[12.4192,13.0459],[12.4254,13.0549],[12.4296,13.073]]]}},{"type":"Feature","properties":{"name":"Yusufari","state":"Yobe","scode":"YO","centroid":[13.1853,10.8684]},"geometry":{"type":"Polygon","coordinates":[[[10.2609,13.089],[10.2673,13.092],[10.2741,13.0904],[10.2968,13.0908],[10.3463,13.1095],[10.4002,13.1366],[10.4314,13.1544],[10.4543,13.1494],[10.4385,13.1237],[10.4025,13.1003],[10.3933,13.0907],[10.4088,13.069],[10.4199,13.0501],[10.4284,13.0419],[10.4605,13.0434],[10.4696,13.0298],[10.4938,13.0362],[10.5117,13.046],[10.5359,13.0617],[10.5407,13.06],[10.5468,13.0547],[10.5505,13.0533],[10.5647,13.0355],[10.5799,13.0361],[10.5874,13.0294],[10.6005,13.0309],[10.6228,13.0277],[10.6388,13.0332],[10.6439,13.033],[10.6479,13.0345],[10.6475,13.0369],[10.651,13.0384],[10.6582,13.0371],[10.684,13.0378],[10.6958,13.0365],[10.6993,13.0417],[10.7173,13.0467],[10.7167,13.0865],[10.7245,13.0923],[10.7506,13.0836],[10.7645,13.1072],[10.7619,13.1219],[10.7789,13.1427],[10.7978,13.1581],[10.8307,13.1616],[10.8414,13.1642],[10.8539,13.1703],[10.8974,13.1837],[10.9234,13.1831],[10.925,13.1338],[10.9323,13.1133],[10.9329,13.1067],[10.9349,13.1052],[10.9283,13.1005],[10.9217,13.1005],[10.9201,13.098],[10.9115,13.0939],[10.9038,13.0931],[10.9006,13.0909],[10.8956,13.0834],[10.8897,13.0798],[10.8885,13.0767],[10.8942,13.0746],[10.8945,13.0712],[10.887,13.0634],[10.8843,13.0578],[10.8821,13.0579],[10.8833,13.0455],[10.8782,13.0321],[10.9045,13.0197],[10.9039,13.0152],[10.8994,13.009],[10.9032,12.9907],[10.9011,12.9868],[10.9071,12.9814],[10.9104,12.9651],[10.9225,12.9624],[10.9224,12.955],[10.9307,12.9353],[10.9419,12.9399],[10.9502,12.9677],[10.9524,12.9666],[10.9547,12.9595],[10.9592,12.9573],[10.9616,12.9619],[10.9792,12.9567],[10.9913,12.9678],[10.9886,12.9808],[10.9936,12.9954],[11.0135,12.9789],[11.0274,12.9831],[11.0788,12.968],[11.0856,12.9691],[11.1091,12.9601],[11.1235,12.9729],[11.1468,12.9629],[11.1654,12.9854],[11.1869,12.9846],[11.1939,12.9874],[11.2061,12.9656],[11.2295,12.9725],[11.2584,12.9509],[11.2781,12.9711],[11.3143,12.9618],[11.3604,12.9717],[11.4337,12.9834],[11.4341,13.0114],[11.445,13.0206],[11.4459,13.0722],[11.3931,13.088],[11.3991,13.0985],[11.4206,13.1042],[11.4281,13.1107],[11.4264,13.1439],[11.3944,13.1503],[11.3793,13.1586],[11.3606,13.1662],[11.3394,13.2057],[11.3398,13.2075],[11.3233,13.2452],[11.3471,13.2634],[11.339,13.3073],[11.3357,13.3093],[11.3207,13.3474],[11.3337,13.3705],[11.3336,13.3794],[11.2386,13.3753],[11.1944,13.3708],[11.1711,13.3664],[11.1059,13.3605],[11.0214,13.376],[11.0127,13.3745],[11.0098,13.3724],[11.0009,13.3764],[10.9967,13.3763],[10.9848,13.3733],[10.9321,13.3692],[10.9067,13.3725],[10.8786,13.3806],[10.8347,13.3869],[10.7915,13.3891],[10.7497,13.3886],[10.7234,13.3863],[10.6447,13.3746],[10.4639,13.3186],[10.4119,13.3097],[10.3375,13.3008],[10.2244,13.2804],[10.2188,13.2436],[10.1785,13.1647],[10.2215,13.1261],[10.2088,13.1054],[10.2137,13.091],[10.2258,13.0895],[10.2281,13.0868],[10.2283,13.0796],[10.2326,13.0768],[10.2373,13.0793],[10.2483,13.0941],[10.2609,13.089]]]}}]}