{"type":"FeatureCollection","features":[{"type":"Feature","properties":{"name":"Anka","state":"Zamfara","scode":"ZA","centroid":[11.9402,6.0114]},"geometry":{"type":"Polygon","coordinates":[[[5.7496,12.2889],[5.749,12.2726],[5.7518,12.254],[5.7225,12.2427],[5.7258,12.2228],[5.7211,12.1603],[5.7091,12.1426],[5.6819,12.1305],[5.6875,12.1247],[5.6941,12.1211],[5.6939,12.0889],[5.7377,12.088],[5.7392,12.0822],[5.7381,12.07],[5.7397,12.0597],[5.7436,12.0497],[5.7471,12.0461],[5.7651,12.0344],[5.819,12.0193],[5.837,11.9588],[5.8511,11.8959],[5.8547,11.8878],[5.8673,11.87],[5.884,11.8544],[5.8959,11.8306],[5.9091,11.8113],[5.9421,11.781],[5.9487,11.7684],[5.9448,11.7628],[5.9427,11.731],[5.9211,11.6957],[5.9144,11.677],[5.9109,11.6514],[5.9129,11.6357],[5.9172,11.6389],[5.9261,11.6392],[5.932,11.6421],[5.94,11.6429],[5.9526,11.6365],[5.9578,11.6404],[5.9632,11.64],[5.9729,11.6339],[5.9786,11.6427],[5.9806,11.643],[5.9833,11.6405],[5.9852,11.6409],[5.9841,11.6462],[5.9798,11.6534],[5.9838,11.6574],[5.983,11.6585],[5.9852,11.6586],[5.9895,11.6644],[5.9916,11.6718],[5.9966,11.6698],[6.0006,11.6661],[6.0057,11.6691],[6.0104,11.6662],[6.0109,11.6722],[6.0153,11.6727],[6.0139,11.6663],[6.0198,11.6624],[6.0274,11.6646],[6.0352,11.6628],[6.042,11.6652],[6.0429,11.6644],[6.0521,11.6719],[6.0577,11.6723],[6.059,11.6715],[6.0587,11.6696],[6.0605,11.6689],[6.0607,11.666],[6.0659,11.6567],[6.068,11.6571],[6.0692,11.6547],[6.0761,11.6506],[6.0827,11.6515],[6.0844,11.6534],[6.0966,11.6482],[6.1015,11.6513],[6.1042,11.649],[6.1038,11.6436],[6.1024,11.6429],[6.1037,11.6415],[6.1016,11.6384],[6.1042,11.6356],[6.1137,11.6355],[6.1146,11.6384],[6.1124,11.6418],[6.1133,11.6439],[6.1156,11.6443],[6.1168,11.6418],[6.1184,11.6431],[6.1181,11.6418],[6.121,11.6406],[6.1207,11.6377],[6.1222,11.6384],[6.1237,11.6372],[6.1229,11.6352],[6.1251,11.6347],[6.1245,11.633],[6.1283,11.6293],[6.1279,11.6268],[6.1309,11.6276],[6.1314,11.6303],[6.1339,11.631],[6.1366,11.6291],[6.1359,11.6268],[6.1385,11.6279],[6.1386,11.6256],[6.1399,11.6253],[6.1379,11.6239],[6.1384,11.6206],[6.1398,11.6186],[6.1455,11.6167],[6.1451,11.614],[6.155,11.613],[6.1568,11.6117],[6.1625,11.6146],[6.1624,11.6217],[6.1675,11.6292],[6.168,11.632],[6.1749,11.6366],[6.1751,11.6396],[6.1798,11.6422],[6.1853,11.6408],[6.1953,11.6423],[6.1965,11.6407],[6.2025,11.6409],[6.206,11.6381],[6.2085,11.6388],[6.2134,11.6342],[6.2161,11.6409],[6.2206,11.6441],[6.2225,11.6446],[6.225,11.6398],[6.2283,11.6403],[6.2286,11.645],[6.2311,11.6496],[6.2432,11.6492],[6.2474,11.6556],[6.2497,11.6527],[6.254,11.6508],[6.2539,11.6549],[6.2576,11.6557],[6.2443,11.6894],[6.2496,11.7167],[6.2667,11.7465],[6.2735,11.7642],[6.2836,11.7818],[6.2762,11.8291],[6.329,11.8491],[6.3235,11.8616],[6.321,11.8629],[6.3165,11.8694],[6.3098,11.8729],[6.3055,11.8801],[6.2991,11.8808],[6.295,11.8852],[6.2783,11.8874],[6.2748,11.8832],[6.265,11.8798],[6.2588,11.8889],[6.25,11.8909],[6.2479,11.8981],[6.2408,11.9028],[6.2315,11.9206],[6.2313,11.9242],[6.2331,11.9277],[6.2302,11.9393],[6.2212,11.9447],[6.2198,11.9484],[6.2154,11.95],[6.2141,11.953],[6.2126,11.962],[6.2147,11.9809],[6.2121,11.9856],[6.2121,11.9989],[6.2077,12.0044],[6.1992,12.0057],[6.1982,12.0151],[6.189,12.0192],[6.1872,12.0227],[6.1873,12.0263],[6.1834,12.0314],[6.1873,12.0334],[6.1819,12.0428],[6.1845,12.0479],[6.1836,12.0512],[6.1784,12.055],[6.1697,12.0491],[6.1584,12.0505],[6.1585,12.0736],[6.1594,12.0772],[6.161,12.0772],[6.1638,12.0811],[6.1662,12.0868],[6.1729,12.0929],[6.1707,12.1004],[6.1602,12.1088],[6.1443,12.1114],[6.1345,12.1204],[6.1218,12.1252],[6.1144,12.1323],[6.0948,12.1216],[6.0542,12.1211],[6.0535,12.1289],[6.0497,12.138],[6.0139,12.1756],[5.999,12.1541],[5.9589,12.1564],[5.9592,12.1421],[5.9473,12.1404],[5.9482,12.1271],[5.9442,12.1278],[5.9385,12.1343],[5.9307,12.1398],[5.9295,12.138],[5.9097,12.1412],[5.9083,12.1864],[5.8961,12.2097],[5.8925,12.2489],[5.8891,12.2638],[5.8899,12.2692],[5.8863,12.3139],[5.866,12.3166],[5.841,12.2931],[5.8315,12.2728],[5.8235,12.2625],[5.8291,12.245],[5.8236,12.2419],[5.8182,12.2419],[5.8082,12.2506],[5.7921,12.2591],[5.7821,12.2702],[5.7781,12.2708],[5.7709,12.2678],[5.7599,12.2818],[5.7496,12.2889]]]}},{"type":"Feature","properties":{"name":"Bakura","state":"Zamfara","scode":"ZA","centroid":[12.6165,5.8459]},"geometry":{"type":"Polygon","coordinates":[[[5.7496,12.2889],[5.7599,12.2818],[5.7709,12.2678],[5.7781,12.2708],[5.7821,12.2702],[5.7921,12.2591],[5.8082,12.2506],[5.8182,12.2419],[5.8236,12.2419],[5.8291,12.245],[5.8235,12.2625],[5.8315,12.2728],[5.841,12.2931],[5.866,12.3166],[5.8863,12.3139],[5.8991,12.3211],[5.8762,12.3553],[5.8779,12.362],[5.8914,12.3844],[5.9015,12.4246],[5.9031,12.448],[5.9131,12.4516],[5.9224,12.4616],[5.9433,12.4688],[5.9473,12.5084],[5.9489,12.5123],[5.9722,12.5307],[5.9804,12.5464],[5.9996,12.554],[6.0088,12.5819],[6.0119,12.5858],[6.0077,12.5917],[6.0068,12.5975],[6.0109,12.5976],[6.0149,12.5921],[6.0175,12.593],[6.0206,12.5909],[6.0216,12.5941],[6.0265,12.5979],[6.0322,12.6105],[6.0577,12.6156],[6.0608,12.6245],[6.0568,12.6258],[6.0577,12.6301],[6.0636,12.6424],[6.0812,12.6462],[6.0956,12.6526],[6.0943,12.6687],[6.1053,12.6729],[6.1054,12.6874],[6.0947,12.6941],[6.0909,12.707],[6.1016,12.7508],[6.0995,12.762],[6.1,12.7797],[6.0341,12.7841],[6.0244,12.7488],[5.9861,12.7547],[5.9617,12.7547],[5.9613,12.7586],[5.9507,12.7653],[5.9475,12.7725],[5.8833,12.8203],[5.852,12.8103],[5.8478,12.8105],[5.836,12.8148],[5.8131,12.8397],[5.734,12.8268],[5.6889,12.8566],[5.6817,12.8652],[5.6347,12.8829],[5.6234,12.8599],[5.5882,12.8041],[5.6204,12.7871],[5.6493,12.7689],[5.6745,12.7348],[5.6863,12.7139],[5.6941,12.6891],[5.6774,12.6319],[5.69,12.6274],[5.7231,12.6206],[5.7283,12.5511],[5.7172,12.4869],[5.7359,12.4486],[5.7652,12.4095],[5.7726,12.3835],[5.7567,12.3388],[5.7538,12.3369],[5.7551,12.331],[5.7506,12.3239],[5.7496,12.2889]]]}},{"type":"Feature","properties":{"name":"Birnin Magaji-Kiyaw","state":"Zamfara","scode":"ZA","centroid":[12.4941,6.8749]},"geometry":{"type":"Polygon","coordinates":[[[6.8984,12.2755],[6.9004,12.288],[6.9034,12.2966],[6.9343,12.3137],[6.9491,12.3278],[6.9528,12.3442],[6.954,12.3752],[6.9663,12.3981],[6.9788,12.4164],[7.0101,12.4333],[7.0208,12.431],[7.0249,12.4331],[7.0659,12.4317],[7.0594,12.4886],[7.0537,12.5163],[7.0537,12.5293],[7.0512,12.5399],[7.0521,12.5534],[7.0502,12.5751],[7.0516,12.587],[7.046,12.6196],[7.0472,12.6377],[7.0445,12.6589],[7.0393,12.6587],[7.035,12.6614],[6.989,12.6734],[6.87,12.6427],[6.8501,12.6423],[6.833,12.6445],[6.8301,12.6426],[6.8248,12.6444],[6.8167,12.6428],[6.8115,12.6376],[6.8009,12.6318],[6.7976,12.6262],[6.7902,12.6253],[6.7835,12.6196],[6.7817,12.6093],[6.7824,12.5891],[6.7615,12.5882],[6.7576,12.5821],[6.7507,12.5798],[6.7432,12.5871],[6.7377,12.5866],[6.7321,12.5897],[6.7058,12.5803],[6.704,12.5838],[6.702,12.5844],[6.7011,12.5893],[6.6983,12.592],[6.6703,12.5768],[6.6779,12.5578],[6.6636,12.5557],[6.6562,12.5522],[6.661,12.5431],[6.6646,12.5426],[6.668,12.5372],[6.6726,12.5258],[6.6696,12.5069],[6.6809,12.5035],[6.6917,12.4812],[6.6815,12.4735],[6.6693,12.4679],[6.6687,12.4609],[6.6712,12.4528],[6.6738,12.4516],[6.6768,12.447],[6.6763,12.4434],[6.6887,12.4346],[6.684,12.4262],[6.694,12.4204],[6.6931,12.4138],[6.7011,12.3964],[6.7093,12.3949],[6.7146,12.3959],[6.7192,12.3941],[6.7298,12.396],[6.7428,12.3961],[6.772,12.3869],[6.7674,12.373],[6.7735,12.3717],[6.7782,12.3686],[6.7853,12.36],[6.7909,12.3598],[6.801,12.3548],[6.8061,12.3537],[6.8157,12.3476],[6.8148,12.3407],[6.8158,12.3372],[6.8242,12.3334],[6.8285,12.3358],[6.8328,12.3351],[6.8376,12.278],[6.8627,12.2696],[6.8758,12.2672],[6.8862,12.2708],[6.8934,12.2711],[6.8938,12.2752],[6.8984,12.2755]]]}},{"type":"Feature","properties":{"name":"Bukkuyum","state":"Zamfara","scode":"ZA","centroid":[11.9556,5.5839]},"geometry":{"type":"Polygon","coordinates":[[[5.7506,12.3239],[5.6915,12.3217],[5.6526,12.3483],[5.5667,12.3515],[5.5411,12.2728],[5.5193,12.2606],[5.4758,12.2524],[5.4697,12.2526],[5.4651,12.2713],[5.4542,12.2967],[5.4387,12.343],[5.4223,12.3533],[5.3965,12.3449],[5.3926,12.3295],[5.3845,12.3243],[5.3601,12.3375],[5.3528,12.344],[5.348,12.3456],[5.3418,12.3421],[5.3335,12.3461],[5.3216,12.3492],[5.3116,12.3558],[5.3093,12.3414],[5.3203,12.3214],[5.3274,12.3179],[5.3345,12.3099],[5.3411,12.2938],[5.3482,12.2836],[5.3541,12.2785],[5.3618,12.276],[5.3867,12.2768],[5.3927,12.2755],[5.4027,12.2665],[5.3977,12.1968],[5.3901,12.172],[5.381,12.1575],[5.347,12.1327],[5.3691,12.0756],[5.359,12.0461],[5.3623,12.0372],[5.3728,12.0238],[5.3743,12.0154],[5.3706,11.9972],[5.3599,11.9798],[5.329,11.9729],[5.3205,11.9701],[5.3058,11.9624],[5.3016,11.9531],[5.3005,11.941],[5.2888,11.9273],[5.2836,11.9245],[5.2529,11.9239],[5.2478,11.9214],[5.2321,11.8948],[5.2314,11.8854],[5.2671,11.8081],[5.2715,11.7956],[5.272,11.7902],[5.2707,11.7882],[5.2723,11.7869],[5.2727,11.7834],[5.2694,11.7823],[5.2708,11.78],[5.2743,11.7759],[5.2837,11.7725],[5.2865,11.7693],[5.288,11.7694],[5.2928,11.7742],[5.2958,11.7745],[5.3,11.7809],[5.3027,11.7921],[5.3095,11.7937],[5.3123,11.7929],[5.3158,11.7908],[5.3177,11.7876],[5.3175,11.7779],[5.3132,11.7723],[5.2971,11.7607],[5.2962,11.7553],[5.3071,11.7583],[5.3193,11.7731],[5.328,11.7722],[5.3366,11.7495],[5.3365,11.7396],[5.3408,11.7345],[5.3527,11.7296],[5.3559,11.7222],[5.3508,11.7155],[5.349,11.7101],[5.3499,11.7093],[5.3623,11.7101],[5.3659,11.7139],[5.3689,11.7144],[5.3759,11.7096],[5.3854,11.7121],[5.394,11.7107],[5.397,11.712],[5.4013,11.7053],[5.4052,11.7029],[5.4128,11.7043],[5.4222,11.7087],[5.4285,11.7067],[5.4402,11.7088],[5.4541,11.6989],[5.4564,11.6951],[5.4602,11.6844],[5.46,11.6731],[5.4712,11.6638],[5.4813,11.6648],[5.4972,11.6559],[5.5025,11.6582],[5.5058,11.6631],[5.5141,11.6648],[5.5155,11.6705],[5.5183,11.6708],[5.5275,11.6613],[5.5416,11.6657],[5.5515,11.6726],[5.5537,11.6767],[5.5641,11.6844],[5.5802,11.6754],[5.6049,11.6686],[5.6394,11.6629],[5.6697,11.6614],[5.691,11.6673],[5.6962,11.6706],[5.705,11.688],[5.7607,11.6866],[5.7803,11.6839],[5.7878,11.6789],[5.8195,11.6484],[5.833,11.6485],[5.8561,11.6408],[5.8657,11.6334],[5.8701,11.6322],[5.8704,11.6286],[5.8722,11.6271],[5.8753,11.6269],[5.8758,11.625],[5.8707,11.62],[5.8707,11.6178],[5.8808,11.6148],[5.896,11.6225],[5.8988,11.6308],[5.9011,11.631],[5.904,11.6336],[5.9056,11.6326],[5.9129,11.6357],[5.9109,11.6514],[5.9144,11.677],[5.9211,11.6957],[5.9427,11.731],[5.9448,11.7628],[5.9487,11.7684],[5.9421,11.781],[5.9091,11.8113],[5.8959,11.8306],[5.884,11.8544],[5.8673,11.87],[5.8547,11.8878],[5.8511,11.8959],[5.837,11.9588],[5.819,12.0193],[5.7651,12.0344],[5.7471,12.0461],[5.7436,12.0497],[5.7397,12.0597],[5.7381,12.07],[5.7392,12.0822],[5.7377,12.088],[5.6939,12.0889],[5.6941,12.1211],[5.6875,12.1247],[5.6819,12.1305],[5.7091,12.1426],[5.7211,12.1603],[5.7258,12.2228],[5.7225,12.2427],[5.7518,12.254],[5.749,12.2726],[5.7496,12.2889],[5.7506,12.3239]]]}},{"type":"Feature","properties":{"name":"Bungudu","state":"Zamfara","scode":"ZA","centroid":[12.0879,6.5718]},"geometry":{"type":"Polygon","coordinates":[[[6.4448,12.3671],[6.4494,12.3552],[6.4553,12.3536],[6.4554,12.3424],[6.4462,12.3248],[6.4366,12.3188],[6.4388,12.3153],[6.4425,12.3145],[6.4413,12.2901],[6.4456,12.2612],[6.4318,12.2526],[6.4341,12.2481],[6.4348,12.239],[6.431,12.2368],[6.4335,12.2307],[6.4318,12.2258],[6.4296,12.2241],[6.4297,12.2212],[6.4328,12.2084],[6.4366,12.2007],[6.4378,12.1826],[6.4178,12.1773],[6.4046,12.1703],[6.3984,12.1631],[6.3967,12.1586],[6.3848,12.1528],[6.3665,12.0902],[6.3765,12.0882],[6.3728,12.0713],[6.381,12.0673],[6.3652,12.0499],[6.3616,12.0492],[6.3605,12.0447],[6.3548,12.0392],[6.393,12.0281],[6.3996,12.0277],[6.4115,12.0232],[6.4347,12.0189],[6.4573,12.018],[6.4564,11.9893],[6.4623,11.9712],[6.4668,11.9627],[6.4786,11.9535],[6.4824,11.9465],[6.4814,11.9345],[6.4874,11.9205],[6.4873,11.9154],[6.4892,11.9098],[6.504,11.8935],[6.4811,11.8693],[6.4566,11.8506],[6.4373,11.8201],[6.4312,11.8139],[6.4222,11.8101],[6.4037,11.8054],[6.4027,11.7839],[6.4023,11.7402],[6.4073,11.7292],[6.4103,11.726],[6.4198,11.7218],[6.4212,11.7187],[6.4195,11.7116],[6.4206,11.6963],[6.4286,11.6899],[6.4301,11.687],[6.4271,11.6673],[6.4277,11.6641],[6.439,11.6376],[6.446,11.6283],[6.4504,11.6142],[6.4576,11.6014],[6.4614,11.5782],[6.4613,11.5711],[6.4993,11.569],[6.4934,11.5811],[6.4971,11.5918],[6.5005,11.5949],[6.5011,11.5995],[6.5175,11.6035],[6.5195,11.6052],[6.5231,11.6153],[6.5277,11.6192],[6.5488,11.6301],[6.5633,11.6526],[6.5677,11.6679],[6.5639,11.6958],[6.5653,11.723],[6.5632,11.7413],[6.5648,11.7518],[6.5796,11.7764],[6.5831,11.7886],[6.5827,11.803],[6.5866,11.8508],[6.5787,11.8848],[6.5851,11.9295],[6.5926,11.952],[6.5901,11.9583],[6.584,11.9643],[6.5813,11.9602],[6.5773,11.9632],[6.5733,12.0047],[6.5747,12.0214],[6.5778,12.0362],[6.5772,12.0413],[6.5798,12.0463],[6.5817,12.056],[6.5777,12.0611],[6.5709,12.0883],[6.5767,12.1032],[6.5711,12.1065],[6.5678,12.111],[6.5679,12.1181],[6.5713,12.1268],[6.5815,12.1401],[6.5849,12.1576],[6.583,12.1774],[6.5913,12.1989],[6.6108,12.1989],[6.6101,12.2014],[6.6195,12.2045],[6.6365,12.2048],[6.6445,12.2069],[6.6509,12.2114],[6.6529,12.2189],[6.655,12.2214],[6.6665,12.2151],[6.6756,12.2156],[6.6772,12.2038],[6.6862,12.1934],[6.7016,12.1974],[6.7304,12.1997],[6.7426,12.2024],[6.7412,12.1984],[6.7428,12.1963],[6.7432,12.1912],[6.7587,12.1606],[6.7589,12.1414],[6.7567,12.1376],[6.7843,12.1112],[6.7844,12.1032],[6.7829,12.1028],[6.7828,12.1006],[6.7876,12.1007],[6.7873,12.0975],[6.8004,12.097],[6.8103,12.0949],[6.8246,12.088],[6.8269,12.0774],[6.8594,12.0836],[6.8623,12.0764],[6.878,12.0789],[6.8697,12.0946],[6.8858,12.1052],[6.8965,12.1189],[6.9049,12.1486],[6.9068,12.1597],[6.8962,12.1687],[6.8937,12.2027],[6.8901,12.2177],[6.869,12.2413],[6.8829,12.2483],[6.8962,12.258],[6.8991,12.2687],[6.8984,12.2755],[6.8938,12.2752],[6.8934,12.2711],[6.8862,12.2708],[6.8758,12.2672],[6.8627,12.2696],[6.8376,12.278],[6.8328,12.2772],[6.8036,12.2791],[6.8003,12.2842],[6.7956,12.2858],[6.7835,12.2864],[6.7806,12.2952],[6.7767,12.297],[6.7717,12.2971],[6.7712,12.3],[6.7547,12.3],[6.7538,12.3053],[6.7385,12.3103],[6.7368,12.3139],[6.7332,12.3122],[6.7281,12.3128],[6.7263,12.3151],[6.7188,12.3166],[6.7082,12.3151],[6.7035,12.3166],[6.6842,12.3133],[6.6753,12.3204],[6.674,12.3244],[6.677,12.3276],[6.6841,12.3299],[6.6841,12.3356],[6.6822,12.3368],[6.6856,12.3415],[6.6838,12.3435],[6.6864,12.3467],[6.6792,12.3478],[6.6717,12.3443],[6.6613,12.3423],[6.6533,12.3377],[6.6505,12.3395],[6.6455,12.3386],[6.6425,12.3361],[6.639,12.3366],[6.6379,12.3583],[6.6254,12.3844],[6.6214,12.3836],[6.6076,12.4049],[6.6078,12.4217],[6.606,12.429],[6.5979,12.4475],[6.5715,12.4453],[6.5634,12.4379],[6.5568,12.4371],[6.5449,12.4379],[6.5291,12.4496],[6.5008,12.4465],[6.495,12.4305],[6.4804,12.4292],[6.4707,12.412],[6.4677,12.4128],[6.4571,12.4101],[6.4493,12.3895],[6.4448,12.3671]]]}},{"type":"Feature","properties":{"name":"Gummi","state":"Zamfara","scode":"ZA","centroid":[12.049,5.1173]},"geometry":{"type":"Polygon","coordinates":[[[5.2708,11.78],[5.2694,11.7823],[5.2727,11.7834],[5.2723,11.7869],[5.2707,11.7882],[5.272,11.7902],[5.2715,11.7956],[5.2671,11.8081],[5.2314,11.8854],[5.2321,11.8948],[5.2478,11.9214],[5.2529,11.9239],[5.2836,11.9245],[5.2888,11.9273],[5.3005,11.941],[5.3016,11.9531],[5.3058,11.9624],[5.3205,11.9701],[5.329,11.9729],[5.3599,11.9798],[5.3706,11.9972],[5.3743,12.0154],[5.3728,12.0238],[5.3623,12.0372],[5.359,12.0461],[5.3691,12.0756],[5.347,12.1327],[5.381,12.1575],[5.3901,12.172],[5.3977,12.1968],[5.4027,12.2665],[5.3927,12.2755],[5.3867,12.2768],[5.3618,12.276],[5.3541,12.2785],[5.3482,12.2836],[5.3411,12.2938],[5.3345,12.3099],[5.3274,12.3179],[5.3203,12.3214],[5.3093,12.3414],[5.3116,12.3558],[5.2762,12.342],[5.2416,12.3313],[5.2036,12.3225],[5.1819,12.3225],[5.1772,12.3193],[5.1716,12.3202],[5.1602,12.3161],[5.1477,12.3065],[5.1335,12.2888],[5.128,12.2857],[5.1241,12.2858],[5.1167,12.2834],[5.1021,12.2849],[5.0849,12.2939],[5.0644,12.2974],[4.9976,12.3007],[4.9668,12.3079],[4.9529,12.3144],[4.9504,12.2313],[4.875,12.2297],[4.8727,12.2082],[4.8617,12.1596],[4.8663,12.1364],[4.8746,12.1182],[4.8646,12.0909],[4.8646,12.0677],[4.8607,12.0476],[4.8707,12.0286],[4.8667,11.9327],[4.9444,11.8808],[4.9682,11.8757],[4.9371,11.8487],[4.935,11.8451],[4.9262,11.8202],[4.9264,11.8138],[4.9231,11.7948],[4.9196,11.7899],[4.941,11.7308],[4.9441,11.7323],[4.945,11.735],[4.9527,11.7393],[4.9603,11.7397],[4.9639,11.7385],[4.9661,11.736],[4.9737,11.7382],[4.9773,11.737],[4.9871,11.7407],[4.988,11.745],[4.9899,11.7464],[4.9953,11.7447],[5.0005,11.748],[5.0057,11.7466],[5.0071,11.7497],[5.0088,11.7493],[5.01,11.7454],[5.0145,11.7442],[5.0273,11.7336],[5.0285,11.731],[5.0272,11.7231],[5.0303,11.7198],[5.0342,11.7195],[5.0381,11.7234],[5.0441,11.7238],[5.0516,11.7201],[5.0566,11.7128],[5.0628,11.7081],[5.0655,11.7089],[5.0651,11.7114],[5.0712,11.7199],[5.0732,11.7269],[5.0814,11.7323],[5.103,11.7378],[5.1249,11.7298],[5.1273,11.731],[5.1296,11.7289],[5.1342,11.7284],[5.1349,11.7303],[5.1404,11.7305],[5.145,11.7325],[5.1459,11.7369],[5.1479,11.7378],[5.1512,11.7385],[5.1565,11.7367],[5.1589,11.7407],[5.1629,11.7418],[5.1638,11.7433],[5.1682,11.7436],[5.1702,11.7422],[5.1774,11.7441],[5.1819,11.7518],[5.184,11.7597],[5.1836,11.7661],[5.1829,11.7673],[5.173,11.769],[5.1662,11.7799],[5.1704,11.7833],[5.1742,11.7834],[5.1773,11.7878],[5.1779,11.7924],[5.1825,11.792],[5.1898,11.7866],[5.1906,11.7841],[5.1952,11.7836],[5.2141,11.7751],[5.2149,11.772],[5.2139,11.7705],[5.2153,11.7684],[5.2207,11.7655],[5.2193,11.7578],[5.2231,11.7567],[5.238,11.7559],[5.2538,11.7648],[5.2548,11.7673],[5.2517,11.7743],[5.2579,11.7735],[5.2638,11.7751],[5.2708,11.78]]]}},{"type":"Feature","properties":{"name":"Gusau","state":"Zamfara","scode":"ZA","centroid":[11.9081,6.657]},"geometry":{"type":"MultiPolygon","coordinates":[[[[6.4971,11.5918],[6.5239,11.5895],[6.5286,11.5798],[6.5334,11.5791],[6.5382,11.5744],[6.5633,11.5648],[6.5846,11.5668],[6.5962,11.5695],[6.6079,11.5757],[6.6279,11.5731],[6.6429,11.5683],[6.6569,11.571],[6.6792,11.5779],[6.7137,11.594],[6.7257,11.6342],[6.7226,11.6715],[6.7043,11.6942],[6.6819,11.7147],[6.695,11.7755],[6.704,11.8264],[6.6844,11.855],[6.6761,11.8768],[6.6648,11.8954],[6.7065,11.9188],[6.7276,11.9343],[6.7398,11.9497],[6.7453,11.9996],[6.7523,12.0002],[6.7564,12.0035],[6.7587,12.0023],[6.7687,12.0029],[6.7703,12.0009],[6.7683,11.9974],[6.7687,11.9947],[6.7724,11.9924],[6.7748,11.9883],[6.7792,11.9861],[6.7854,11.9851],[6.7878,11.9944],[6.7794,11.9945],[6.7779,11.9965],[6.7797,12.0011],[6.7914,11.9973],[6.7968,12.0013],[6.8054,12.0028],[6.8122,12.0175],[6.8109,12.0218],[6.8156,12.0465],[6.8187,12.0514],[6.8269,12.0774],[6.8246,12.088],[6.8103,12.0949],[6.8004,12.097],[6.7873,12.0975],[6.7876,12.1007],[6.7828,12.1006],[6.7829,12.1028],[6.7844,12.1032],[6.7843,12.1112],[6.7567,12.1376],[6.7589,12.1414],[6.7587,12.1606],[6.7432,12.1912],[6.7428,12.1963],[6.7412,12.1984],[6.7426,12.2024],[6.7304,12.1997],[6.7016,12.1974],[6.6862,12.1934],[6.6772,12.2038],[6.6756,12.2156],[6.6665,12.2151],[6.655,12.2214],[6.6529,12.2189],[6.6509,12.2114],[6.6445,12.2069],[6.6365,12.2048],[6.6195,12.2045],[6.6101,12.2014],[6.6108,12.1989],[6.5913,12.1989],[6.583,12.1774],[6.5849,12.1576],[6.5815,12.1401],[6.5713,12.1268],[6.5679,12.1181],[6.5678,12.111],[6.5711,12.1065],[6.5767,12.1032],[6.5709,12.0883],[6.5777,12.0611],[6.5817,12.056],[6.5798,12.0463],[6.5772,12.0413],[6.5778,12.0362],[6.5747,12.0214],[6.5733,12.0047],[6.5773,11.9632],[6.5813,11.9602],[6.584,11.9643],[6.5901,11.9583],[6.5926,11.952],[6.5851,11.9295],[6.5787,11.8848],[6.5866,11.8508],[6.5827,11.803],[6.5831,11.7886],[6.5796,11.7764],[6.5648,11.7518],[6.5632,11.7413],[6.5653,11.723],[6.5639,11.6958],[6.5677,11.6679],[6.5633,11.6526],[6.5488,11.6301],[6.5277,11.6192],[6.5231,11.6153],[6.5195,11.6052],[6.5175,11.6035],[6.5011,11.5995],[6.5005,11.5949],[6.4971,11.5918]]],[[[7.0659,12.4317],[7.0249,12.4331],[7.0208,12.431],[7.0101,12.4333],[6.9788,12.4164],[6.9663,12.3981],[6.954,12.3752],[6.9528,12.3442],[6.9491,12.3278],[6.9343,12.3137],[6.9034,12.2966],[6.9004,12.288],[6.8984,12.2755],[6.8991,12.2687],[6.8962,12.258],[6.8829,12.2483],[6.869,12.2413],[6.8901,12.2177],[6.8937,12.2027],[6.8962,12.1687],[6.9068,12.1597],[6.9049,12.1486],[6.8965,12.1189],[6.8858,12.1052],[6.9111,12.0872],[6.9149,12.0901],[6.9175,12.0893],[6.923,12.0812],[6.9337,12.0794],[6.9505,12.0804],[6.955,12.0772],[6.9574,12.0699],[6.9654,12.0685],[6.9668,12.0667],[6.9966,12.0909],[7.0002,12.0969],[7.0346,12.0903],[7.041,12.0905],[7.0429,12.089],[7.0553,12.0867],[7.0586,12.0877],[7.0726,12.0848],[7.0764,12.0863],[7.086,12.0865],[7.1,12.0932],[7.1172,12.094],[7.1261,12.1135],[7.1279,12.1245],[7.1351,12.1318],[7.1456,12.1472],[7.1568,12.1851],[7.15,12.207],[7.1504,12.2316],[7.1395,12.2432],[7.0933,12.2826],[7.0828,12.3294],[7.0847,12.3475],[7.0747,12.375],[7.0659,12.4317]]]]}},{"type":"Feature","properties":{"name":"Kaura Namoda","state":"Zamfara","scode":"ZA","centroid":[12.511,6.6013]},"geometry":{"type":"Polygon","coordinates":[[[6.5008,12.4465],[6.5291,12.4496],[6.5449,12.4379],[6.5568,12.4371],[6.5634,12.4379],[6.5715,12.4453],[6.5979,12.4475],[6.606,12.429],[6.6078,12.4217],[6.6076,12.4049],[6.6214,12.3836],[6.6254,12.3844],[6.6379,12.3583],[6.639,12.3366],[6.6425,12.3361],[6.6455,12.3386],[6.6505,12.3395],[6.6533,12.3377],[6.6613,12.3423],[6.6717,12.3443],[6.6792,12.3478],[6.6864,12.3467],[6.6838,12.3435],[6.6856,12.3415],[6.6822,12.3368],[6.6841,12.3356],[6.6841,12.3299],[6.677,12.3276],[6.674,12.3244],[6.6753,12.3204],[6.6842,12.3133],[6.7035,12.3166],[6.7082,12.3151],[6.7188,12.3166],[6.7263,12.3151],[6.7281,12.3128],[6.7332,12.3122],[6.7368,12.3139],[6.7385,12.3103],[6.7538,12.3053],[6.7547,12.3],[6.7712,12.3],[6.7717,12.2971],[6.7767,12.297],[6.7806,12.2952],[6.7835,12.2864],[6.7956,12.2858],[6.8003,12.2842],[6.8036,12.2791],[6.8328,12.2772],[6.8376,12.278],[6.8328,12.3351],[6.8285,12.3358],[6.8242,12.3334],[6.8158,12.3372],[6.8148,12.3407],[6.8157,12.3476],[6.8061,12.3537],[6.801,12.3548],[6.7909,12.3598],[6.7853,12.36],[6.7782,12.3686],[6.7735,12.3717],[6.7674,12.373],[6.772,12.3869],[6.7428,12.3961],[6.7298,12.396],[6.7192,12.3941],[6.7146,12.3959],[6.7093,12.3949],[6.7011,12.3964],[6.6931,12.4138],[6.694,12.4204],[6.684,12.4262],[6.6887,12.4346],[6.6763,12.4434],[6.6768,12.447],[6.6738,12.4516],[6.6712,12.4528],[6.6687,12.4609],[6.6693,12.4679],[6.6815,12.4735],[6.6917,12.4812],[6.6809,12.5035],[6.6696,12.5069],[6.6726,12.5258],[6.668,12.5372],[6.6646,12.5426],[6.661,12.5431],[6.6562,12.5522],[6.6636,12.5557],[6.6779,12.5578],[6.6703,12.5768],[6.6983,12.592],[6.7011,12.5893],[6.702,12.5844],[6.704,12.5838],[6.7058,12.5803],[6.7321,12.5897],[6.7377,12.5866],[6.7432,12.5871],[6.747,12.5992],[6.759,12.6106],[6.7629,12.6206],[6.7532,12.6369],[6.7484,12.6367],[6.7273,12.6264],[6.7097,12.6438],[6.7042,12.6424],[6.6889,12.6429],[6.6675,12.6496],[6.6368,12.6633],[6.6023,12.6722],[6.5598,12.6788],[6.55,12.678],[6.5396,12.6762],[6.5422,12.6736],[6.5426,12.6703],[6.5409,12.6667],[6.5326,12.6593],[6.5307,12.6554],[6.5317,12.652],[6.5242,12.6535],[6.4977,12.6509],[6.4173,12.64],[6.4199,12.5671],[6.4048,12.5365],[6.3924,12.5022],[6.3984,12.5028],[6.4097,12.4989],[6.4133,12.5015],[6.4251,12.5031],[6.4486,12.4957],[6.4628,12.4637],[6.4919,12.4589],[6.5008,12.4465]]]}},{"type":"Feature","properties":{"name":"Maradun","state":"Zamfara","scode":"ZA","centroid":[12.7361,6.2685]},"geometry":{"type":"Polygon","coordinates":[[[6.1053,12.6729],[6.1049,12.6534],[6.1094,12.6387],[6.1271,12.6227],[6.1492,12.6162],[6.1706,12.6156],[6.1705,12.6027],[6.1483,12.595],[6.1455,12.5535],[6.1461,12.5452],[6.1411,12.5444],[6.1437,12.5403],[6.1448,12.5325],[6.1433,12.5151],[6.1408,12.5045],[6.1467,12.5042],[6.1481,12.4781],[6.1525,12.4762],[6.1526,12.4704],[6.1569,12.4685],[6.1589,12.463],[6.1576,12.4599],[6.1642,12.4538],[6.1645,12.4496],[6.1665,12.4485],[6.1675,12.4445],[6.1681,12.4345],[6.2076,12.4497],[6.2203,12.4502],[6.2386,12.4321],[6.2431,12.43],[6.2535,12.43],[6.2628,12.4199],[6.2716,12.4187],[6.2758,12.4232],[6.2839,12.423],[6.2857,12.418],[6.2834,12.4084],[6.29,12.403],[6.2955,12.4011],[6.3004,12.4042],[6.3101,12.401],[6.3131,12.3948],[6.3184,12.3948],[6.3213,12.3992],[6.3289,12.4017],[6.3393,12.4012],[6.3606,12.3927],[6.3636,12.3861],[6.3677,12.3825],[6.3798,12.3779],[6.3813,12.3821],[6.3987,12.3723],[6.3974,12.3546],[6.4086,12.3573],[6.4127,12.3546],[6.4154,12.355],[6.4177,12.3559],[6.4201,12.3594],[6.4253,12.362],[6.4448,12.3671],[6.4493,12.3895],[6.4571,12.4101],[6.4677,12.4128],[6.4707,12.412],[6.4804,12.4292],[6.495,12.4305],[6.5008,12.4465],[6.4919,12.4589],[6.4628,12.4637],[6.4486,12.4957],[6.4251,12.5031],[6.4133,12.5015],[6.4097,12.4989],[6.3984,12.5028],[6.3924,12.5022],[6.4048,12.5365],[6.4199,12.5671],[6.4173,12.64],[6.4977,12.6509],[6.5242,12.6535],[6.5317,12.652],[6.5307,12.6554],[6.5326,12.6593],[6.5409,12.6667],[6.5426,12.6703],[6.5422,12.6736],[6.5396,12.6762],[6.55,12.678],[6.5625,12.7212],[6.5642,12.7319],[6.5674,12.739],[6.5388,12.7496],[6.5189,12.7454],[6.5146,12.754],[6.4993,12.7607],[6.4936,12.759],[6.5012,12.7523],[6.4969,12.7495],[6.4921,12.7491],[6.4814,12.7548],[6.4776,12.7538],[6.4754,12.7515],[6.4756,12.7451],[6.4735,12.7428],[6.4701,12.7411],[6.4666,12.7421],[6.4636,12.7381],[6.4597,12.7383],[6.4462,12.7265],[6.429,12.7228],[6.421,12.7181],[6.3904,12.72],[6.3751,12.7231],[6.3779,12.7318],[6.3772,12.7347],[6.38,12.7392],[6.3799,12.7426],[6.3836,12.7452],[6.3839,12.7506],[6.3876,12.7516],[6.3941,12.7583],[6.3996,12.7606],[6.3991,12.763],[6.4087,12.7661],[6.4104,12.7698],[6.4147,12.77],[6.4209,12.7765],[6.4315,12.7824],[6.4635,12.7823],[6.4858,12.7852],[6.4887,12.787],[6.4876,12.7959],[6.4827,12.8026],[6.4857,12.8172],[6.4834,12.8209],[6.4735,12.8258],[6.4702,12.8297],[6.4703,12.8366],[6.4683,12.8446],[6.4585,12.8532],[6.455,12.8547],[6.4555,12.8682],[6.4377,12.8692],[6.4303,12.8321],[6.4044,12.8323],[6.3742,12.8707],[6.3422,12.9024],[6.3483,12.9073],[6.357,12.9113],[6.3834,12.9174],[6.3967,12.9238],[6.4228,12.9265],[6.4231,12.9393],[6.4207,12.947],[6.405,12.9477],[6.3979,12.9432],[6.3958,12.9434],[6.3813,12.953],[6.3703,12.9544],[6.3645,12.9774],[6.455,12.998],[6.4371,13.0286],[6.4364,13.033],[6.3998,13.0307],[6.3744,13.0258],[6.351,13.0178],[6.3107,13.0183],[6.246,13.0146],[6.2196,13.0152],[6.2106,13.018],[6.2024,13.0286],[6.1444,13.079],[6.102,13.0598],[6.0469,13.0312],[6.0547,13.0033],[6.0572,12.9855],[6.0554,12.9667],[6.0487,12.9483],[6.0439,12.938],[6.0058,12.9191],[6.0093,12.8798],[6.0302,12.7953],[6.0341,12.7841],[6.1,12.7797],[6.0995,12.762],[6.1016,12.7508],[6.0909,12.707],[6.0947,12.6941],[6.1054,12.6874],[6.1053,12.6729]]]}},{"type":"Feature","properties":{"name":"Maru","state":"Zamfara","scode":"ZA","centroid":[11.531,6.3627]},"geometry":{"type":"Polygon","coordinates":[[[6.2834,12.4084],[6.2704,12.4011],[6.2665,12.3942],[6.267,12.3909],[6.2637,12.3896],[6.2644,12.3879],[6.2611,12.3828],[6.2615,12.3793],[6.2589,12.3788],[6.2577,12.3745],[6.2557,12.3736],[6.2518,12.3679],[6.253,12.3678],[6.2524,12.3666],[6.2489,12.3669],[6.2439,12.3626],[6.2405,12.3529],[6.2389,12.3213],[6.2291,12.3163],[6.207,12.2992],[6.2112,12.2913],[6.192,12.2561],[6.1865,12.2413],[6.1687,12.2069],[6.1816,12.2016],[6.1751,12.1877],[6.1634,12.1938],[6.1467,12.1794],[6.1344,12.1642],[6.1144,12.1323],[6.1218,12.1252],[6.1345,12.1204],[6.1443,12.1114],[6.1602,12.1088],[6.1707,12.1004],[6.1729,12.0929],[6.1662,12.0868],[6.1638,12.0811],[6.161,12.0772],[6.1594,12.0772],[6.1585,12.0736],[6.1584,12.0505],[6.1697,12.0491],[6.1784,12.055],[6.1836,12.0512],[6.1845,12.0479],[6.1819,12.0428],[6.1873,12.0334],[6.1834,12.0314],[6.1873,12.0263],[6.1872,12.0227],[6.189,12.0192],[6.1982,12.0151],[6.1992,12.0057],[6.2077,12.0044],[6.2121,11.9989],[6.2121,11.9856],[6.2147,11.9809],[6.2126,11.962],[6.2141,11.953],[6.2154,11.95],[6.2198,11.9484],[6.2212,11.9447],[6.2302,11.9393],[6.2331,11.9277],[6.2313,11.9242],[6.2315,11.9206],[6.2408,11.9028],[6.2479,11.8981],[6.25,11.8909],[6.2588,11.8889],[6.265,11.8798],[6.2748,11.8832],[6.2783,11.8874],[6.295,11.8852],[6.2991,11.8808],[6.3055,11.8801],[6.3098,11.8729],[6.3165,11.8694],[6.321,11.8629],[6.3235,11.8616],[6.329,11.8491],[6.2762,11.8291],[6.2836,11.7818],[6.2735,11.7642],[6.2667,11.7465],[6.2496,11.7167],[6.2443,11.6894],[6.2576,11.6557],[6.2539,11.6549],[6.254,11.6508],[6.2497,11.6527],[6.2474,11.6556],[6.2432,11.6492],[6.2311,11.6496],[6.2286,11.645],[6.2283,11.6403],[6.225,11.6398],[6.2225,11.6446],[6.2206,11.6441],[6.2161,11.6409],[6.2134,11.6342],[6.2085,11.6388],[6.206,11.6381],[6.2025,11.6409],[6.1965,11.6407],[6.1953,11.6423],[6.1853,11.6408],[6.1798,11.6422],[6.1751,11.6396],[6.1749,11.6366],[6.168,11.632],[6.1675,11.6292],[6.1624,11.6217],[6.1625,11.6146],[6.1568,11.6117],[6.155,11.613],[6.1451,11.614],[6.1455,11.6167],[6.1398,11.6186],[6.1384,11.6206],[6.1379,11.6239],[6.1399,11.6253],[6.1386,11.6256],[6.1385,11.6279],[6.1359,11.6268],[6.1366,11.6291],[6.1339,11.631],[6.1314,11.6303],[6.1309,11.6276],[6.1279,11.6268],[6.1283,11.6293],[6.1245,11.633],[6.1251,11.6347],[6.1229,11.6352],[6.1237,11.6372],[6.1222,11.6384],[6.1207,11.6377],[6.121,11.6406],[6.1181,11.6418],[6.1184,11.6431],[6.1168,11.6418],[6.1156,11.6443],[6.1133,11.6439],[6.1124,11.6418],[6.1146,11.6384],[6.1137,11.6355],[6.1042,11.6356],[6.1016,11.6384],[6.1037,11.6415],[6.1024,11.6429],[6.1038,11.6436],[6.1042,11.649],[6.1015,11.6513],[6.0966,11.6482],[6.0844,11.6534],[6.0827,11.6515],[6.0761,11.6506],[6.0692,11.6547],[6.068,11.6571],[6.0659,11.6567],[6.0607,11.666],[6.0605,11.6689],[6.0587,11.6696],[6.059,11.6715],[6.0577,11.6723],[6.0521,11.6719],[6.0429,11.6644],[6.042,11.6652],[6.0352,11.6628],[6.0274,11.6646],[6.0198,11.6624],[6.0139,11.6663],[6.0153,11.6727],[6.0109,11.6722],[6.0104,11.6662],[6.0057,11.6691],[6.0006,11.6661],[5.9966,11.6698],[5.9916,11.6718],[5.9895,11.6644],[5.9852,11.6586],[5.983,11.6585],[5.9838,11.6574],[5.9798,11.6534],[5.9841,11.6462],[5.9852,11.6409],[5.9833,11.6405],[5.9806,11.643],[5.9786,11.6427],[5.9729,11.6339],[5.9632,11.64],[5.9578,11.6404],[5.9526,11.6365],[5.94,11.6429],[5.932,11.6421],[5.9261,11.6392],[5.9172,11.6389],[5.9129,11.6357],[5.9056,11.6326],[5.904,11.6336],[5.9011,11.631],[5.8988,11.6308],[5.896,11.6225],[5.8808,11.6148],[5.8707,11.6178],[5.8707,11.62],[5.8758,11.625],[5.8753,11.6269],[5.8722,11.6271],[5.8704,11.6286],[5.8701,11.6322],[5.8657,11.6334],[5.8561,11.6408],[5.833,11.6485],[5.8195,11.6484],[5.8223,11.6343],[5.8288,11.6248],[5.8299,11.5944],[5.8266,11.5861],[5.8261,11.5792],[5.82,11.5747],[5.8214,11.5663],[5.8172,11.5601],[5.8179,11.5571],[5.816,11.5532],[5.8173,11.5477],[5.8159,11.5424],[5.8172,11.5368],[5.8164,11.5155],[5.8246,11.4985],[5.8237,11.4567],[5.8268,11.4443],[5.8355,11.4354],[5.8442,11.4328],[5.8761,11.4396],[5.8906,11.4405],[5.9338,11.4366],[5.9366,11.4438],[5.9463,11.4495],[5.9612,11.4541],[5.968,11.4669],[6.0095,11.4626],[6.0257,11.4449],[6.0301,11.4436],[6.0388,11.4207],[6.0529,11.4015],[6.0796,11.3884],[6.0923,11.3863],[6.1543,11.383],[6.1776,11.384],[6.2009,11.39],[6.2044,11.3837],[6.1747,11.3594],[6.1906,11.3341],[6.1731,11.3179],[6.1478,11.3056],[6.1357,11.2954],[6.1087,11.2384],[6.1091,11.2354],[6.1165,11.2239],[6.1172,11.2074],[6.1059,11.1833],[6.0957,11.1769],[6.0763,11.1687],[6.0693,11.1642],[6.0468,11.1626],[6.0547,11.2016],[6.0659,11.2102],[6.0699,11.2271],[6.0591,11.2298],[6.0552,11.2178],[6.0485,11.2097],[6.0324,11.1813],[6.0253,11.1717],[6.0159,11.138],[6.014,11.1297],[6.0167,11.1183],[6.0263,11.101],[6.0327,11.0753],[6.0399,11.0665],[6.0464,11.0544],[6.066,11.055],[6.1127,11.0613],[6.12,11.0597],[6.1275,11.0539],[6.1626,11.043],[6.1961,11.0177],[6.2083,11.0048],[6.2235,10.9965],[6.2423,10.9886],[6.2665,10.9661],[6.2802,10.9636],[6.2831,10.9684],[6.2832,10.9746],[6.287,10.9752],[6.2875,10.9794],[6.2927,10.9853],[6.2964,10.9926],[6.3014,10.9941],[6.3009,10.9991],[6.3131,11.0104],[6.3201,11.0102],[6.3222,11.0117],[6.3243,11.0177],[6.3274,11.0196],[6.3262,11.0227],[6.322,11.0214],[6.3224,11.0241],[6.3286,11.0271],[6.3347,11.0247],[6.3383,11.021],[6.3409,11.0211],[6.3442,11.0242],[6.3468,11.0222],[6.3538,11.0223],[6.3648,11.0177],[6.3718,11.0247],[6.3749,11.031],[6.3783,11.0305],[6.3825,11.0326],[6.3865,11.0322],[6.3916,11.0338],[6.3956,11.0318],[6.4037,11.0329],[6.4069,11.0289],[6.4113,11.0311],[6.419,11.0277],[6.4216,11.0178],[6.4263,11.0127],[6.4271,11.0095],[6.4318,11.0075],[6.437,11.0076],[6.4582,11.0159],[6.4791,11.0295],[6.4886,11.0327],[6.5108,11.0437],[6.5334,11.0479],[6.5516,11.0418],[6.5722,11.0245],[6.572,11.0221],[6.5773,11.0216],[6.5781,11.0253],[6.5846,11.0239],[6.5859,11.025],[6.5876,11.0309],[6.5988,11.0413],[6.5998,11.0447],[6.6032,11.046],[6.6227,11.047],[6.6242,11.0491],[6.6272,11.0481],[6.643,11.0506],[6.6442,11.0488],[6.6464,11.0493],[6.6565,11.052],[6.6608,11.0558],[6.662,11.0547],[6.6638,11.0556],[6.6638,11.0615],[6.6686,11.0628],[6.6753,11.0564],[6.6768,11.0573],[6.683,11.065],[6.6811,11.0811],[6.6874,11.0917],[6.696,11.0936],[6.7009,11.0966],[6.707,11.0943],[6.716,11.1062],[6.7142,11.111],[6.6986,11.114],[6.6909,11.1209],[6.6882,11.1279],[6.685,11.1515],[6.6861,11.1794],[6.6891,11.2036],[6.6928,11.2163],[6.7034,11.239],[6.7112,11.2492],[6.7305,11.2582],[6.7584,11.2634],[6.7606,11.2671],[6.7643,11.2673],[6.7668,11.2722],[6.7665,11.2969],[6.7679,11.3082],[6.7706,11.3201],[6.774,11.3224],[6.7871,11.3198],[6.8153,11.3081],[6.8195,11.3084],[6.8225,11.3107],[6.8251,11.308],[6.8295,11.3072],[6.8357,11.31],[6.8362,11.3161],[6.8399,11.3189],[6.8353,11.3288],[6.8334,11.3374],[6.8329,11.352],[6.8445,11.3604],[6.8779,11.3662],[6.8894,11.3836],[6.8869,11.3962],[6.8869,11.4312],[6.9008,11.4588],[6.9073,11.4751],[6.9011,11.4918],[6.8959,11.5052],[6.9073,11.5296],[6.904,11.5532],[6.8761,11.5744],[6.8674,11.5776],[6.8568,11.589],[6.8544,11.5952],[6.8505,11.5878],[6.8331,11.5642],[6.8248,11.5461],[6.8109,11.542],[6.7921,11.542],[6.7755,11.5503],[6.7581,11.5683],[6.7407,11.5746],[6.7137,11.594],[6.6792,11.5779],[6.6569,11.571],[6.6429,11.5683],[6.6279,11.5731],[6.6079,11.5757],[6.5962,11.5695],[6.5846,11.5668],[6.5633,11.5648],[6.5382,11.5744],[6.5334,11.5791],[6.5286,11.5798],[6.5239,11.5895],[6.4971,11.5918],[6.4934,11.5811],[6.4993,11.569],[6.4613,11.5711],[6.4614,11.5782],[6.4576,11.6014],[6.4504,11.6142],[6.446,11.6283],[6.439,11.6376],[6.4277,11.6641],[6.4271,11.6673],[6.4301,11.687],[6.4286,11.6899],[6.4206,11.6963],[6.4195,11.7116],[6.4212,11.7187],[6.4198,11.7218],[6.4103,11.726],[6.4073,11.7292],[6.4023,11.7402],[6.4027,11.7839],[6.4037,11.8054],[6.4222,11.8101],[6.4312,11.8139],[6.4373,11.8201],[6.4566,11.8506],[6.4811,11.8693],[6.504,11.8935],[6.4892,11.9098],[6.4873,11.9154],[6.4874,11.9205],[6.4814,11.9345],[6.4824,11.9465],[6.4786,11.9535],[6.4668,11.9627],[6.4623,11.9712],[6.4564,11.9893],[6.4573,12.018],[6.4347,12.0189],[6.4115,12.0232],[6.3996,12.0277],[6.393,12.0281],[6.3548,12.0392],[6.3605,12.0447],[6.3616,12.0492],[6.3652,12.0499],[6.381,12.0673],[6.3728,12.0713],[6.3765,12.0882],[6.3665,12.0902],[6.3848,12.1528],[6.3967,12.1586],[6.3984,12.1631],[6.4046,12.1703],[6.4178,12.1773],[6.4378,12.1826],[6.4366,12.2007],[6.4328,12.2084],[6.4297,12.2212],[6.4296,12.2241],[6.4318,12.2258],[6.4335,12.2307],[6.431,12.2368],[6.4348,12.239],[6.4341,12.2481],[6.4318,12.2526],[6.4456,12.2612],[6.4413,12.2901],[6.4425,12.3145],[6.4388,12.3153],[6.4366,12.3188],[6.4462,12.3248],[6.4554,12.3424],[6.4553,12.3536],[6.4494,12.3552],[6.4448,12.3671],[6.4253,12.362],[6.4201,12.3594],[6.4177,12.3559],[6.4154,12.355],[6.4127,12.3546],[6.4086,12.3573],[6.3974,12.3546],[6.3987,12.3723],[6.3813,12.3821],[6.3798,12.3779],[6.3677,12.3825],[6.3636,12.3861],[6.3606,12.3927],[6.3393,12.4012],[6.3289,12.4017],[6.3213,12.3992],[6.3184,12.3948],[6.3131,12.3948],[6.3101,12.401],[6.3004,12.4042],[6.2955,12.4011],[6.29,12.403],[6.2834,12.4084]]]}},{"type":"Feature","properties":{"name":"Shinkafi","state":"Zamfara","scode":"ZA","centroid":[13.0332,6.4517]},"geometry":{"type":"Polygon","coordinates":[[[6.405,12.9477],[6.4033,12.953],[6.404,12.9607],[6.4164,12.9611],[6.4217,12.9594],[6.4292,12.9648],[6.4371,12.9646],[6.4382,12.9567],[6.4402,12.9536],[6.4433,12.9516],[6.4515,12.9511],[6.4595,12.9448],[6.4635,12.9359],[6.4647,12.9249],[6.4721,12.927],[6.4836,12.9252],[6.486,12.9235],[6.4973,12.9263],[6.5272,12.9167],[6.5328,12.9111],[6.5625,12.8904],[6.5847,12.8993],[6.5897,12.9047],[6.6007,12.9039],[6.6131,12.9075],[6.6335,12.9176],[6.6422,12.918],[6.6492,12.9207],[6.6563,12.9189],[6.6604,12.9161],[6.6648,12.9164],[6.6689,12.9148],[6.6708,12.9121],[6.6761,12.9119],[6.6945,12.9284],[6.7352,12.93],[6.7474,12.9353],[6.7395,12.9781],[6.7366,13.0057],[6.716,13.0141],[6.6754,13.0205],[6.6688,13.0263],[6.6547,13.0344],[6.6068,13.0466],[6.5813,13.0225],[6.574,13.0254],[6.5603,13.0277],[6.5513,13.0325],[6.5429,13.0442],[6.5289,13.0529],[6.5219,13.0666],[6.5194,13.0769],[6.5251,13.0811],[6.5268,13.0852],[6.52,13.0897],[6.5187,13.0934],[6.523,13.1019],[6.522,13.1082],[6.5193,13.1129],[6.5205,13.1218],[6.516,13.1241],[6.5087,13.1315],[6.4818,13.1208],[6.4628,13.1169],[6.4524,13.1169],[6.4504,13.1221],[6.4523,13.1257],[6.4539,13.1262],[6.4556,13.1237],[6.4609,13.1246],[6.4662,13.1306],[6.4634,13.1363],[6.4592,13.1389],[6.453,13.1388],[6.4508,13.1409],[6.4503,13.1462],[6.4531,13.1543],[6.4532,13.1572],[6.4518,13.1581],[6.4488,13.1584],[6.4371,13.1534],[6.4126,13.138],[6.4026,13.1291],[6.3917,13.1298],[6.359,13.1371],[6.3621,13.144],[6.3693,13.149],[6.3559,13.1641],[6.3479,13.1573],[6.3273,13.1796],[6.3,13.1825],[6.2583,13.1603],[6.2611,13.1358],[6.2294,13.1355],[6.1909,13.1008],[6.1444,13.079],[6.2024,13.0286],[6.2106,13.018],[6.2196,13.0152],[6.246,13.0146],[6.3107,13.0183],[6.351,13.0178],[6.3744,13.0258],[6.3998,13.0307],[6.4364,13.033],[6.4371,13.0286],[6.455,12.998],[6.3645,12.9774],[6.3703,12.9544],[6.3813,12.953],[6.3958,12.9434],[6.3979,12.9432],[6.405,12.9477]]]}},{"type":"Feature","properties":{"name":"Talata Mafara","state":"Zamfara","scode":"ZA","centroid":[12.3622,6.0572]},"geometry":{"type":"Polygon","coordinates":[[[5.8863,12.3139],[5.8899,12.2692],[5.8891,12.2638],[5.8925,12.2489],[5.8961,12.2097],[5.9083,12.1864],[5.9097,12.1412],[5.9295,12.138],[5.9307,12.1398],[5.9385,12.1343],[5.9442,12.1278],[5.9482,12.1271],[5.9473,12.1404],[5.9592,12.1421],[5.9589,12.1564],[5.999,12.1541],[6.0139,12.1756],[6.0497,12.138],[6.0535,12.1289],[6.0542,12.1211],[6.0948,12.1216],[6.1144,12.1323],[6.1344,12.1642],[6.1467,12.1794],[6.1634,12.1938],[6.1751,12.1877],[6.1816,12.2016],[6.1687,12.2069],[6.1865,12.2413],[6.192,12.2561],[6.2112,12.2913],[6.207,12.2992],[6.2291,12.3163],[6.2389,12.3213],[6.2405,12.3529],[6.2439,12.3626],[6.2489,12.3669],[6.2524,12.3666],[6.253,12.3678],[6.2518,12.3679],[6.2557,12.3736],[6.2577,12.3745],[6.2589,12.3788],[6.2615,12.3793],[6.2611,12.3828],[6.2644,12.3879],[6.2637,12.3896],[6.267,12.3909],[6.2665,12.3942],[6.2704,12.4011],[6.2834,12.4084],[6.2857,12.418],[6.2839,12.423],[6.2758,12.4232],[6.2716,12.4187],[6.2628,12.4199],[6.2535,12.43],[6.2431,12.43],[6.2386,12.4321],[6.2203,12.4502],[6.2076,12.4497],[6.1681,12.4345],[6.1675,12.4445],[6.1665,12.4485],[6.1645,12.4496],[6.1642,12.4538],[6.1576,12.4599],[6.1589,12.463],[6.1569,12.4685],[6.1526,12.4704],[6.1525,12.4762],[6.1481,12.4781],[6.1467,12.5042],[6.1408,12.5045],[6.1433,12.5151],[6.1448,12.5325],[6.1437,12.5403],[6.1411,12.5444],[6.1461,12.5452],[6.1455,12.5535],[6.1483,12.595],[6.1705,12.6027],[6.1706,12.6156],[6.1492,12.6162],[6.1271,12.6227],[6.1094,12.6387],[6.1049,12.6534],[6.1053,12.6729],[6.0943,12.6687],[6.0956,12.6526],[6.0812,12.6462],[6.0636,12.6424],[6.0577,12.6301],[6.0568,12.6258],[6.0608,12.6245],[6.0577,12.6156],[6.0322,12.6105],[6.0265,12.5979],[6.0216,12.5941],[6.0206,12.5909],[6.0175,12.593],[6.0149,12.5921],[6.0109,12.5976],[6.0068,12.5975],[6.0077,12.5917],[6.0119,12.5858],[6.0088,12.5819],[5.9996,12.554],[5.9804,12.5464],[5.9722,12.5307],[5.9489,12.5123],[5.9473,12.5084],[5.9433,12.4688],[5.9224,12.4616],[5.9131,12.4516],[5.9031,12.448],[5.9015,12.4246],[5.8914,12.3844],[5.8779,12.362],[5.8762,12.3553],[5.8991,12.3211],[5.8863,12.3139]]]}},{"type":"Feature","properties":{"name":"Tsafe","state":"Zamfara","scode":"ZA","centroid":[11.8769,6.9122]},"geometry":{"type":"Polygon","coordinates":[[[7.1172,12.094],[7.1,12.0932],[7.086,12.0865],[7.0764,12.0863],[7.0726,12.0848],[7.0586,12.0877],[7.0553,12.0867],[7.0429,12.089],[7.041,12.0905],[7.0346,12.0903],[7.0002,12.0969],[6.9966,12.0909],[6.9668,12.0667],[6.9654,12.0685],[6.9574,12.0699],[6.955,12.0772],[6.9505,12.0804],[6.9337,12.0794],[6.923,12.0812],[6.9175,12.0893],[6.9149,12.0901],[6.9111,12.0872],[6.8858,12.1052],[6.8697,12.0946],[6.878,12.0789],[6.8623,12.0764],[6.8594,12.0836],[6.8269,12.0774],[6.8187,12.0514],[6.8156,12.0465],[6.8109,12.0218],[6.8122,12.0175],[6.8054,12.0028],[6.7968,12.0013],[6.7914,11.9973],[6.7797,12.0011],[6.7779,11.9965],[6.7794,11.9945],[6.7878,11.9944],[6.7854,11.9851],[6.7792,11.9861],[6.7748,11.9883],[6.7724,11.9924],[6.7687,11.9947],[6.7683,11.9974],[6.7703,12.0009],[6.7687,12.0029],[6.7587,12.0023],[6.7564,12.0035],[6.7523,12.0002],[6.7453,11.9996],[6.7398,11.9497],[6.7276,11.9343],[6.7065,11.9188],[6.6648,11.8954],[6.6761,11.8768],[6.6844,11.855],[6.704,11.8264],[6.695,11.7755],[6.6819,11.7147],[6.7043,11.6942],[6.7226,11.6715],[6.7257,11.6342],[6.7137,11.594],[6.7407,11.5746],[6.7581,11.5683],[6.7755,11.5503],[6.7921,11.542],[6.8109,11.542],[6.8248,11.5461],[6.8331,11.5642],[6.8505,11.5878],[6.8544,11.5952],[6.852,11.6207],[6.8552,11.6419],[6.8658,11.663],[6.869,11.6785],[6.8812,11.7056],[6.8808,11.7109],[6.884,11.7168],[6.8855,11.7354],[6.884,11.7447],[6.8858,11.7523],[6.8831,11.7554],[6.8825,11.7584],[6.8862,11.7613],[6.892,11.7762],[6.8913,11.7791],[6.8954,11.7834],[6.8961,11.7875],[6.9022,11.789],[6.9004,11.7939],[6.9022,11.7989],[6.9099,11.7858],[6.9174,11.7859],[6.9225,11.7874],[6.9286,11.7929],[6.9333,11.7934],[6.9344,11.7949],[6.9435,11.7977],[6.947,11.8036],[6.9527,11.8003],[6.9636,11.8044],[6.9734,11.8032],[6.9771,11.8091],[6.9777,11.8081],[6.9821,11.8094],[6.9857,11.8124],[6.9878,11.8102],[6.9909,11.8108],[6.9922,11.8127],[6.9937,11.811],[6.9988,11.8106],[7.0173,11.8156],[7.0214,11.8111],[7.0373,11.8009],[7.0426,11.7904],[7.0497,11.7885],[7.06,11.7899],[7.0626,11.8045],[7.0724,11.8086],[7.0748,11.8175],[7.1008,11.8205],[7.1418,11.8493],[7.1462,11.8659],[7.1471,11.881],[7.1447,11.8873],[7.1408,11.9113],[7.1458,11.9124],[7.165,11.909],[7.1714,11.9106],[7.1825,11.9095],[7.1916,11.9068],[7.191,11.9037],[7.1931,11.9007],[7.1998,11.9005],[7.206,11.9069],[7.2053,11.9085],[7.2171,11.9129],[7.2264,11.9135],[7.2466,11.9326],[7.2438,11.9389],[7.2379,11.9455],[7.2255,11.9522],[7.2235,11.9518],[7.2223,11.9496],[7.2203,11.9498],[7.2205,11.9609],[7.2111,11.9642],[7.2095,11.9759],[7.2119,11.9797],[7.2108,11.9855],[7.2082,11.988],[7.1988,11.9902],[7.1973,11.9926],[7.1969,11.9984],[7.1954,11.9994],[7.192,12.0015],[7.186,12.002],[7.1804,12.0079],[7.1765,12.0084],[7.1716,12.0143],[7.1705,12.0203],[7.16,12.022],[7.1539,12.0256],[7.1533,12.0296],[7.1487,12.033],[7.1503,12.0418],[7.1473,12.0475],[7.1435,12.064],[7.1414,12.0651],[7.1376,12.0619],[7.1317,12.0649],[7.1303,12.0684],[7.1366,12.0779],[7.1364,12.0856],[7.1333,12.0903],[7.1172,12.094]]]}},{"type":"Feature","properties":{"name":"Zurmi","state":"Zamfara","scode":"ZA","centroid":[12.8455,6.7668]},"geometry":{"type":"Polygon","coordinates":[[[6.55,12.678],[6.5598,12.6788],[6.6023,12.6722],[6.6368,12.6633],[6.6675,12.6496],[6.6889,12.6429],[6.7042,12.6424],[6.7097,12.6438],[6.7273,12.6264],[6.7484,12.6367],[6.7532,12.6369],[6.7629,12.6206],[6.759,12.6106],[6.747,12.5992],[6.7432,12.5871],[6.7507,12.5798],[6.7576,12.5821],[6.7615,12.5882],[6.7824,12.5891],[6.7817,12.6093],[6.7835,12.6196],[6.7902,12.6253],[6.7976,12.6262],[6.8009,12.6318],[6.8115,12.6376],[6.8167,12.6428],[6.8248,12.6444],[6.8301,12.6426],[6.833,12.6445],[6.8501,12.6423],[6.87,12.6427],[6.989,12.6734],[7.043,12.7196],[7.0607,12.7398],[7.0604,12.7617],[7.0664,12.7996],[7.0665,12.8106],[7.0561,12.8233],[7.0686,12.8322],[7.0633,12.8381],[7.0629,12.8436],[7.0649,12.8595],[7.065,12.8772],[7.0664,12.8817],[7.0651,12.8857],[7.0662,12.8925],[7.0639,12.9031],[7.0656,12.9075],[7.0645,12.9102],[7.0654,12.9126],[7.0614,12.9128],[7.0621,12.9191],[7.0603,12.9183],[7.0551,12.9304],[7.0492,12.9347],[7.0502,12.9374],[7.052,12.9382],[7.0509,12.9417],[7.0522,12.9433],[7.0562,12.9439],[7.0579,12.9499],[7.0598,12.9511],[7.0566,12.9555],[7.0493,12.9612],[7.0487,12.9687],[7.0502,12.9703],[7.0505,12.9814],[7.049,12.9868],[7.0517,12.9896],[7.0513,12.9955],[6.9333,12.9972],[6.8064,13.1081],[6.7928,13.1323],[6.7435,13.1185],[6.6877,13.1329],[6.6856,13.1277],[6.6832,13.1072],[6.6572,13.0928],[6.6068,13.0466],[6.6547,13.0344],[6.6688,13.0263],[6.6754,13.0205],[6.716,13.0141],[6.7366,13.0057],[6.7395,12.9781],[6.7474,12.9353],[6.7352,12.93],[6.6945,12.9284],[6.6761,12.9119],[6.6708,12.9121],[6.6689,12.9148],[6.6648,12.9164],[6.6604,12.9161],[6.6563,12.9189],[6.6492,12.9207],[6.6422,12.918],[6.6335,12.9176],[6.6131,12.9075],[6.6007,12.9039],[6.5897,12.9047],[6.5847,12.8993],[6.5625,12.8904],[6.5328,12.9111],[6.5272,12.9167],[6.4973,12.9263],[6.486,12.9235],[6.4836,12.9252],[6.4721,12.927],[6.4647,12.9249],[6.4635,12.9359],[6.4595,12.9448],[6.4515,12.9511],[6.4433,12.9516],[6.4402,12.9536],[6.4382,12.9567],[6.4371,12.9646],[6.4292,12.9648],[6.4217,12.9594],[6.4164,12.9611],[6.404,12.9607],[6.4033,12.953],[6.405,12.9477],[6.4207,12.947],[6.4231,12.9393],[6.4228,12.9265],[6.3967,12.9238],[6.3834,12.9174],[6.357,12.9113],[6.3483,12.9073],[6.3422,12.9024],[6.3742,12.8707],[6.4044,12.8323],[6.4303,12.8321],[6.4377,12.8692],[6.4555,12.8682],[6.455,12.8547],[6.4585,12.8532],[6.4683,12.8446],[6.4703,12.8366],[6.4702,12.8297],[6.4735,12.8258],[6.4834,12.8209],[6.4857,12.8172],[6.4827,12.8026],[6.4876,12.7959],[6.4887,12.787],[6.4858,12.7852],[6.4635,12.7823],[6.4315,12.7824],[6.4209,12.7765],[6.4147,12.77],[6.4104,12.7698],[6.4087,12.7661],[6.3991,12.763],[6.3996,12.7606],[6.3941,12.7583],[6.3876,12.7516],[6.3839,12.7506],[6.3836,12.7452],[6.3799,12.7426],[6.38,12.7392],[6.3772,12.7347],[6.3779,12.7318],[6.3751,12.7231],[6.3904,12.72],[6.421,12.7181],[6.429,12.7228],[6.4462,12.7265],[6.4597,12.7383],[6.4636,12.7381],[6.4666,12.7421],[6.4701,12.7411],[6.4735,12.7428],[6.4756,12.7451],[6.4754,12.7515],[6.4776,12.7538],[6.4814,12.7548],[6.4921,12.7491],[6.4969,12.7495],[6.5012,12.7523],[6.4936,12.759],[6.4993,12.7607],[6.5146,12.754],[6.5189,12.7454],[6.5388,12.7496],[6.5674,12.739],[6.5642,12.7319],[6.5625,12.7212],[6.55,12.678]]]}}]}